{"type":"FeatureCollection","features":[{"type":"Feature","id":1666046,"geometry":{"type":"Polygon","coordinates":[[[-51.750954651762562,-29.137380791115589],[-51.751013368344474,-29.13720445932373],[-51.751495858873461,-29.137280789770887],[-51.751777699005643,-29.137303943666037],[-51.75177344817773,-29.137539929650721],[-51.750954651762562,-29.137380791115589]]]},"properties":{"objectid":1666046,"uf":"RS","munic":"SANTA TEREZA","cd_geocmu":"4317251","num_setor":"RS_SANTATE_SR_026_SGB","data_setor":null,"local":"Linha José Júlio (Cerbarro)","tipolo_g1":"Inundação","tipolo_e1":null,"cobrade_01":"1.2.1.0.0","tipolo_g2":null,"tipolo_e2":null,"cobrade_02":null,"tipolo_g3":null,"tipolo_e3":null,"cobrade_03":null,"tipolo_g4":null,"tipolo_e4":null,"cobrade_04":null,"tipolo_g5":null,"tipolo_e5":null,"cobrade_05":null,"descricao":"As chuvas de alta intensidade que ocorreram no mês de maio/24 no Rio Grande do Sul provocaram a elevação do nível do Rio Taquari, extravasando sua calha natural, atingindo duas residências (Fotos 1 a 6), próximas à margem esquerda a uma distância de aproximadamente 70 metros. Além deste evento de inundação, foram relatados mais dois anteriores para os anos de 2020 e 2023. Para o ano de 2024, a elevação do rio foi de aproximadamente 20 metros. Esta inundação gerou transtornos significativos para os moradores, causando danos materiais e afetando o cotidiano dos mesmos que tiveram que ser removidos temporariamente. As construções são em alvenaria.","obs_ocup":"","grau_vulne":"Alto","grau_risco":"Muito alto","num_edif":2,"num_domi":null,"num_pess":8,"sug_interv":"- Ampliação do sistema de alerta de eventos críticos da bacia do Rio Taquari para o município de Santa Tereza;\n- Evacuação preventiva na iminência de eventos;\n- Avaliação da influência de pontes no represamento da água durante eventos de cheia;\n- Ações de educação ambiental e percepção de risco junto à comunidade local;\n- Preservação de áreas verdes e reflorestamento das margens que foram erodidas para que sirvam no amortecimento da onda de cheia;\n","orgao_exec":"Serviço Geológico do Brasil","gestao_territorial_risco_risco_":null,"st_area(shape)":2299.6076765362182,"st_perimeter(shape)":232.95825340294266,"dt_atualizacao":1760914845000}},{"type":"Feature","id":1666049,"geometry":{"type":"Polygon","coordinates":[[[-51.720865592100751,-29.078936284912832],[-51.721031241439142,-29.078859886053721],[-51.721212410970701,-29.078742960274479],[-51.721418111696046,-29.078614696151831],[-51.721393131344627,-29.078534432073191],[-51.721466521906692,-29.078493576945437],[-51.721433173748409,-29.078375952022363],[-51.721637968073615,-29.078315150881977],[-51.721847624979461,-29.078263714243295],[-51.72187173396506,-29.078508547765967],[-51.72198677761024,-29.078493098827536],[-51.721997198067541,-29.078586651307656],[-51.722891201438294,-29.078483808108977],[-51.723167726238927,-29.078140174978262],[-51.724155140924509,-29.078750932026988],[-51.723908030559528,-29.079073537044515],[-51.723940581013842,-29.07924810783144],[-51.723572001354462,-29.079569584704316],[-51.723052655644302,-29.078750938307692],[-51.72163289079564,-29.078908306103202],[-51.720990685199013,-29.079067213205146],[-51.720865592100751,-29.078936284912832]]]},"properties":{"objectid":1666049,"uf":"RS","munic":"SANTA TEREZA","cd_geocmu":"4317251","num_setor":"RS_SANTATE_SR_021_SGB","data_setor":null,"local":"Linha José Júlio","tipolo_g1":"Inundação","tipolo_e1":null,"cobrade_01":"1.2.1.0.0","tipolo_g2":null,"tipolo_e2":null,"cobrade_02":null,"tipolo_g3":null,"tipolo_e3":null,"cobrade_03":null,"tipolo_g4":null,"tipolo_e4":null,"cobrade_04":null,"tipolo_g5":null,"tipolo_e5":null,"cobrade_05":null,"descricao":"As chuvas de alta intensidade que ocorreram no mês de maio/24 no Rio Grande do Sul provocaram a elevação do nível do Rio Taquari, extravasando sua calha natural, atingindo três residências (Fotos 1 e 2), a Capela Sagrado Coração de Jesus (Fotos 3 e 4), cemitério (Foto 5) e o Sindicato dos Trabalhadores nas Indústrias da Construção e do Mobiliário de Bento Gonçalves (SITRACOM BG – Sede Campestre) (Foto 6), próximas à margem esquerda a uma distância de aproximadamente 60 a 70 metros. Além deste evento de inundação, foram relatados mais dois anteriores para os anos de 2020 e 2023. Neste ponto o rio teve uma elevação de aproximadamente 20 metros. Esta inundação gerou transtornos significativos para os moradores, causando danos materiais e afetando o cotidiano dos mesmos que tiveram que ser removidos temporariamente. Todas as construções são em alvenaria.","obs_ocup":"","grau_vulne":"Alto","grau_risco":"Muito alto","num_edif":2,"num_domi":null,"num_pess":8,"sug_interv":"- Ampliação do sistema de alerta de eventos críticos da bacia do Rio Taquari para o município de Santa Tereza;\n- Evacuação preventiva na iminência de eventos;\n- Avaliação da influência de pontes no represamento da água durante eventos de cheia;\n- Ações de educação ambiental e percepção de risco junto à comunidade local;\n- Preservação de áreas verdes e reflorestamento das margens que foram erodidas para que sirvam no amortecimento da onda de cheia;\n- Desenvolvimento de políticas de controle de ocupação das áreas de preservação permanente (APPs) e de áreas de risco.\n","orgao_exec":"Serviço Geológico do Brasil","gestao_territorial_risco_risco_":null,"st_area(shape)":22627.698423308833,"st_perimeter(shape)":1007.3835449267368,"dt_atualizacao":1760914845000}},{"type":"Feature","id":1665930,"geometry":{"type":"Polygon","coordinates":[[[-51.718622462903703,-29.104376854126073],[-51.718810052694593,-29.104554464278227],[-51.718637340801429,-29.104668696845238],[-51.718727502909871,-29.104771524099569],[-51.718542266705022,-29.10489236437806],[-51.716750894874458,-29.105758354097073],[-51.71657441634531,-29.105473360986732],[-51.717006632659427,-29.105291740885484],[-51.717047496123392,-29.105375443870326],[-51.718335530222177,-29.104690746682962],[-51.718489965890861,-29.104588879265915],[-51.718432761173581,-29.104526456323445],[-51.718622462903703,-29.104376854126073]]]},"properties":{"objectid":1665930,"uf":"RS","munic":"SANTA TEREZA","cd_geocmu":"4317251","num_setor":"RS_SANTATE_SR_022_SGB","data_setor":null,"local":"Linha José Júlio (Marostica)","tipolo_g1":"Inundação","tipolo_e1":null,"cobrade_01":"1.2.1.0.0","tipolo_g2":null,"tipolo_e2":null,"cobrade_02":null,"tipolo_g3":null,"tipolo_e3":null,"cobrade_03":null,"tipolo_g4":null,"tipolo_e4":null,"cobrade_04":null,"tipolo_g5":null,"tipolo_e5":null,"cobrade_05":null,"descricao":"As chuvas de alta intensidade que ocorreram no mês de maio/24 no Rio Grande do Sul provocaram a elevação do nível do Rio Taquari, extravasando sua calha natural, atingindo duas residências (Fotos 1 a 6), próximas à margem esquerda a uma distância de aproximadamente 50 metros para a casa mais próxima ao rio (Fotos 1 a 3) e de 130 metros para a casa mais distante (Fotos 4 a 6). Além deste evento de inundação, foram relatados mais dois anteriores para os anos de 2020 e 2023. Neste ponto o rio teve uma elevação de aproximadamente 20 metros. Esta inundação gerou transtornos significativos para os moradores, causando danos materiais e afetando o cotidiano dos mesmos que tiveram que ser removidos temporariamente. Todas as construções são em alvenaria.","obs_ocup":"","grau_vulne":"Alto","grau_risco":"Muito alto","num_edif":1,"num_domi":null,"num_pess":4,"sug_interv":"- Ampliação do sistema de alerta de eventos críticos da bacia do Rio Taquari para o município de Santa Tereza;\n- Evacuação preventiva na iminência de eventos;\n- Avaliação da influência de pontes no represamento da água durante eventos de cheia;\n- Ações de educação ambiental e percepção de risco junto à comunidade local;\n- Preservação de áreas verdes e reflorestamento das margens que foram erodidas para que sirvam no amortecimento da onda de cheia;\n- Desenvolvimento de políticas de controle de ocupação das áreas de preservação permanente (APPs) e de áreas de risco.\n","orgao_exec":"Serviço Geológico do Brasil","gestao_territorial_risco_risco_":null,"st_area(shape)":8956.8443599053226,"st_perimeter(shape)":659.32522285387381,"dt_atualizacao":1760914845000}},{"type":"Feature","id":1665931,"geometry":{"type":"Polygon","coordinates":[[[-51.713556459672986,-29.108587633008781],[-51.713818652751598,-29.108313329672523],[-51.714089416656329,-29.108507866345178],[-51.713083255029083,-29.109573818154754],[-51.713198493608672,-29.109605588090222],[-51.713152607663972,-29.109776769943743],[-51.712789865257292,-29.109806170359992],[-51.712785558733827,-29.10960676065562],[-51.713556459672986,-29.108587633008781]]]},"properties":{"objectid":1665931,"uf":"RS","munic":"SANTA TEREZA","cd_geocmu":"4317251","num_setor":"RS_SANTATE_SR_023_SGB","data_setor":null,"local":"Linha José Júlio","tipolo_g1":"Inundação","tipolo_e1":null,"cobrade_01":"1.2.1.0.0","tipolo_g2":null,"tipolo_e2":null,"cobrade_02":null,"tipolo_g3":null,"tipolo_e3":null,"cobrade_03":null,"tipolo_g4":null,"tipolo_e4":null,"cobrade_04":null,"tipolo_g5":null,"tipolo_e5":null,"cobrade_05":null,"descricao":"As chuvas de alta intensidade que ocorreram no mês de maio/24 no Rio Grande do Sul provocaram a elevação do nível do Rio Taquari, extravasando sua calha natural, atingindo três residências (Fotos 1 a 6), onde uma foi completamente destruída (Foto 2), próximas à margem esquerda a uma distância de aproximadamente 70 metros para a casa mais distante (Fotos 1 e 2) e 40 metros para a casa mais próxima ao rio (Fotos 3 a 6). Além deste evento de inundação, foram relatados mais dois anteriores para os anos de 2020 e 2023, sendo este último apresentando uma elevação do nível do rio de 23,65 metros. Para o ano de 2024, a elevação do rio foi de aproximadamente 20 metros. Esta inundação gerou transtornos significativos para os moradores, causando danos materiais e afetando o cotidiano dos mesmos que tiveram que ser removidos temporariamente. Todas as construções são em alvenaria.","obs_ocup":"","grau_vulne":"Alto","grau_risco":"Muito alto","num_edif":4,"num_domi":null,"num_pess":16,"sug_interv":"- Ampliação do sistema de alerta de eventos críticos da bacia do Rio Taquari para o município de Santa Tereza;\n- Evacuação preventiva na iminência de eventos;\n- Avaliação da influência de pontes no represamento da água durante eventos de cheia;\n- Ações de educação ambiental e percepção de risco junto à comunidade local;\n- Preservação de áreas verdes e reflorestamento das margens que foram erodidas para que sirvam no amortecimento da onda de cheia;\n- Desenvolvimento de políticas de controle de ocupação das áreas de preservação permanente (APPs) e de áreas de risco.\n","orgao_exec":"Serviço Geológico do Brasil","gestao_territorial_risco_risco_":null,"st_area(shape)":7428.3759827518243,"st_perimeter(shape)":518.06362206506901,"dt_atualizacao":1760914845000}},{"type":"Feature","id":1665936,"geometry":{"type":"Polygon","coordinates":[[[-51.737066329160811,-29.167864441291218],[-51.735796221841838,-29.167835215928424],[-51.735802288164955,-29.167243280919191],[-51.736606294717276,-29.167313075314674],[-51.736617594625251,-29.167439580820165],[-51.736912136935537,-29.167473304090695],[-51.737336086952418,-29.167740746835523],[-51.737345904640158,-29.167913591307567],[-51.737440464001907,-29.167927741964643],[-51.737688775414419,-29.16794558010443],[-51.737686257436692,-29.168418555984033],[-51.737868117772699,-29.168425413999035],[-51.737898567067568,-29.169291693778554],[-51.737894314443004,-29.169379220347611],[-51.738566200376631,-29.169381079359837],[-51.738589641015636,-29.17026009971072],[-51.738863717907151,-29.170257727725556],[-51.738859775201355,-29.170458343039662],[-51.738207325217232,-29.170471333240503],[-51.738197383561996,-29.169807502144284],[-51.737757456109478,-29.16979738272742],[-51.737757580975305,-29.170428280691816],[-51.73701908316675,-29.170455817319588],[-51.737033062749198,-29.169376838145002],[-51.737156636796314,-29.169377180140508],[-51.737155547139871,-29.16930545126429],[-51.737140045811344,-29.168349268278977],[-51.737141277401591,-29.168283274230042],[-51.737085859433385,-29.168286323983878],[-51.737066329160811,-29.167864441291218]]]},"properties":{"objectid":1665936,"uf":"RS","munic":"SANTA TEREZA","cd_geocmu":"4317251","num_setor":"RS_SANTATE_SR_036_SGB","data_setor":null,"local":"Ruas Cesare Apiane/Virgílio Franceschini/Barão do Rio Branco/Helvecio Lisboa e Av. Itália","tipolo_g1":"Inundação","tipolo_e1":null,"cobrade_01":"1.2.1.0.0","tipolo_g2":null,"tipolo_e2":null,"cobrade_02":null,"tipolo_g3":null,"tipolo_e3":null,"cobrade_03":null,"tipolo_g4":null,"tipolo_e4":null,"cobrade_04":null,"tipolo_g5":null,"tipolo_e5":null,"cobrade_05":null,"descricao":"As chuvas de alta intensidade que ocorreram no mês de maio/24 no Rio Grande do Sul provocaram a elevação do nível do Rio Taquari, extravasando sua calha natural, atingindo várias casas, das quais ao menos doze foram afetadas diretamente, incluindo edificações residenciais, uma escola e a Casa Vicari Remus (Fotos 1 a 6). Os danos concentraram-se na margem esquerda do rio, especialmente nas proximidades da rua Cesare Apiane, entre as ruas Virgílio Franceschini, Barão do Rio Branco, Helvecio Lisboa e Avenida Itália, a distâncias que variam entre 60 e 500 metros do leito principal, bem como a aproximadamente 300 metros da foz do Arroio Marrecão, seu afluente. As construções atingidas, predominantemente em alvenaria e madeira, encontram-se em área de recorrente impacto, com registros de inundações nos anos de 2020, 2023 e, novamente, em 2024, quando o nível do rio subiu cerca de 20 metros. O evento gerou severos transtornos à população local, exigindo a remoção temporária dos moradores.","obs_ocup":"","grau_vulne":"Alto","grau_risco":"Muito alto","num_edif":40,"num_domi":null,"num_pess":160,"sug_interv":"- Ampliação do sistema de alerta de eventos críticos da bacia do Rio Taquari para o município de Santa Tereza;\n- Evacuação preventiva na iminência de eventos;\n- Avaliação da influência de pontes no represamento da água durante eventos de cheia;\n- Ações de educação ambiental e percepção de risco junto à comunidade local;\n- Preservação de áreas verdes e reflorestamento das margens que foram erodidas para que sirvam no amortecimento da onda de cheia; \n- Desenvolvimento de políticas de controle de ocupação das áreas de preservação permanente (APPs) e de áreas de risco.\n","orgao_exec":"Serviço Geológico do Brasil","gestao_territorial_risco_risco_":null,"st_area(shape)":44481.49975385642,"st_perimeter(shape)":1639.7865036218664,"dt_atualizacao":1760914845000}},{"type":"Feature","id":1665937,"geometry":{"type":"Polygon","coordinates":[[[-51.739637919256658,-29.168993582046294],[-51.739641206192296,-29.169140328369092],[-51.739975696583272,-29.169136709954063],[-51.740201812421745,-29.169319724879323],[-51.740057799006983,-29.169497161663713],[-51.739918392152987,-29.169402723122815],[-51.739841925759364,-29.16947483628347],[-51.739695341366257,-29.169372486330502],[-51.739553479416578,-29.169559902058797],[-51.739413448233464,-29.169559912255909],[-51.7394033942888,-29.169771228018803],[-51.739160355986996,-29.16977370277036],[-51.739112635682488,-29.16899200776292],[-51.739637919256658,-29.168993582046294]]]},"properties":{"objectid":1665937,"uf":"RS","munic":"SANTA TEREZA","cd_geocmu":"4317251","num_setor":"RS_SANTATE_SR_037_SGB","data_setor":null,"local":"Sede - Rua Barão do Rio Branco (cemitério)","tipolo_g1":"Inundação","tipolo_e1":null,"cobrade_01":"1.2.1.0.0","tipolo_g2":null,"tipolo_e2":null,"cobrade_02":null,"tipolo_g3":null,"tipolo_e3":null,"cobrade_03":null,"tipolo_g4":null,"tipolo_e4":null,"cobrade_04":null,"tipolo_g5":null,"tipolo_e5":null,"cobrade_05":null,"descricao":"As chuvas de alta intensidade que ocorreram no mês de maio/24 no Rio Grande do Sul provocaram a elevação do nível do Rio Taquari e de seus afluentes, como o Arroio Marrecão, onde extravasaram suas calhas naturais e atingiram quatro casas neste setor (Fotos 1 a 6). As construções atingidas estão situadas à margem esquerda do rio, entre 50 e 100 metros de distância e a 60 metros da desembocadura do Arroio Marrecão. Além deste evento de inundação, foram relatados mais dois anteriores para os anos de 2020 e 2023. Para o ano de 2024, a elevação do rio foi de aproximadamente 20 metros. Esta inundação gerou transtornos significativos para os moradores, causando danos materiais e afetando o cotidiano dos mesmos que tiveram que ser removidos temporariamente. As construções são em alvenaria e madeira.","obs_ocup":"","grau_vulne":"Alto","grau_risco":"Muito alto","num_edif":2,"num_domi":null,"num_pess":8,"sug_interv":"- Ampliação do sistema de alerta de eventos críticos da bacia do Rio Taquari para o município de Santa Tereza;\n- Evacuação preventiva na iminência de eventos;\n- Avaliação da influência de pontes no represamento da água durante eventos de cheia;\n- Ações de educação ambiental e percepção de risco junto à comunidade local;\n- Preservação de áreas verdes e reflorestamento das margens que foram erodidas para que sirvam no amortecimento da onda de cheia; \n- Desenvolvimento de políticas de controle de ocupação das áreas de preservação permanente (APPs) e de áreas de risco.\n","orgao_exec":"Serviço Geológico do Brasil","gestao_territorial_risco_risco_":null,"st_area(shape)":6813.023954479534,"st_perimeter(shape)":427.58153751624053,"dt_atualizacao":1760914845000}},{"type":"Feature","id":1666006,"geometry":{"type":"Polygon","coordinates":[[[-51.695856100230458,-29.20186413920721],[-51.695926584742601,-29.201943489159959],[-51.696457966979253,-29.201617841324037],[-51.696612127763458,-29.201785174208545],[-51.696009902586894,-29.202160425609087],[-51.695950765593423,-29.202087556768664],[-51.695692728121315,-29.202258248934825],[-51.695521772434539,-29.20206774381861],[-51.695856100230458,-29.20186413920721]]]},"properties":{"objectid":1666006,"uf":"RS","munic":"SANTA TEREZA","cd_geocmu":"4317251","num_setor":"RS_SANTATE_SR_002_SGB","data_setor":null,"local":"Linha Soares Baixa","tipolo_g1":"Deslizamento","tipolo_e1":"Deslizamento rotacional","cobrade_01":"1.1.3.2.1","tipolo_g2":"Corrida de massa","tipolo_e2":"Corrida de detritos","cobrade_02":"1.1.3.3.2","tipolo_g3":null,"tipolo_e3":null,"cobrade_03":null,"tipolo_g4":null,"tipolo_e4":null,"cobrade_04":null,"tipolo_g5":null,"tipolo_e5":null,"cobrade_05":null,"descricao":"Área residencial com aproximadamente 100 metros de extensão, apresentando zonas desmatadas para atividade agrícola (viticultura), situada à margem direita do Arroio Marrecão, logo abaixo de uma encosta de alta declividade (Fotos 1 a 6), localizada na Linha Soares Baixa, pertencente ao Sr. Vilson Barella. O local é marcado por movimentos de massa do tipo deslizamento translacional e por fluxo de detritos, decorrentes de um evento climático adverso ocorrido no mês de maio de 2024, caracterizado por chuvas intensas que afetaram diversas regiões do Rio Grande do Sul. A casa é construída em alvenaria.","obs_ocup":"","grau_vulne":"Alto","grau_risco":"Alto","num_edif":2,"num_domi":null,"num_pess":8,"sug_interv":"- Monitoramento das condições de estabilidade da encosta, especialmente em períodos chuvosos e evacuação preventiva caso haja indícios de iminência de deslizamento;\n- Elaboração de estudos geotécnicos e hidrológicos detalhados, por profissional habilitado, para avaliar a necessidade e viabilidade de implantação de medidas de contenção e de drenagem na encosta;\n- Ações de educação ambiental e de percepção de risco para a comunidade em área de risco;\n- Implantação de políticas de controle urbano e orientações para abertura de lotes em áreas suscetíveis a movimentos de massa, visando o ordenamento territorial e a adoção de técnicas seguras de ocupação.\n","orgao_exec":"Serviço Geológico do Brasil","gestao_territorial_risco_risco_":null,"st_area(shape)":3466.242398903064,"st_perimeter(shape)":318.5014838391499,"dt_atualizacao":1760914845000}},{"type":"Feature","id":1666007,"geometry":{"type":"Polygon","coordinates":[[[-51.691480055240234,-29.203073270312164],[-51.691684595342231,-29.203271327909029],[-51.691323002779122,-29.203587005745661],[-51.691117599396129,-29.203393623761475],[-51.691480055240234,-29.203073270312164]]]},"properties":{"objectid":1666007,"uf":"RS","munic":"SANTA TEREZA","cd_geocmu":"4317251","num_setor":"RS_SANTATE_SR_003_SGB","data_setor":null,"local":"Linha Soares Baixa","tipolo_g1":"Deslizamento","tipolo_e1":"Deslizamento rotacional","cobrade_01":"1.1.3.2.1","tipolo_g2":"Corrida de massa","tipolo_e2":"Corrida de detritos","cobrade_02":"1.1.3.3.2","tipolo_g3":null,"tipolo_e3":null,"cobrade_03":null,"tipolo_g4":null,"tipolo_e4":null,"cobrade_04":null,"tipolo_g5":null,"tipolo_e5":null,"cobrade_05":null,"descricao":"Área residencial com aproximadamente 50 metros de extensão, apresentando zonas desmatadas para atividade agrícola (viticultura), situada à margem direita do Arroio Marrecão, logo abaixo de uma encosta de alta declividade (Fotos 1 a 6), localizada na Linha Soares Baixa, pertencente ao Sr. Odair Girelli. O local é marcado por movimentos de massa do tipo deslizamento translacional e por fluxo de detritos, decorrentes de um evento climático adverso ocorrido no mês de maio de 2024, caracterizado por chuvas intensas que afetaram diversas regiões do Rio Grande do Sul. A casa é construída em alvenaria e madeira.","obs_ocup":"","grau_vulne":"Alto","grau_risco":"Alto","num_edif":1,"num_domi":null,"num_pess":4,"sug_interv":"- Monitoramento das condições de estabilidade da encosta, especialmente em períodos chuvosos e evacuação preventiva caso haja indícios de iminência de deslizamento;\n- Elaboração de estudos geotécnicos e hidrológicos detalhados, por profissional habilitado, para avaliar a necessidade e viabilidade de implantação de medidas de contenção e de drenagem na encosta;\n- Ações de educação ambiental e de percepção de risco para a comunidade em área de risco;\n- Implantação de políticas de controle urbano e orientações para abertura de lotes em áreas suscetíveis a movimentos de massa, visando o ordenamento territorial e a adoção de técnicas seguras de ocupação.\n","orgao_exec":"Serviço Geológico do Brasil","gestao_territorial_risco_risco_":null,"st_area(shape)":1931.2840278736724,"st_perimeter(shape)":181.98662974001536,"dt_atualizacao":1760914845000}},{"type":"Feature","id":1666013,"geometry":{"type":"Polygon","coordinates":[[[-51.705250858439896,-29.193186055773182],[-51.705502542127981,-29.193115032862806],[-51.705565663149748,-29.193497137831169],[-51.705339896755909,-29.193549872734589],[-51.705250858439896,-29.193186055773182]]]},"properties":{"objectid":1666013,"uf":"RS","munic":"SANTA TEREZA","cd_geocmu":"4317251","num_setor":"RS_SANTATE_SR_001_SGB","data_setor":null,"local":"Linha Soares Baixa","tipolo_g1":"Rastejo","tipolo_e1":null,"cobrade_01":null,"tipolo_g2":null,"tipolo_e2":null,"cobrade_02":null,"tipolo_g3":null,"tipolo_e3":null,"cobrade_03":null,"tipolo_g4":null,"tipolo_e4":null,"cobrade_04":null,"tipolo_g5":null,"tipolo_e5":null,"cobrade_05":null,"descricao":"Área residencial com aproximadamente 130 metros de extensão, apresentando zonas desmatadas, situada à margem direita do Arroio Marrecão, logo abaixo de uma encosta de alta declividade (Foto 1), localizada na Linha Soares Baixa. O local é marcado por um rastejo com vários pontos de movimentação de massa, incluindo um rotacional (Fotos 2 e 3) e deslizamentos translacionais acima e abaixo da linha da residência. Também foram evidenciadas muitas trincas e formação de degraus no meio da mata que está na parte de trás da casa (Fotos 4 a 6). Estes movimentos ocorreram em decorrência de um evento climático adverso ocorrido no mês de maio de 2024, caracterizado por chuvas intensas que afetaram diversas regiões do Rio Grande do Sul. A casa é construída em alvenaria.","obs_ocup":"","grau_vulne":"Alto","grau_risco":"Alto","num_edif":1,"num_domi":null,"num_pess":4,"sug_interv":"- Monitoramento das condições de estabilidade da encosta, especialmente em períodos chuvosos e evacuação preventiva caso haja indícios de iminência de deslizamento;\n- Elaboração de estudos geotécnicos e hidrológicos detalhados, por profissional habilitado, para avaliar a necessidade e viabilidade de implantação de medidas de contenção e de drenagem na encosta;\n- Ações de educação ambiental e de percepção de - Implantação de políticas de controle urbano e orientações para abertura de lotes em áreas suscetíveis a movimentos de massa, visando o ordenamento territorial e a adoção de técnicas seguras de ocupação.\n","orgao_exec":"Serviço Geológico do Brasil","gestao_territorial_risco_risco_":null,"st_area(shape)":1330.6898952264246,"st_perimeter(shape)":152.12964565859946,"dt_atualizacao":1760914845000}},{"type":"Feature","id":1666022,"geometry":{"type":"Polygon","coordinates":[[[-51.70211041468194,-29.097640713805987],[-51.702140689703647,-29.097154403288037],[-51.703412598144752,-29.097249333664035],[-51.703336064377496,-29.097594855191691],[-51.70211041468194,-29.097640713805987]]]},"properties":{"objectid":1666022,"uf":"RS","munic":"SANTA TEREZA","cd_geocmu":"4317251","num_setor":"RS_SANTATE_SR_018_SGB","data_setor":null,"local":"Linha José Júlio","tipolo_g1":"Inundação","tipolo_e1":null,"cobrade_01":"1.2.1.0.0","tipolo_g2":null,"tipolo_e2":null,"cobrade_02":null,"tipolo_g3":null,"tipolo_e3":null,"cobrade_03":null,"tipolo_g4":null,"tipolo_e4":null,"cobrade_04":null,"tipolo_g5":null,"tipolo_e5":null,"cobrade_05":null,"descricao":"As chuvas de alta intensidade que ocorreram no mês de maio/24 no Rio Grande do Sul provocaram a elevação do nível do Rio das Antas, extravasando sua calha natural, atingindo cinco casas de veraneio (Fotos 1 a 6), onde duas foram completamente destruídas. O local dista entre 70 e 100 metros da margem esquerda do Rio das Antas. Além deste evento de inundação, foram relatados mais dois anteriores para os anos de 2020 e 2023. Neste ponto o rio teve uma elevação de aproximadamente 20 metros. Esta inundação gerou transtornos significativos para os moradores, causando danos materiais e afetando o cotidiano dos mesmos que tiveram que ser removidos temporariamente. As construções são em alvenaria.","obs_ocup":"","grau_vulne":"Alto","grau_risco":"Muito alto","num_edif":1,"num_domi":null,"num_pess":4,"sug_interv":"- Ampliação do sistema de alerta de eventos críticos da bacia do Rio da Antas para o município de Santa Tereza;\n- Evacuação preventiva na iminência de eventos;\n- Avaliação da influência de pontes no represamento da água durante eventos de cheia;\n- Ações de educação ambiental e percepção de risco junto à comunidade local;\n- Preservação de áreas verdes e reflorestamento das margens que foram erodidas para que sirvam no amortecimento da onda de cheia;\n- Desenvolvimento de políticas de controle de ocupação das áreas de preservação permanente (APPs) e de áreas de risco.\n","orgao_exec":"Serviço Geológico do Brasil","gestao_territorial_risco_risco_":null,"st_area(shape)":7384.4605971467681,"st_perimeter(shape)":385.54959404337831,"dt_atualizacao":1760914845000}},{"type":"Feature","id":1666023,"geometry":{"type":"Polygon","coordinates":[[[-51.708595813553742,-29.096034927995365],[-51.708488341808099,-29.095631557037688],[-51.709413515820906,-29.095425453223672],[-51.710170739909863,-29.094988510235012],[-51.710433398315786,-29.095324666160007],[-51.709545587032281,-29.095783094300153],[-51.708595813553742,-29.096034927995365]]]},"properties":{"objectid":1666023,"uf":"RS","munic":"SANTA TEREZA","cd_geocmu":"4317251","num_setor":"RS_SANTATE_SR_019_SGB","data_setor":null,"local":"Linha José Júlio","tipolo_g1":"Inundação","tipolo_e1":null,"cobrade_01":"1.2.1.0.0","tipolo_g2":null,"tipolo_e2":null,"cobrade_02":null,"tipolo_g3":null,"tipolo_e3":null,"cobrade_03":null,"tipolo_g4":null,"tipolo_e4":null,"cobrade_04":null,"tipolo_g5":null,"tipolo_e5":null,"cobrade_05":null,"descricao":"As chuvas de alta intensidade que ocorreram no mês de maio/24 no Rio Grande do Sul provocaram a elevação do nível do Rio das Antas, extravasando sua calha natural, atingindo cinco casas de veraneio (Fotos 1 a 6). O local dista entre 55 e 65 metros da margem esquerda do Rio das Antas. Além deste evento de inundação, foram relatados mais dois anteriores para os anos de 2020 e 2023. Neste ponto o rio teve uma elevação de aproximadamente 20 metros. Esta inundação gerou transtornos significativos para os moradores, causando danos materiais e afetando o cotidiano dos mesmos que tiveram que ser removidos temporariamente. As construções são em alvenaria.","obs_ocup":"","grau_vulne":"Alto","grau_risco":"Muito alto","num_edif":5,"num_domi":null,"num_pess":20,"sug_interv":"- Ampliação do sistema de alerta de eventos críticos da bacia do Rio da Antas para o município de Santa Tereza;\n- Evacuação preventiva na iminência de eventos;\n- Avaliação da influência de pontes no represamento da água durante eventos de cheia;\n- Ações de educação ambiental e percepção de risco junto à comunidade local;\n- Preservação de áreas verdes e reflorestamento das margens que foram erodidas para que sirvam no amortecimento da onda de cheia;\n- Desenvolvimento de políticas de controle de ocupação das áreas de preservação permanente (APPs) e de áreas de risco.\n","orgao_exec":"Serviço Geológico do Brasil","gestao_territorial_risco_risco_":null,"st_area(shape)":10747.188626551469,"st_perimeter(shape)":537.20064795908422,"dt_atualizacao":1760914845000}},{"type":"Feature","id":1666024,"geometry":{"type":"Polygon","coordinates":[[[-51.737512253766148,-29.187650031339416],[-51.737911800150023,-29.18743703879565],[-51.73802094186378,-29.187163833680625],[-51.738401383776498,-29.187254256167037],[-51.738278068444174,-29.187546113751605],[-51.738049407678503,-29.187728229244982],[-51.737970497867316,-29.188304885001148],[-51.737376002693757,-29.188223346633222],[-51.737512253766148,-29.187650031339416]]]},"properties":{"objectid":1666024,"uf":"RS","munic":"SANTA TEREZA","cd_geocmu":"4317251","num_setor":"RS_SANTATE_SR_012_SGB","data_setor":null,"local":"Cachaçaria Velho Alambique","tipolo_g1":"Deslizamento","tipolo_e1":"Deslizamento rotacional","cobrade_01":"1.1.3.2.1","tipolo_g2":null,"tipolo_e2":null,"cobrade_02":null,"tipolo_g3":null,"tipolo_e3":null,"cobrade_03":null,"tipolo_g4":null,"tipolo_e4":null,"cobrade_04":null,"tipolo_g5":null,"tipolo_e5":null,"cobrade_05":null,"descricao":"Área comercial apresentando zonas desmatadas para atividade agrícola (cana-de-açúcar), situada a aproximadamente dois quilômetros da sede municipal de Santa Tereza e a cem metros da margem esquerda do Rio Taquari. O galpão da fábrica está logo abaixo de uma encosta de alta declividade (Fotos 1 a 4), marcado por movimentos de massa do tipo deslizamento translacional (Fotos 5 e 6), decorrentes de um evento climático adverso ocorrido no mês de maio de 2024, caracterizado por chuvas intensas que afetaram diversas regiões do Rio Grande do Sul. Construção em alvenaria e metal.","obs_ocup":"","grau_vulne":"Alto","grau_risco":"Alto","num_edif":1,"num_domi":null,"num_pess":4,"sug_interv":"- Monitoramento das condições de estabilidade da encosta, especialmente em períodos chuvosos e evacuação preventiva caso haja indícios de iminência de deslizamento;\n- Elaboração de estudos geotécnicos e hidrológicos detalhados, por profissional habilitado, para avaliar a necessidade e viabilidade de implantação de medidas de contenção e de drenagem na encosta;\n- Ações de educação ambiental e de percepção de risco para a comunidade em área de risco;\n- Implantação de políticas de controle urbano e orientações para abertura de lotes em áreas suscetíveis a movimentos de massa, visando o ordenamento territorial e a adoção de técnicas seguras de ocupação.\n","orgao_exec":"Serviço Geológico do Brasil","gestao_territorial_risco_risco_":null,"st_area(shape)":8085.9495684334006,"st_perimeter(shape)":422.72391525995795,"dt_atualizacao":1760914845000}},{"type":"Feature","id":1666025,"geometry":{"type":"Polygon","coordinates":[[[-51.680844790997078,-29.164728868073279],[-51.680926136141011,-29.164998236675796],[-51.680043288947765,-29.165229455634872],[-51.679961993211187,-29.164988595285255],[-51.680844790997078,-29.164728868073279]]]},"properties":{"objectid":1666025,"uf":"RS","munic":"SANTA TEREZA","cd_geocmu":"4317251","num_setor":"RS_SANTATE_SR_013_SGB","data_setor":null,"local":"Linha Pederneira","tipolo_g1":"Rastejo","tipolo_e1":null,"cobrade_01":null,"tipolo_g2":null,"tipolo_e2":null,"cobrade_02":null,"tipolo_g3":null,"tipolo_e3":null,"cobrade_03":null,"tipolo_g4":null,"tipolo_e4":null,"cobrade_04":null,"tipolo_g5":null,"tipolo_e5":null,"cobrade_05":null,"descricao":"Área residencial com aproximadamente 90 metros de extensão, apresentando zonas desmatadas para atividade agrícola (viticultura), situada na Linha Pederneira, pertencente ao Sr. Ildo Somensi, logo abaixo de uma encosta de alta declividade.  O local é marcado por um movimento de massa do tipo rastejo, evidenciado por um descolamento da linha de plantação das videiras (Foto 1), formação de degraus de abatimento (Foto 2) e por várias trincas na residência (Fotos 3 a 5). Este movimento de massa é decorrente de um evento climático adverso ocorrido no mês de maio de 2024, caracterizado por chuvas intensas que afetaram diversas regiões do Rio Grande do Sul. A casa é construída em alvenaria e madeira (Foto 6).","obs_ocup":"","grau_vulne":"Alto","grau_risco":"Alto","num_edif":3,"num_domi":null,"num_pess":12,"sug_interv":"- Monitoramento das condições de estabilidade da encosta, especialmente em períodos chuvosos e evacuação preventiva caso haja indícios de iminência de deslizamento;\n- Elaboração de estudos geotécnicos e hidrológicos detalhados, por profissional habilitado, para avaliar a necessidade e viabilidade de implantação de medidas de contenção e de drenagem na encosta;\n- Ações de educação ambiental e de percepção de risco para a comunidade em área de risco;\n- Implantação de políticas de controle urbano e orientações para abertura de lotes em áreas suscetíveis a movimentos de massa, visando o ordenamento territorial e a adoção de técnicas seguras de ocupação.\n","orgao_exec":"Serviço Geológico do Brasil","gestao_territorial_risco_risco_":null,"st_area(shape)":3479.4344056653672,"st_perimeter(shape)":273.8283470675338,"dt_atualizacao":1760914845000}},{"type":"Feature","id":1666028,"geometry":{"type":"Polygon","coordinates":[[[-51.714353797132652,-29.09220821015716],[-51.714143649746667,-29.092054983058741],[-51.714606361169729,-29.091592863795757],[-51.714790260681426,-29.09173413624627],[-51.714353797132652,-29.09220821015716]]]},"properties":{"objectid":1666028,"uf":"RS","munic":"SANTA TEREZA","cd_geocmu":"4317251","num_setor":"RS_SANTATE_SR_016_SGB","data_setor":null,"local":"Linha José Júlio","tipolo_g1":"Deslizamento","tipolo_e1":"Deslizamento rotacional","cobrade_01":"1.1.3.2.1","tipolo_g2":null,"tipolo_e2":null,"cobrade_02":null,"tipolo_g3":null,"tipolo_e3":null,"cobrade_03":null,"tipolo_g4":null,"tipolo_e4":null,"cobrade_04":null,"tipolo_g5":null,"tipolo_e5":null,"cobrade_05":null,"descricao":"Área residencial com aproximadamente 50 metros de extensão, situada a 95 metros da margem esquerda da confluência entre os Rios Taquari / Rio das Antas e Rio Carreiro, logo abaixo de uma encosta de alta declividade (Fotos 1 a 6), localizada na Linha José Júlio e pertencente ao Sr. Luiz Glannert. O local é marcado por um deslizamento translacional (Foto 6) sem danos a propriedade, decorrente de um evento climático adverso ocorrido no mês de maio de 2024, caracterizado por chuvas intensas que afetaram diversas regiões do Rio Grande do Sul. As casas são construídas em alvenaria e madeira.","obs_ocup":"","grau_vulne":"Alto","grau_risco":"Alto","num_edif":2,"num_domi":null,"num_pess":8,"sug_interv":"- Monitoramento das condições de estabilidade da encosta, especialmente em períodos chuvosos e evacuação preventiva caso haja indícios de iminência de deslizamento;\n- Elaboração de estudos geotécnicos e hidrológicos detalhados, por profissional habilitado, para avaliar a necessidade e viabilidade de implantação de medidas de contenção e de drenagem na encosta;\n- Ações de educação ambiental e de percepção de risco para a comunidade em área de risco;\n- Implantação de políticas de controle urbano e orientações para abertura de lotes em áreas suscetíveis a movimentos de massa, visando o ordenamento territorial e a adoção de técnicas seguras de ocupação.\n","orgao_exec":"Serviço Geológico do Brasil","gestao_territorial_risco_risco_":null,"st_area(shape)":2246.6790533831772,"st_perimeter(shape)":213.45912418937149,"dt_atualizacao":1760914845000}},{"type":"Feature","id":1666029,"geometry":{"type":"Polygon","coordinates":[[[-51.69725520831917,-29.098182145013428],[-51.697292351859538,-29.097925534723668],[-51.697685774428116,-29.097923289798761],[-51.69774666223806,-29.097739705799064],[-51.6980468836976,-29.097759023959949],[-51.698083152278883,-29.098022746988391],[-51.699150894317164,-29.097944468229741],[-51.699204407856939,-29.09814851203577],[-51.698683270007805,-29.098206097357213],[-51.697953685283501,-29.098228906827956],[-51.69725520831917,-29.098182145013428]]]},"properties":{"objectid":1666029,"uf":"RS","munic":"SANTA TEREZA","cd_geocmu":"4317251","num_setor":"RS_SANTATE_SR_017_SGB","data_setor":null,"local":"Linha José Júlio","tipolo_g1":"Inundação","tipolo_e1":null,"cobrade_01":"1.2.1.0.0","tipolo_g2":null,"tipolo_e2":null,"cobrade_02":null,"tipolo_g3":null,"tipolo_e3":null,"cobrade_03":null,"tipolo_g4":null,"tipolo_e4":null,"cobrade_04":null,"tipolo_g5":null,"tipolo_e5":null,"cobrade_05":null,"descricao":"As chuvas de alta intensidade que ocorreram no mês de maio/24 no Rio Grande do Sul provocaram a elevação do nível do Rio das Antas, extravasando sua calha natural, atingindo severamente cinco casas (Fotos 1 a 6), onde apenas duas foram relativamente preservadas (Fotos 3 e 6). Neste setor só existe uma única residência com três moradores (Foto 2), as demais são casas de veraneio e uma nova está sendo construída. O local dista aproximadamente 70 metros da margem esquerda do Rio das Antas. Além deste evento de inundação, foram relatados mais dois anteriores para os anos de 2020 e 2023. Neste ponto o rio teve uma elevação de aproximadamente 20 metros. Esta inundação gerou transtornos significativos para os moradores, causando danos materiais e afetando o cotidiano dos mesmos que tiveram que ser removidos temporariamente. As construções são em alvenaria e madeira.","obs_ocup":"","grau_vulne":"Alto","grau_risco":"Muito alto","num_edif":3,"num_domi":null,"num_pess":12,"sug_interv":"- Ampliação do sistema de alerta de eventos críticos da bacia do Rio da Antas para o município de Santa Tereza;\n- Evacuação preventiva na iminência de eventos;\n- Avaliação da influência de pontes no represamento da água durante eventos de cheia;\n- Ações de educação ambiental e percepção de risco junto à comunidade local;\n- Preservação de áreas verdes e reflorestamento das margens que foram erodidas para que sirvam no amortecimento da onda de cheia;\n- Desenvolvimento de políticas de controle de ocupação das áreas de preservação permanente (APPs) e de áreas de risco.\n","orgao_exec":"Serviço Geológico do Brasil","gestao_territorial_risco_risco_":null,"st_area(shape)":7471.8716086064942,"st_perimeter(shape)":532.12269292667986,"dt_atualizacao":1760914845000}},{"type":"Feature","id":1666030,"geometry":{"type":"Polygon","coordinates":[[[-51.732687724870338,-29.194273758215626],[-51.733120813448586,-29.19446306700727],[-51.73240554517497,-29.195973889253416],[-51.731883185617036,-29.195796681756587],[-51.732687724870338,-29.194273758215626]]]},"properties":{"objectid":1666030,"uf":"RS","munic":"SANTA TEREZA","cd_geocmu":"4317251","num_setor":"RS_SANTATE_SR_010_SGB","data_setor":null,"local":"Linha Santa Tecla","tipolo_g1":"Deslizamento","tipolo_e1":"Deslizamento rotacional","cobrade_01":"1.1.3.2.1","tipolo_g2":"Corrida de massa","tipolo_e2":"Corrida de detritos","cobrade_02":"1.1.3.3.2","tipolo_g3":null,"tipolo_e3":null,"cobrade_03":null,"tipolo_g4":null,"tipolo_e4":null,"cobrade_04":null,"tipolo_g5":null,"tipolo_e5":null,"cobrade_05":null,"descricao":"Área residencial com aproximadamente 180 metros de extensão, apresentando zonas desmatadas a montante (Foto 1). O local é marcado por um movimento de massa do tipo translacional com fluxo de detritos (Fotos 1 a 3), decorrentes de um evento climático adverso ocorrido no mês de maio de 2024, caracterizado por chuvas intensas que afetaram diversas regiões do Rio Grande do Sul. As casas são construídas em alvenaria e madeira (Fotos 4 a 6).","obs_ocup":"","grau_vulne":"Alto","grau_risco":"Alto","num_edif":2,"num_domi":null,"num_pess":8,"sug_interv":"- Monitoramento das condições de estabilidade da encosta, especialmente em períodos chuvosos e evacuação preventiva caso haja indícios de iminência de deslizamento;\n- Elaboração de estudos geotécnicos e hidrológicos detalhados, por profissional habilitado, para avaliar a necessidade e viabilidade de implantação de medidas de contenção e de drenagem na encosta;\n- Ações de educação ambiental e de percepção de risco para a comunidade em área de risco;\n- Implantação de políticas de controle urbano e orientações para abertura de lotes em áreas suscetíveis a movimentos de massa, visando o ordenamento territorial e a adoção de técnicas seguras de ocupação.\n","orgao_exec":"Serviço Geológico do Brasil","gestao_territorial_risco_risco_":null,"st_area(shape)":12263.442361687386,"st_perimeter(shape)":538.62512933056325,"dt_atualizacao":1760914845000}},{"type":"Feature","id":1666031,"geometry":{"type":"Polygon","coordinates":[[[-51.73300222055974,-29.176141461283759],[-51.732402005812759,-29.17769929005641],[-51.732479240265938,-29.177931583954525],[-51.732736535729607,-29.177938994285036],[-51.732774776112947,-29.178196393133259],[-51.732563043200486,-29.178529491906829],[-51.732258536777039,-29.178533109990671],[-51.732242489272799,-29.178045248703242],[-51.732053767604654,-29.177662592044666],[-51.732649469215644,-29.176044929171873],[-51.73300222055974,-29.176141461283759]]]},"properties":{"objectid":1666031,"uf":"RS","munic":"SANTA TEREZA","cd_geocmu":"4317251","num_setor":"RS_SANTATE_SR_011_SGB","data_setor":null,"local":"Sede – Avenida Avelino Dalla Lasta","tipolo_g1":"Inundação","tipolo_e1":null,"cobrade_01":"1.2.1.0.0","tipolo_g2":null,"tipolo_e2":null,"cobrade_02":null,"tipolo_g3":null,"tipolo_e3":null,"cobrade_03":null,"tipolo_g4":null,"tipolo_e4":null,"cobrade_04":null,"tipolo_g5":null,"tipolo_e5":null,"cobrade_05":null,"descricao":"As chuvas de alta intensidade que ocorreram no mês de maio/24 no Rio Grande do Sul provocaram a elevação do nível do Rio Taquari, extravasando sua calha natural, atingindo várias residências e provocando a destruição de outras à sua margem esquerda, ao longo da Avenida Dalla Lasta, próximas a Estação Ferroviária (Fotos 1 a 6). Além deste evento de inundação, foram relatados mais dois anteriores para os anos de 2020 e 2023. Para o ano de 2024, a elevação do rio foi de aproximadamente 20 metros. Esta inundação gerou transtornos significativos para os moradores, causando danos materiais e afetando o cotidiano dos mesmos que tiveram que ser removidos temporariamente. As construções são em alvenaria e madeira.","obs_ocup":"","grau_vulne":"Alto","grau_risco":"Alto","num_edif":8,"num_domi":null,"num_pess":32,"sug_interv":"- Ampliação do sistema de alerta de eventos críticos da bacia do Rio Taquari para o município de Santa Tereza;\n- Evacuação preventiva na iminência de eventos;\n- Avaliação da influência de pontes no represamento da água durante eventos de cheia;\n- Ações de educação ambiental e percepção de risco junto à comunidade local;\n- Preservação de áreas verdes e reflorestamento das margens que foram erodidas para que sirvam no amortecimento da onda de cheia; \n- Desenvolvimento de políticas de controle de ocupação das áreas de preservação permanente (APPs) e de áreas de risco.\n","orgao_exec":"Serviço Geológico do Brasil","gestao_territorial_risco_risco_":null,"st_area(shape)":13503.937454799967,"st_perimeter(shape)":757.75918478832705,"dt_atualizacao":1760914845000}},{"type":"Feature","id":1666032,"geometry":{"type":"Polygon","coordinates":[[[-51.679187519672119,-29.209989673224392],[-51.679214385587336,-29.210423136029814],[-51.678491366649446,-29.210506111993926],[-51.678454261736633,-29.210262952382145],[-51.678757191616739,-29.21000919688478],[-51.679187519672119,-29.209989673224392]]]},"properties":{"objectid":1666032,"uf":"RS","munic":"SANTA TEREZA","cd_geocmu":"4317251","num_setor":"RS_SANTATE_SR_004_SGB","data_setor":null,"local":"Linha Soares Baixa","tipolo_g1":"Rastejo","tipolo_e1":null,"cobrade_01":null,"tipolo_g2":null,"tipolo_e2":null,"cobrade_02":null,"tipolo_g3":null,"tipolo_e3":null,"cobrade_03":null,"tipolo_g4":null,"tipolo_e4":null,"cobrade_04":null,"tipolo_g5":null,"tipolo_e5":null,"cobrade_05":null,"descricao":"Área residencial com aproximadamente 70 metros de extensão, apresentando zonas desmatadas para atividade agrícola (viticultura), situada à margem direita do Arroio Marrecão, logo abaixo de uma encosta de alta declividade (Foto 1). O local é marcado por um rastejo, evidenciado pelas rachaduras na única residência com moradores permanentes (Fotos 2 a 5) e pelo desalinhamento das videiras (Foto 6). Este movimento de massa é decorrente de um evento climático adverso ocorrido no mês de maio de 2024, caracterizado por chuvas intensas que afetaram diversas regiões do Rio Grande do Sul. A casa é construída em alvenaria e madeira.","obs_ocup":"","grau_vulne":"Alto","grau_risco":"Alto","num_edif":3,"num_domi":null,"num_pess":12,"sug_interv":"- Monitoramento das condições de estabilidade da encosta, especialmente em períodos chuvosos e evacuação preventiva caso haja indícios de iminência de deslizamento;\n- Elaboração de estudos geotécnicos e hidrológicos detalhados, por profissional habilitado, para avaliar a necessidade e viabilidade de implantação de medidas de contenção e de drenagem na encosta;\n- Ações de educação ambiental e de percepção de risco para a comunidade em área de risco;\n- Implantação de políticas de controle urbano e orientações para abertura de lotes em áreas suscetíveis a movimentos de massa, visando o ordenamento territorial e a adoção de técnicas seguras de ocupação.\n","orgao_exec":"Serviço Geológico do Brasil","gestao_territorial_risco_risco_":null,"st_area(shape)":4311.4361193603918,"st_perimeter(shape)":262.53641430645797,"dt_atualizacao":1760914845000}},{"type":"Feature","id":1666033,"geometry":{"type":"Polygon","coordinates":[[[-51.698917211070722,-29.197843585144849],[-51.698427065997194,-29.197883175033496],[-51.698236907024594,-29.197829927155105],[-51.698255603660606,-29.197641121747942],[-51.697826308667786,-29.197586397921448],[-51.69773404989148,-29.197464307653565],[-51.697790744365697,-29.197359716990132],[-51.698105553567117,-29.197348325214808],[-51.698959925064173,-29.197317888850371],[-51.698917211070722,-29.197843585144849]]]},"properties":{"objectid":1666033,"uf":"RS","munic":"SANTA TEREZA","cd_geocmu":"4317251","num_setor":"RS_SANTATE_SR_005_SGB","data_setor":null,"local":"Linha Soares Baixa","tipolo_g1":"Rastejo","tipolo_e1":null,"cobrade_01":null,"tipolo_g2":null,"tipolo_e2":null,"cobrade_02":null,"tipolo_g3":null,"tipolo_e3":null,"cobrade_03":null,"tipolo_g4":null,"tipolo_e4":null,"cobrade_04":null,"tipolo_g5":null,"tipolo_e5":null,"cobrade_05":null,"descricao":"Área residencial com aproximadamente 110 metros de extensão, apresentando zonas desmatadas para atividade agrícola, situada à margem esquerda do Arroio Marrecão, logo abaixo de uma encosta de alta declividade (Foto 1), localizada na Linha Soares Baixa, pertencente ao Sr. Jaquelino.  O local é marcado por um movimento de massa do tipo rastejo, evidenciado pelo desalinhamento da estrutura de uma das casas e pela destruição de outras (Foto 2 e 3), além de várias trincas no solo (Fotos 4 e 5). Este movimento de massa é decorrente de um evento climático adverso ocorrido no mês de maio de 2024, caracterizado por chuvas intensas que afetaram diversas regiões do Rio Grande do Sul. A única casa que permanece em condições de uso foi construída em madeira (Foto 6).","obs_ocup":"","grau_vulne":"Alto","grau_risco":"Alto","num_edif":1,"num_domi":null,"num_pess":4,"sug_interv":"- Monitoramento das condições de estabilidade da encosta, especialmente em períodos chuvosos e evacuação preventiva caso haja indícios de iminência de deslizamento;\n- Elaboração de estudos geotécnicos e hidrológicos detalhados, por profissional habilitado, para avaliar a necessidade e viabilidade de implantação de medidas de contenção e de drenagem na encosta;\n- Ações de educação ambiental e de percepção de risco para a comunidade em área de risco;\n- Implantação de políticas de controle urbano e orientações para abertura de lotes em áreas suscetíveis a movimentos de massa, visando o ordenamento territorial e a adoção de técnicas seguras de ocupação.\n","orgao_exec":"Serviço Geológico do Brasil","gestao_territorial_risco_risco_":null,"st_area(shape)":6951.1132459795135,"st_perimeter(shape)":380.36409289564853,"dt_atualizacao":1760914845000}},{"type":"Feature","id":1666034,"geometry":{"type":"Polygon","coordinates":[[[-51.677534006000009,-29.166334347681392],[-51.677517966580616,-29.166563957149627],[-51.676684630034259,-29.166549021105205],[-51.676685611892857,-29.166313286877553],[-51.677534006000009,-29.166334347681392]]]},"properties":{"objectid":1666034,"uf":"RS","munic":"SANTA TEREZA","cd_geocmu":"4317251","num_setor":"RS_SANTATE_SR_014_SGB","data_setor":null,"local":"Linha Pederneira","tipolo_g1":"Rastejo","tipolo_e1":null,"cobrade_01":null,"tipolo_g2":null,"tipolo_e2":null,"cobrade_02":null,"tipolo_g3":null,"tipolo_e3":null,"cobrade_03":null,"tipolo_g4":null,"tipolo_e4":null,"cobrade_04":null,"tipolo_g5":null,"tipolo_e5":null,"cobrade_05":null,"descricao":"Área residencial apresentando zonas desmatadas para atividade agrícola (viticultura), situada na Linha Pederneira, pertencente ao Sr. Osmar Canossa, logo abaixo de uma encosta de alta declividade (Fotos 1 a 4).  O local é marcado por um movimento de massa do tipo rastejo, evidenciado por um descolamento da caixa d’água (Foto 5), da linha de plantação das videiras) e pela formação de degraus de abatimento (Foto 6). Este movimento de massa é decorrente de um evento climático adverso ocorrido no mês de maio de 2024, caracterizado por chuvas intensas que afetaram diversas regiões do Rio Grande do Sul. A casa é construída em alvenaria e madeira (Foto 6). O local possui uma residência e uma casa de apoio para trabalhadores na época da colheita das uvas. Construções em alvenaria e madeira.","obs_ocup":"","grau_vulne":"Alto","grau_risco":"Alto","num_edif":4,"num_domi":null,"num_pess":16,"sug_interv":"- Monitoramento das condições de estabilidade da encosta, especialmente em períodos chuvosos e evacuação preventiva caso haja indícios de iminência de deslizamento;\n- Elaboração de estudos geotécnicos e hidrológicos detalhados, por profissional habilitado, para avaliar a necessidade e viabilidade de implantação de medidas de contenção e de drenagem na encosta;\n- Ações de educação ambiental e de percepção de risco para a comunidade em área de risco;\n- Implantação de políticas de controle urbano e orientações para abertura de lotes em áreas suscetíveis a movimentos de massa, visando o ordenamento territorial e a adoção de técnicas seguras de ocupação.\n","orgao_exec":"Serviço Geológico do Brasil","gestao_territorial_risco_risco_":null,"st_area(shape)":2778.6576996595445,"st_perimeter(shape)":246.6453002992688,"dt_atualizacao":1760914845000}},{"type":"Feature","id":1666035,"geometry":{"type":"Polygon","coordinates":[[[-51.736513164575136,-29.138213013771395],[-51.736567556667275,-29.138028628367287],[-51.737016119624627,-29.138112616997159],[-51.736965548067396,-29.13829830002987],[-51.736513164575136,-29.138213013771395]]]},"properties":{"objectid":1666035,"uf":"RS","munic":"SANTA TEREZA","cd_geocmu":"4317251","num_setor":"RS_SANTATE_SR_015_SGB","data_setor":null,"local":"Linha José Júlio","tipolo_g1":"Inundação","tipolo_e1":null,"cobrade_01":"1.2.1.0.0","tipolo_g2":"Deslizamento","tipolo_e2":"Deslizamento rotacional","cobrade_02":"1.1.3.2.1","tipolo_g3":"Erosão","tipolo_e3":"Erosão de margem fluvial","cobrade_03":"1.1.4.2.0","tipolo_g4":null,"tipolo_e4":null,"cobrade_04":null,"tipolo_g5":null,"tipolo_e5":null,"cobrade_05":null,"descricao":"As chuvas de alta intensidade que ocorreram no mês de maio/24 no Rio Grande do Sul provocaram a elevação do nível do Rio Taquari, extravasando sua calha natural, atingindo uma residência pertencente a Sra. Inês Baggio, localizada a aproximadamente 85 metros da margem esquerda do rio. Além desta inundação, foram relatadas mais duas anteriores para os anos de 2020 e 2023. Para o ano de 2024, a elevação do rio foi de aproximadamente 20 metros. Somados a este evento, foram evidenciados um movimento translacional (Fotos 1 a 5) e solapamento de margem (Foto 6). Estes eventos geraram transtornos significativos para os moradores, causando danos materiais e afetando o cotidiano dos mesmos que tiveram que ser removidos. A residência é construída em alvenaria.","obs_ocup":"","grau_vulne":"Alto","grau_risco":"Muito alto","num_edif":1,"num_domi":null,"num_pess":4,"sug_interv":"- Ampliação do sistema de alerta de eventos críticos da bacia do Rio Taquari para o município de Santa Tereza;\n-  iminência de eventos;\n- Avaliação da influência de pontes no represamento da água durante eventos de cheia;\n- Ações de educação ambiental e percepção de risco junto à comunidade local;\n- Preservação de áreas verdes e reflorestamento das margens que foram erodidas para que sirvam no amortecimento da onda de cheia; \n- Desenvolvimento de políticas de controle de ocupação das áreas de preservação permanente (APPs) e de áreas de risco.","orgao_exec":"Serviço Geológico do Brasil","gestao_territorial_risco_risco_":null,"st_area(shape)":1245.5883942815626,"st_perimeter(shape)":151.17954395168127,"dt_atualizacao":1760914845000}},{"type":"Feature","id":1666036,"geometry":{"type":"Polygon","coordinates":[[[-51.692789049729541,-29.208790183360847],[-51.693652699925153,-29.208242157258745],[-51.693859617867695,-29.208488196155205],[-51.693012903610132,-29.209041469640717],[-51.692789049729541,-29.208790183360847]]]},"properties":{"objectid":1666036,"uf":"RS","munic":"SANTA TEREZA","cd_geocmu":"4317251","num_setor":"RS_SANTATE_SR_008_SGB","data_setor":null,"local":"Linha Soares Baixa","tipolo_g1":"Rastejo","tipolo_e1":null,"cobrade_01":null,"tipolo_g2":null,"tipolo_e2":null,"cobrade_02":null,"tipolo_g3":null,"tipolo_e3":null,"cobrade_03":null,"tipolo_g4":null,"tipolo_e4":null,"cobrade_04":null,"tipolo_g5":null,"tipolo_e5":null,"cobrade_05":null,"descricao":"Área residencial com aproximadamente 105 metros de extensão, apresentando zonas desmatadas para atividade agrícola (viticultura), situada na Linha Capanema, pertencente ao Sr. José Peruzzo, à margem esquerda do Arroio Marrecão, logo abaixo de uma encosta de alta declividade.  O local é marcado por um movimento de massa do tipo rastejo, evidenciado por um descolamento na porção superior da estrutura em relação a base (Fotos 1 e 2), inclinação da garagem do caminhão (Foto 3) e pela presença de degraus de abatimento no meio das videiras (Foto 4).  Este movimento de massa é decorrente de um evento climático adverso ocorrido no mês de maio de 2024, caracterizado por chuvas intensas que afetaram diversas regiões do Rio Grande do Sul. A casa é construída em alvenaria e madeira (Foto 5 e 6).","obs_ocup":"","grau_vulne":"Alto","grau_risco":"Alto","num_edif":2,"num_domi":null,"num_pess":8,"sug_interv":"- Monitoramento das condições de estabilidade da encosta, especialmente em períodos chuvosos e evacuação preventiva caso haja indícios de iminência de deslizamento;\n- Elaboração de estudos geotécnicos e hidrológicos detalhados, por profissional habilitado, para avaliar a necessidade e viabilidade de implantação de medidas de contenção e de drenagem na encosta;\n- Ações de educação ambiental e de percepção de risco para a comunidade em área de risco;\n- Implantação de políticas de controle urbano e orientações para abertura de lotes em áreas suscetíveis a movimentos de massa, visando o ordenamento territorial e a adoção de técnicas seguras de ocupação.\n","orgao_exec":"Serviço Geológico do Brasil","gestao_territorial_risco_risco_":null,"st_area(shape)":4702.8891096235475,"st_perimeter(shape)":316.12549513172576,"dt_atualizacao":1760914845000}},{"type":"Feature","id":1666037,"geometry":{"type":"Polygon","coordinates":[[[-51.717531435634932,-29.204228956762009],[-51.717552016038105,-29.203402184928322],[-51.718128667975165,-29.203424858137868],[-51.718100397993176,-29.204222112902229],[-51.717531435634932,-29.204228956762009]]]},"properties":{"objectid":1666037,"uf":"RS","munic":"SANTA TEREZA","cd_geocmu":"4317251","num_setor":"RS_SANTATE_SR_009_SGB","data_setor":null,"local":"Santa Tecla Baixa","tipolo_g1":"Corrida de massa","tipolo_e1":"Corrida de detritos","cobrade_01":"1.1.3.3.2","tipolo_g2":null,"tipolo_e2":null,"cobrade_02":null,"tipolo_g3":null,"tipolo_e3":null,"cobrade_03":null,"tipolo_g4":null,"tipolo_e4":null,"cobrade_04":null,"tipolo_g5":null,"tipolo_e5":null,"cobrade_05":null,"descricao":"Área residencial com aproximadamente 90 metros de extensão, apresentando zonas desmatadas para atividade agrícola, situada na Santa Tecla Baixa, logo abaixo de uma encosta de alta declividade (Fotos 1 e 2).  O local foi marcado por um movimento de massa do tipo corrida de detritos, evidenciado também pelo grande volume de blocos rolados ao longo da calha do canal de drenagem, onde destruiu uma casa (Foto 3) e danificou outra (Foto 4 e 5). Este movimento de massa foi o responsável pela ocorrência de danos no setor 006 (Fotos 1 a 6). Os moradores da casa danificada foram retirados pela defesa civil, mas retornaram para esperar que a nova casa fique pronta. Este movimento de massa é decorrente de um evento climático adverso ocorrido no mês de maio de 2024, caracterizado por chuvas intensas que afetaram diversas regiões do Rio Grande do Sul.","obs_ocup":"","grau_vulne":"Alto","grau_risco":"Alto","num_edif":1,"num_domi":null,"num_pess":4,"sug_interv":"- Monitoramento das condições de estabilidade da encosta, especialmente em períodos chuvosos e evacuação preventiva caso haja indícios de iminência de deslizamento;\n- Elaboração de estudos geotécnicos e hidrológicos detalhados, por profissional habilitado, para avaliar a necessidade e viabilidade de implantação de medidas de contenção e de drenagem na encosta;\n- Ações de educação ambiental e de percepção de risco para a comunidade em área de risco;\n- Implantação de políticas de controle urbano e orientações para abertura de lotes em áreas suscetíveis a movimentos de massa, visando o ordenamento territorial e a adoção de técnicas seguras de ocupação.\n","orgao_exec":"Serviço Geológico do Brasil","gestao_territorial_risco_risco_":null,"st_area(shape)":6605.9481518970542,"st_perimeter(shape)":334.78578113761768,"dt_atualizacao":1760914845000}},{"type":"Feature","id":1666038,"geometry":{"type":"Polygon","coordinates":[[[-51.722590399667077,-29.17252110217472],[-51.722887725856452,-29.172460192740086],[-51.723172578938097,-29.172537464117809],[-51.722885527678962,-29.173037358655925],[-51.722709098557154,-29.173169938283863],[-51.721860387344705,-29.173781562626541],[-51.721628860054963,-29.173502923953624],[-51.722165552233243,-29.173186747995516],[-51.722476981972576,-29.172998542758414],[-51.722582350762139,-29.172866974742099],[-51.722641961167767,-29.172687223622361],[-51.722590399667077,-29.17252110217472]]]},"properties":{"objectid":1666038,"uf":"RS","munic":"SANTA TEREZA","cd_geocmu":"4317251","num_setor":"RS_SANTATE_SR_034_SGB","data_setor":null,"local":"Rua Guerino Acco/Rua Ângelo Ceriotti","tipolo_g1":"Inundação","tipolo_e1":null,"cobrade_01":"1.2.1.0.0","tipolo_g2":null,"tipolo_e2":null,"cobrade_02":null,"tipolo_g3":null,"tipolo_e3":null,"cobrade_03":null,"tipolo_g4":null,"tipolo_e4":null,"cobrade_04":null,"tipolo_g5":null,"tipolo_e5":null,"cobrade_05":null,"descricao":"As chuvas de alta intensidade que ocorreram no mês de maio/24 no Rio Grande do Sul provocaram a elevação do nível do Rio Taquari e seus afluentes, como o Arroio Marrecão que extravasou sua calha natural, atingindo várias casas, das quais, quatro permaneceram em condições de uso (Fotos 1 a 6). As residências atingidas estão situadas à margem direita do Arroio Marrecão, com uma distância máxima de 30 metros. Este setor dista aproximadamente 1,7 quilômetros para a desembocadura do Arroio Marrecão com o Rio Taquari. Além deste evento de inundação, foram relatados mais dois anteriores para os anos de 2020 e 2023. Para o ano de 2024, a elevação do rio foi de aproximadamente 20 metros. Esta inundação gerou transtornos significativos para os moradores, causando danos materiais e afetando o cotidiano dos mesmos que tiveram que ser removidos temporariamente. As construções são em alvenaria e madeira.","obs_ocup":"","grau_vulne":"Alto","grau_risco":"Muito alto","num_edif":5,"num_domi":null,"num_pess":20,"sug_interv":"- Ampliação do sistema de alerta de eventos críticos da bacia do Rio Taquari para o município de Santa Tereza;\n- Evacuação preventiva na iminência de eventos;\n- Avaliação da influência de pontes no represamento da água durante eventos de cheia;\n- Ações de educação ambiental e percepção de risco junto à comunidade local;\n- Preservação de áreas verdes e reflorestamento das margens que foram erodidas para que sirvam no amortecimento da onda de cheia; \n- Desenvolvimento de políticas de controle de ocupação das áreas de preservação permanente (APPs) e de áreas de risco.\n","orgao_exec":"Serviço Geológico do Brasil","gestao_territorial_risco_risco_":null,"st_area(shape)":8373.1480454640496,"st_perimeter(shape)":511.30079378444293,"dt_atualizacao":1760914845000}},{"type":"Feature","id":1666039,"geometry":{"type":"Polygon","coordinates":[[[-51.735860295077799,-29.171038401242924],[-51.73605579992465,-29.171014938061305],[-51.736067499582909,-29.170883871859754],[-51.736236831115647,-29.170882147004036],[-51.736251338907493,-29.170527151630896],[-51.736726297961134,-29.170528521950722],[-51.736729538184363,-29.171368777927142],[-51.736282346056157,-29.171379399191036],[-51.736284296298635,-29.172338052954682],[-51.736430710011845,-29.172332515297136],[-51.736400074765712,-29.172569296168618],[-51.736299243366638,-29.172561598371253],[-51.736234743430927,-29.172801411077888],[-51.736393343689294,-29.172830883671026],[-51.736004881617724,-29.173307103128685],[-51.735714616186485,-29.173316739031751],[-51.735369125924848,-29.173819633870838],[-51.735159787022603,-29.174017787966999],[-51.734753532918525,-29.174187443656091],[-51.734748637998536,-29.173944983840943],[-51.734847866803136,-29.173854871211471],[-51.734055539247805,-29.173864106255618],[-51.733970588266331,-29.174202246817192],[-51.733826758107874,-29.174208775016055],[-51.733761002327398,-29.174319904144976],[-51.733565469632758,-29.174316099235938],[-51.733616242412623,-29.174112583065867],[-51.733714736395321,-29.174114813777663],[-51.733770794862316,-29.173776301141519],[-51.733999770038338,-29.173794855953961],[-51.734025805011903,-29.173577886955496],[-51.735112632656715,-29.173588864875111],[-51.73529486040367,-29.173351526320666],[-51.735479893589257,-29.173281951731003],[-51.735517305725892,-29.172935343257898],[-51.735824963439356,-29.172941283262762],[-51.735845201584397,-29.172533895237809],[-51.735258251360889,-29.172556331333109],[-51.735215699962517,-29.172973283042641],[-51.735036620810632,-29.173001827681876],[-51.734988576214292,-29.173262325385057],[-51.734736545776492,-29.173261152761391],[-51.734759433951616,-29.171818584079027],[-51.734636339604869,-29.171821523131037],[-51.734629845683685,-29.172068724005744],[-51.734194718828043,-29.172048506794951],[-51.734168422444718,-29.17219429103222],[-51.733627642033568,-29.172128039828134],[-51.733631933285686,-29.171934283989341],[-51.733410812080187,-29.171904444051656],[-51.733422373397893,-29.171709290033565],[-51.733968207730832,-29.171709544171257],[-51.733997210738089,-29.171663861345227],[-51.734199443068121,-29.17168808286986],[-51.734211130149959,-29.171620548099476],[-51.734307363073093,-29.171629827269776],[-51.734324222654344,-29.171562651705614],[-51.734477864212337,-29.171577543095456],[-51.734492539090823,-29.171496810323024],[-51.734717876988263,-29.171515230634746],[-51.734763053263897,-29.17118729776422],[-51.735860587030267,-29.171234692317682],[-51.735860295077799,-29.171038401242924]]]},"properties":{"objectid":1666039,"uf":"RS","munic":"SANTA TEREZA","cd_geocmu":"4317251","num_setor":"RS_SANTATE_SR_035_SGB","data_setor":null,"local":"Sede –Rua Francesco Settineri/Avenida Itália/Rua Vergílio Franceschini","tipolo_g1":"Inundação","tipolo_e1":null,"cobrade_01":"1.2.1.0.0","tipolo_g2":null,"tipolo_e2":null,"cobrade_02":null,"tipolo_g3":null,"tipolo_e3":null,"cobrade_03":null,"tipolo_g4":null,"tipolo_e4":null,"cobrade_04":null,"tipolo_g5":null,"tipolo_e5":null,"cobrade_05":null,"descricao":"No Centro de Santa Tereza, foram afetadas residências e edificações totalizando aproximadamente 45 residências impactadas, das quais 36 permaneceram em condições de uso, além de estabelecimentos como a Associação Santa Terezense de Canoagem – Astecan (Foto 1), Restaurante do Alemão (Foto 2), Cooperativa Santa Tereza LTDA (Foto 3), Posto Charrua (Foto 4), três comércios de material de construção, prédio da SICRED (Foto 5), Prefeitura Municipal (Foto 6), parte da Pousada do Vale e o Restaurante da FOFA. As áreas atingidas localizam-se majoritariamente à margem esquerda do rio e nas proximidades do Arroio Marrecão, com distâncias variando entre 50 e 300 metros da calha principal. Além deste evento, foram registrados episódios semelhantes nos anos de 2020 e 2023. Em 2024, a elevação do nível do rio foi de aproximadamente 20 metros. A inundação resultou em danos materiais relevantes e exigiu a remoção temporária de moradores.","obs_ocup":"","grau_vulne":"Alto","grau_risco":"Muito alto","num_edif":79,"num_domi":null,"num_pess":316,"sug_interv":"- Ampliação do sistema de alerta de eventos críticos da bacia do Rio Taquari para o município de Santa Tereza;\n- Evacuação preventiva na iminência de eventos;\n- Avaliação da influência de pontes no represamento da água durante eventos de cheia;\n- Ações de educação ambiental e percepção de risco junto à comunidade local;\n- Preservação de áreas verdes e reflorestamento das margens que foram erodidas para que sirvam no amortecimento da onda de cheia; \n- Desenvolvimento de políticas de controle de ocupação das áreas de preservação permanente (APPs) e de áreas de risco.\n","orgao_exec":"Serviço Geológico do Brasil","gestao_territorial_risco_risco_":null,"st_area(shape)":65523.251049384402,"st_perimeter(shape)":2479.6260694988405,"dt_atualizacao":1760914845000}},{"type":"Feature","id":1666040,"geometry":{"type":"Polygon","coordinates":[[[-51.750936980104292,-29.151770108154324],[-51.751164658113055,-29.151832420046301],[-51.751023692682033,-29.15229774415857],[-51.750775231250863,-29.152249601057083],[-51.750936980104292,-29.151770108154324]]]},"properties":{"objectid":1666040,"uf":"RS","munic":"SANTA TEREZA","cd_geocmu":"4317251","num_setor":"RS_SANTATE_SR_028_SGB","data_setor":null,"local":"Linha José Júlio","tipolo_g1":"Inundação","tipolo_e1":null,"cobrade_01":"1.2.1.0.0","tipolo_g2":null,"tipolo_e2":null,"cobrade_02":null,"tipolo_g3":null,"tipolo_e3":null,"cobrade_03":null,"tipolo_g4":null,"tipolo_e4":null,"cobrade_04":null,"tipolo_g5":null,"tipolo_e5":null,"cobrade_05":null,"descricao":"As chuvas de alta intensidade que ocorreram no mês de maio/24 no Rio Grande do Sul provocaram a elevação do nível do Rio Taquari, extravasando sua calha natural, atingindo uma casa de veraneio (Fotos 1 a 6), próxima à margem esquerda a uma distância de aproximadamente 40 metros. Foram observados processos de solapamentos de margem (Fotos 5 e 6). Além deste evento de inundação, foram relatados mais dois anteriores para os anos de 2020 e 2023. Para o ano de 2024, a elevação do rio foi de aproximadamente 20 metros. Esta inundação gerou transtornos significativos para os moradores, causando danos materiais e afetando o cotidiano dos mesmos que tiveram que ser removidos temporariamente. A casa foi construída em alvenaria.","obs_ocup":"","grau_vulne":"Alto","grau_risco":"Muito alto","num_edif":1,"num_domi":null,"num_pess":4,"sug_interv":"- Ampliação do sistema de alerta de eventos críticos da bacia do Rio Taquari para o município de Santa Tereza;\n- Evacuação preventiva na iminência de eventos;\n- Avaliação da influência de pontes no represamento da água durante eventos de cheia;\n- Ações de educação ambiental e percepção de risco junto à comunidade local;\n- Preservação de áreas verdes e reflorestamento das margens que foram erodidas para que sirvam no amortecimento da onda de cheia; \n- Desenvolvimento de políticas de controle de ocupação das áreas de preservação permanente (APPs) e de áreas de risco.\n","orgao_exec":"Serviço Geológico do Brasil","gestao_territorial_risco_risco_":null,"st_area(shape)":1714.437308864065,"st_perimeter(shape)":179.9609835642031,"dt_atualizacao":1760914845000}},{"type":"Feature","id":1666041,"geometry":{"type":"Polygon","coordinates":[[[-51.747012600852408,-29.160372707945658],[-51.746804112654736,-29.160808005861693],[-51.746539624380567,-29.160717140385412],[-51.746693515670216,-29.160300299709096],[-51.747012600852408,-29.160372707945658]]]},"properties":{"objectid":1666041,"uf":"RS","munic":"SANTA TEREZA","cd_geocmu":"4317251","num_setor":"RS_SANTATE_SR_029_SGB","data_setor":null,"local":"Linha José Júlio (Baggio)","tipolo_g1":"Inundação","tipolo_e1":null,"cobrade_01":"1.2.1.0.0","tipolo_g2":null,"tipolo_e2":null,"cobrade_02":null,"tipolo_g3":null,"tipolo_e3":null,"cobrade_03":null,"tipolo_g4":null,"tipolo_e4":null,"cobrade_04":null,"tipolo_g5":null,"tipolo_e5":null,"cobrade_05":null,"descricao":"As chuvas de alta intensidade que ocorreram no mês de maio/24 no Rio Grande do Sul provocaram a elevação do nível do Rio Taquari, extravasando sua calha natural, atingindo duas casas, sendo uma de veraneio (Fotos 1 a 6), próximas à margem esquerda, distando aproximadamente 100 metros. Além deste evento de inundação, foram relatados mais dois anteriores para os anos de 2020 e 2023. Para o ano de 2024, a elevação do rio foi de aproximadamente 20 metros. Esta inundação gerou transtornos significativos para os moradores, causando danos materiais e afetando o cotidiano dos mesmos que tiveram que ser removidos temporariamente. As construções são em alvenaria.","obs_ocup":"","grau_vulne":"Alto","grau_risco":"Muito alto","num_edif":2,"num_domi":null,"num_pess":8,"sug_interv":"- Ampliação do sistema de alerta de eventos críticos da bacia do Rio Taquari para o município de Santa Tereza;\n- Evacuação preventiva na iminência de eventos;\n- Avaliação da influência de pontes no represamento da água durante eventos de cheia;\n- Ações de educação ambiental e percepção de risco junto à comunidade local;\n- Preservação de áreas verdes e reflorestamento das margens que foram erodidas para que sirvam no amortecimento da onda de cheia; \n- Desenvolvimento de políticas de controle de ocupação das áreas de preservação permanente (APPs) e de áreas de risco.\n","orgao_exec":"Serviço Geológico do Brasil","gestao_territorial_risco_risco_":null,"st_area(shape)":1974.0951654105575,"st_perimeter(shape)":184.31793843791067,"dt_atualizacao":1760914845000}},{"type":"Feature","id":1666042,"geometry":{"type":"Polygon","coordinates":[[[-51.708784891853064,-29.198493929820057],[-51.708664134922678,-29.198937538182076],[-51.708299594987125,-29.198891077039022],[-51.708329215136985,-29.198706323035516],[-51.708510124157101,-29.198723617884429],[-51.708584844225804,-29.198451630856198],[-51.708784891853064,-29.198493929820057]]]},"properties":{"objectid":1666042,"uf":"RS","munic":"SANTA TEREZA","cd_geocmu":"4317251","num_setor":"RS_SANTATE_SR_006_SGB","data_setor":null,"local":"Linha Capanema","tipolo_g1":"Corrida de massa","tipolo_e1":"Corrida de detritos","cobrade_01":"1.1.3.3.2","tipolo_g2":null,"tipolo_e2":null,"cobrade_02":null,"tipolo_g3":null,"tipolo_e3":null,"cobrade_03":null,"tipolo_g4":null,"tipolo_e4":null,"cobrade_04":null,"tipolo_g5":null,"tipolo_e5":null,"cobrade_05":null,"descricao":"Área residencial com aproximadamente 50 metros de extensão, situada à margem esquerda do Arroio Marrecão, logo abaixo de uma encosta de alta declividade e próxima a um canal de escoamento natural (Fotos 1 a 6). O local foi marcado por um movimento de massa do tipo corrida de detritos, evidenciado pelo grande volume de blocos rolados ao longo da calha do canal e que foram responsáveis pela destruição de uma casa vizinha e por um galpão. A Residência construída em sua base em alvenaria e complemento em madeira que permaneceu foi atingida, mas sem danos a sua estrutura. Este movimento de massa é decorrente de um evento climático adverso ocorrido no mês de maio de 2024, caracterizado por chuvas intensas que afetaram diversas regiões do Rio Grande do Sul.","obs_ocup":"","grau_vulne":"Alto","grau_risco":"Alto","num_edif":1,"num_domi":null,"num_pess":4,"sug_interv":"- Monitoramento das condições de estabilidade da encosta, especialmente em períodos chuvosos e evacuação preventiva caso haja indícios de iminência de deslizamento;\n- Elaboração de estudos geotécnicos e hidrológicos detalhados, por profissional habilitado, para avaliar a necessidade e viabilidade de implantação de medidas de contenção e de drenagem na encosta;\n- Ações de educação ambiental e de percepção de risco para a comunidade em área de risco;\n- Implantação de políticas de controle urbano e orientações para abertura de lotes em áreas suscetíveis a movimentos de massa, visando o ordenamento territorial e a adoção de técnicas seguras de ocupação.\n","orgao_exec":"Serviço Geológico do Brasil","gestao_territorial_risco_risco_":null,"st_area(shape)":1820.5240325601167,"st_perimeter(shape)":201.78687589046797,"dt_atualizacao":1760914845000}},{"type":"Feature","id":1666043,"geometry":{"type":"Polygon","coordinates":[[[-51.705840777595398,-29.199588071174492],[-51.705926513704419,-29.199844772686305],[-51.704925861444828,-29.200166670822121],[-51.704784508839921,-29.199897310637589],[-51.705840777595398,-29.199588071174492]]]},"properties":{"objectid":1666043,"uf":"RS","munic":"SANTA TEREZA","cd_geocmu":"4317251","num_setor":"RS_SANTATE_SR_007_SGB","data_setor":null,"local":"Linha Capanema","tipolo_g1":"Corrida de massa","tipolo_e1":"Corrida de detritos","cobrade_01":"1.1.3.3.2","tipolo_g2":"Queda","tipolo_e2":"Queda de blocos","cobrade_02":"1.1.3.1.1","tipolo_g3":null,"tipolo_e3":null,"cobrade_03":null,"tipolo_g4":null,"tipolo_e4":null,"cobrade_04":null,"tipolo_g5":null,"tipolo_e5":null,"cobrade_05":null,"descricao":"Área residencial com aproximadamente 100 metros de extensão, situada na Linha Capanema, pertencente ao Sr. Valdecir Trevisan, à margem esquerda do Arroio Marrecão, logo abaixo de uma encosta de alta declividade (Fotos 1 a 3). O local foi marcado por um movimento de massa do tipo corrida de detritos com queda de blocos (Fotos 4 e 5) que atingiram um galpão e o chiqueiro (Foto 6). Estes movimentos foram decorrentes de um evento climático adverso ocorrido no mês de maio de 2024, caracterizado por chuvas intensas que afetaram diversas regiões do Rio Grande do Sul. A casa é de veraneio e sua base foi construída em alvenaria e complemento em madeira.","obs_ocup":"","grau_vulne":"Alto","grau_risco":"Alto","num_edif":1,"num_domi":null,"num_pess":4,"sug_interv":"- Monitoramento das condições de estabilidade da encosta, especialmente em períodos chuvosos e evacuação preventiva caso haja indícios de iminência de deslizamento;\n- Elaboração de estudos geotécnicos e hidrológicos detalhados, por profissional habilitado, para avaliar a necessidade e viabilidade de implantação de medidas de contenção e de drenagem na encosta;\n- Ações de educação ambiental e de percepção de risco para a comunidade em área de risco;\n- Implantação de políticas de controle urbano e orientações para abertura de lotes em áreas suscetíveis a movimentos de massa, visando o ordenamento territorial e a adoção de técnicas seguras de ocupação.\n","orgao_exec":"Serviço Geológico do Brasil","gestao_territorial_risco_risco_":null,"st_area(shape)":4348.9191041844979,"st_perimeter(shape)":314.61689999829031,"dt_atualizacao":1760914845000}},{"type":"Feature","id":1666044,"geometry":{"type":"Polygon","coordinates":[[[-51.734452820978838,-29.166483475368963],[-51.734599497898444,-29.167279089998779],[-51.733343189600546,-29.16741028473967],[-51.732830805833849,-29.16737213503038],[-51.732837034752023,-29.167089879296334],[-51.733307247107717,-29.167108886353677],[-51.734566068891773,-29.165189380135317],[-51.735181155248263,-29.165456396612893],[-51.734452820978838,-29.166483475368963]]]},"properties":{"objectid":1666044,"uf":"RS","munic":"SANTA TEREZA","cd_geocmu":"4317251","num_setor":"RS_SANTATE_SR_032_SGB","data_setor":null,"local":"Dionísio Grazzi","tipolo_g1":"Inundação","tipolo_e1":null,"cobrade_01":"1.2.1.0.0","tipolo_g2":null,"tipolo_e2":null,"cobrade_02":null,"tipolo_g3":null,"tipolo_e3":null,"cobrade_03":null,"tipolo_g4":null,"tipolo_e4":null,"cobrade_04":null,"tipolo_g5":null,"tipolo_e5":null,"cobrade_05":null,"descricao":"As chuvas de alta intensidade que ocorreram no mês de maio/24 no Rio Grande do Sul provocaram a elevação do nível do Rio Taquari e seus afluentes, como o Arroio Marrecão que extravasou sua calha natural e atingiu várias casas, onde apenas quatro permaneceram em boas condições de moradia (Fotos 1 a 5). As residências atingidas estão situadas à margem direita do Arroio Marrecão, entre 100 e 200 metros de distância. Este setor dista aproximadamente 700 metros do Rio Taquari. Além deste evento de inundação, foram relatados mais dois anteriores para os anos de 2020 e 2023. Para o ano de 2024, a elevação do rio foi de aproximadamente 20 metros. Esta inundação gerou transtornos significativos para os moradores, causando danos materiais e afetando o cotidiano dos mesmos que tiveram que ser removidos temporariamente. As construções são em alvenaria e madeira.","obs_ocup":"","grau_vulne":"Alto","grau_risco":"Muito alto","num_edif":4,"num_domi":null,"num_pess":16,"sug_interv":"- Ampliação do sistema de alerta de eventos críticos da bacia do Rio Taquari para o município de Santa Tereza;\n- Evacuação preventiva na iminência de eventos;\n- Avaliação da influência de pontes no represamento da água durante eventos de cheia;\n- Ações de educação ambiental e percepção de risco junto à comunidade local;\n- Preservação de áreas verdes e reflorestamento das margens que foram erodidas para que sirvam no amortecimento da onda de cheia; \n- Desenvolvimento de políticas de controle de ocupação das áreas de preservação permanente (APPs) e de áreas de risco.\n","orgao_exec":"Serviço Geológico do Brasil","gestao_territorial_risco_risco_":null,"st_area(shape)":27746.310496346112,"st_perimeter(shape)":901.67561825004748,"dt_atualizacao":1760914845000}},{"type":"Feature","id":1666045,"geometry":{"type":"Polygon","coordinates":[[[-51.733414856295603,-29.170898506855234],[-51.732647734568829,-29.171083100734375],[-51.732215125690935,-29.170903533173327],[-51.731595805574507,-29.170924789130787],[-51.731020349295058,-29.170873376830041],[-51.731123882826502,-29.170313070109689],[-51.732037881797176,-29.170327069049446],[-51.733085571641688,-29.170336197734546],[-51.733716778265958,-29.170174971764659],[-51.733884606917222,-29.17058039407334],[-51.733414856295603,-29.170898506855234]]]},"properties":{"objectid":1666045,"uf":"RS","munic":"SANTA TEREZA","cd_geocmu":"4317251","num_setor":"RS_SANTATE_SR_033_SGB","data_setor":null,"local":"Rua Olímpio Valduga","tipolo_g1":"Inundação","tipolo_e1":null,"cobrade_01":"1.2.1.0.0","tipolo_g2":null,"tipolo_e2":null,"cobrade_02":null,"tipolo_g3":null,"tipolo_e3":null,"cobrade_03":null,"tipolo_g4":null,"tipolo_e4":null,"cobrade_04":null,"tipolo_g5":null,"tipolo_e5":null,"cobrade_05":null,"descricao":"As chuvas de alta intensidade que ocorreram no mês de maio/24 no Rio Grande do Sul provocaram a elevação do nível do Rio Taquari e seus afluentes, como o Arroio Marrecão que extravasou sua calha natural e atingiu nove casas (Fotos 1 a 6). As residências atingidas estão situadas à margem direita do Arroio Marrecão, entre 40 e 100 metros de distância. Este setor dista aproximadamente 400 metros do Rio Taquari. Além deste evento de inundação, foram relatados mais dois anteriores para os anos de 2020 e 2023. Para o ano de 2024, a elevação do rio foi de aproximadamente 20 metros. Esta inundação gerou transtornos significativos para os moradores, causando danos materiais e afetando o cotidiano dos mesmos que tiveram que ser removidos temporariamente. As construções são em alvenaria e madeira.","obs_ocup":"","grau_vulne":"Baixo","grau_risco":"Muito alto","num_edif":5,"num_domi":null,"num_pess":20,"sug_interv":"- Ampliação do sistema de alerta de eventos críticos da bacia do Rio Taquari para o município de Santa Tereza;\n- Evacuação preventiva na iminência de eventos;\n- Avaliação da influência de pontes no represamento da água durante eventos de cheia;\n- Ações de educação ambiental e percepção de risco junto à comunidade local;\n- Preservação de áreas verdes e reflorestamento das margens que foram erodidas para que sirvam no amortecimento da onda de cheia; \n- Desenvolvimento de políticas de controle de ocupação das áreas de preservação permanente (APPs) e de áreas de risco.\n","orgao_exec":"Serviço Geológico do Brasil","gestao_territorial_risco_risco_":null,"st_area(shape)":24049.138167981284,"st_perimeter(shape)":760.38873325356485,"dt_atualizacao":1760914845000}},{"type":"Feature","id":1666047,"geometry":{"type":"Polygon","coordinates":[[[-51.754680707254231,-29.140967565025566],[-51.754541160263038,-29.141440231267254],[-51.754083898918815,-29.141330036327975],[-51.754214928084458,-29.140873834644275],[-51.754680707254231,-29.140967565025566]]]},"properties":{"objectid":1666047,"uf":"RS","munic":"SANTA TEREZA","cd_geocmu":"4317251","num_setor":"RS_SANTATE_SR_027_SGB","data_setor":null,"local":"Linha José Júlio (Remus)","tipolo_g1":"Inundação","tipolo_e1":null,"cobrade_01":"1.2.1.0.0","tipolo_g2":null,"tipolo_e2":null,"cobrade_02":null,"tipolo_g3":null,"tipolo_e3":null,"cobrade_03":null,"tipolo_g4":null,"tipolo_e4":null,"cobrade_04":null,"tipolo_g5":null,"tipolo_e5":null,"cobrade_05":null,"descricao":"As chuvas de alta intensidade que ocorreram no mês de maio/24 no Rio Grande do Sul provocaram a elevação do nível do Rio Taquari, extravasando sua calha natural, atingindo duas casas de veraneio (Fotos 1 a 6), próximas à margem esquerda a uma distância de aproximadamente 130 metros. Além deste evento de inundação, foram relatados mais dois anteriores para os anos de 2020 e 2023. Para o ano de 2024, a elevação do rio foi de aproximadamente 20 metros. Esta inundação gerou transtornos significativos para os moradores, causando danos materiais e afetando o cotidiano dos mesmos que tiveram que ser removidos temporariamente. As construções são em alvenaria.","obs_ocup":"","grau_vulne":"Alto","grau_risco":"Muito alto","num_edif":1,"num_domi":null,"num_pess":4,"sug_interv":"- Ampliação do sistema de alerta de eventos críticos da bacia do Rio Taquari para o município de Santa Tereza;\n- Evacuação preventiva na iminência de eventos;\n- Avaliação da influência de pontes no represamento da água durante eventos de cheia;\n- Ações de educação ambiental e percepção de risco junto à comunidade local;\n- Preservação de áreas verdes e reflorestamento das margens que foram erodidas para que sirvam no amortecimento da onda de cheia; \n- Desenvolvimento de políticas de controle de ocupação das áreas de preservação permanente (APPs) e de áreas de risco.\n","orgao_exec":"Serviço Geológico do Brasil","gestao_territorial_risco_risco_":null,"st_area(shape)":3236.8265455066362,"st_perimeter(shape)":228.1711627858196,"dt_atualizacao":1760914845000}},{"type":"Feature","id":1666048,"geometry":{"type":"Polygon","coordinates":[[[-51.71213923525994,-29.094018836092541],[-51.711989589408333,-29.093853935263315],[-51.712409055933627,-29.093528415621453],[-51.712581522586703,-29.093702267211253],[-51.71213923525994,-29.094018836092541]]]},"properties":{"objectid":1666048,"uf":"RS","munic":"SANTA TEREZA","cd_geocmu":"4317251","num_setor":"RS_SANTATE_SR_020_SGB","data_setor":null,"local":"Linha José Júlio","tipolo_g1":"Inundação","tipolo_e1":null,"cobrade_01":"1.2.1.0.0","tipolo_g2":null,"tipolo_e2":null,"cobrade_02":null,"tipolo_g3":null,"tipolo_e3":null,"cobrade_03":null,"tipolo_g4":null,"tipolo_e4":null,"cobrade_04":null,"tipolo_g5":null,"tipolo_e5":null,"cobrade_05":null,"descricao":"As chuvas de alta intensidade que ocorreram no mês de maio/24 no Rio Grande do Sul provocaram a elevação do nível do Rio das Antas, extravasando sua calha natural, atingindo uma única residência neste setor (Fotos 1 a 6). O local pertence a Sra. Adirce Glanet e dista aproximadamente 82 metros da margem esquerda do Rio das Antas. Além deste evento de inundação, foram relatados mais dois anteriores para os anos de 2020 e 2023. Neste ponto o rio teve uma elevação de aproximadamente 20 metros. Esta inundação gerou transtornos significativos para a moradora, causando danos materiais e afetando o cotidiano da mesma que teve que ser removida temporariamente. A residência é construída em alvenaria.","obs_ocup":"","grau_vulne":"Alto","grau_risco":"Muito alto","num_edif":1,"num_domi":null,"num_pess":4,"sug_interv":"- Ampliação do sistema de alerta de eventos críticos da bacia do Rio da Antas para o município de Santa Tereza;\n- Evacuação preventiva na iminência de eventos;\n- Avaliação da influência de pontes no represamento da água durante eventos de cheia;\n- Ações de educação ambiental e percepção de risco junto à comunidade local;\n- Preservação de áreas verdes e reflorestamento das margens que foram erodidas para que sirvam no amortecimento da onda de cheia;\n- Desenvolvimento de políticas de controle de ocupação das áreas de preservação permanente (APPs) e de áreas de risco.\n","orgao_exec":"Serviço Geológico do Brasil","gestao_territorial_risco_risco_":null,"st_area(shape)":1768.2240994722581,"st_perimeter(shape)":182.21555603049995,"dt_atualizacao":1760914845000}},{"type":"Feature","id":1666050,"geometry":{"type":"Polygon","coordinates":[[[-51.740199822653395,-29.153837591309514],[-51.740468753994953,-29.154141289608948],[-51.73965214677412,-29.154652962861089],[-51.739405567313476,-29.154337613774018],[-51.740199822653395,-29.153837591309514]]]},"properties":{"objectid":1666050,"uf":"RS","munic":"SANTA TEREZA","cd_geocmu":"4317251","num_setor":"RS_SANTATE_SR_030_SGB","data_setor":null,"local":"Linha Bento Gonçalves","tipolo_g1":"Rastejo","tipolo_e1":null,"cobrade_01":null,"tipolo_g2":null,"tipolo_e2":null,"cobrade_02":null,"tipolo_g3":null,"tipolo_e3":null,"cobrade_03":null,"tipolo_g4":null,"tipolo_e4":null,"cobrade_04":null,"tipolo_g5":null,"tipolo_e5":null,"cobrade_05":null,"descricao":"Área residencial com aproximadamente 100 metros de extensão, situada em uma encosta de alta declividade. O local apresenta indícios de movimentação de massa do tipo rastejo (Foto 1), apresentando fraturas curvas em seu topo e soerguimento de massa em sua base. Este movimento foi decorrente do evento climático adverso ocorrido no mês de maio de 2024, caracterizado por chuvas intensas que afetaram várias regiões do Rio Grande do Sul.","obs_ocup":"","grau_vulne":"Alto","grau_risco":"Alto","num_edif":2,"num_domi":null,"num_pess":8,"sug_interv":"- Monitoramento das condições de estabilidade da encosta, especialmente em períodos chuvosos e evacuação preventiva caso haja indícios de iminência de deslizamento;\n- Elaboração de estudos geotécnicos e hidrológicos detalhados, por profissional habilitado, para avaliar a necessidade e viabilidade de implantação de medidas de contenção e de drenagem na encosta;\n- Ações de educação ambiental e de percepção de risco para a comunidade em área de risco;\n- Implantação de políticas de controle urbano e orientações para abertura de lotes em áreas suscetíveis a movimentos de massa, visando o ordenamento territorial e a adoção de técnicas seguras de ocupação.\n","orgao_exec":"Serviço Geológico do Brasil","gestao_territorial_risco_risco_":null,"st_area(shape)":5387.6185019336317,"st_perimeter(shape)":318.48844843695673,"dt_atualizacao":1760914845000}},{"type":"Feature","id":1666051,"geometry":{"type":"Polygon","coordinates":[[[-51.737890676266112,-29.166028725178233],[-51.73791238315664,-29.166427774795395],[-51.737555388171145,-29.166412699889481],[-51.737516863021874,-29.166128526752729],[-51.737169975879972,-29.165923576117333],[-51.736911056262265,-29.165741040694023],[-51.736928801582373,-29.165480262689726],[-51.737146253169954,-29.165502167703618],[-51.737150266842633,-29.165646542219207],[-51.737560582230131,-29.166012555949127],[-51.737890676266112,-29.166028725178233]]]},"properties":{"objectid":1666051,"uf":"RS","munic":"SANTA TEREZA","cd_geocmu":"4317251","num_setor":"RS_SANTATE_SR_031_SGB","data_setor":null,"local":"Estrada do Marrecão","tipolo_g1":"Inundação","tipolo_e1":null,"cobrade_01":"1.2.1.0.0","tipolo_g2":null,"tipolo_e2":null,"cobrade_02":null,"tipolo_g3":null,"tipolo_e3":null,"cobrade_03":null,"tipolo_g4":null,"tipolo_e4":null,"cobrade_04":null,"tipolo_g5":null,"tipolo_e5":null,"cobrade_05":null,"descricao":"As chuvas de alta intensidade que ocorreram no mês de maio/24 no Rio Grande do Sul provocaram a elevação do nível do Rio Taquari e seus afluentes, como o Arroio Marrecão que extravasou sua calha natural e atingiu várias casas, onde apenas quatro permaneceram em boas condições de moradia (Fotos 1 a 6). As residências atingidas estão situadas à margem direita do Arroio Marrecão, com aproximadamente 60 metros de distância e a 400 metros do Rio Taquari, entre as ruas Beco 1 e a Rua Saldanha Marinho. Além deste evento de inundação, foram relatados mais dois anteriores para os anos de 2020 e 2023. Para o ano de 2024, a elevação do rio foi de aproximadamente 20 metros. Esta inundação gerou transtornos significativos para os moradores, causando danos materiais e afetando o cotidiano dos mesmos que tiveram que ser removidos temporariamente. As construções são em alvenaria.","obs_ocup":"","grau_vulne":"Alto","grau_risco":"Muito alto","num_edif":4,"num_domi":null,"num_pess":16,"sug_interv":"- Ampliação do sistema de alerta de eventos críticos da bacia do Rio Taquari para o município de Santa Tereza;\n- Evacuação preventiva na iminência de eventos;\n- Avaliação da influência de pontes no represamento da água durante eventos de cheia;\n- Ações de educação ambiental e percepção de risco junto à comunidade local;\n- Preservação de áreas verdes e reflorestamento das margens que foram erodidas para que sirvam no amortecimento da onda de cheia; \n- Desenvolvimento de políticas de controle de ocupação das áreas de preservação permanente (APPs) e de áreas de risco.","orgao_exec":"Serviço Geológico do Brasil","gestao_territorial_risco_risco_":null,"st_area(shape)":4306.9337045752845,"st_perimeter(shape)":389.04472152197161,"dt_atualizacao":1760914845000}},{"type":"Feature","id":1666052,"geometry":{"type":"Polygon","coordinates":[[[-51.720063108192825,-29.122217427242138],[-51.720346087388798,-29.122090968850429],[-51.720473455021356,-29.122284004135885],[-51.720787217685469,-29.12212899568927],[-51.721177205994714,-29.122612108828065],[-51.720855573190399,-29.12279602827547],[-51.721280060399799,-29.123472219990351],[-51.721551231241349,-29.123359368262349],[-51.721942656855049,-29.12399464778964],[-51.721454601262877,-29.124259949178573],[-51.721070607411534,-29.123620151956604],[-51.720478944626052,-29.122890413925372],[-51.720063108192825,-29.122217427242138]]]},"properties":{"objectid":1666052,"uf":"RS","munic":"SANTA TEREZA","cd_geocmu":"4317251","num_setor":"RS_SANTATE_SR_024_SGB","data_setor":null,"local":"Linha José Júlio (Comunidade Santo Estanislau)","tipolo_g1":"Inundação","tipolo_e1":null,"cobrade_01":"1.2.1.0.0","tipolo_g2":null,"tipolo_e2":null,"cobrade_02":null,"tipolo_g3":null,"tipolo_e3":null,"cobrade_03":null,"tipolo_g4":null,"tipolo_e4":null,"cobrade_04":null,"tipolo_g5":null,"tipolo_e5":null,"cobrade_05":null,"descricao":"As chuvas de alta intensidade que ocorreram no mês de maio/24 no Rio Grande do Sul provocaram a elevação do nível do Rio Taquari, extravasando sua calha natural, levando a destruição de três residências (Fotos 1 e 2), a Capela de Santo Estanislau (Foto 3) e uma escola abandonada à sua margem esquerda. A elevação do rio também atingiu duas casas que estão a aproximadamente 90 metros de sua margem e que permaneceram intactas (Fotos 4 a 6). Além deste evento de inundação, foram relatados mais dois anteriores para os anos de 2020 e 2023. Para o ano de 2024, a elevação do rio foi de aproximadamente 20 metros. Esta inundação gerou transtornos significativos para os moradores, causando danos materiais e afetando o cotidiano dos mesmos que tiveram que ser removidos temporariamente. As construções são em alvenaria.","obs_ocup":"","grau_vulne":"Alto","grau_risco":"Muito alto","num_edif":6,"num_domi":null,"num_pess":24,"sug_interv":"- Ampliação do sistema de alerta de eventos críticos da bacia do Rio Taquari para o município de Santa Tereza;\n- Evacuação preventiva na iminência de eventos;\n- Avaliação da influência de pontes no represamento da água durante eventos de cheia;\n- Ações de educação ambiental e percepção de risco junto à comunidade local;\n- Preservação de áreas verdes e reflorestamento das margens que foram erodidas para que sirvam no amortecimento da onda de cheia; \n- Desenvolvimento de políticas de controle de ocupação das áreas de preservação permanente (APPs) e de áreas de risco.\n","orgao_exec":"Serviço Geológico do Brasil","gestao_territorial_risco_risco_":null,"st_area(shape)":16797.206785980736,"st_perimeter(shape)":813.12337469514421,"dt_atualizacao":1760914845000}},{"type":"Feature","id":1666053,"geometry":{"type":"Polygon","coordinates":[[[-51.727071650851805,-29.13303909398412],[-51.727224094057213,-29.132941812795401],[-51.727427829268706,-29.133207302960049],[-51.727567199291776,-29.133129400932251],[-51.727789361644675,-29.133436244970817],[-51.727631128797277,-29.133549010311288],[-51.727461704738069,-29.133375509306781],[-51.727248921695022,-29.133258694882905],[-51.727071650851805,-29.13303909398412]]]},"properties":{"objectid":1666053,"uf":"RS","munic":"SANTA TEREZA","cd_geocmu":"4317251","num_setor":"RS_SANTATE_SR_025_SGB","data_setor":null,"local":"Linha José Júlio (Bielski)","tipolo_g1":"Inundação","tipolo_e1":null,"cobrade_01":"1.2.1.0.0","tipolo_g2":null,"tipolo_e2":null,"cobrade_02":null,"tipolo_g3":null,"tipolo_e3":null,"cobrade_03":null,"tipolo_g4":null,"tipolo_e4":null,"cobrade_04":null,"tipolo_g5":null,"tipolo_e5":null,"cobrade_05":null,"descricao":"As chuvas de alta intensidade que ocorreram no mês de maio/24 no Rio Grande do Sul provocaram a elevação do nível do Rio Taquari, extravasando sua calha natural, atingindo três residências, sendo duas de veraneio (Fotos 1 a 6), próximas à margem esquerda a uma distância de aproximadamente 90 metros para a casa mais distante (Fotos 1 a 3) e 80 metros para a casa mais próxima ao rio (Fotos 3 a 6). Além deste evento de inundação, foram relatados mais dois anteriores para os anos de 2020 e 2023. Para o ano de 2024, a elevação do rio foi de aproximadamente 20 metros. Esta inundação gerou transtornos significativos para os moradores, causando danos materiais e afetando o cotidiano dos mesmos que tiveram que ser removidos temporariamente. As construções são em alvenaria.","obs_ocup":"","grau_vulne":"Alto","grau_risco":"Muito alto","num_edif":2,"num_domi":null,"num_pess":8,"sug_interv":"- Ampliação do sistema de alerta de eventos críticos da bacia do Rio Taquari para o município de Santa Tereza;\n- Evacuação preventiva na iminência de eventos;\n- Avaliação da influência de pontes no represamento da água durante eventos de cheia;\n- Ações de educação ambiental e percepção de risco junto à comunidade local;\n- Preservação de áreas verdes e reflorestamento das margens que foram erodidas para que sirvam no amortecimento da onda de cheia; \n- Desenvolvimento de políticas de controle de ocupação das áreas de preservação permanente (APPs) e de áreas de risco.\n","orgao_exec":"Serviço Geológico do Brasil","gestao_territorial_risco_risco_":null,"st_area(shape)":2129.5216532244958,"st_perimeter(shape)":240.45330366375802,"dt_atualizacao":1760914845000}}]}