{"type": "FeatureCollection", "name": "sgb_hand_cruzamento_st", "metadata": {"schema_version": 1, "artifact_id": "sgb-hand-cruzamento-st", "gerado_em": "2026-09-02T23:06:40Z", "municipio": "Santa Tereza", "cod_ibge": "4317251", "bankfull_cm": 400, "metodo": "Centroide do polígono SGB amostrado no raster HAND (mesma fonte da previsão).", "limitacao": "Não substitui visita de campo nem mancha contínua; deslizamentos usam a mesma amostra espacial.", "totais": {"setores": 37, "inundacao": 22, "hand_ate_15m": 12, "hand_acima_18m": 20}}, "features": [{"type": "Feature", "geometry": {"type": "Polygon", "coordinates": [[[-51.75095465176256, -29.13738079111559], [-51.75101336834447, -29.13720445932373], [-51.75149585887346, -29.137280789770887], [-51.75177769900564, -29.137303943666037], [-51.75177344817773, -29.13753992965072], [-51.75095465176256, -29.13738079111559]]]}, "properties": {"num_setor": "RS_SANTATE_SR_026_SGB", "local": "Linha José Júlio (Cerbarro)", "tipologia": "Inundação", "grau_risco": "Muito alto", "grau_vulnerabilidade": "Alto", "num_pess": 8, "num_edif": 2, "hand_centroide_m": 12.5, "nivel_rio_equiv_cm": 1650.0, "faixa_hand": "≤15.0m", "inundacao": true}}, {"type": "Feature", "geometry": {"type": "Polygon", "coordinates": [[[-51.72086559210075, -29.07893628491283], [-51.72103124143914, -29.07885988605372], [-51.7212124109707, -29.07874296027448], [-51.721418111696046, -29.07861469615183], [-51.72139313134463, -29.07853443207319], [-51.72146652190669, -29.078493576945437], [-51.72143317374841, -29.078375952022363], [-51.721637968073615, -29.078315150881977], [-51.72184762497946, -29.078263714243295], [-51.72187173396506, -29.078508547765967], [-51.72198677761024, -29.078493098827536], [-51.72199719806754, -29.078586651307656], [-51.722891201438294, -29.078483808108977], [-51.72316772623893, -29.078140174978262], [-51.72415514092451, -29.07875093202699], [-51.72390803055953, -29.079073537044515], [-51.72394058101384, -29.07924810783144], [-51.72357200135446, -29.079569584704316], [-51.7230526556443, -29.078750938307692], [-51.72163289079564, -29.0789083061032], [-51.72099068519901, -29.079067213205146], [-51.72086559210075, -29.07893628491283]]]}, "properties": {"num_setor": "RS_SANTATE_SR_021_SGB", "local": "Linha José Júlio", "tipologia": "Inundação", "grau_risco": "Muito alto", "grau_vulnerabilidade": "Alto", "num_pess": 8, "num_edif": 2, "hand_centroide_m": 22.0, "nivel_rio_equiv_cm": 2600.0, "faixa_hand": ">21.0m", "inundacao": true}}, {"type": "Feature", "geometry": {"type": "Polygon", "coordinates": [[[-51.7186224629037, -29.104376854126073], [-51.71881005269459, -29.104554464278227], [-51.71863734080143, -29.104668696845238], [-51.71872750290987, -29.10477152409957], [-51.71854226670502, -29.10489236437806], [-51.71675089487446, -29.105758354097073], [-51.71657441634531, -29.105473360986732], [-51.71700663265943, -29.105291740885484], [-51.71704749612339, -29.105375443870326], [-51.71833553022218, -29.104690746682962], [-51.71848996589086, -29.104588879265915], [-51.71843276117358, -29.104526456323445], [-51.7186224629037, -29.104376854126073]]]}, "properties": {"num_setor": "RS_SANTATE_SR_022_SGB", "local": "Linha José Júlio (Marostica)", "tipologia": "Inundação", "grau_risco": "Muito alto", "grau_vulnerabilidade": "Alto", "num_pess": 4, "num_edif": 1, "hand_centroide_m": 18.9, "nivel_rio_equiv_cm": 2290.0, "faixa_hand": "≤21.0m", "inundacao": true}}, {"type": "Feature", "geometry": {"type": "Polygon", "coordinates": [[[-51.713556459672986, -29.10858763300878], [-51.7138186527516, -29.108313329672523], [-51.71408941665633, -29.108507866345178], [-51.71308325502908, -29.109573818154754], [-51.71319849360867, -29.109605588090222], [-51.71315260766397, -29.109776769943743], [-51.71278986525729, -29.10980617035999], [-51.71278555873383, -29.10960676065562], [-51.713556459672986, -29.10858763300878]]]}, "properties": {"num_setor": "RS_SANTATE_SR_023_SGB", "local": "Linha José Júlio", "tipologia": "Inundação", "grau_risco": "Muito alto", "grau_vulnerabilidade": "Alto", "num_pess": 16, "num_edif": 4, "hand_centroide_m": 18.5, "nivel_rio_equiv_cm": 2250.0, "faixa_hand": "≤21.0m", "inundacao": true}}, {"type": "Feature", "geometry": {"type": "Polygon", "coordinates": [[[-51.73706632916081, -29.16786444129122], [-51.73579622184184, -29.167835215928424], [-51.735802288164955, -29.16724328091919], [-51.73660629471728, -29.167313075314674], [-51.73661759462525, -29.167439580820165], [-51.73691213693554, -29.167473304090695], [-51.73733608695242, -29.167740746835523], [-51.73734590464016, -29.167913591307567], [-51.73744046400191, -29.167927741964643], [-51.73768877541442, -29.16794558010443], [-51.73768625743669, -29.168418555984033], [-51.7378681177727, -29.168425413999035], [-51.73789856706757, -29.169291693778554], [-51.737894314443004, -29.16937922034761], [-51.73856620037663, -29.169381079359837], [-51.738589641015636, -29.17026009971072], [-51.73886371790715, -29.170257727725556], [-51.738859775201355, -29.170458343039662], [-51.73820732521723, -29.170471333240503], [-51.738197383561996, -29.169807502144284], [-51.73775745610948, -29.16979738272742], [-51.737757580975305, -29.170428280691816], [-51.73701908316675, -29.17045581731959], [-51.7370330627492, -29.169376838145002], [-51.737156636796314, -29.169377180140508], [-51.73715554713987, -29.16930545126429], [-51.737140045811344, -29.168349268278977], [-51.73714127740159, -29.168283274230042], [-51.737085859433385, -29.168286323983878], [-51.73706632916081, -29.16786444129122]]]}, "properties": {"num_setor": "RS_SANTATE_SR_036_SGB", "local": "Ruas Cesare Apiane/Virgílio Franceschini/Barão do Rio Branco/Helvecio Lisboa e Av. Itália", "tipologia": "Inundação", "grau_risco": "Muito alto", "grau_vulnerabilidade": "Alto", "num_pess": 160, "num_edif": 40, "hand_centroide_m": 11.9, "nivel_rio_equiv_cm": 1590.0, "faixa_hand": "≤15.0m", "inundacao": true}}, {"type": "Feature", "geometry": {"type": "Polygon", "coordinates": [[[-51.73963791925666, -29.168993582046294], [-51.739641206192296, -29.169140328369092], [-51.73997569658327, -29.169136709954063], [-51.740201812421745, -29.169319724879323], [-51.74005779900698, -29.169497161663713], [-51.73991839215299, -29.169402723122815], [-51.739841925759364, -29.16947483628347], [-51.73969534136626, -29.169372486330502], [-51.73955347941658, -29.169559902058797], [-51.739413448233464, -29.16955991225591], [-51.7394033942888, -29.169771228018803], [-51.739160355986996, -29.16977370277036], [-51.73911263568249, -29.16899200776292], [-51.73963791925666, -29.168993582046294]]]}, "properties": {"num_setor": "RS_SANTATE_SR_037_SGB", "local": "Sede - Rua Barão do Rio Branco (cemitério)", "tipologia": "Inundação", "grau_risco": "Muito alto", "grau_vulnerabilidade": "Alto", "num_pess": 8, "num_edif": 2, "hand_centroide_m": 14.0, "nivel_rio_equiv_cm": 1800.0, "faixa_hand": "≤15.0m", "inundacao": true}}, {"type": "Feature", "geometry": {"type": "Polygon", "coordinates": [[[-51.69585610023046, -29.20186413920721], [-51.6959265847426, -29.20194348915996], [-51.69645796697925, -29.201617841324037], [-51.69661212776346, -29.201785174208545], [-51.696009902586894, -29.202160425609087], [-51.69595076559342, -29.202087556768664], [-51.695692728121315, -29.202258248934825], [-51.69552177243454, -29.20206774381861], [-51.69585610023046, -29.20186413920721]]]}, "properties": {"num_setor": "RS_SANTATE_SR_002_SGB", "local": "Linha Soares Baixa", "tipologia": "Deslizamento", "grau_risco": "Alto", "grau_vulnerabilidade": "Alto", "num_pess": 8, "num_edif": 2, "hand_centroide_m": 25.0, "nivel_rio_equiv_cm": 2900.0, "faixa_hand": ">21.0m", "inundacao": false}}, {"type": "Feature", "geometry": {"type": "Polygon", "coordinates": [[[-51.691480055240234, -29.203073270312164], [-51.69168459534223, -29.20327132790903], [-51.69132300277912, -29.20358700574566], [-51.69111759939613, -29.203393623761475], [-51.691480055240234, -29.203073270312164]]]}, "properties": {"num_setor": "RS_SANTATE_SR_003_SGB", "local": "Linha Soares Baixa", "tipologia": "Deslizamento", "grau_risco": "Alto", "grau_vulnerabilidade": "Alto", "num_pess": 4, "num_edif": 1, "hand_centroide_m": 25.0, "nivel_rio_equiv_cm": 2900.0, "faixa_hand": ">21.0m", "inundacao": false}}, {"type": "Feature", "geometry": {"type": "Polygon", "coordinates": [[[-51.705250858439896, -29.193186055773182], [-51.70550254212798, -29.193115032862806], [-51.70556566314975, -29.19349713783117], [-51.70533989675591, -29.19354987273459], [-51.705250858439896, -29.193186055773182]]]}, "properties": {"num_setor": "RS_SANTATE_SR_001_SGB", "local": "Linha Soares Baixa", "tipologia": "Rastejo", "grau_risco": "Alto", "grau_vulnerabilidade": "Alto", "num_pess": 4, "num_edif": 1, "hand_centroide_m": 25.0, "nivel_rio_equiv_cm": 2900.0, "faixa_hand": ">21.0m", "inundacao": false}}, {"type": "Feature", "geometry": {"type": "Polygon", "coordinates": [[[-51.70211041468194, -29.097640713805987], [-51.70214068970365, -29.097154403288037], [-51.70341259814475, -29.097249333664035], [-51.703336064377496, -29.09759485519169], [-51.70211041468194, -29.097640713805987]]]}, "properties": {"num_setor": "RS_SANTATE_SR_018_SGB", "local": "Linha José Júlio", "tipologia": "Inundação", "grau_risco": "Muito alto", "grau_vulnerabilidade": "Alto", "num_pess": 4, "num_edif": 1, "hand_centroide_m": 17.4, "nivel_rio_equiv_cm": 2140.0, "faixa_hand": "≤18.0m", "inundacao": true}}, {"type": "Feature", "geometry": {"type": "Polygon", "coordinates": [[[-51.70859581355374, -29.096034927995365], [-51.7084883418081, -29.095631557037688], [-51.709413515820906, -29.095425453223672], [-51.71017073990986, -29.094988510235012], [-51.710433398315786, -29.095324666160007], [-51.70954558703228, -29.095783094300153], [-51.70859581355374, -29.096034927995365]]]}, "properties": {"num_setor": "RS_SANTATE_SR_019_SGB", "local": "Linha José Júlio", "tipologia": "Inundação", "grau_risco": "Muito alto", "grau_vulnerabilidade": "Alto", "num_pess": 20, "num_edif": 5, "hand_centroide_m": 11.7, "nivel_rio_equiv_cm": 1570.0, "faixa_hand": "≤15.0m", "inundacao": true}}, {"type": "Feature", "geometry": {"type": "Polygon", "coordinates": [[[-51.73751225376615, -29.187650031339416], [-51.73791180015002, -29.18743703879565], [-51.73802094186378, -29.187163833680625], [-51.7384013837765, -29.187254256167037], [-51.738278068444174, -29.187546113751605], [-51.7380494076785, -29.187728229244982], [-51.737970497867316, -29.18830488500115], [-51.73737600269376, -29.188223346633222], [-51.73751225376615, -29.187650031339416]]]}, "properties": {"num_setor": "RS_SANTATE_SR_012_SGB", "local": "Cachaçaria Velho Alambique", "tipologia": "Deslizamento", "grau_risco": "Alto", "grau_vulnerabilidade": "Alto", "num_pess": 4, "num_edif": 1, "hand_centroide_m": 25.0, "nivel_rio_equiv_cm": 2900.0, "faixa_hand": ">21.0m", "inundacao": false}}, {"type": "Feature", "geometry": {"type": "Polygon", "coordinates": [[[-51.68084479099708, -29.16472886807328], [-51.68092613614101, -29.164998236675796], [-51.680043288947765, -29.165229455634872], [-51.67996199321119, -29.164988595285255], [-51.68084479099708, -29.16472886807328]]]}, "properties": {"num_setor": "RS_SANTATE_SR_013_SGB", "local": "Linha Pederneira", "tipologia": "Rastejo", "grau_risco": "Alto", "grau_vulnerabilidade": "Alto", "num_pess": 12, "num_edif": 3, "hand_centroide_m": 25.0, "nivel_rio_equiv_cm": 2900.0, "faixa_hand": ">21.0m", "inundacao": false}}, {"type": "Feature", "geometry": {"type": "Polygon", "coordinates": [[[-51.71435379713265, -29.09220821015716], [-51.71414364974667, -29.09205498305874], [-51.71460636116973, -29.091592863795757], [-51.714790260681426, -29.09173413624627], [-51.71435379713265, -29.09220821015716]]]}, "properties": {"num_setor": "RS_SANTATE_SR_016_SGB", "local": "Linha José Júlio", "tipologia": "Deslizamento", "grau_risco": "Alto", "grau_vulnerabilidade": "Alto", "num_pess": 8, "num_edif": 2, "hand_centroide_m": 17.9, "nivel_rio_equiv_cm": 2190.0, "faixa_hand": "≤18.0m", "inundacao": false}}, {"type": "Feature", "geometry": {"type": "Polygon", "coordinates": [[[-51.69725520831917, -29.09818214501343], [-51.69729235185954, -29.097925534723668], [-51.697685774428116, -29.09792328979876], [-51.69774666223806, -29.097739705799064], [-51.6980468836976, -29.09775902395995], [-51.69808315227888, -29.09802274698839], [-51.699150894317164, -29.09794446822974], [-51.69920440785694, -29.09814851203577], [-51.698683270007805, -29.098206097357213], [-51.6979536852835, -29.098228906827956], [-51.69725520831917, -29.09818214501343]]]}, "properties": {"num_setor": "RS_SANTATE_SR_017_SGB", "local": "Linha José Júlio", "tipologia": "Inundação", "grau_risco": "Muito alto", "grau_vulnerabilidade": "Alto", "num_pess": 12, "num_edif": 3, "hand_centroide_m": 14.3, "nivel_rio_equiv_cm": 1830.0, "faixa_hand": "≤15.0m", "inundacao": true}}, {"type": "Feature", "geometry": {"type": "Polygon", "coordinates": [[[-51.73268772487034, -29.194273758215626], [-51.733120813448586, -29.19446306700727], [-51.73240554517497, -29.195973889253416], [-51.731883185617036, -29.195796681756587], [-51.73268772487034, -29.194273758215626]]]}, "properties": {"num_setor": "RS_SANTATE_SR_010_SGB", "local": "Linha Santa Tecla", "tipologia": "Deslizamento", "grau_risco": "Alto", "grau_vulnerabilidade": "Alto", "num_pess": 8, "num_edif": 2, "hand_centroide_m": 25.0, "nivel_rio_equiv_cm": 2900.0, "faixa_hand": ">21.0m", "inundacao": false}}, {"type": "Feature", "geometry": {"type": "Polygon", "coordinates": [[[-51.73300222055974, -29.17614146128376], [-51.73240200581276, -29.17769929005641], [-51.73247924026594, -29.177931583954525], [-51.73273653572961, -29.177938994285036], [-51.73277477611295, -29.17819639313326], [-51.732563043200486, -29.17852949190683], [-51.73225853677704, -29.17853310999067], [-51.7322424892728, -29.178045248703242], [-51.732053767604654, -29.177662592044666], [-51.732649469215644, -29.176044929171873], [-51.73300222055974, -29.17614146128376]]]}, "properties": {"num_setor": "RS_SANTATE_SR_011_SGB", "local": "Sede – Avenida Avelino Dalla Lasta", "tipologia": "Inundação", "grau_risco": "Alto", "grau_vulnerabilidade": "Alto", "num_pess": 32, "num_edif": 8, "hand_centroide_m": 18.3, "nivel_rio_equiv_cm": 2230.0, "faixa_hand": "≤21.0m", "inundacao": true}}, {"type": "Feature", "geometry": {"type": "Polygon", "coordinates": [[[-51.67918751967212, -29.209989673224392], [-51.679214385587336, -29.210423136029814], [-51.678491366649446, -29.210506111993926], [-51.67845426173663, -29.210262952382145], [-51.67875719161674, -29.21000919688478], [-51.67918751967212, -29.209989673224392]]]}, "properties": {"num_setor": "RS_SANTATE_SR_004_SGB", "local": "Linha Soares Baixa", "tipologia": "Rastejo", "grau_risco": "Alto", "grau_vulnerabilidade": "Alto", "num_pess": 12, "num_edif": 3, "hand_centroide_m": 25.0, "nivel_rio_equiv_cm": 2900.0, "faixa_hand": ">21.0m", "inundacao": false}}, {"type": "Feature", "geometry": {"type": "Polygon", "coordinates": [[[-51.69891721107072, -29.19784358514485], [-51.698427065997194, -29.197883175033496], [-51.698236907024594, -29.197829927155105], [-51.698255603660606, -29.197641121747942], [-51.697826308667786, -29.197586397921448], [-51.69773404989148, -29.197464307653565], [-51.6977907443657, -29.19735971699013], [-51.69810555356712, -29.197348325214808], [-51.69895992506417, -29.19731788885037], [-51.69891721107072, -29.19784358514485]]]}, "properties": {"num_setor": "RS_SANTATE_SR_005_SGB", "local": "Linha Soares Baixa", "tipologia": "Rastejo", "grau_risco": "Alto", "grau_vulnerabilidade": "Alto", "num_pess": 4, "num_edif": 1, "hand_centroide_m": 25.0, "nivel_rio_equiv_cm": 2900.0, "faixa_hand": ">21.0m", "inundacao": false}}, {"type": "Feature", "geometry": {"type": "Polygon", "coordinates": [[[-51.67753400600001, -29.166334347681392], [-51.677517966580616, -29.166563957149627], [-51.67668463003426, -29.166549021105205], [-51.67668561189286, -29.166313286877553], [-51.67753400600001, -29.166334347681392]]]}, "properties": {"num_setor": "RS_SANTATE_SR_014_SGB", "local": "Linha Pederneira", "tipologia": "Rastejo", "grau_risco": "Alto", "grau_vulnerabilidade": "Alto", "num_pess": 16, "num_edif": 4, "hand_centroide_m": 25.0, "nivel_rio_equiv_cm": 2900.0, "faixa_hand": ">21.0m", "inundacao": false}}, {"type": "Feature", "geometry": {"type": "Polygon", "coordinates": [[[-51.736513164575136, -29.138213013771395], [-51.736567556667275, -29.138028628367287], [-51.73701611962463, -29.13811261699716], [-51.736965548067396, -29.13829830002987], [-51.736513164575136, -29.138213013771395]]]}, "properties": {"num_setor": "RS_SANTATE_SR_015_SGB", "local": "Linha José Júlio", "tipologia": "Inundação", "grau_risco": "Muito alto", "grau_vulnerabilidade": "Alto", "num_pess": 4, "num_edif": 1, "hand_centroide_m": 14.9, "nivel_rio_equiv_cm": 1890.0, "faixa_hand": "≤15.0m", "inundacao": true}}, {"type": "Feature", "geometry": {"type": "Polygon", "coordinates": [[[-51.69278904972954, -29.208790183360847], [-51.69365269992515, -29.208242157258745], [-51.693859617867695, -29.208488196155205], [-51.69301290361013, -29.209041469640717], [-51.69278904972954, -29.208790183360847]]]}, "properties": {"num_setor": "RS_SANTATE_SR_008_SGB", "local": "Linha Soares Baixa", "tipologia": "Rastejo", "grau_risco": "Alto", "grau_vulnerabilidade": "Alto", "num_pess": 8, "num_edif": 2, "hand_centroide_m": 25.0, "nivel_rio_equiv_cm": 2900.0, "faixa_hand": ">21.0m", "inundacao": false}}, {"type": "Feature", "geometry": {"type": "Polygon", "coordinates": [[[-51.71753143563493, -29.20422895676201], [-51.717552016038105, -29.203402184928322], [-51.718128667975165, -29.20342485813787], [-51.718100397993176, -29.20422211290223], [-51.71753143563493, -29.20422895676201]]]}, "properties": {"num_setor": "RS_SANTATE_SR_009_SGB", "local": "Santa Tecla Baixa", "tipologia": "Corrida de massa", "grau_risco": "Alto", "grau_vulnerabilidade": "Alto", "num_pess": 4, "num_edif": 1, "hand_centroide_m": 25.0, "nivel_rio_equiv_cm": 2900.0, "faixa_hand": ">21.0m", "inundacao": false}}, {"type": "Feature", "geometry": {"type": "Polygon", "coordinates": [[[-51.72259039966708, -29.17252110217472], [-51.72288772585645, -29.172460192740086], [-51.7231725789381, -29.17253746411781], [-51.72288552767896, -29.173037358655925], [-51.722709098557154, -29.173169938283863], [-51.721860387344705, -29.17378156262654], [-51.72162886005496, -29.173502923953624], [-51.72216555223324, -29.173186747995516], [-51.72247698197258, -29.172998542758414], [-51.72258235076214, -29.1728669747421], [-51.72264196116777, -29.17268722362236], [-51.72259039966708, -29.17252110217472]]]}, "properties": {"num_setor": "RS_SANTATE_SR_034_SGB", "local": "Rua Guerino Acco/Rua Ângelo Ceriotti", "tipologia": "Inundação", "grau_risco": "Muito alto", "grau_vulnerabilidade": "Alto", "num_pess": 20, "num_edif": 5, "hand_centroide_m": 13.5, "nivel_rio_equiv_cm": 1750.0, "faixa_hand": "≤15.0m", "inundacao": true}}, {"type": "Feature", "geometry": {"type": "Polygon", "coordinates": [[[-51.7358602950778, -29.171038401242924], [-51.73605579992465, -29.171014938061305], [-51.73606749958291, -29.170883871859754], [-51.73623683111565, -29.170882147004036], [-51.73625133890749, -29.170527151630896], [-51.736726297961134, -29.17052852195072], [-51.73672953818436, -29.171368777927142], [-51.73628234605616, -29.171379399191036], [-51.736284296298635, -29.172338052954682], [-51.736430710011845, -29.172332515297136], [-51.73640007476571, -29.172569296168618], [-51.73629924336664, -29.172561598371253], [-51.73623474343093, -29.172801411077888], [-51.73639334368929, -29.172830883671026], [-51.736004881617724, -29.173307103128685], [-51.735714616186485, -29.17331673903175], [-51.73536912592485, -29.17381963387084], [-51.7351597870226, -29.174017787967], [-51.734753532918525, -29.17418744365609], [-51.734748637998536, -29.173944983840943], [-51.734847866803136, -29.17385487121147], [-51.734055539247805, -29.173864106255618], [-51.73397058826633, -29.17420224681719], [-51.733826758107874, -29.174208775016055], [-51.7337610023274, -29.174319904144976], [-51.73356546963276, -29.174316099235938], [-51.73361624241262, -29.174112583065867], [-51.73371473639532, -29.174114813777663], [-51.733770794862316, -29.17377630114152], [-51.73399977003834, -29.17379485595396], [-51.7340258050119, -29.173577886955496], [-51.735112632656715, -29.17358886487511], [-51.73529486040367, -29.173351526320666], [-51.73547989358926, -29.173281951731003], [-51.73551730572589, -29.172935343257898], [-51.735824963439356, -29.172941283262762], [-51.7358452015844, -29.17253389523781], [-51.73525825136089, -29.17255633133311], [-51.73521569996252, -29.17297328304264], [-51.73503662081063, -29.173001827681876], [-51.73498857621429, -29.173262325385057], [-51.73473654577649, -29.17326115276139], [-51.734759433951616, -29.171818584079027], [-51.73463633960487, -29.171821523131037], [-51.734629845683685, -29.172068724005744], [-51.73419471882804, -29.17204850679495], [-51.73416842244472, -29.17219429103222], [-51.73362764203357, -29.172128039828134], [-51.733631933285686, -29.17193428398934], [-51.73341081208019, -29.171904444051656], [-51.73342237339789, -29.171709290033565], [-51.73396820773083, -29.171709544171257], [-51.73399721073809, -29.171663861345227], [-51.73419944306812, -29.17168808286986], [-51.73421113014996, -29.171620548099476], [-51.73430736307309, -29.171629827269776], [-51.734324222654344, -29.171562651705614], [-51.73447786421234, -29.171577543095456], [-51.73449253909082, -29.171496810323024], [-51.73471787698826, -29.171515230634746], [-51.7347630532639, -29.17118729776422], [-51.73586058703027, -29.171234692317682], [-51.7358602950778, -29.171038401242924]]]}, "properties": {"num_setor": "RS_SANTATE_SR_035_SGB", "local": "Sede –Rua Francesco Settineri/Avenida Itália/Rua Vergílio Franceschini", "tipologia": "Inundação", "grau_risco": "Muito alto", "grau_vulnerabilidade": "Alto", "num_pess": 316, "num_edif": 79, "hand_centroide_m": 12.1, "nivel_rio_equiv_cm": 1610.0, "faixa_hand": "≤15.0m", "inundacao": true}}, {"type": "Feature", "geometry": {"type": "Polygon", "coordinates": [[[-51.75093698010429, -29.151770108154324], [-51.751164658113055, -29.1518324200463], [-51.75102369268203, -29.15229774415857], [-51.75077523125086, -29.152249601057083], [-51.75093698010429, -29.151770108154324]]]}, "properties": {"num_setor": "RS_SANTATE_SR_028_SGB", "local": "Linha José Júlio", "tipologia": "Inundação", "grau_risco": "Muito alto", "grau_vulnerabilidade": "Alto", "num_pess": 4, "num_edif": 1, "hand_centroide_m": 15.7, "nivel_rio_equiv_cm": 1970.0, "faixa_hand": "≤18.0m", "inundacao": true}}, {"type": "Feature", "geometry": {"type": "Polygon", "coordinates": [[[-51.74701260085241, -29.16037270794566], [-51.746804112654736, -29.160808005861693], [-51.74653962438057, -29.16071714038541], [-51.746693515670216, -29.160300299709096], [-51.74701260085241, -29.16037270794566]]]}, "properties": {"num_setor": "RS_SANTATE_SR_029_SGB", "local": "Linha José Júlio (Baggio)", "tipologia": "Inundação", "grau_risco": "Muito alto", "grau_vulnerabilidade": "Alto", "num_pess": 8, "num_edif": 2, "hand_centroide_m": 13.8, "nivel_rio_equiv_cm": 1780.0, "faixa_hand": "≤15.0m", "inundacao": true}}, {"type": "Feature", "geometry": {"type": "Polygon", "coordinates": [[[-51.708784891853064, -29.198493929820057], [-51.70866413492268, -29.198937538182076], [-51.708299594987125, -29.198891077039022], [-51.708329215136985, -29.198706323035516], [-51.7085101241571, -29.19872361788443], [-51.708584844225804, -29.198451630856198], [-51.708784891853064, -29.198493929820057]]]}, "properties": {"num_setor": "RS_SANTATE_SR_006_SGB", "local": "Linha Capanema", "tipologia": "Corrida de massa", "grau_risco": "Alto", "grau_vulnerabilidade": "Alto", "num_pess": 4, "num_edif": 1, "hand_centroide_m": 25.0, "nivel_rio_equiv_cm": 2900.0, "faixa_hand": ">21.0m", "inundacao": false}}, {"type": "Feature", "geometry": {"type": "Polygon", "coordinates": [[[-51.7058407775954, -29.199588071174492], [-51.70592651370442, -29.199844772686305], [-51.70492586144483, -29.20016667082212], [-51.70478450883992, -29.19989731063759], [-51.7058407775954, -29.199588071174492]]]}, "properties": {"num_setor": "RS_SANTATE_SR_007_SGB", "local": "Linha Capanema", "tipologia": "Corrida de massa", "grau_risco": "Alto", "grau_vulnerabilidade": "Alto", "num_pess": 4, "num_edif": 1, "hand_centroide_m": 25.0, "nivel_rio_equiv_cm": 2900.0, "faixa_hand": ">21.0m", "inundacao": false}}, {"type": "Feature", "geometry": {"type": "Polygon", "coordinates": [[[-51.73445282097884, -29.166483475368963], [-51.734599497898444, -29.16727908999878], [-51.73334318960055, -29.16741028473967], [-51.73283080583385, -29.16737213503038], [-51.73283703475202, -29.167089879296334], [-51.73330724710772, -29.167108886353677], [-51.73456606889177, -29.165189380135317], [-51.73518115524826, -29.165456396612893], [-51.73445282097884, -29.166483475368963]]]}, "properties": {"num_setor": "RS_SANTATE_SR_032_SGB", "local": "Dionísio Grazzi", "tipologia": "Inundação", "grau_risco": "Muito alto", "grau_vulnerabilidade": "Alto", "num_pess": 16, "num_edif": 4, "hand_centroide_m": 8.6, "nivel_rio_equiv_cm": 1260.0, "faixa_hand": "≤10.0m", "inundacao": true}}, {"type": "Feature", "geometry": {"type": "Polygon", "coordinates": [[[-51.7334148562956, -29.170898506855234], [-51.73264773456883, -29.171083100734375], [-51.732215125690935, -29.170903533173327], [-51.73159580557451, -29.170924789130787], [-51.73102034929506, -29.17087337683004], [-51.7311238828265, -29.17031307010969], [-51.732037881797176, -29.170327069049446], [-51.73308557164169, -29.170336197734546], [-51.73371677826596, -29.17017497176466], [-51.73388460691722, -29.17058039407334], [-51.7334148562956, -29.170898506855234]]]}, "properties": {"num_setor": "RS_SANTATE_SR_033_SGB", "local": "Rua Olímpio Valduga", "tipologia": "Inundação", "grau_risco": "Muito alto", "grau_vulnerabilidade": "Baixo", "num_pess": 20, "num_edif": 5, "hand_centroide_m": 12.8, "nivel_rio_equiv_cm": 1680.0, "faixa_hand": "≤15.0m", "inundacao": true}}, {"type": "Feature", "geometry": {"type": "Polygon", "coordinates": [[[-51.75468070725423, -29.140967565025566], [-51.75454116026304, -29.141440231267254], [-51.754083898918815, -29.141330036327975], [-51.75421492808446, -29.140873834644275], [-51.75468070725423, -29.140967565025566]]]}, "properties": {"num_setor": "RS_SANTATE_SR_027_SGB", "local": "Linha José Júlio (Remus)", "tipologia": "Inundação", "grau_risco": "Muito alto", "grau_vulnerabilidade": "Alto", "num_pess": 4, "num_edif": 1, "hand_centroide_m": 12.5, "nivel_rio_equiv_cm": 1650.0, "faixa_hand": "≤15.0m", "inundacao": true}}, {"type": "Feature", "geometry": {"type": "Polygon", "coordinates": [[[-51.71213923525994, -29.09401883609254], [-51.71198958940833, -29.093853935263315], [-51.71240905593363, -29.093528415621453], [-51.7125815225867, -29.093702267211253], [-51.71213923525994, -29.09401883609254]]]}, "properties": {"num_setor": "RS_SANTATE_SR_020_SGB", "local": "Linha José Júlio", "tipologia": "Inundação", "grau_risco": "Muito alto", "grau_vulnerabilidade": "Alto", "num_pess": 4, "num_edif": 1, "hand_centroide_m": 15.4, "nivel_rio_equiv_cm": 1940.0, "faixa_hand": "≤18.0m", "inundacao": true}}, {"type": "Feature", "geometry": {"type": "Polygon", "coordinates": [[[-51.740199822653395, -29.153837591309514], [-51.74046875399495, -29.154141289608948], [-51.73965214677412, -29.15465296286109], [-51.739405567313476, -29.154337613774018], [-51.740199822653395, -29.153837591309514]]]}, "properties": {"num_setor": "RS_SANTATE_SR_030_SGB", "local": "Linha Bento Gonçalves", "tipologia": "Rastejo", "grau_risco": "Alto", "grau_vulnerabilidade": "Alto", "num_pess": 8, "num_edif": 2, "hand_centroide_m": 25.0, "nivel_rio_equiv_cm": 2900.0, "faixa_hand": ">21.0m", "inundacao": false}}, {"type": "Feature", "geometry": {"type": "Polygon", "coordinates": [[[-51.73789067626611, -29.166028725178233], [-51.73791238315664, -29.166427774795395], [-51.737555388171145, -29.16641269988948], [-51.737516863021874, -29.16612852675273], [-51.73716997587997, -29.165923576117333], [-51.736911056262265, -29.165741040694023], [-51.73692880158237, -29.165480262689726], [-51.73714625316995, -29.165502167703618], [-51.73715026684263, -29.165646542219207], [-51.73756058223013, -29.166012555949127], [-51.73789067626611, -29.166028725178233]]]}, "properties": {"num_setor": "RS_SANTATE_SR_031_SGB", "local": "Estrada do Marrecão", "tipologia": "Inundação", "grau_risco": "Muito alto", "grau_vulnerabilidade": "Alto", "num_pess": 16, "num_edif": 4, "hand_centroide_m": 19.4, "nivel_rio_equiv_cm": 2340.0, "faixa_hand": "≤21.0m", "inundacao": true}}, {"type": "Feature", "geometry": {"type": "Polygon", "coordinates": [[[-51.720063108192825, -29.122217427242138], [-51.7203460873888, -29.12209096885043], [-51.720473455021356, -29.122284004135885], [-51.72078721768547, -29.12212899568927], [-51.721177205994714, -29.122612108828065], [-51.7208555731904, -29.12279602827547], [-51.7212800603998, -29.12347221999035], [-51.72155123124135, -29.12335936826235], [-51.72194265685505, -29.12399464778964], [-51.72145460126288, -29.124259949178573], [-51.721070607411534, -29.123620151956604], [-51.72047894462605, -29.122890413925372], [-51.720063108192825, -29.122217427242138]]]}, "properties": {"num_setor": "RS_SANTATE_SR_024_SGB", "local": "Linha José Júlio (Comunidade Santo Estanislau)", "tipologia": "Inundação", "grau_risco": "Muito alto", "grau_vulnerabilidade": "Alto", "num_pess": 24, "num_edif": 6, "hand_centroide_m": 16.7, "nivel_rio_equiv_cm": 2070.0, "faixa_hand": "≤18.0m", "inundacao": true}}, {"type": "Feature", "geometry": {"type": "Polygon", "coordinates": [[[-51.727071650851805, -29.13303909398412], [-51.72722409405721, -29.1329418127954], [-51.727427829268706, -29.13320730296005], [-51.72756719929178, -29.13312940093225], [-51.727789361644675, -29.133436244970817], [-51.72763112879728, -29.133549010311288], [-51.72746170473807, -29.13337550930678], [-51.72724892169502, -29.133258694882905], [-51.727071650851805, -29.13303909398412]]]}, "properties": {"num_setor": "RS_SANTATE_SR_025_SGB", "local": "Linha José Júlio (Bielski)", "tipologia": "Inundação", "grau_risco": "Muito alto", "grau_vulnerabilidade": "Alto", "num_pess": 8, "num_edif": 2, "hand_centroide_m": 18.7, "nivel_rio_equiv_cm": 2270.0, "faixa_hand": "≤21.0m", "inundacao": true}}]}