{
  "type": "FeatureCollection",
  "name": "Santa_Tereza_Mucum_RAS_prep_cross_sections",
  "crs": {
    "type": "name",
    "properties": {
      "name": "EPSG:4326"
    }
  },
  "features": [
    {
      "type": "Feature",
      "properties": {
        "section_id": "S01",
        "purpose": "controle montante Linha José Júlio",
        "center_lon": -51.6993718,
        "center_lat": -29.096633,
        "route_chainage_m": 954.36,
        "cross_section_width_m": 2000.0,
        "terrain_status": "TERRAIN_PROFILE_AVAILABLE",
        "terrain_source": "santa_tereza_anadem_30m",
        "terrain_role": "regional_terrain_surface",
        "nominal_resolution_m": 30.0,
        "valid_profile_fraction": 1.0,
        "valid_fraction_within_100m_of_center": 1.0,
        "terrain_min_m": 66.5,
        "terrain_max_m": 401.85,
        "measured_channel_evidence": false,
        "measured_channel_source": null,
        "measured_channel_section_offset_m": null,
        "measured_bed_min_2023_gauge_cm": null,
        "measured_bed_min_2022_gauge_cm": null,
        "measured_section_width_2022_m": null,
        "measured_bed_min_2020_gauge_cm": null,
        "channel_bed_source": "MISSING_AUDITED_BATHYMETRY",
        "hydraulic_use": "NOT_COMPUTE_READY"
      },
      "geometry": {
        "type": "LineString",
        "coordinates": [
          [
            -51.69766959559443,
            -29.08773236782567
          ],
          [
            -51.701074313594226,
            -29.10553359228007
          ]
        ]
      }
    },
    {
      "type": "Feature",
      "properties": {
        "section_id": "S02",
        "purpose": "geometria representativa no primeiro quarto do reach",
        "center_lon": -51.72826371,
        "center_lat": -29.08200321,
        "route_chainage_m": 5214.38,
        "cross_section_width_m": 2000.0,
        "terrain_status": "TERRAIN_PROFILE_AVAILABLE",
        "terrain_source": "santa_tereza_anadem_30m",
        "terrain_role": "regional_terrain_surface",
        "nominal_resolution_m": 30.0,
        "valid_profile_fraction": 1.0,
        "valid_fraction_within_100m_of_center": 1.0,
        "terrain_min_m": 62.0,
        "terrain_max_m": 328.21,
        "measured_channel_evidence": false,
        "measured_channel_source": null,
        "measured_channel_section_offset_m": null,
        "measured_bed_min_2023_gauge_cm": null,
        "measured_bed_min_2022_gauge_cm": null,
        "measured_section_width_2022_m": null,
        "measured_bed_min_2020_gauge_cm": null,
        "channel_bed_source": "MISSING_AUDITED_BATHYMETRY",
        "hydraulic_use": "NOT_COMPUTE_READY"
      },
      "geometry": {
        "type": "LineString",
        "coordinates": [
          [
            -51.73779241883466,
            -29.078627896490197
          ],
          [
            -51.71873436986631,
            -29.08537785034988
          ]
        ]
      }
    },
    {
      "type": "Feature",
      "properties": {
        "section_id": "S03",
        "purpose": "200 m a montante da confluência do Carreiro",
        "center_lon": -51.71213566,
        "center_lat": -29.09162605,
        "route_chainage_m": 2355.45,
        "cross_section_width_m": 2000.0,
        "terrain_status": "TERRAIN_PROFILE_AVAILABLE",
        "terrain_source": "santa_tereza_anadem_30m",
        "terrain_role": "regional_terrain_surface",
        "nominal_resolution_m": 30.0,
        "valid_profile_fraction": 1.0,
        "valid_fraction_within_100m_of_center": 1.0,
        "terrain_min_m": 66.0,
        "terrain_max_m": 321.67,
        "measured_channel_evidence": false,
        "measured_channel_source": null,
        "measured_channel_section_offset_m": null,
        "measured_bed_min_2023_gauge_cm": null,
        "measured_bed_min_2022_gauge_cm": null,
        "measured_section_width_2022_m": null,
        "measured_bed_min_2020_gauge_cm": null,
        "channel_bed_source": "MISSING_AUDITED_BATHYMETRY",
        "hydraulic_use": "NOT_COMPUTE_READY"
      },
      "geometry": {
        "type": "LineString",
        "coordinates": [
          [
            -51.70399180258224,
            -29.086122678038375
          ],
          [
            -51.72028037755127,
            -29.09712891136899
          ]
        ]
      }
    },
    {
      "type": "Feature",
      "properties": {
        "section_id": "S04",
        "purpose": "200 m a jusante da confluência do Carreiro",
        "center_lon": -51.7144449,
        "center_lat": -29.08865371,
        "route_chainage_m": 2755.45,
        "cross_section_width_m": 2000.0,
        "terrain_status": "TERRAIN_PROFILE_AVAILABLE",
        "terrain_source": "santa_tereza_anadem_30m",
        "terrain_role": "regional_terrain_surface",
        "nominal_resolution_m": 30.0,
        "valid_profile_fraction": 1.0,
        "valid_fraction_within_100m_of_center": 1.0,
        "terrain_min_m": 65.5,
        "terrain_max_m": 358.37,
        "measured_channel_evidence": false,
        "measured_channel_source": null,
        "measured_channel_section_offset_m": null,
        "measured_bed_min_2023_gauge_cm": null,
        "measured_bed_min_2022_gauge_cm": null,
        "measured_section_width_2022_m": null,
        "measured_bed_min_2020_gauge_cm": null,
        "channel_bed_source": "MISSING_AUDITED_BATHYMETRY",
        "hydraulic_use": "NOT_COMPUTE_READY"
      },
      "geometry": {
        "type": "LineString",
        "coordinates": [
          [
            -51.705423580726446,
            -29.084333559319326
          ],
          [
            -51.72346695385317,
            -29.092973243749203
          ]
        ]
      }
    },
    {
      "type": "Feature",
      "properties": {
        "section_id": "S05",
        "purpose": "aproximação a Santa Tereza",
        "center_lon": -51.74348017,
        "center_lat": -29.16771918,
        "route_chainage_m": 18771.78,
        "cross_section_width_m": 2000.0,
        "terrain_status": "TERRAIN_PROFILE_AVAILABLE",
        "terrain_source": "santa_tereza_drone_1m",
        "terrain_role": "high_resolution_terrain_surface",
        "nominal_resolution_m": 1.0,
        "valid_profile_fraction": 0.384,
        "valid_fraction_within_100m_of_center": 1.0,
        "terrain_min_m": 62.099,
        "terrain_max_m": 79.514,
        "measured_channel_evidence": false,
        "measured_channel_source": null,
        "measured_channel_section_offset_m": null,
        "measured_bed_min_2023_gauge_cm": null,
        "measured_bed_min_2022_gauge_cm": null,
        "measured_section_width_2022_m": null,
        "measured_bed_min_2020_gauge_cm": null,
        "channel_bed_source": "MISSING_AUDITED_BATHYMETRY",
        "hydraulic_use": "NOT_COMPUTE_READY"
      },
      "geometry": {
        "type": "LineString",
        "coordinates": [
          [
            -51.75050792026489,
            -29.17430779370055
          ],
          [
            -51.73645332125303,
            -29.161130173732992
          ]
        ]
      }
    },
    {
      "type": "Feature",
      "properties": {
        "section_id": "S06",
        "purpose": "controle Santa Tereza",
        "center_lon": -51.73334088,
        "center_lat": -29.17818884,
        "route_chainage_m": 11.57,
        "cross_section_width_m": 2000.0,
        "terrain_status": "TERRAIN_PROFILE_AVAILABLE",
        "terrain_source": "santa_tereza_anadem_30m",
        "terrain_role": "regional_terrain_surface",
        "nominal_resolution_m": 30.0,
        "valid_profile_fraction": 1.0,
        "valid_fraction_within_100m_of_center": 1.0,
        "terrain_min_m": 54.0,
        "terrain_max_m": 293.25,
        "measured_channel_evidence": false,
        "measured_channel_source": null,
        "measured_channel_section_offset_m": null,
        "measured_bed_min_2023_gauge_cm": null,
        "measured_bed_min_2022_gauge_cm": null,
        "measured_section_width_2022_m": null,
        "measured_bed_min_2020_gauge_cm": null,
        "channel_bed_source": "MISSING_AUDITED_BATHYMETRY",
        "hydraulic_use": "NOT_COMPUTE_READY"
      },
      "geometry": {
        "type": "LineString",
        "coordinates": [
          [
            -51.74358470576986,
            -29.17898602971067
          ],
          [
            -51.72309719971857,
            -29.177390853887875
          ]
        ]
      }
    },
    {
      "type": "Feature",
      "properties": {
        "section_id": "S07",
        "purpose": "meio do reach Santa Tereza-Muçum",
        "center_lon": -51.83011935,
        "center_lat": -29.17162655,
        "route_chainage_m": 11819.36,
        "cross_section_width_m": 2000.0,
        "terrain_status": "TERRAIN_PROFILE_AVAILABLE",
        "terrain_source": "mucum_anadem_30m",
        "terrain_role": "regional_terrain_surface",
        "nominal_resolution_m": 30.0,
        "valid_profile_fraction": 1.0,
        "valid_fraction_within_100m_of_center": 1.0,
        "terrain_min_m": 48.0,
        "terrain_max_m": 256.307,
        "measured_channel_evidence": false,
        "measured_channel_source": null,
        "measured_channel_section_offset_m": null,
        "measured_bed_min_2023_gauge_cm": null,
        "measured_bed_min_2022_gauge_cm": null,
        "measured_section_width_2022_m": null,
        "measured_bed_min_2020_gauge_cm": null,
        "channel_bed_source": "MISSING_AUDITED_BATHYMETRY",
        "hydraulic_use": "NOT_COMPUTE_READY"
      },
      "geometry": {
        "type": "LineString",
        "coordinates": [
          [
            -51.821697701994594,
            -29.166447984407725
          ],
          [
            -51.838541827110085,
            -29.176804572562215
          ]
        ]
      }
    },
    {
      "type": "Feature",
      "properties": {
        "section_id": "S08",
        "purpose": "entrada no domínio MDT de alta resolução de Muçum",
        "center_lon": -51.8588503,
        "center_lat": -29.16259461,
        "route_chainage_m": 22543.53,
        "cross_section_width_m": 2000.0,
        "terrain_status": "TERRAIN_PROFILE_AVAILABLE",
        "terrain_source": "mucum_drone_1m",
        "terrain_role": "high_resolution_terrain_surface",
        "nominal_resolution_m": 1.0,
        "valid_profile_fraction": 0.1646,
        "valid_fraction_within_100m_of_center": 0.05,
        "terrain_min_m": 47.132,
        "terrain_max_m": 91.673,
        "measured_channel_evidence": false,
        "measured_channel_source": null,
        "measured_channel_section_offset_m": null,
        "measured_bed_min_2023_gauge_cm": null,
        "measured_bed_min_2022_gauge_cm": null,
        "measured_section_width_2022_m": null,
        "measured_bed_min_2020_gauge_cm": null,
        "channel_bed_source": "MISSING_AUDITED_BATHYMETRY",
        "hydraulic_use": "NOT_COMPUTE_READY"
      },
      "geometry": {
        "type": "LineString",
        "coordinates": [
          [
            -51.86549205970189,
            -29.155705280991988
          ],
          [
            -51.85220765528246,
            -29.169483623000215
          ]
        ]
      }
    },
    {
      "type": "Feature",
      "properties": {
        "section_id": "S09",
        "purpose": "controle Muçum",
        "center_lon": -51.86755959,
        "center_lat": -29.16818075,
        "route_chainage_m": 23606.69,
        "cross_section_width_m": 2000.0,
        "terrain_status": "TERRAIN_PROFILE_AVAILABLE",
        "terrain_source": "mucum_drone_1m",
        "terrain_role": "high_resolution_terrain_surface",
        "nominal_resolution_m": 1.0,
        "valid_profile_fraction": 0.4214,
        "valid_fraction_within_100m_of_center": 1.0,
        "terrain_min_m": 46.586,
        "terrain_max_m": 119.324,
        "measured_channel_evidence": true,
        "measured_channel_source": "SGB LST Muçum 2011-2023 / Figura 6",
        "measured_channel_section_offset_m": 70,
        "measured_bed_min_2023_gauge_cm": -385,
        "measured_bed_min_2022_gauge_cm": -495,
        "measured_section_width_2022_m": 353.3,
        "measured_bed_min_2020_gauge_cm": -533,
        "channel_bed_source": "SGB_MEASURED_LST_EVIDENCE_PROFILE_NOT_YET_DIGITIZED",
        "hydraulic_use": "NOT_COMPUTE_READY"
      },
      "geometry": {
        "type": "LineString",
        "coordinates": [
          [
            -51.87456620380328,
            -29.161575439948635
          ],
          [
            -51.86055207684309,
            -29.174785696804495
          ]
        ]
      }
    }
  ]
}
