{"type":"FeatureCollection","name":"4300661","crs":{"type":"name","properties":{"name":"urn:ogc:def:crs:OGC:1.3:CRS84"}},"features":[{"type":"Feature","properties":{"id_grade":"1KME5242N8150","pop":3,"dom":1,"universo_dom":"domicilios_ocupados_grade_ibge_2022","na_bacia":1,"area_pct_bacia":100.0,"metodo_recorte_bacia":"ponto_representativo_grade_2022; area_pct_geometrica","status_borda_bacia":"total","metodo_area_bacia":"interseção geométrica em EPSG:5880","metodo_na_bacia":"ponto_representativo_grade_2022_within_bacia","pop_n_validos":1,"pop_n_total":1,"pop_completude":1.0,"dom_n_validos":1,"dom_n_total":1,"dom_completude":1.0},"geometry":{"type":"Polygon","coordinates":[[[-51.595597512158,-28.684947287335174],[-51.59568289929844,-28.675655785342528],[-51.58574819692064,-28.67557576635767],[-51.58566245699323,-28.68486726139755],[-51.595597512158,-28.684947287335174]]]}},{"type":"Feature","properties":{"id_grade":"1KME5242N8151","pop":2,"dom":1,"universo_dom":"domicilios_ocupados_grade_ibge_2022","na_bacia":1,"area_pct_bacia":100.0,"metodo_recorte_bacia":"ponto_representativo_grade_2022; area_pct_geometrica","status_borda_bacia":"total","metodo_area_bacia":"interseção geométrica em EPSG:5880","metodo_na_bacia":"ponto_representativo_grade_2022_within_bacia","pop_n_validos":1,"pop_n_total":1,"pop_completude":1.0,"dom_n_validos":1,"dom_n_total":1,"dom_completude":1.0},"geometry":{"type":"Polygon","coordinates":[[[-51.59568289929844,-28.675655785342528],[-51.59576828037457,-28.66636476042576],[-51.585833930758696,-28.666284748389273],[-51.58574819692064,-28.67557576635767],[-51.59568289929844,-28.675655785342528]]]}},{"type":"Feature","properties":{"id_grade":"1KME5243N8151","pop":1,"dom":1,"universo_dom":"domicilios_ocupados_grade_ibge_2022","na_bacia":1,"area_pct_bacia":100.0,"metodo_recorte_bacia":"ponto_representativo_grade_2022; area_pct_geometrica","status_borda_bacia":"total","metodo_area_bacia":"interseção geométrica em EPSG:5880","metodo_na_bacia":"ponto_representativo_grade_2022_within_bacia","pop_n_validos":1,"pop_n_total":1,"pop_completude":1.0,"dom_n_validos":1,"dom_n_total":1,"dom_completude":1.0},"geometry":{"type":"Polygon","coordinates":[[[-51.58574819692064,-28.67557576635767],[-51.585833930758696,-28.666284748389273],[-51.57589958723154,-28.6662044064666],[-51.575813500632215,-28.67549541745748],[-51.58574819692064,-28.67557576635767]]]}},{"type":"Feature","properties":{"id_grade":"1KME5247N8151","pop":4,"dom":1,"universo_dom":"domicilios_ocupados_grade_ibge_2022","na_bacia":1,"area_pct_bacia":100.0,"metodo_recorte_bacia":"ponto_representativo_grade_2022; area_pct_geometrica","status_borda_bacia":"total","metodo_area_bacia":"interseção geométrica em EPSG:5880","metodo_na_bacia":"ponto_representativo_grade_2022_within_bacia","pop_n_validos":1,"pop_n_total":1,"pop_completude":1.0,"dom_n_validos":1,"dom_n_total":1,"dom_completude":1.0},"geometry":{"type":"Polygon","coordinates":[[[-51.546009448553626,-28.675252391274643],[-51.546096593432864,-28.665961401387406],[-51.536162274511064,-28.66587973992669],[-51.53607477687317,-28.67517072272212],[-51.546009448553626,-28.675252391274643]]]}},{"type":"Feature","properties":{"id_grade":"1KME5244N8152","pop":6,"dom":1,"universo_dom":"domicilios_ocupados_grade_ibge_2022","na_bacia":1,"area_pct_bacia":100.0,"metodo_recorte_bacia":"ponto_representativo_grade_2022; area_pct_geometrica","status_borda_bacia":"total","metodo_area_bacia":"interseção geométrica em EPSG:5880","metodo_na_bacia":"ponto_representativo_grade_2022_within_bacia","pop_n_validos":1,"pop_n_total":1,"pop_completude":1.0,"dom_n_validos":1,"dom_n_total":1,"dom_completude":1.0},"geometry":{"type":"Polygon","coordinates":[[[-51.57589958723154,-28.6662044064666],[-51.575985667717106,-28.656913872175902],[-51.56605168303929,-28.6568332073696],[-51.565965249818156,-28.666123734658044],[-51.57589958723154,-28.6662044064666]]]}},{"type":"Feature","properties":{"id_grade":"1KME5246N8152","pop":2,"dom":1,"universo_dom":"domicilios_ocupados_grade_ibge_2022","na_bacia":1,"area_pct_bacia":100.0,"metodo_recorte_bacia":"ponto_representativo_grade_2022; area_pct_geometrica","status_borda_bacia":"total","metodo_area_bacia":"interseção geométrica em EPSG:5880","metodo_na_bacia":"ponto_representativo_grade_2022_within_bacia","pop_n_validos":1,"pop_n_total":1,"pop_completude":1.0,"dom_n_validos":1,"dom_n_total":1,"dom_completude":1.0},"geometry":{"type":"Polygon","coordinates":[[[-51.55603091854358,-28.666042732964623],[-51.556117704499634,-28.6567522127072],[-51.54618373212319,-28.656670888189442],[-51.546096593432864,-28.665961401387406],[-51.55603091854358,-28.666042732964623]]]}},{"type":"Feature","properties":{"id_grade":"1KME5257N8152","pop":3,"dom":2,"universo_dom":"domicilios_ocupados_grade_ibge_2022","na_bacia":1,"area_pct_bacia":100.0,"metodo_recorte_bacia":"ponto_representativo_grade_2022; area_pct_geometrica","status_borda_bacia":"total","metodo_area_bacia":"interseção geométrica em EPSG:5880","metodo_na_bacia":"ponto_representativo_grade_2022_within_bacia","pop_n_validos":1,"pop_n_total":1,"pop_completude":1.0,"dom_n_validos":1,"dom_n_total":1,"dom_completude":1.0},"geometry":{"type":"Polygon","coordinates":[[[-51.44675368684888,-28.665129942154593],[-51.446844352845154,-28.65583950112441],[-51.436910449917,-28.655754548246016],[-51.436819431193854,-28.66504498190249],[-51.44675368684888,-28.665129942154593]]]}},{"type":"Feature","properties":{"id_grade":"1KME5241N8153","pop":1,"dom":1,"universo_dom":"domicilios_ocupados_grade_ibge_2022","na_bacia":1,"area_pct_bacia":100.0,"metodo_recorte_bacia":"ponto_representativo_grade_2022; area_pct_geometrica","status_borda_bacia":"total","metodo_area_bacia":"interseção geométrica em EPSG:5880","metodo_na_bacia":"ponto_representativo_grade_2022_within_bacia","pop_n_validos":1,"pop_n_total":1,"pop_completude":1.0,"dom_n_validos":1,"dom_n_total":1,"dom_completude":1.0},"geometry":{"type":"Polygon","coordinates":[[[-51.60578765832905,-28.6571538874493],[-51.605872674566015,-28.647863808666873],[-51.59593902433647,-28.647784140346747],[-51.59585365538703,-28.657074212216315],[-51.60578765832905,-28.6571538874493]]]}},{"type":"Feature","properties":{"id_grade":"1KME5248N8153","pop":5,"dom":1,"universo_dom":"domicilios_ocupados_grade_ibge_2022","na_bacia":1,"area_pct_bacia":100.0,"metodo_recorte_bacia":"ponto_representativo_grade_2022; area_pct_geometrica","status_borda_bacia":"total","metodo_area_bacia":"interseção geométrica em EPSG:5880","metodo_na_bacia":"ponto_representativo_grade_2022_within_bacia","pop_n_validos":1,"pop_n_total":1,"pop_completude":1.0,"dom_n_validos":1,"dom_n_total":1,"dom_completude":1.0},"geometry":{"type":"Polygon","coordinates":[[[-51.536249765935,-28.656589233816693],[-51.53633725114563,-28.64729920402403],[-51.52640364387863,-28.64721722691039],[-51.526315805960095,-28.656507249590067],[-51.536249765935,-28.656589233816693]]]}},{"type":"Feature","properties":{"id_grade":"1KME5252N8153","pop":3,"dom":1,"universo_dom":"domicilios_ocupados_grade_ibge_2022","na_bacia":1,"area_pct_bacia":100.0,"metodo_recorte_bacia":"ponto_representativo_grade_2022; area_pct_geometrica","status_borda_bacia":"total","metodo_area_bacia":"interseção geométrica em EPSG:5880","metodo_na_bacia":"ponto_representativo_grade_2022_within_bacia","pop_n_validos":1,"pop_n_total":1,"pop_completude":1.0,"dom_n_validos":1,"dom_n_total":1,"dom_completude":1.0},"geometry":{"type":"Polygon","coordinates":[[[-51.49651396356566,-28.65625931779357],[-51.49660285960389,-28.646969316624325],[-51.48666927743787,-28.646886020216712],[-51.48658002869441,-28.656176014158568],[-51.49651396356566,-28.65625931779357]]]}},{"type":"Feature","properties":{"id_grade":"1KME5257N8153","pop":6,"dom":2,"universo_dom":"domicilios_ocupados_grade_ibge_2022","na_bacia":1,"area_pct_bacia":100.0,"metodo_recorte_bacia":"ponto_representativo_grade_2022; area_pct_geometrica","status_borda_bacia":"total","metodo_area_bacia":"interseção geométrica em EPSG:5880","metodo_na_bacia":"ponto_representativo_grade_2022_within_bacia","pop_n_validos":1,"pop_n_total":1,"pop_completude":1.0,"dom_n_validos":1,"dom_n_total":1,"dom_completude":1.0},"geometry":{"type":"Polygon","coordinates":[[[-51.446844352845154,-28.65583950112441],[-51.446935012402726,-28.64654953637711],[-51.43700146217638,-28.64646459086918],[-51.436910449917,-28.655754548246016],[-51.446844352845154,-28.65583950112441]]]}},{"type":"Feature","properties":{"id_grade":"1KME5258N8153","pop":2,"dom":1,"universo_dom":"domicilios_ocupados_grade_ibge_2022","na_bacia":1,"area_pct_bacia":100.0,"metodo_recorte_bacia":"ponto_representativo_grade_2022; area_pct_geometrica","status_borda_bacia":"total","metodo_area_bacia":"interseção geométrica em EPSG:5880","metodo_na_bacia":"ponto_representativo_grade_2022_within_bacia","pop_n_validos":1,"pop_n_total":1,"pop_completude":1.0,"dom_n_validos":1,"dom_n_total":1,"dom_completude":1.0},"geometry":{"type":"Polygon","coordinates":[[[-51.436910449917,-28.655754548246016],[-51.43700146217638,-28.64646459086918],[-51.427067918413115,-28.646379315543513],[-51.42697655345258,-28.655669265521727],[-51.436910449917,-28.655754548246016]]]}},{"type":"Feature","properties":{"id_grade":"1KME5243N8154","pop":2,"dom":1,"universo_dom":"domicilios_ocupados_grade_ibge_2022","na_bacia":1,"area_pct_bacia":100.0,"metodo_recorte_bacia":"ponto_representativo_grade_2022; area_pct_geometrica","status_borda_bacia":"total","metodo_area_bacia":"interseção geométrica em EPSG:5880","metodo_na_bacia":"ponto_representativo_grade_2022_within_bacia","pop_n_validos":1,"pop_n_total":1,"pop_completude":1.0,"dom_n_validos":1,"dom_n_total":1,"dom_completude":1.0},"geometry":{"type":"Polygon","coordinates":[[[-51.5860053801693,-28.64770414219672],[-51.58609109574315,-28.638414553237098],[-51.576157810349535,-28.63833423222397],[-51.57607174208955,-28.647623814217507],[-51.5860053801693,-28.64770414219672]]]}},{"type":"Feature","properties":{"id_grade":"1KME5244N8154","pop":1,"dom":1,"universo_dom":"domicilios_ocupados_grade_ibge_2022","na_bacia":1,"area_pct_bacia":100.0,"metodo_recorte_bacia":"ponto_representativo_grade_2022; area_pct_geometrica","status_borda_bacia":"total","metodo_area_bacia":"interseção geométrica em EPSG:5880","metodo_na_bacia":"ponto_representativo_grade_2022_within_bacia","pop_n_validos":1,"pop_n_total":1,"pop_completude":1.0,"dom_n_validos":1,"dom_n_total":1,"dom_completude":1.0},"geometry":{"type":"Polygon","coordinates":[[[-51.57607174208955,-28.647623814217507],[-51.576157810349535,-28.63833423222397],[-51.56622453106774,-28.63825358141156],[-51.566138110122274,-28.647543156409785],[-51.57607174208955,-28.647623814217507]]]}},{"type":"Feature","properties":{"id_grade":"1KME5245N8154","pop":48,"dom":18,"universo_dom":"domicilios_ocupados_grade_ibge_2022","na_bacia":1,"area_pct_bacia":100.0,"metodo_recorte_bacia":"ponto_representativo_grade_2022; area_pct_geometrica","status_borda_bacia":"total","metodo_area_bacia":"interseção geométrica em EPSG:5880","metodo_na_bacia":"ponto_representativo_grade_2022_within_bacia","pop_n_validos":1,"pop_n_total":1,"pop_completude":1.0,"dom_n_validos":1,"dom_n_total":1,"dom_completude":1.0},"geometry":{"type":"Polygon","coordinates":[[[-51.566138110122274,-28.647543156409785],[-51.56622453106774,-28.63825358141156],[-51.556291257922794,-28.638172600799553],[-51.5562044842925,-28.6474621687748],[-51.566138110122274,-28.647543156409785]]]}},{"type":"Feature","properties":{"id_grade":"1KME5247N8154","pop":3,"dom":1,"universo_dom":"domicilios_ocupados_grade_ibge_2022","na_bacia":1,"area_pct_bacia":100.0,"metodo_recorte_bacia":"ponto_representativo_grade_2022; area_pct_geometrica","status_borda_bacia":"total","metodo_area_bacia":"interseção geométrica em EPSG:5880","metodo_na_bacia":"ponto_representativo_grade_2022_within_bacia","pop_n_validos":1,"pop_n_total":1,"pop_completude":1.0,"dom_n_validos":1,"dom_n_total":1,"dom_completude":1.0},"geometry":{"type":"Polygon","coordinates":[[[-51.546270864625264,-28.647380851312505],[-51.54635799093975,-28.638091290389447],[-51.53642473014363,-28.63800965018174],[-51.53633725114563,-28.64729920402403],[-51.546270864625264,-28.647380851312505]]]}},{"type":"Feature","properties":{"id_grade":"1KME5248N8154","pop":2,"dom":1,"universo_dom":"domicilios_ocupados_grade_ibge_2022","na_bacia":1,"area_pct_bacia":100.0,"metodo_recorte_bacia":"ponto_representativo_grade_2022; area_pct_geometrica","status_borda_bacia":"total","metodo_area_bacia":"interseção geométrica em EPSG:5880","metodo_na_bacia":"ponto_representativo_grade_2022_within_bacia","pop_n_validos":1,"pop_n_total":1,"pop_completude":1.0,"dom_n_validos":1,"dom_n_total":1,"dom_completude":1.0},"geometry":{"type":"Polygon","coordinates":[[[-51.53633725114563,-28.64729920402403],[-51.53642473014363,-28.63800965018174],[-51.52649147555948,-28.63792768017715],[-51.52640364387863,-28.64721722691039],[-51.53633725114563,-28.64729920402403]]]}},{"type":"Feature","properties":{"id_grade":"1KME5255N8154","pop":6,"dom":3,"universo_dom":"domicilios_ocupados_grade_ibge_2022","na_bacia":1,"area_pct_bacia":100.0,"metodo_recorte_bacia":"ponto_representativo_grade_2022; area_pct_geometrica","status_borda_bacia":"total","metodo_area_bacia":"interseção geométrica em EPSG:5880","metodo_na_bacia":"ponto_representativo_grade_2022_within_bacia","pop_n_validos":1,"pop_n_total":1,"pop_completude":1.0,"dom_n_validos":1,"dom_n_total":1,"dom_completude":1.0},"geometry":{"type":"Polygon","coordinates":[[[-51.46680213214442,-28.646718437937174],[-51.46689207990836,-28.637428934458796],[-51.45695886950917,-28.63734465589773],[-51.45686856906708,-28.64663415206677],[-51.46680213214442,-28.646718437937174]]]}},{"type":"Feature","properties":{"id_grade":"1KME5256N8154","pop":2,"dom":1,"universo_dom":"domicilios_ocupados_grade_ibge_2022","na_bacia":1,"area_pct_bacia":100.0,"metodo_recorte_bacia":"ponto_representativo_grade_2022; area_pct_geometrica","status_borda_bacia":"total","metodo_area_bacia":"interseção geométrica em EPSG:5880","metodo_na_bacia":"ponto_representativo_grade_2022_within_bacia","pop_n_validos":1,"pop_n_total":1,"pop_completude":1.0,"dom_n_validos":1,"dom_n_total":1,"dom_completude":1.0},"geometry":{"type":"Polygon","coordinates":[[[-51.45686856906708,-28.64663415206677],[-51.45695886950917,-28.63734465589773],[-51.447025665522276,-28.63726004754613],[-51.446935012402726,-28.64654953637711],[-51.45686856906708,-28.64663415206677]]]}},{"type":"Feature","properties":{"id_grade":"1KME5257N8154","pop":10,"dom":5,"universo_dom":"domicilios_ocupados_grade_ibge_2022","na_bacia":1,"area_pct_bacia":100.0,"metodo_recorte_bacia":"ponto_representativo_grade_2022; area_pct_geometrica","status_borda_bacia":"total","metodo_area_bacia":"interseção geométrica em EPSG:5880","metodo_na_bacia":"ponto_representativo_grade_2022_within_bacia","pop_n_validos":1,"pop_n_total":1,"pop_completude":1.0,"dom_n_validos":1,"dom_n_total":1,"dom_completude":1.0},"geometry":{"type":"Polygon","coordinates":[[[-51.446935012402726,-28.64654953637711],[-51.447025665522276,-28.63726004754613],[-51.437092467972725,-28.637175109404136],[-51.43700146217638,-28.64646459086918],[-51.446935012402726,-28.64654953637711]]]}},{"type":"Feature","properties":{"id_grade":"1KME5258N8154","pop":1,"dom":1,"universo_dom":"domicilios_ocupados_grade_ibge_2022","na_bacia":1,"area_pct_bacia":100.0,"metodo_recorte_bacia":"ponto_representativo_grade_2022; area_pct_geometrica","status_borda_bacia":"total","metodo_area_bacia":"interseção geométrica em EPSG:5880","metodo_na_bacia":"ponto_representativo_grade_2022_within_bacia","pop_n_validos":1,"pop_n_total":1,"pop_completude":1.0,"dom_n_validos":1,"dom_n_total":1,"dom_completude":1.0},"geometry":{"type":"Polygon","coordinates":[[[-51.43700146217638,-28.64646459086918],[-51.437092467972725,-28.637175109404136],[-51.42715927688553,-28.63708984147335],[-51.427067918413115,-28.646379315543513],[-51.43700146217638,-28.64646459086918]]]}},{"type":"Feature","properties":{"id_grade":"1KME5259N8154","pop":6,"dom":2,"universo_dom":"domicilios_ocupados_grade_ibge_2022","na_bacia":1,"area_pct_bacia":100.0,"metodo_recorte_bacia":"ponto_representativo_grade_2022; area_pct_geometrica","status_borda_bacia":"total","metodo_area_bacia":"interseção geométrica em EPSG:5880","metodo_na_bacia":"ponto_representativo_grade_2022_within_bacia","pop_n_validos":1,"pop_n_total":1,"pop_completude":1.0,"dom_n_validos":1,"dom_n_total":1,"dom_completude":1.0},"geometry":{"type":"Polygon","coordinates":[[[-51.427067918413115,-28.646379315543513],[-51.42715927688553,-28.63708984147335],[-51.417226092285766,-28.637004243754347],[-51.41713438113794,-28.646293710400972],[-51.427067918413115,-28.646379315543513]]]}},{"type":"Feature","properties":{"id_grade":"1KME5240N8155","pop":5,"dom":2,"universo_dom":"domicilios_ocupados_grade_ibge_2022","na_bacia":1,"area_pct_bacia":100.0,"metodo_recorte_bacia":"ponto_representativo_grade_2022; area_pct_geometrica","status_borda_bacia":"total","metodo_area_bacia":"interseção geométrica em EPSG:5880","metodo_na_bacia":"ponto_representativo_grade_2022_within_bacia","pop_n_validos":1,"pop_n_total":1,"pop_completude":1.0,"dom_n_validos":1,"dom_n_total":1,"dom_completude":1.0},"geometry":{"type":"Polygon","coordinates":[[[-51.61589098834445,-28.638653537469217],[-51.61597563984436,-28.629364403393993],[-51.60604268892859,-28.629285078662257],[-51.60595768476564,-28.638574205860284],[-51.61589098834445,-28.638653537469217]]]}},{"type":"Feature","properties":{"id_grade":"1KME5241N8155","pop":1,"dom":1,"universo_dom":"domicilios_ocupados_grade_ibge_2022","na_bacia":1,"area_pct_bacia":100.0,"metodo_recorte_bacia":"ponto_representativo_grade_2022; area_pct_geometrica","status_borda_bacia":"total","metodo_area_bacia":"interseção geométrica em EPSG:5880","metodo_na_bacia":"ponto_representativo_grade_2022_within_bacia","pop_n_validos":1,"pop_n_total":1,"pop_completude":1.0,"dom_n_validos":1,"dom_n_total":1,"dom_completude":1.0},"geometry":{"type":"Polygon","coordinates":[[[-51.60595768476564,-28.638574205860284],[-51.60604268892859,-28.629285078662257],[-51.59610974404887,-28.62920542415663],[-51.59602438722353,-28.638494544449237],[-51.60595768476564,-28.638574205860284]]]}},{"type":"Feature","properties":{"id_grade":"1KME5242N8155","pop":1,"dom":1,"universo_dom":"domicilios_ocupados_grade_ibge_2022","na_bacia":1,"area_pct_bacia":100.0,"metodo_recorte_bacia":"ponto_representativo_grade_2022; area_pct_geometrica","status_borda_bacia":"total","metodo_area_bacia":"interseção geométrica em EPSG:5880","metodo_na_bacia":"ponto_representativo_grade_2022_within_bacia","pop_n_validos":1,"pop_n_total":1,"pop_completude":1.0,"dom_n_validos":1,"dom_n_total":1,"dom_completude":1.0},"geometry":{"type":"Polygon","coordinates":[[[-51.59602438722353,-28.638494544449237],[-51.59610974404887,-28.62920542415663],[-51.58617680523023,-28.62912543987822],[-51.58609109574315,-28.638414553237098],[-51.59602438722353,-28.638494544449237]]]}},{"type":"Feature","properties":{"id_grade":"1KME5245N8155","pop":36,"dom":11,"universo_dom":"domicilios_ocupados_grade_ibge_2022","na_bacia":1,"area_pct_bacia":100.0,"metodo_recorte_bacia":"ponto_representativo_grade_2022; area_pct_geometrica","status_borda_bacia":"total","metodo_area_bacia":"interseção geométrica em EPSG:5880","metodo_na_bacia":"ponto_representativo_grade_2022_within_bacia","pop_n_validos":1,"pop_n_total":1,"pop_completude":1.0,"dom_n_validos":1,"dom_n_total":1,"dom_completude":1.0},"geometry":{"type":"Polygon","coordinates":[[[-51.56622453106774,-28.63825358141156],[-51.56631094587636,-28.62896448200665],[-51.556378025391204,-28.628883508414567],[-51.556291257922794,-28.638172600799553],[-51.56622453106774,-28.63825358141156]]]}},{"type":"Feature","properties":{"id_grade":"1KME5246N8155","pop":4,"dom":1,"universo_dom":"domicilios_ocupados_grade_ibge_2022","na_bacia":1,"area_pct_bacia":100.0,"metodo_recorte_bacia":"ponto_representativo_grade_2022; area_pct_geometrica","status_borda_bacia":"total","metodo_area_bacia":"interseção geométrica em EPSG:5880","metodo_na_bacia":"ponto_representativo_grade_2022_within_bacia","pop_n_validos":1,"pop_n_total":1,"pop_completude":1.0,"dom_n_validos":1,"dom_n_total":1,"dom_completude":1.0},"geometry":{"type":"Polygon","coordinates":[[[-51.556291257922794,-28.638172600799553],[-51.556378025391204,-28.628883508414567],[-51.54644511106729,-28.628802205052605],[-51.54635799093975,-28.638091290389447],[-51.556291257922794,-28.638172600799553]]]}},{"type":"Feature","properties":{"id_grade":"1KME5247N8155","pop":2,"dom":1,"universo_dom":"domicilios_ocupados_grade_ibge_2022","na_bacia":1,"area_pct_bacia":100.0,"metodo_recorte_bacia":"ponto_representativo_grade_2022; area_pct_geometrica","status_borda_bacia":"total","metodo_area_bacia":"interseção geométrica em EPSG:5880","metodo_na_bacia":"ponto_representativo_grade_2022_within_bacia","pop_n_validos":1,"pop_n_total":1,"pop_completude":1.0,"dom_n_validos":1,"dom_n_total":1,"dom_completude":1.0},"geometry":{"type":"Polygon","coordinates":[[[-51.54635799093975,-28.638091290389447],[-51.54644511106729,-28.628802205052605],[-51.53651220292965,-28.628720571921857],[-51.53642473014363,-28.63800965018174],[-51.54635799093975,-28.638091290389447]]]}},{"type":"Feature","properties":{"id_grade":"1KME5256N8155","pop":4,"dom":2,"universo_dom":"domicilios_ocupados_grade_ibge_2022","na_bacia":1,"area_pct_bacia":100.0,"metodo_recorte_bacia":"ponto_representativo_grade_2022; area_pct_geometrica","status_borda_bacia":"total","metodo_area_bacia":"interseção geométrica em EPSG:5880","metodo_na_bacia":"ponto_representativo_grade_2022_within_bacia","pop_n_validos":1,"pop_n_total":1,"pop_completude":1.0,"dom_n_validos":1,"dom_n_total":1,"dom_completude":1.0},"geometry":{"type":"Polygon","coordinates":[[[-51.45695886950917,-28.63734465589773],[-51.45704916353896,-28.628055635280866],[-51.447116312204486,-28.62797103426287],[-51.447025665522276,-28.63726004754613],[-51.45695886950917,-28.63734465589773]]]}},{"type":"Feature","properties":{"id_grade":"1KME5258N8155","pop":2,"dom":1,"universo_dom":"domicilios_ocupados_grade_ibge_2022","na_bacia":1,"area_pct_bacia":100.0,"metodo_recorte_bacia":"ponto_representativo_grade_2022; area_pct_geometrica","status_borda_bacia":"total","metodo_area_bacia":"interseção geométrica em EPSG:5880","metodo_na_bacia":"ponto_representativo_grade_2022_within_bacia","pop_n_validos":1,"pop_n_total":1,"pop_completude":1.0,"dom_n_validos":1,"dom_n_total":1,"dom_completude":1.0},"geometry":{"type":"Polygon","coordinates":[[[-51.437092467972725,-28.637175109404136],[-51.437183467306674,-28.62788610348375],[-51.42725062887053,-28.627800842943966],[-51.42715927688553,-28.63708984147335],[-51.437092467972725,-28.637175109404136]]]}},{"type":"Feature","properties":{"id_grade":"1KME5259N8155","pop":14,"dom":5,"universo_dom":"domicilios_ocupados_grade_ibge_2022","na_bacia":1,"area_pct_bacia":100.0,"metodo_recorte_bacia":"ponto_representativo_grade_2022; area_pct_geometrica","status_borda_bacia":"total","metodo_area_bacia":"interseção geométrica em EPSG:5880","metodo_na_bacia":"ponto_representativo_grade_2022_within_bacia","pop_n_validos":1,"pop_n_total":1,"pop_completude":1.0,"dom_n_validos":1,"dom_n_total":1,"dom_completude":1.0},"geometry":{"type":"Polygon","coordinates":[[[-51.42715927688553,-28.63708984147335],[-51.42725062887053,-28.627800842943966],[-51.417317796921125,-28.627715252644485],[-51.417226092285766,-28.637004243754347],[-51.42715927688553,-28.63708984147335]]]}},{"type":"Feature","properties":{"id_grade":"1KME5240N8156","pop":2,"dom":1,"universo_dom":"domicilios_ocupados_grade_ibge_2022","na_bacia":1,"area_pct_bacia":100.0,"metodo_recorte_bacia":"ponto_representativo_grade_2022; area_pct_geometrica","status_borda_bacia":"total","metodo_area_bacia":"interseção geométrica em EPSG:5880","metodo_na_bacia":"ponto_representativo_grade_2022_within_bacia","pop_n_validos":1,"pop_n_total":1,"pop_completude":1.0,"dom_n_validos":1,"dom_n_total":1,"dom_completude":1.0},"geometry":{"type":"Polygon","coordinates":[[[-51.61597563984436,-28.629364403393993],[-51.61606028533326,-28.62007574456378],[-51.60612768705548,-28.619996426705125],[-51.60604268892859,-28.629285078662257],[-51.61597563984436,-28.629364403393993]]]}},{"type":"Feature","properties":{"id_grade":"1KME5242N8156","pop":6,"dom":2,"universo_dom":"domicilios_ocupados_grade_ibge_2022","na_bacia":1,"area_pct_bacia":100.0,"metodo_recorte_bacia":"ponto_representativo_grade_2022; area_pct_geometrica","status_borda_bacia":"total","metodo_area_bacia":"interseção geométrica em EPSG:5880","metodo_na_bacia":"ponto_representativo_grade_2022_within_bacia","pop_n_validos":1,"pop_n_total":1,"pop_completude":1.0,"dom_n_validos":1,"dom_n_total":1,"dom_completude":1.0},"geometry":{"type":"Polygon","coordinates":[[[-51.59610974404887,-28.62920542415663],[-51.59619509481311,-28.619916779101313],[-51.58626250863118,-28.619836801753834],[-51.58617680523023,-28.62912543987822],[-51.59610974404887,-28.62920542415663]]]}},{"type":"Feature","properties":{"id_grade":"1KME5248N8156","pop":5,"dom":2,"universo_dom":"domicilios_ocupados_grade_ibge_2022","na_bacia":1,"area_pct_bacia":100.0,"metodo_recorte_bacia":"ponto_representativo_grade_2022; area_pct_geometrica","status_borda_bacia":"total","metodo_area_bacia":"interseção geométrica em EPSG:5880","metodo_na_bacia":"ponto_representativo_grade_2022_within_bacia","pop_n_validos":1,"pop_n_total":1,"pop_completude":1.0,"dom_n_validos":1,"dom_n_total":1,"dom_completude":1.0},"geometry":{"type":"Polygon","coordinates":[[[-51.53651220292965,-28.628720571921857],[-51.536599669504355,-28.619431968877407],[-51.5266671202108,-28.619350013079973],[-51.52657930100332,-28.62863860902273],[-51.53651220292965,-28.628720571921857]]]}},{"type":"Feature","properties":{"id_grade":"1KME5249N8156","pop":9,"dom":4,"universo_dom":"domicilios_ocupados_grade_ibge_2022","na_bacia":1,"area_pct_bacia":100.0,"metodo_recorte_bacia":"ponto_representativo_grade_2022; area_pct_geometrica","status_borda_bacia":"total","metodo_area_bacia":"interseção geométrica em EPSG:5880","metodo_na_bacia":"ponto_representativo_grade_2022_within_bacia","pop_n_validos":1,"pop_n_total":1,"pop_completude":1.0,"dom_n_validos":1,"dom_n_total":1,"dom_completude":1.0},"geometry":{"type":"Polygon","coordinates":[[[-51.52657930100332,-28.62863860902273],[-51.5266671202108,-28.619350013079973],[-51.51673457715294,-28.619267727543694],[-51.516646405313345,-28.628556316356065],[-51.52657930100332,-28.62863860902273]]]}},{"type":"Feature","properties":{"id_grade":"1KME5250N8156","pop":4,"dom":3,"universo_dom":"domicilios_ocupados_grade_ibge_2022","na_bacia":1,"area_pct_bacia":100.0,"metodo_recorte_bacia":"ponto_representativo_grade_2022; area_pct_geometrica","status_borda_bacia":"total","metodo_area_bacia":"interseção geométrica em EPSG:5880","metodo_na_bacia":"ponto_representativo_grade_2022_within_bacia","pop_n_validos":1,"pop_n_total":1,"pop_completude":1.0,"dom_n_validos":1,"dom_n_total":1,"dom_completude":1.0},"geometry":{"type":"Polygon","coordinates":[[[-51.516646405313345,-28.628556316356065],[-51.51673457715294,-28.619267727543694],[-51.506802040355794,-28.619185112268834],[-51.506713515884755,-28.62847369392262],[-51.516646405313345,-28.628556316356065]]]}},{"type":"Feature","properties":{"id_grade":"1KME5252N8156","pop":2,"dom":2,"universo_dom":"domicilios_ocupados_grade_ibge_2022","na_bacia":1,"area_pct_bacia":100.0,"metodo_recorte_bacia":"ponto_representativo_grade_2022; area_pct_geometrica","status_borda_bacia":"total","metodo_area_bacia":"interseção geométrica em EPSG:5880","metodo_na_bacia":"ponto_representativo_grade_2022_within_bacia","pop_n_validos":1,"pop_n_total":1,"pop_completude":1.0,"dom_n_validos":1,"dom_n_total":1,"dom_completude":1.0},"geometry":{"type":"Polygon","coordinates":[[[-51.49678063274259,-28.62839074172323],[-51.49686950984441,-28.61910216725674],[-51.486936985643815,-28.619018892508038],[-51.486847755911896,-28.62830745975856],[-51.49678063274259,-28.62839074172323]]]}},{"type":"Feature","properties":{"id_grade":"1KME5253N8156","pop":3,"dom":1,"universo_dom":"domicilios_ocupados_grade_ibge_2022","na_bacia":1,"area_pct_bacia":100.0,"metodo_recorte_bacia":"ponto_representativo_grade_2022; area_pct_geometrica","status_borda_bacia":"total","metodo_area_bacia":"interseção geométrica em EPSG:5880","metodo_na_bacia":"ponto_representativo_grade_2022_within_bacia","pop_n_validos":1,"pop_n_total":1,"pop_completude":1.0,"dom_n_validos":1,"dom_n_total":1,"dom_completude":1.0},"geometry":{"type":"Polygon","coordinates":[[[-51.486847755911896,-28.62830745975856],[-51.486936985643815,-28.619018892508038],[-51.477004467779054,-28.618935288023366],[-51.4769148854177,-28.62822384802928],[-51.486847755911896,-28.62830745975856]]]}},{"type":"Feature","properties":{"id_grade":"1KME5255N8156","pop":10,"dom":3,"universo_dom":"domicilios_ocupados_grade_ibge_2022","na_bacia":1,"area_pct_bacia":100.0,"metodo_recorte_bacia":"ponto_representativo_grade_2022; area_pct_geometrica","status_borda_bacia":"total","metodo_area_bacia":"interseção geométrica em EPSG:5880","metodo_na_bacia":"ponto_representativo_grade_2022_within_bacia","pop_n_validos":1,"pop_n_total":1,"pop_completude":1.0,"dom_n_validos":1,"dom_n_total":1,"dom_completude":1.0},"geometry":{"type":"Polygon","coordinates":[[[-51.46698202128504,-28.62813990653661],[-51.46707195627514,-28.61885135380322],[-51.45713945115713,-28.61876708984905],[-51.45704916353896,-28.628055635280866],[-51.46698202128504,-28.62813990653661]]]}},{"type":"Feature","properties":{"id_grade":"1KME5256N8156","pop":4,"dom":1,"universo_dom":"domicilios_ocupados_grade_ibge_2022","na_bacia":1,"area_pct_bacia":100.0,"metodo_recorte_bacia":"ponto_representativo_grade_2022; area_pct_geometrica","status_borda_bacia":"total","metodo_area_bacia":"interseção geométrica em EPSG:5880","metodo_na_bacia":"ponto_representativo_grade_2022_within_bacia","pop_n_validos":1,"pop_n_total":1,"pop_completude":1.0,"dom_n_validos":1,"dom_n_total":1,"dom_completude":1.0},"geometry":{"type":"Polygon","coordinates":[[[-51.45704916353896,-28.628055635280866],[-51.45713945115713,-28.61876708984905],[-51.44720695245005,-28.618682496161142],[-51.447116312204486,-28.62797103426287],[-51.45704916353896,-28.628055635280866]]]}},{"type":"Feature","properties":{"id_grade":"1KME5260N8156","pop":2,"dom":1,"universo_dom":"domicilios_ocupados_grade_ibge_2022","na_bacia":1,"area_pct_bacia":100.0,"metodo_recorte_bacia":"ponto_representativo_grade_2022; area_pct_geometrica","status_borda_bacia":"total","metodo_area_bacia":"interseção geométrica em EPSG:5880","metodo_na_bacia":"ponto_representativo_grade_2022_within_bacia","pop_n_validos":1,"pop_n_total":1,"pop_completude":1.0,"dom_n_validos":1,"dom_n_total":1,"dom_completude":1.0},"geometry":{"type":"Polygon","coordinates":[[[-51.417317796921125,-28.627715252644485],[-51.41740949504473,-28.618426736703828],[-51.40747702223172,-28.618340824089348],[-51.40738497148348,-28.627629332585897],[-51.417317796921125,-28.627715252644485]]]}},{"type":"Feature","properties":{"id_grade":"1KME5241N8157","pop":1,"dom":1,"universo_dom":"domicilios_ocupados_grade_ibge_2022","na_bacia":1,"area_pct_bacia":100.0,"metodo_recorte_bacia":"ponto_representativo_grade_2022; area_pct_geometrica","status_borda_bacia":"total","metodo_area_bacia":"interseção geométrica em EPSG:5880","metodo_na_bacia":"ponto_representativo_grade_2022_within_bacia","pop_n_validos":1,"pop_n_total":1,"pop_completude":1.0,"dom_n_validos":1,"dom_n_total":1,"dom_completude":1.0},"geometry":{"type":"Polygon","coordinates":[[[-51.60612768705548,-28.619996426705125],[-51.60621267914698,-28.610708249622252],[-51.596280439516924,-28.61062860891689],[-51.59619509481311,-28.619916779101313],[-51.60612768705548,-28.619996426705125]]]}},{"type":"Feature","properties":{"id_grade":"1KME5242N8157","pop":4,"dom":1,"universo_dom":"domicilios_ocupados_grade_ibge_2022","na_bacia":1,"area_pct_bacia":100.0,"metodo_recorte_bacia":"ponto_representativo_grade_2022; area_pct_geometrica","status_borda_bacia":"total","metodo_area_bacia":"interseção geométrica em EPSG:5880","metodo_na_bacia":"ponto_representativo_grade_2022_within_bacia","pop_n_validos":1,"pop_n_total":1,"pop_completude":1.0,"dom_n_validos":1,"dom_n_total":1,"dom_completude":1.0},"geometry":{"type":"Polygon","coordinates":[[[-51.59619509481311,-28.619916779101313],[-51.596280439516924,-28.61062860891689],[-51.58634820594666,-28.6105486384958],[-51.58626250863118,-28.619836801753834],[-51.59619509481311,-28.619916779101313]]]}},{"type":"Feature","properties":{"id_grade":"1KME5243N8157","pop":2,"dom":1,"universo_dom":"domicilios_ocupados_grade_ibge_2022","na_bacia":1,"area_pct_bacia":100.0,"metodo_recorte_bacia":"ponto_representativo_grade_2022; area_pct_geometrica","status_borda_bacia":"total","metodo_area_bacia":"interseção geométrica em EPSG:5880","metodo_na_bacia":"ponto_representativo_grade_2022_within_bacia","pop_n_validos":1,"pop_n_total":1,"pop_completude":1.0,"dom_n_validos":1,"dom_n_total":1,"dom_completude":1.0},"geometry":{"type":"Polygon","coordinates":[[[-51.58626250863118,-28.619836801753834],[-51.58634820594666,-28.6105486384958],[-51.57641597846123,-28.61046833835983],[-51.576329928534726,-28.619756494662408],[-51.58626250863118,-28.619836801753834]]]}},{"type":"Feature","properties":{"id_grade":"1KME5244N8157","pop":2,"dom":1,"universo_dom":"domicilios_ocupados_grade_ibge_2022","na_bacia":1,"area_pct_bacia":100.0,"metodo_recorte_bacia":"ponto_representativo_grade_2022; area_pct_geometrica","status_borda_bacia":"total","metodo_area_bacia":"interseção geométrica em EPSG:5880","metodo_na_bacia":"ponto_representativo_grade_2022_within_bacia","pop_n_validos":1,"pop_n_total":1,"pop_completude":1.0,"dom_n_validos":1,"dom_n_total":1,"dom_completude":1.0},"geometry":{"type":"Polygon","coordinates":[[[-51.576329928534726,-28.619756494662408],[-51.57641597846123,-28.61046833835983],[-51.56648375708565,-28.610387708509453],[-51.566397354548776,-28.61967585782852],[-51.576329928534726,-28.619756494662408]]]}},{"type":"Feature","properties":{"id_grade":"1KME5246N8157","pop":1,"dom":1,"universo_dom":"domicilios_ocupados_grade_ibge_2022","na_bacia":1,"area_pct_bacia":100.0,"metodo_recorte_bacia":"ponto_representativo_grade_2022; area_pct_geometrica","status_borda_bacia":"total","metodo_area_bacia":"interseção geométrica em EPSG:5880","metodo_na_bacia":"ponto_representativo_grade_2022_within_bacia","pop_n_validos":1,"pop_n_total":1,"pop_completude":1.0,"dom_n_validos":1,"dom_n_total":1,"dom_completude":1.0},"geometry":{"type":"Polygon","coordinates":[[[-51.55646478669838,-28.61959489125235],[-51.55655154184497,-28.610306748945952],[-51.54661933276421,-28.61022545966946],[-51.546532225008555,-28.619513594935295],[-51.55646478669838,-28.61959489125235]]]}},{"type":"Feature","properties":{"id_grade":"1KME5248N8157","pop":4,"dom":1,"universo_dom":"domicilios_ocupados_grade_ibge_2022","na_bacia":1,"area_pct_bacia":100.0,"metodo_recorte_bacia":"ponto_representativo_grade_2022; area_pct_geometrica","status_borda_bacia":"total","metodo_area_bacia":"interseção geométrica em EPSG:5880","metodo_na_bacia":"ponto_representativo_grade_2022_within_bacia","pop_n_validos":1,"pop_n_total":1,"pop_completude":1.0,"dom_n_validos":1,"dom_n_total":1,"dom_completude":1.0},"geometry":{"type":"Polygon","coordinates":[[[-51.536599669504355,-28.619431968877407],[-51.53668712986841,-28.61014384068129],[-51.5267549331826,-28.61006189198178],[-51.5266671202108,-28.619350013079973],[-51.536599669504355,-28.619431968877407]]]}},{"type":"Feature","properties":{"id_grade":"1KME5249N8157","pop":12,"dom":5,"universo_dom":"domicilios_ocupados_grade_ibge_2022","na_bacia":1,"area_pct_bacia":100.0,"metodo_recorte_bacia":"ponto_representativo_grade_2022; area_pct_geometrica","status_borda_bacia":"total","metodo_area_bacia":"interseção geométrica em EPSG:5880","metodo_na_bacia":"ponto_representativo_grade_2022_within_bacia","pop_n_validos":1,"pop_n_total":1,"pop_completude":1.0,"dom_n_validos":1,"dom_n_total":1,"dom_completude":1.0},"geometry":{"type":"Polygon","coordinates":[[[-51.5266671202108,-28.619350013079973],[-51.5267549331826,-28.61006189198178],[-51.51682274273182,-28.609979613571838],[-51.51673457715294,-28.619267727543694],[-51.5266671202108,-28.619350013079973]]]}},{"type":"Feature","properties":{"id_grade":"1KME5254N8157","pop":55,"dom":21,"universo_dom":"domicilios_ocupados_grade_ibge_2022","na_bacia":1,"area_pct_bacia":100.0,"metodo_recorte_bacia":"ponto_representativo_grade_2022; area_pct_geometrica","status_borda_bacia":"total","metodo_area_bacia":"interseção geométrica em EPSG:5880","metodo_na_bacia":"ponto_representativo_grade_2022_within_bacia","pop_n_validos":1,"pop_n_total":1,"pop_completude":1.0,"dom_n_validos":1,"dom_n_total":1,"dom_completude":1.0},"geometry":{"type":"Polygon","coordinates":[[[-51.477004467779054,-28.618935288023366],[-51.47709404377954,-28.609647202842616],[-51.46716188487935,-28.609563275892043],[-51.46707195627514,-28.61885135380322],[-51.477004467779054,-28.618935288023366]]]}},{"type":"Feature","properties":{"id_grade":"1KME5255N8157","pop":40,"dom":18,"universo_dom":"domicilios_ocupados_grade_ibge_2022","na_bacia":1,"area_pct_bacia":100.0,"metodo_recorte_bacia":"ponto_representativo_grade_2022; area_pct_geometrica","status_borda_bacia":"total","metodo_area_bacia":"interseção geométrica em EPSG:5880","metodo_na_bacia":"ponto_representativo_grade_2022_within_bacia","pop_n_validos":1,"pop_n_total":1,"pop_completude":1.0,"dom_n_validos":1,"dom_n_total":1,"dom_completude":1.0},"geometry":{"type":"Polygon","coordinates":[[[-51.46707195627514,-28.61885135380322],[-51.46716188487935,-28.609563275892043],[-51.45722973236438,-28.609479019235202],[-51.45713945115713,-28.61876708984905],[-51.46707195627514,-28.61885135380322]]]}},{"type":"Feature","properties":{"id_grade":"1KME5241N8158","pop":1,"dom":1,"universo_dom":"domicilios_ocupados_grade_ibge_2022","na_bacia":1,"area_pct_bacia":100.0,"metodo_recorte_bacia":"ponto_representativo_grade_2022; area_pct_geometrica","status_borda_bacia":"total","metodo_area_bacia":"interseção geométrica em EPSG:5880","metodo_na_bacia":"ponto_representativo_grade_2022_within_bacia","pop_n_validos":1,"pop_n_total":1,"pop_completude":1.0,"dom_n_validos":1,"dom_n_total":1,"dom_completude":1.0},"geometry":{"type":"Polygon","coordinates":[[[-51.60621267914698,-28.610708249622252],[-51.606297665203705,-28.601420547046754],[-51.59636577816094,-28.60134091323588],[-51.596280439516924,-28.61062860891689],[-51.60621267914698,-28.610708249622252]]]}},{"type":"Feature","properties":{"id_grade":"1KME5246N8158","pop":4,"dom":2,"universo_dom":"domicilios_ocupados_grade_ibge_2022","na_bacia":1,"area_pct_bacia":100.0,"metodo_recorte_bacia":"ponto_representativo_grade_2022; area_pct_geometrica","status_borda_bacia":"total","metodo_area_bacia":"interseção geométrica em EPSG:5880","metodo_na_bacia":"ponto_representativo_grade_2022_within_bacia","pop_n_validos":1,"pop_n_total":1,"pop_completude":1.0,"dom_n_validos":1,"dom_n_total":1,"dom_completude":1.0},"geometry":{"type":"Polygon","coordinates":[[[-51.55655154184497,-28.610306748945952],[-51.556638290831636,-28.601019081128555],[-51.54670643433491,-28.600937798889298],[-51.54661933276421,-28.61022545966946],[-51.55655154184497,-28.610306748945952]]]}},{"type":"Feature","properties":{"id_grade":"1KME5249N8158","pop":4,"dom":1,"universo_dom":"domicilios_ocupados_grade_ibge_2022","na_bacia":1,"area_pct_bacia":100.0,"metodo_recorte_bacia":"ponto_representativo_grade_2022; area_pct_geometrica","status_borda_bacia":"total","metodo_area_bacia":"interseção geométrica em EPSG:5880","metodo_na_bacia":"ponto_representativo_grade_2022_within_bacia","pop_n_validos":1,"pop_n_total":1,"pop_completude":1.0,"dom_n_validos":1,"dom_n_total":1,"dom_completude":1.0},"geometry":{"type":"Polygon","coordinates":[[[-51.5267549331826,-28.61006189198178],[-51.52684273991938,-28.60077424536141],[-51.51691090205064,-28.60069197407413],[-51.51682274273182,-28.609979613571838],[-51.5267549331826,-28.61006189198178]]]}},{"type":"Feature","properties":{"id_grade":"1KME5250N8158","pop":2,"dom":1,"universo_dom":"domicilios_ocupados_grade_ibge_2022","na_bacia":1,"area_pct_bacia":100.0,"metodo_recorte_bacia":"ponto_representativo_grade_2022; area_pct_geometrica","status_borda_bacia":"total","metodo_area_bacia":"interseção geométrica em EPSG:5880","metodo_na_bacia":"ponto_representativo_grade_2022_within_bacia","pop_n_validos":1,"pop_n_total":1,"pop_completude":1.0,"dom_n_validos":1,"dom_n_total":1,"dom_completude":1.0},"geometry":{"type":"Polygon","coordinates":[[[-51.51682274273182,-28.609979613571838],[-51.51691090205064,-28.60069197407413],[-51.50697907044129,-28.60060937310573],[-51.50689055854108,-28.609897005452297],[-51.51682274273182,-28.609979613571838]]]}},{"type":"Feature","properties":{"id_grade":"1KME5254N8158","pop":4,"dom":2,"universo_dom":"domicilios_ocupados_grade_ibge_2022","na_bacia":1,"area_pct_bacia":100.0,"metodo_recorte_bacia":"ponto_representativo_grade_2022; area_pct_geometrica","status_borda_bacia":"total","metodo_area_bacia":"interseção geométrica em EPSG:5880","metodo_na_bacia":"ponto_representativo_grade_2022_within_bacia","pop_n_validos":1,"pop_n_total":1,"pop_completude":1.0,"dom_n_validos":1,"dom_n_total":1,"dom_completude":1.0},"geometry":{"type":"Polygon","coordinates":[[[-51.47709404377954,-28.609647202842616],[-51.477183613419854,-28.600359592120785],[-51.46725180709834,-28.600275672435437],[-51.46716188487935,-28.609563275892043],[-51.47709404377954,-28.609647202842616]]]}},{"type":"Feature","properties":{"id_grade":"1KME5256N8158","pop":4,"dom":1,"universo_dom":"domicilios_ocupados_grade_ibge_2022","na_bacia":1,"area_pct_bacia":100.0,"metodo_recorte_bacia":"ponto_representativo_grade_2022; area_pct_geometrica","status_borda_bacia":"total","metodo_area_bacia":"interseção geométrica em EPSG:5880","metodo_na_bacia":"ponto_representativo_grade_2022_within_bacia","pop_n_validos":1,"pop_n_total":1,"pop_completude":1.0,"dom_n_validos":1,"dom_n_total":1,"dom_completude":1.0},"geometry":{"type":"Polygon","coordinates":[[[-51.45722973236438,-28.609479019235202],[-51.45732000716138,-28.60019142307242],[-51.44738821363397,-28.60010684403313],[-51.44729758625965,-28.60939443287353],[-51.45722973236438,-28.609479019235202]]]}},{"type":"Feature","properties":{"id_grade":"1KME5245N8159","pop":3,"dom":1,"universo_dom":"domicilios_ocupados_grade_ibge_2022","na_bacia":1,"area_pct_bacia":100.0,"metodo_recorte_bacia":"ponto_representativo_grade_2022; area_pct_geometrica","status_borda_bacia":"total","metodo_area_bacia":"interseção geométrica em EPSG:5880","metodo_na_bacia":"ponto_representativo_grade_2022_within_bacia","pop_n_validos":1,"pop_n_total":1,"pop_completude":1.0,"dom_n_validos":1,"dom_n_total":1,"dom_completude":1.0},"geometry":{"type":"Polygon","coordinates":[[[-51.56657015348764,-28.601100033683558],[-51.56665654375538,-28.591812832983493],[-51.556725033659035,-28.59173188743345],[-51.556638290831636,-28.601019081128555],[-51.56657015348764,-28.601100033683558]]]}},{"type":"Feature","properties":{"id_grade":"1KME5248N8159","pop":7,"dom":1,"universo_dom":"domicilios_ocupados_grade_ibge_2022","na_bacia":1,"area_pct_bacia":100.0,"metodo_recorte_bacia":"ponto_representativo_grade_2022; area_pct_geometrica","status_borda_bacia":"total","metodo_area_bacia":"interseção geométrica em EPSG:5880","metodo_na_bacia":"ponto_representativo_grade_2022_within_bacia","pop_n_validos":1,"pop_n_total":1,"pop_completude":1.0,"dom_n_validos":1,"dom_n_total":1,"dom_completude":1.0},"geometry":{"type":"Polygon","coordinates":[[[-51.53677458402248,-28.600856186966805],[-51.53686203196722,-28.59156900736709],[-51.526930540421795,-28.59148707285222],[-51.52684273991938,-28.60077424536141],[-51.53677458402248,-28.600856186966805]]]}},{"type":"Feature","properties":{"id_grade":"1KME5253N8159","pop":2,"dom":1,"universo_dom":"domicilios_ocupados_grade_ibge_2022","na_bacia":1,"area_pct_bacia":100.0,"metodo_recorte_bacia":"ponto_representativo_grade_2022; area_pct_geometrica","status_borda_bacia":"total","metodo_area_bacia":"interseção geométrica em EPSG:5880","metodo_na_bacia":"ponto_representativo_grade_2022_within_bacia","pop_n_validos":1,"pop_n_total":1,"pop_completude":1.0,"dom_n_validos":1,"dom_n_total":1,"dom_completude":1.0},"geometry":{"type":"Polygon","coordinates":[[[-51.487115426100864,-28.600443182128203],[-51.48720463682733,-28.59115603826596],[-51.477273176700656,-28.591072455491567],[-51.477183613419854,-28.600359592120785],[-51.487115426100864,-28.600443182128203]]]}},{"type":"Feature","properties":{"id_grade":"1KME5241N8160","pop":9,"dom":3,"universo_dom":"domicilios_ocupados_grade_ibge_2022","na_bacia":1,"area_pct_bacia":100.0,"metodo_recorte_bacia":"ponto_representativo_grade_2022; area_pct_geometrica","status_borda_bacia":"total","metodo_area_bacia":"interseção geométrica em EPSG:5880","metodo_na_bacia":"ponto_representativo_grade_2022_within_bacia","pop_n_validos":1,"pop_n_total":1,"pop_completude":1.0,"dom_n_validos":1,"dom_n_total":1,"dom_completude":1.0},"geometry":{"type":"Polygon","coordinates":[[[-51.606382645226326,-28.592133318611893],[-51.606467619215465,-28.58284656395101],[-51.59653643727218,-28.582766943918493],[-51.59645111074581,-28.592053691691934],[-51.606382645226326,-28.592133318611893]]]}},{"type":"Feature","properties":{"id_grade":"1KME5242N8160","pop":20,"dom":6,"universo_dom":"domicilios_ocupados_grade_ibge_2022","na_bacia":1,"area_pct_bacia":100.0,"metodo_recorte_bacia":"ponto_representativo_grade_2022; area_pct_geometrica","status_borda_bacia":"total","metodo_area_bacia":"interseção geométrica em EPSG:5880","metodo_na_bacia":"ponto_representativo_grade_2022_within_bacia","pop_n_validos":1,"pop_n_total":1,"pop_completude":1.0,"dom_n_validos":1,"dom_n_total":1,"dom_completude":1.0},"geometry":{"type":"Polygon","coordinates":[[[-51.59645111074581,-28.592053691691934],[-51.59653643727218,-28.582766943918493],[-51.58660526138674,-28.582686994255706],[-51.58651958232379,-28.591973735113317],[-51.59645111074581,-28.592053691691934]]]}},{"type":"Feature","properties":{"id_grade":"1KME5254N8160","pop":2,"dom":1,"universo_dom":"domicilios_ocupados_grade_ibge_2022","na_bacia":1,"area_pct_bacia":100.0,"metodo_recorte_bacia":"ponto_representativo_grade_2022; area_pct_geometrica","status_borda_bacia":"total","metodo_area_bacia":"interseção geométrica em EPSG:5880","metodo_na_bacia":"ponto_representativo_grade_2022_within_bacia","pop_n_validos":1,"pop_n_total":1,"pop_completude":1.0,"dom_n_validos":1,"dom_n_total":1,"dom_completude":1.0},"geometry":{"type":"Polygon","coordinates":[[[-51.477273176700656,-28.591072455491567],[-51.47736273362263,-28.58178579258778],[-51.46743163238341,-28.581701887421453],[-51.4673417229328,-28.590988543067443],[-51.477273176700656,-28.591072455491567]]]}},{"type":"Feature","properties":{"id_grade":"1KME5245N8161","pop":2,"dom":1,"universo_dom":"domicilios_ocupados_grade_ibge_2022","na_bacia":1,"area_pct_bacia":100.0,"metodo_recorte_bacia":"ponto_representativo_grade_2022; area_pct_geometrica","status_borda_bacia":"total","metodo_area_bacia":"interseção geométrica em EPSG:5880","metodo_na_bacia":"ponto_representativo_grade_2022_within_bacia","pop_n_validos":1,"pop_n_total":1,"pop_completude":1.0,"dom_n_validos":1,"dom_n_total":1,"dom_completude":1.0},"geometry":{"type":"Polygon","coordinates":[[[-51.566742927889536,-28.582526106042977],[-51.56682930589076,-28.573239852495796],[-51.55689850083865,-28.573158920944792],[-51.55681177032782,-28.58244516749422],[-51.566742927889536,-28.582526106042977]]]}},{"type":"Feature","properties":{"id_grade":"1KME5250N8161","pop":3,"dom":2,"universo_dom":"domicilios_ocupados_grade_ibge_2022","na_bacia":1,"area_pct_bacia":100.0,"metodo_recorte_bacia":"ponto_representativo_grade_2022; area_pct_geometrica","status_borda_bacia":"total","metodo_area_bacia":"interseção geométrica em EPSG:5880","metodo_na_bacia":"ponto_representativo_grade_2022_within_bacia","pop_n_validos":1,"pop_n_total":1,"pop_completude":1.0,"dom_n_validos":1,"dom_n_total":1,"dom_completude":1.0},"geometry":{"type":"Polygon","coordinates":[[[-51.51708720191078,-28.58211811703466],[-51.517175342453434,-28.572831898760015],[-51.507244568438054,-28.572749319222847],[-51.5071560753891,-28.582035530357512],[-51.51708720191078,-28.58211811703466]]]}},{"type":"Feature","properties":{"id_grade":"1KME5255N8161","pop":3,"dom":1,"universo_dom":"domicilios_ocupados_grade_ibge_2022","na_bacia":1,"area_pct_bacia":100.0,"metodo_recorte_bacia":"ponto_representativo_grade_2022; area_pct_geometrica","status_borda_bacia":"total","metodo_area_bacia":"interseção geométrica em EPSG:5880","metodo_na_bacia":"ponto_representativo_grade_2022_within_bacia","pop_n_validos":1,"pop_n_total":1,"pop_completude":1.0,"dom_n_validos":1,"dom_n_total":1,"dom_completude":1.0},"geometry":{"type":"Polygon","coordinates":[[[-51.46743163238341,-28.581701887421453],[-51.46752153545083,-28.572415705131153],[-51.457590793097715,-28.57233147762661],[-51.45750053752736,-28.581617652634648],[-51.46743163238341,-28.581701887421453]]]}},{"type":"Feature","properties":{"id_grade":"1KME5244N8162","pop":2,"dom":1,"universo_dom":"domicilios_ocupados_grade_ibge_2022","na_bacia":1,"area_pct_bacia":100.0,"metodo_recorte_bacia":"ponto_representativo_grade_2022; area_pct_geometrica","status_borda_bacia":"total","metodo_area_bacia":"interseção geométrica em EPSG:5880","metodo_na_bacia":"ponto_representativo_grade_2022_within_bacia","pop_n_validos":1,"pop_n_total":1,"pop_completude":1.0,"dom_n_validos":1,"dom_n_total":1,"dom_completude":1.0},"geometry":{"type":"Polygon","coordinates":[[[-51.57676011707515,-28.57332045444746],[-51.57684613645886,-28.564034666962055],[-51.5669156777597,-28.563954071975786],[-51.56682930589076,-28.573239852495796],[-51.57676011707515,-28.57332045444746]]]}},{"type":"Feature","properties":{"id_grade":"1KME5245N8162","pop":2,"dom":1,"universo_dom":"domicilios_ocupados_grade_ibge_2022","na_bacia":1,"area_pct_bacia":100.0,"metodo_recorte_bacia":"ponto_representativo_grade_2022; area_pct_geometrica","status_borda_bacia":"total","metodo_area_bacia":"interseção geométrica em EPSG:5880","metodo_na_bacia":"ponto_representativo_grade_2022_within_bacia","pop_n_validos":1,"pop_n_total":1,"pop_completude":1.0,"dom_n_validos":1,"dom_n_total":1,"dom_completude":1.0},"geometry":{"type":"Polygon","coordinates":[[[-51.56682930589076,-28.573239852495796],[-51.5669156777597,-28.563954071975786],[-51.55698522519217,-28.563873147418537],[-51.55689850083865,-28.573158920944792],[-51.56682930589076,-28.573239852495796]]]}},{"type":"Feature","properties":{"id_grade":"1KME5251N8162","pop":4,"dom":1,"universo_dom":"domicilios_ocupados_grade_ibge_2022","na_bacia":1,"area_pct_bacia":100.0,"metodo_recorte_bacia":"ponto_representativo_grade_2022; area_pct_geometrica","status_borda_bacia":"total","metodo_area_bacia":"interseção geométrica em EPSG:5880","metodo_na_bacia":"ponto_representativo_grade_2022_within_bacia","pop_n_validos":1,"pop_n_total":1,"pop_completude":1.0,"dom_n_validos":1,"dom_n_total":1,"dom_completude":1.0},"geometry":{"type":"Polygon","coordinates":[[[-51.507244568438054,-28.572749319222847],[-51.5073330552046,-28.5634635810928],[-51.49740263995223,-28.563380679125228],[-51.49731380070507,-28.572666410090374],[-51.507244568438054,-28.572749319222847]]]}},{"type":"Feature","properties":{"id_grade":"1KME5246N8163","pop":1,"dom":1,"universo_dom":"domicilios_ocupados_grade_ibge_2022","na_bacia":1,"area_pct_bacia":100.0,"metodo_recorte_bacia":"ponto_representativo_grade_2022; area_pct_geometrica","status_borda_bacia":"total","metodo_area_bacia":"interseção geométrica em EPSG:5880","metodo_na_bacia":"ponto_representativo_grade_2022_within_bacia","pop_n_validos":1,"pop_n_total":1,"pop_completude":1.0,"dom_n_validos":1,"dom_n_total":1,"dom_completude":1.0},"geometry":{"type":"Polygon","coordinates":[[[-51.55698522519217,-28.563873147418537],[-51.55707194338905,-28.5545878465501],[-51.547141849437075,-28.554506599441257],[-51.547054778781295,-28.56379189329103],[-51.55698522519217,-28.563873147418537]]]}},{"type":"Feature","properties":{"id_grade":"1KME5254N8163","pop":7,"dom":3,"universo_dom":"domicilios_ocupados_grade_ibge_2022","na_bacia":1,"area_pct_bacia":100.0,"metodo_recorte_bacia":"ponto_representativo_grade_2022; area_pct_geometrica","status_borda_bacia":"total","metodo_area_bacia":"interseção geométrica em EPSG:5880","metodo_na_bacia":"ponto_representativo_grade_2022_within_bacia","pop_n_validos":1,"pop_n_total":1,"pop_completude":1.0,"dom_n_validos":1,"dom_n_total":1,"dom_completude":1.0},"geometry":{"type":"Polygon","coordinates":[[[-51.47754182839279,-28.563213886493266],[-51.477631366242335,-28.553928642570494],[-51.467701322438884,-28.553844759153645],[-51.46761143213576,-28.563129995830568],[-51.47754182839279,-28.563213886493266]]]}},{"type":"Feature","properties":{"id_grade":"1KME5256N8163","pop":2,"dom":1,"universo_dom":"domicilios_ocupados_grade_ibge_2022","na_bacia":1,"area_pct_bacia":100.0,"metodo_recorte_bacia":"ponto_representativo_grade_2022; area_pct_geometrica","status_borda_bacia":"total","metodo_area_bacia":"interseção geométrica em EPSG:5880","metodo_na_bacia":"ponto_representativo_grade_2022_within_bacia","pop_n_validos":1,"pop_n_total":1,"pop_completude":1.0,"dom_n_validos":1,"dom_n_total":1,"dom_completude":1.0},"geometry":{"type":"Polygon","coordinates":[[[-51.457681042260546,-28.563045775604554],[-51.45777128501655,-28.5537605462023],[-51.447841254000366,-28.55367600371658],[-51.44775065879217,-28.562961225815492],[-51.457681042260546,-28.563045775604554]]]}},{"type":"Feature","properties":{"id_grade":"1KME5258N8163","pop":2,"dom":1,"universo_dom":"domicilios_ocupados_grade_ibge_2022","na_bacia":1,"area_pct_bacia":100.0,"metodo_recorte_bacia":"ponto_representativo_grade_2022; area_pct_geometrica","status_borda_bacia":"total","metodo_area_bacia":"interseção geométrica em EPSG:5880","metodo_na_bacia":"ponto_representativo_grade_2022_within_bacia","pop_n_validos":1,"pop_n_total":1,"pop_completude":1.0,"dom_n_validos":1,"dom_n_total":1,"dom_completude":1.0},"geometry":{"type":"Polygon","coordinates":[[[-51.43782028175564,-28.562876346464755],[-51.43791122941536,-28.55359113169721],[-51.42798121128654,-28.553505930145374],[-51.42788991117599,-28.562791137552914],[-51.43782028175564,-28.562876346464755]]]}},{"type":"Feature","properties":{"id_grade":"1KME5241N8164","pop":7,"dom":3,"universo_dom":"domicilios_ocupados_grade_ibge_2022","na_bacia":1,"area_pct_bacia":100.0,"metodo_recorte_bacia":"ponto_representativo_grade_2022; area_pct_geometrica","status_borda_bacia":"total","metodo_area_bacia":"interseção geométrica em EPSG:5880","metodo_na_bacia":"ponto_representativo_grade_2022_within_bacia","pop_n_validos":1,"pop_n_total":1,"pop_completude":1.0,"dom_n_validos":1,"dom_n_total":1,"dom_completude":1.0},"geometry":{"type":"Polygon","coordinates":[[[-51.60672250498846,-28.55498913895198],[-51.60680745485013,-28.54570427572711],[-51.596877682805506,-28.545624683207844],[-51.596792380506706,-28.554909539559738],[-51.60672250498846,-28.55498913895198]]]}},{"type":"Feature","properties":{"id_grade":"1KME5242N8164","pop":3,"dom":1,"universo_dom":"domicilios_ocupados_grade_ibge_2022","na_bacia":1,"area_pct_bacia":100.0,"metodo_recorte_bacia":"ponto_representativo_grade_2022; area_pct_geometrica","status_borda_bacia":"total","metodo_area_bacia":"interseção geométrica em EPSG:5880","metodo_na_bacia":"ponto_representativo_grade_2022_within_bacia","pop_n_validos":1,"pop_n_total":1,"pop_completude":1.0,"dom_n_validos":1,"dom_n_total":1,"dom_completude":1.0},"geometry":{"type":"Polygon","coordinates":[[[-51.596792380506706,-28.554909539559738],[-51.596877682805506,-28.545624683207844],[-51.586947916816165,-28.54554476117207],[-51.586862262080864,-28.55482961062267],[-51.596792380506706,-28.554909539559738]]]}},{"type":"Feature","properties":{"id_grade":"1KME5243N8164","pop":5,"dom":3,"universo_dom":"domicilios_ocupados_grade_ibge_2022","na_bacia":1,"area_pct_bacia":100.0,"metodo_recorte_bacia":"ponto_representativo_grade_2022; area_pct_geometrica","status_borda_bacia":"total","metodo_area_bacia":"interseção geométrica em EPSG:5880","metodo_na_bacia":"ponto_representativo_grade_2022_within_bacia","pop_n_validos":1,"pop_n_total":1,"pop_completude":1.0,"dom_n_validos":1,"dom_n_total":1,"dom_completude":1.0},"geometry":{"type":"Polygon","coordinates":[[[-51.586862262080864,-28.55482961062267],[-51.586947916816165,-28.54554476117207],[-51.57701815690711,-28.54546450962051],[-51.57693214973597,-28.55474935214155],[-51.586862262080864,-28.55482961062267]]]}},{"type":"Feature","properties":{"id_grade":"1KME5246N8164","pop":31,"dom":10,"universo_dom":"domicilios_ocupados_grade_ibge_2022","na_bacia":1,"area_pct_bacia":100.0,"metodo_recorte_bacia":"ponto_representativo_grade_2022; area_pct_geometrica","status_borda_bacia":"total","metodo_area_bacia":"interseção geométrica em EPSG:5880","metodo_na_bacia":"ponto_representativo_grade_2022_within_bacia","pop_n_validos":1,"pop_n_total":1,"pop_completude":1.0,"dom_n_validos":1,"dom_n_total":1,"dom_completude":1.0},"geometry":{"type":"Polygon","coordinates":[[[-51.55707194338905,-28.5545878465501],[-51.557158655429944,-28.545303017973673],[-51.54722891391185,-28.545221777879576],[-51.547141849437075,-28.554506599441257],[-51.55707194338905,-28.5545878465501]]]}},{"type":"Feature","properties":{"id_grade":"1KME5251N8164","pop":11,"dom":4,"universo_dom":"domicilios_ocupados_grade_ibge_2022","na_bacia":1,"area_pct_bacia":100.0,"metodo_recorte_bacia":"ponto_representativo_grade_2022; area_pct_geometrica","status_borda_bacia":"total","metodo_area_bacia":"interseção geométrica em EPSG:5880","metodo_na_bacia":"ponto_representativo_grade_2022_within_bacia","pop_n_validos":1,"pop_n_total":1,"pop_completude":1.0,"dom_n_validos":1,"dom_n_total":1,"dom_completude":1.0},"geometry":{"type":"Polygon","coordinates":[[[-51.507421535689396,-28.554178315602005],[-51.50751000989312,-28.544893522384758],[-51.49758029952691,-28.544810634735086],[-51.49749147289262,-28.554095420795115],[-51.507421535689396,-28.554178315602005]]]}},{"type":"Feature","properties":{"id_grade":"1KME5260N8164","pop":3,"dom":1,"universo_dom":"domicilios_ocupados_grade_ibge_2022","na_bacia":1,"area_pct_bacia":100.0,"metodo_recorte_bacia":"ponto_representativo_grade_2022; area_pct_geometrica","status_borda_bacia":"total","metodo_area_bacia":"interseção geométrica em EPSG:5880","metodo_na_bacia":"ponto_representativo_grade_2022_within_bacia","pop_n_validos":1,"pop_n_total":1,"pop_completude":1.0,"dom_n_validos":1,"dom_n_total":1,"dom_completude":1.0},"geometry":{"type":"Polygon","coordinates":[[[-51.41805119963892,-28.553420399061405],[-51.418142845693396,-28.544135671280713],[-51.408213192976426,-28.544049818078584],[-51.40812119449751,-28.553334538446528],[-51.41805119963892,-28.553420399061405]]]}},{"type":"Feature","properties":{"id_grade":"1KME5245N8165","pop":9,"dom":4,"universo_dom":"domicilios_ocupados_grade_ibge_2022","na_bacia":1,"area_pct_bacia":100.0,"metodo_recorte_bacia":"ponto_representativo_grade_2022; area_pct_geometrica","status_borda_bacia":"total","metodo_area_bacia":"interseção geométrica em EPSG:5880","metodo_na_bacia":"ponto_representativo_grade_2022_within_bacia","pop_n_validos":1,"pop_n_total":1,"pop_completude":1.0,"dom_n_validos":1,"dom_n_total":1,"dom_completude":1.0},"geometry":{"type":"Polygon","coordinates":[[[-51.56708840310337,-28.545383928554003],[-51.56717475657939,-28.536099564921173],[-51.557245361315495,-28.536018661323496],[-51.557158655429944,-28.545303017973673],[-51.56708840310337,-28.545383928554003]]]}},{"type":"Feature","properties":{"id_grade":"1KME5251N8165","pop":3,"dom":1,"universo_dom":"domicilios_ocupados_grade_ibge_2022","na_bacia":1,"area_pct_bacia":100.0,"metodo_recorte_bacia":"ponto_representativo_grade_2022; area_pct_geometrica","status_borda_bacia":"total","metodo_area_bacia":"interseção geométrica em EPSG:5880","metodo_na_bacia":"ponto_representativo_grade_2022_within_bacia","pop_n_validos":1,"pop_n_total":1,"pop_completude":1.0,"dom_n_validos":1,"dom_n_total":1,"dom_completude":1.0},"geometry":{"type":"Polygon","coordinates":[[[-51.50751000989312,-28.544893522384758],[-51.50759847781645,-28.53560920107509],[-51.49766911985579,-28.535526320578636],[-51.49758029952691,-28.544810634735086],[-51.50751000989312,-28.544893522384758]]]}},{"type":"Feature","properties":{"id_grade":"1KME5254N8165","pop":3,"dom":2,"universo_dom":"domicilios_ocupados_grade_ibge_2022","na_bacia":1,"area_pct_bacia":100.0,"metodo_recorte_bacia":"ponto_representativo_grade_2022; area_pct_geometrica","status_borda_bacia":"total","metodo_area_bacia":"interseção geométrica em EPSG:5880","metodo_na_bacia":"ponto_representativo_grade_2022_within_bacia","pop_n_validos":1,"pop_n_total":1,"pop_completude":1.0,"dom_n_validos":1,"dom_n_total":1,"dom_completude":1.0},"geometry":{"type":"Polygon","coordinates":[[[-51.477720897735765,-28.544643870909393],[-51.477810422873745,-28.535359571144888],[-51.46788108390237,-28.535275702209336],[-51.46779120636085,-28.54455999473516],[-51.477720897735765,-28.544643870909393]]]}},{"type":"Feature","properties":{"id_grade":"1KME5261N8165","pop":1,"dom":1,"universo_dom":"domicilios_ocupados_grade_ibge_2022","na_bacia":1,"area_pct_bacia":100.0,"metodo_recorte_bacia":"ponto_representativo_grade_2022; area_pct_geometrica","status_borda_bacia":"total","metodo_area_bacia":"interseção geométrica em EPSG:5880","metodo_na_bacia":"ponto_representativo_grade_2022_within_bacia","pop_n_validos":1,"pop_n_total":1,"pop_completude":1.0,"dom_n_validos":1,"dom_n_total":1,"dom_completude":1.0},"geometry":{"type":"Polygon","coordinates":[[[-51.408213192976426,-28.544049818078584],[-51.40830518492481,-28.534765569580106],[-51.398375891137086,-28.534679394313557],[-51.39828354678998,-28.543963635374634],[-51.408213192976426,-28.544049818078584]]]}},{"type":"Feature","properties":{"id_grade":"1KME5246N8166","pop":2,"dom":1,"universo_dom":"domicilios_ocupados_grade_ibge_2022","na_bacia":1,"area_pct_bacia":100.0,"metodo_recorte_bacia":"ponto_representativo_grade_2022; area_pct_geometrica","status_borda_bacia":"total","metodo_area_bacia":"interseção geométrica em EPSG:5880","metodo_na_bacia":"ponto_representativo_grade_2022_within_bacia","pop_n_validos":1,"pop_n_total":1,"pop_completude":1.0,"dom_n_validos":1,"dom_n_total":1,"dom_completude":1.0},"geometry":{"type":"Polygon","coordinates":[[[-51.557245361315495,-28.536018661323496],[-51.557332061046374,-28.526734776234594],[-51.54740302432102,-28.52665355015957],[-51.547315972206285,-28.53593742824095],[-51.557245361315495,-28.536018661323496]]]}},{"type":"Feature","properties":{"id_grade":"1KME5256N8166","pop":9,"dom":2,"universo_dom":"domicilios_ocupados_grade_ibge_2022","na_bacia":1,"area_pct_bacia":100.0,"metodo_recorte_bacia":"ponto_representativo_grade_2022; area_pct_geometrica","status_borda_bacia":"total","metodo_area_bacia":"interseção geométrica em EPSG:5880","metodo_na_bacia":"ponto_representativo_grade_2022_within_bacia","pop_n_validos":1,"pop_n_total":1,"pop_completude":1.0,"dom_n_validos":1,"dom_n_total":1,"dom_completude":1.0},"geometry":{"type":"Polygon","coordinates":[[[-51.457951751310766,-28.535191503795335],[-51.45804197485035,-28.525907690059864],[-51.44811300104071,-28.52582316945997],[-51.44802242512396,-28.53510697590405],[-51.457951751310766,-28.535191503795335]]]}},{"type":"Feature","properties":{"id_grade":"1KME5255N8167","pop":3,"dom":1,"universo_dom":"domicilios_ocupados_grade_ibge_2022","na_bacia":1,"area_pct_bacia":100.0,"metodo_recorte_bacia":"ponto_representativo_grade_2022; area_pct_geometrica","status_borda_bacia":"total","metodo_area_bacia":"interseção geométrica em EPSG:5880","metodo_na_bacia":"ponto_representativo_grade_2022_within_bacia","pop_n_validos":1,"pop_n_total":1,"pop_completude":1.0,"dom_n_validos":1,"dom_n_total":1,"dom_completude":1.0},"geometry":{"type":"Polygon","coordinates":[[[-51.46797095506411,-28.52599188121062],[-51.46806081984675,-28.516708531374363],[-51.45813219198583,-28.516624347482576],[-51.45804197485035,-28.525907690059864],[-51.46797095506411,-28.52599188121062]]]}},{"type":"Feature","properties":{"id_grade":"1KME5256N8168","pop":1,"dom":1,"universo_dom":"domicilios_ocupados_grade_ibge_2022","na_bacia":1,"area_pct_bacia":100.0,"metodo_recorte_bacia":"ponto_representativo_grade_2022; area_pct_geometrica","status_borda_bacia":"total","metodo_area_bacia":"interseção geométrica em EPSG:5880","metodo_na_bacia":"ponto_representativo_grade_2022_within_bacia","pop_n_validos":1,"pop_n_total":1,"pop_completude":1.0,"dom_n_validos":1,"dom_n_total":1,"dom_completude":1.0},"geometry":{"type":"Polygon","coordinates":[[[-51.45813219198583,-28.516624347482576],[-51.45822240271789,-28.50734147569926],[-51.44829413358755,-28.507256969670784],[-51.44820357052834,-28.516539834170562],[-51.45813219198583,-28.516624347482576]]]}},{"type":"Feature","properties":{"id_grade":"200ME52436N81560","pop":2,"dom":1,"universo_dom":"domicilios_ocupados_grade_ibge_2022","na_bacia":1,"area_pct_bacia":100.0,"metodo_recorte_bacia":"ponto_representativo_grade_2022; area_pct_geometrica","status_borda_bacia":"total","metodo_area_bacia":"interseção geométrica em EPSG:5880","metodo_na_bacia":"ponto_representativo_grade_2022_within_bacia","pop_n_validos":1,"pop_n_total":1,"pop_completude":1.0,"dom_n_validos":1,"dom_n_total":1,"dom_completude":1.0},"geometry":{"type":"Polygon","coordinates":[[[-51.58019986143444,-28.630935075193555],[-51.580217044780746,-28.629077290784334],[-51.57823045856878,-28.629061215402732],[-51.57821326083326,-28.63091899891271],[-51.58019986143444,-28.630935075193555]]]}},{"type":"Feature","properties":{"id_grade":"200ME52438N81560","pop":49,"dom":20,"universo_dom":"domicilios_ocupados_grade_ibge_2022","na_bacia":1,"area_pct_bacia":100.0,"metodo_recorte_bacia":"ponto_representativo_grade_2022; area_pct_geometrica","status_borda_bacia":"total","metodo_area_bacia":"interseção geométrica em EPSG:5880","metodo_na_bacia":"ponto_representativo_grade_2022_within_bacia","pop_n_validos":1,"pop_n_total":1,"pop_completude":1.0,"dom_n_validos":1,"dom_n_total":1,"dom_completude":1.0},"geometry":{"type":"Polygon","coordinates":[[[-51.57821326083326,-28.63091899891271],[-51.57823045856878,-28.629061215402732],[-51.57624387235677,-28.62904512563202],[-51.57622666023212,-28.63090290914188],[-51.57821326083326,-28.63091899891271]]]}},{"type":"Feature","properties":{"id_grade":"200ME52434N81562","pop":3,"dom":1,"universo_dom":"domicilios_ocupados_grade_ibge_2022","na_bacia":1,"area_pct_bacia":100.0,"metodo_recorte_bacia":"ponto_representativo_grade_2022; area_pct_geometrica","status_borda_bacia":"total","metodo_area_bacia":"interseção geométrica em EPSG:5880","metodo_na_bacia":"ponto_representativo_grade_2022_within_bacia","pop_n_validos":1,"pop_n_total":1,"pop_completude":1.0,"dom_n_validos":1,"dom_n_total":1,"dom_completude":1.0},"geometry":{"type":"Polygon","coordinates":[[[-51.58220363099276,-28.629093353575335],[-51.58222080084926,-28.62723558895127],[-51.580234228127104,-28.627219526160133],[-51.580217044780746,-28.629077290784334],[-51.58220363099276,-28.629093353575335]]]}},{"type":"Feature","properties":{"id_grade":"200ME52432N81564","pop":1,"dom":1,"universo_dom":"domicilios_ocupados_grade_ibge_2022","na_bacia":1,"area_pct_bacia":100.0,"metodo_recorte_bacia":"ponto_representativo_grade_2022; area_pct_geometrica","status_borda_bacia":"total","metodo_area_bacia":"interseção geométrica em EPSG:5880","metodo_na_bacia":"ponto_representativo_grade_2022_within_bacia","pop_n_validos":1,"pop_n_total":1,"pop_completude":1.0,"dom_n_validos":1,"dom_n_total":1,"dom_completude":1.0},"geometry":{"type":"Polygon","coordinates":[[[-51.58420737357142,-28.627251638252467],[-51.58422452813943,-28.625393891614785],[-51.58223796980644,-28.625377842313572],[-51.58222080084926,-28.62723558895127],[-51.58420737357142,-28.627251638252467]]]}},{"type":"Feature","properties":{"id_grade":"200ME52434N81564","pop":3,"dom":1,"universo_dom":"domicilios_ocupados_grade_ibge_2022","na_bacia":1,"area_pct_bacia":100.0,"metodo_recorte_bacia":"ponto_representativo_grade_2022; area_pct_geometrica","status_borda_bacia":"total","metodo_area_bacia":"interseção geométrica em EPSG:5880","metodo_na_bacia":"ponto_representativo_grade_2022_within_bacia","pop_n_validos":1,"pop_n_total":1,"pop_completude":1.0,"dom_n_validos":1,"dom_n_total":1,"dom_completude":1.0},"geometry":{"type":"Polygon","coordinates":[[[-51.58222080084926,-28.62723558895127],[-51.58223796980644,-28.625377842313572],[-51.580251411473405,-28.625361780421763],[-51.580234228127104,-28.627219526160133],[-51.58222080084926,-28.62723558895127]]]}},{"type":"Feature","properties":{"id_grade":"200ME52448N81552","pop":3,"dom":1,"universo_dom":"domicilios_ocupados_grade_ibge_2022","na_bacia":1,"area_pct_bacia":100.0,"metodo_recorte_bacia":"ponto_representativo_grade_2022; area_pct_geometrica","status_borda_bacia":"total","metodo_area_bacia":"interseção geométrica em EPSG:5880","metodo_na_bacia":"ponto_representativo_grade_2022_within_bacia","pop_n_validos":1,"pop_n_total":1,"pop_completude":1.0,"dom_n_validos":1,"dom_n_total":1,"dom_completude":1.0},"geometry":{"type":"Polygon","coordinates":[[[-51.568211186297155,-28.638269738057936],[-51.56822845597844,-28.63641187990428],[-51.56624181490781,-28.636395723583707],[-51.56622453083735,-28.6382535817374],[-51.568211186297155,-28.638269738057936]]]}},{"type":"Feature","properties":{"id_grade":"200ME52440N81554","pop":18,"dom":7,"universo_dom":"domicilios_ocupados_grade_ibge_2022","na_bacia":1,"area_pct_bacia":100.0,"metodo_recorte_bacia":"ponto_representativo_grade_2022; area_pct_geometrica","status_borda_bacia":"total","metodo_area_bacia":"interseção geométrica em EPSG:5880","metodo_na_bacia":"ponto_representativo_grade_2022_within_bacia","pop_n_validos":1,"pop_n_total":1,"pop_completude":1.0,"dom_n_validos":1,"dom_n_total":1,"dom_completude":1.0},"geometry":{"type":"Polygon","coordinates":[[[-51.57617502295892,-28.636476372986284],[-51.57619223598288,-28.634618532819015],[-51.57420560750273,-28.634602429558427],[-51.57418838098897,-28.636460269725603],[-51.57617502295892,-28.636476372986284]]]}},{"type":"Feature","properties":{"id_grade":"200ME52442N81554","pop":62,"dom":22,"universo_dom":"domicilios_ocupados_grade_ibge_2022","na_bacia":1,"area_pct_bacia":100.0,"metodo_recorte_bacia":"ponto_representativo_grade_2022; area_pct_geometrica","status_borda_bacia":"total","metodo_area_bacia":"interseção geométrica em EPSG:5880","metodo_na_bacia":"ponto_representativo_grade_2022_within_bacia","pop_n_validos":1,"pop_n_total":1,"pop_completude":1.0,"dom_n_validos":1,"dom_n_total":1,"dom_completude":1.0},"geometry":{"type":"Polygon","coordinates":[[[-51.57418838098897,-28.636460269725603],[-51.57420560750273,-28.634602429558427],[-51.572218979921956,-28.634586312808093],[-51.57220173901902,-28.63644415297523],[-51.57418838098897,-28.636460269725603]]]}},{"type":"Feature","properties":{"id_grade":"200ME52440N81556","pop":22,"dom":7,"universo_dom":"domicilios_ocupados_grade_ibge_2022","na_bacia":1,"area_pct_bacia":100.0,"metodo_recorte_bacia":"ponto_representativo_grade_2022; area_pct_geometrica","status_borda_bacia":"total","metodo_area_bacia":"interseção geométrica em EPSG:5880","metodo_na_bacia":"ponto_representativo_grade_2022_within_bacia","pop_n_validos":1,"pop_n_total":1,"pop_completude":1.0,"dom_n_validos":1,"dom_n_total":1,"dom_completude":1.0},"geometry":{"type":"Polygon","coordinates":[[[-51.57619223598288,-28.634618532819015],[-51.57620944810748,-28.63276071153752],[-51.57422283401655,-28.632744608277005],[-51.57420560750273,-28.634602429558427],[-51.57619223598288,-28.634618532819015]]]}},{"type":"Feature","properties":{"id_grade":"200ME52442N81556","pop":37,"dom":13,"universo_dom":"domicilios_ocupados_grade_ibge_2022","na_bacia":1,"area_pct_bacia":100.0,"metodo_recorte_bacia":"ponto_representativo_grade_2022; area_pct_geometrica","status_borda_bacia":"total","metodo_area_bacia":"interseção geométrica em EPSG:5880","metodo_na_bacia":"ponto_representativo_grade_2022_within_bacia","pop_n_validos":1,"pop_n_total":1,"pop_completude":1.0,"dom_n_validos":1,"dom_n_total":1,"dom_completude":1.0},"geometry":{"type":"Polygon","coordinates":[[[-51.57420560750273,-28.634602429558427],[-51.57422283401655,-28.632744608277005],[-51.57223622082489,-28.632728492425972],[-51.572218979921956,-28.634586312808093],[-51.57420560750273,-28.634602429558427]]]}},{"type":"Feature","properties":{"id_grade":"200ME52444N81556","pop":30,"dom":8,"universo_dom":"domicilios_ocupados_grade_ibge_2022","na_bacia":1,"area_pct_bacia":100.0,"metodo_recorte_bacia":"ponto_representativo_grade_2022; area_pct_geometrica","status_borda_bacia":"total","metodo_area_bacia":"interseção geométrica em EPSG:5880","metodo_na_bacia":"ponto_representativo_grade_2022_within_bacia","pop_n_validos":1,"pop_n_total":1,"pop_completude":1.0,"dom_n_validos":1,"dom_n_total":1,"dom_completude":1.0},"geometry":{"type":"Polygon","coordinates":[[[-51.572218979921956,-28.634586312808093],[-51.57223622082489,-28.632728492425972],[-51.57024960673391,-28.63271236308503],[-51.57023235234112,-28.634570183467197],[-51.572218979921956,-28.634586312808093]]]}},{"type":"Feature","properties":{"id_grade":"200ME52446N81556","pop":39,"dom":13,"universo_dom":"domicilios_ocupados_grade_ibge_2022","na_bacia":1,"area_pct_bacia":100.0,"metodo_recorte_bacia":"ponto_representativo_grade_2022; area_pct_geometrica","status_borda_bacia":"total","metodo_area_bacia":"interseção geométrica em EPSG:5880","metodo_na_bacia":"ponto_representativo_grade_2022_within_bacia","pop_n_validos":1,"pop_n_total":1,"pop_completude":1.0,"dom_n_validos":1,"dom_n_total":1,"dom_completude":1.0},"geometry":{"type":"Polygon","coordinates":[[[-51.57023235234112,-28.634570183467197],[-51.57024960673391,-28.63271236308503],[-51.56826299354225,-28.632696220254324],[-51.56824572476034,-28.634554040636424],[-51.57023235234112,-28.634570183467197]]]}},{"type":"Feature","properties":{"id_grade":"200ME52448N81556","pop":11,"dom":4,"universo_dom":"domicilios_ocupados_grade_ibge_2022","na_bacia":1,"area_pct_bacia":100.0,"metodo_recorte_bacia":"ponto_representativo_grade_2022; area_pct_geometrica","status_borda_bacia":"total","metodo_area_bacia":"interseção geométrica em EPSG:5880","metodo_na_bacia":"ponto_representativo_grade_2022_within_bacia","pop_n_validos":1,"pop_n_total":1,"pop_completude":1.0,"dom_n_validos":1,"dom_n_total":1,"dom_completude":1.0},"geometry":{"type":"Polygon","coordinates":[[[-51.56824572476034,-28.634554040636424],[-51.56826299354225,-28.632696220254324],[-51.56627638035065,-28.632680064833114],[-51.56625909807888,-28.63453788431582],[-51.56824572476034,-28.634554040636424]]]}},{"type":"Feature","properties":{"id_grade":"200ME52440N81558","pop":26,"dom":12,"universo_dom":"domicilios_ocupados_grade_ibge_2022","na_bacia":1,"area_pct_bacia":100.0,"metodo_recorte_bacia":"ponto_representativo_grade_2022; area_pct_geometrica","status_borda_bacia":"total","metodo_area_bacia":"interseção geométrica em EPSG:5880","metodo_na_bacia":"ponto_representativo_grade_2022_within_bacia","pop_n_validos":1,"pop_n_total":1,"pop_completude":1.0,"dom_n_validos":1,"dom_n_total":1,"dom_completude":1.0},"geometry":{"type":"Polygon","coordinates":[[[-51.57620944810748,-28.63276071153752],[-51.57622666023212,-28.63090290914188],[-51.574240060530315,-28.630886806780698],[-51.57422283401655,-28.632744608277005],[-51.57620944810748,-28.63276071153752]]]}},{"type":"Feature","properties":{"id_grade":"200ME52442N81558","pop":37,"dom":18,"universo_dom":"domicilios_ocupados_grade_ibge_2022","na_bacia":1,"area_pct_bacia":100.0,"metodo_recorte_bacia":"ponto_representativo_grade_2022; area_pct_geometrica","status_borda_bacia":"total","metodo_area_bacia":"interseção geométrica em EPSG:5880","metodo_na_bacia":"ponto_representativo_grade_2022_within_bacia","pop_n_validos":1,"pop_n_total":1,"pop_completude":1.0,"dom_n_validos":1,"dom_n_total":1,"dom_completude":1.0},"geometry":{"type":"Polygon","coordinates":[[[-51.57422283401655,-28.632744608277005],[-51.574240060530315,-28.630886806780698],[-51.572253460828506,-28.630870690929658],[-51.57223622082489,-28.632728492425972],[-51.57422283401655,-28.632744608277005]]]}},{"type":"Feature","properties":{"id_grade":"200ME52444N81558","pop":33,"dom":14,"universo_dom":"domicilios_ocupados_grade_ibge_2022","na_bacia":1,"area_pct_bacia":100.0,"metodo_recorte_bacia":"ponto_representativo_grade_2022; area_pct_geometrica","status_borda_bacia":"total","metodo_area_bacia":"interseção geométrica em EPSG:5880","metodo_na_bacia":"ponto_representativo_grade_2022_within_bacia","pop_n_validos":1,"pop_n_total":1,"pop_completude":1.0,"dom_n_validos":1,"dom_n_total":1,"dom_completude":1.0},"geometry":{"type":"Polygon","coordinates":[[[-51.57223622082489,-28.632728492425972],[-51.572253460828506,-28.630870690929658],[-51.5702668611267,-28.630854561588738],[-51.57024960673391,-28.63271236308503],[-51.57223622082489,-28.632728492425972]]]}},{"type":"Feature","properties":{"id_grade":"200ME52446N81558","pop":31,"dom":11,"universo_dom":"domicilios_ocupados_grade_ibge_2022","na_bacia":1,"area_pct_bacia":100.0,"metodo_recorte_bacia":"ponto_representativo_grade_2022; area_pct_geometrica","status_borda_bacia":"total","metodo_area_bacia":"interseção geométrica em EPSG:5880","metodo_na_bacia":"ponto_representativo_grade_2022_within_bacia","pop_n_validos":1,"pop_n_total":1,"pop_completude":1.0,"dom_n_validos":1,"dom_n_total":1,"dom_completude":1.0},"geometry":{"type":"Polygon","coordinates":[[[-51.57024960673391,-28.63271236308503],[-51.5702668611267,-28.630854561588738],[-51.5682802623242,-28.630838419657316],[-51.56826299354225,-28.632696220254324],[-51.57024960673391,-28.63271236308503]]]}},{"type":"Feature","properties":{"id_grade":"200ME52448N81558","pop":14,"dom":5,"universo_dom":"domicilios_ocupados_grade_ibge_2022","na_bacia":1,"area_pct_bacia":100.0,"metodo_recorte_bacia":"ponto_representativo_grade_2022; area_pct_geometrica","status_borda_bacia":"total","metodo_area_bacia":"interseção geométrica em EPSG:5880","metodo_na_bacia":"ponto_representativo_grade_2022_within_bacia","pop_n_validos":1,"pop_n_total":1,"pop_completude":1.0,"dom_n_validos":1,"dom_n_total":1,"dom_completude":1.0},"geometry":{"type":"Polygon","coordinates":[[[-51.56826299354225,-28.632696220254324],[-51.5682802623242,-28.630838419657316],[-51.56629366352172,-28.630822264236095],[-51.56627638035065,-28.632680064833114],[-51.56826299354225,-28.632696220254324]]]}},{"type":"Feature","properties":{"id_grade":"200ME52440N81560","pop":72,"dom":27,"universo_dom":"domicilios_ocupados_grade_ibge_2022","na_bacia":1,"area_pct_bacia":100.0,"metodo_recorte_bacia":"ponto_representativo_grade_2022; area_pct_geometrica","status_borda_bacia":"total","metodo_area_bacia":"interseção geométrica em EPSG:5880","metodo_na_bacia":"ponto_representativo_grade_2022_within_bacia","pop_n_validos":1,"pop_n_total":1,"pop_completude":1.0,"dom_n_validos":1,"dom_n_total":1,"dom_completude":1.0},"geometry":{"type":"Polygon","coordinates":[[[-51.57622666023212,-28.63090290914188],[-51.57624387235677,-28.62904512563202],[-51.57425728704414,-28.629029023270824],[-51.574240060530315,-28.630886806780698],[-51.57622666023212,-28.63090290914188]]]}},{"type":"Feature","properties":{"id_grade":"200ME52442N81560","pop":48,"dom":17,"universo_dom":"domicilios_ocupados_grade_ibge_2022","na_bacia":1,"area_pct_bacia":100.0,"metodo_recorte_bacia":"ponto_representativo_grade_2022; area_pct_geometrica","status_borda_bacia":"total","metodo_area_bacia":"interseção geométrica em EPSG:5880","metodo_na_bacia":"ponto_representativo_grade_2022_within_bacia","pop_n_validos":1,"pop_n_total":1,"pop_completude":1.0,"dom_n_validos":1,"dom_n_total":1,"dom_completude":1.0},"geometry":{"type":"Polygon","coordinates":[[[-51.574240060530315,-28.630886806780698],[-51.57425728704414,-28.629029023270824],[-51.572270700832114,-28.629012908318938],[-51.572253460828506,-28.630870690929658],[-51.574240060530315,-28.630886806780698]]]}},{"type":"Feature","properties":{"id_grade":"200ME52444N81560","pop":16,"dom":8,"universo_dom":"domicilios_ocupados_grade_ibge_2022","na_bacia":1,"area_pct_bacia":100.0,"metodo_recorte_bacia":"ponto_representativo_grade_2022; area_pct_geometrica","status_borda_bacia":"total","metodo_area_bacia":"interseção geométrica em EPSG:5880","metodo_na_bacia":"ponto_representativo_grade_2022_within_bacia","pop_n_validos":1,"pop_n_total":1,"pop_completude":1.0,"dom_n_validos":1,"dom_n_total":1,"dom_completude":1.0},"geometry":{"type":"Polygon","coordinates":[[[-51.572253460828506,-28.630870690929658],[-51.572270700832114,-28.629012908318938],[-51.570284115519485,-28.62899677897822],[-51.5702668611267,-28.630854561588738],[-51.572253460828506,-28.630870690929658]]]}},{"type":"Feature","properties":{"id_grade":"200ME52446N81560","pop":6,"dom":3,"universo_dom":"domicilios_ocupados_grade_ibge_2022","na_bacia":1,"area_pct_bacia":100.0,"metodo_recorte_bacia":"ponto_representativo_grade_2022; area_pct_geometrica","status_borda_bacia":"total","metodo_area_bacia":"interseção geométrica em EPSG:5880","metodo_na_bacia":"ponto_representativo_grade_2022_within_bacia","pop_n_validos":1,"pop_n_total":1,"pop_completude":1.0,"dom_n_validos":1,"dom_n_total":1,"dom_completude":1.0},"geometry":{"type":"Polygon","coordinates":[[[-51.5702668611267,-28.630854561588738],[-51.570284115519485,-28.62899677897822],[-51.56829753110611,-28.628980637046755],[-51.5682802623242,-28.630838419657316],[-51.5702668611267,-28.630854561588738]]]}},{"type":"Feature","properties":{"id_grade":"200ME52448N81560","pop":12,"dom":2,"universo_dom":"domicilios_ocupados_grade_ibge_2022","na_bacia":1,"area_pct_bacia":100.0,"metodo_recorte_bacia":"ponto_representativo_grade_2022; area_pct_geometrica","status_borda_bacia":"total","metodo_area_bacia":"interseção geométrica em EPSG:5880","metodo_na_bacia":"ponto_representativo_grade_2022_within_bacia","pop_n_validos":1,"pop_n_total":1,"pop_completude":1.0,"dom_n_validos":1,"dom_n_total":1,"dom_completude":1.0},"geometry":{"type":"Polygon","coordinates":[[[-51.5682802623242,-28.630838419657316],[-51.56829753110611,-28.628980637046755],[-51.56631094579347,-28.628964481625474],[-51.56629366352172,-28.630822264236095],[-51.5682802623242,-28.630838419657316]]]}},{"type":"Feature","properties":{"id_grade":"200ME52440N81562","pop":10,"dom":4,"universo_dom":"domicilios_ocupados_grade_ibge_2022","na_bacia":1,"area_pct_bacia":100.0,"metodo_recorte_bacia":"ponto_representativo_grade_2022; area_pct_geometrica","status_borda_bacia":"total","metodo_area_bacia":"interseção geométrica em EPSG:5880","metodo_na_bacia":"ponto_representativo_grade_2022_within_bacia","pop_n_validos":1,"pop_n_total":1,"pop_completude":1.0,"dom_n_validos":1,"dom_n_total":1,"dom_completude":1.0},"geometry":{"type":"Polygon","coordinates":[[[-51.57624387235677,-28.62904512563202],[-51.576261084481416,-28.62718736190725],[-51.574274512658576,-28.62717125954592],[-51.57425728704414,-28.629029023270824],[-51.57624387235677,-28.62904512563202]]]}},{"type":"Feature","properties":{"id_grade":"200ME52442N81562","pop":11,"dom":5,"universo_dom":"domicilios_ocupados_grade_ibge_2022","na_bacia":1,"area_pct_bacia":100.0,"metodo_recorte_bacia":"ponto_representativo_grade_2022; area_pct_geometrica","status_borda_bacia":"total","metodo_area_bacia":"interseção geométrica em EPSG:5880","metodo_na_bacia":"ponto_representativo_grade_2022_within_bacia","pop_n_validos":1,"pop_n_total":1,"pop_completude":1.0,"dom_n_validos":1,"dom_n_total":1,"dom_completude":1.0},"geometry":{"type":"Polygon","coordinates":[[[-51.57425728704414,-28.629029023270824],[-51.574274512658576,-28.62717125954592],[-51.57228794083574,-28.627155144594283],[-51.572270700832114,-28.629012908318938],[-51.57425728704414,-28.629029023270824]]]}},{"type":"Feature","properties":{"id_grade":"200ME52444N81562","pop":9,"dom":4,"universo_dom":"domicilios_ocupados_grade_ibge_2022","na_bacia":1,"area_pct_bacia":100.0,"metodo_recorte_bacia":"ponto_representativo_grade_2022; area_pct_geometrica","status_borda_bacia":"total","metodo_area_bacia":"interseção geométrica em EPSG:5880","metodo_na_bacia":"ponto_representativo_grade_2022_within_bacia","pop_n_validos":1,"pop_n_total":1,"pop_completude":1.0,"dom_n_validos":1,"dom_n_total":1,"dom_completude":1.0},"geometry":{"type":"Polygon","coordinates":[[[-51.572270700832114,-28.629012908318938],[-51.57228794083574,-28.627155144594283],[-51.57030136991227,-28.627139016152647],[-51.570284115519485,-28.62899677897822],[-51.572270700832114,-28.629012908318938]]]}},{"type":"Feature","properties":{"id_grade":"200ME52448N81564","pop":3,"dom":1,"universo_dom":"domicilios_ocupados_grade_ibge_2022","na_bacia":1,"area_pct_bacia":100.0,"metodo_recorte_bacia":"ponto_representativo_grade_2022; area_pct_geometrica","status_borda_bacia":"total","metodo_area_bacia":"interseção geométrica em EPSG:5880","metodo_na_bacia":"ponto_representativo_grade_2022_within_bacia","pop_n_validos":1,"pop_n_total":1,"pop_completude":1.0,"dom_n_validos":1,"dom_n_total":1,"dom_completude":1.0},"geometry":{"type":"Polygon","coordinates":[[[-51.56831479898875,-28.627122874221318],[-51.568332066871335,-28.625265130281434],[-51.56634551033699,-28.6252489757596],[-51.56632822806523,-28.627106718799975],[-51.56831479898875,-28.627122874221318]]]}}]}
