{"type":"FeatureCollection","name":"4304697","crs":{"type":"name","properties":{"name":"urn:ogc:def:crs:OGC:1.3:CRS84"}},"features":[{"type":"Feature","properties":{"id_grade":"1KME5197N8081","pop":33,"dom":8,"universo_dom":"domicilios_ocupados_grade_ibge_2022","na_bacia":1,"area_pct_bacia":100.0,"metodo_recorte_bacia":"ponto_representativo_grade_2022; area_pct_geometrica"},"geometry":{"type":"Polygon","coordinates":[[[-52.03787267293649,-29.3305138657382],[-52.03794252595515,-29.321188251973222],[-52.02798317243402,-29.321122682015442],[-52.02791296486666,-29.330448289906883],[-52.03787267293649,-29.3305138657382]]]}},{"type":"Feature","properties":{"id_grade":"1KME5198N8081","pop":3,"dom":1,"universo_dom":"domicilios_ocupados_grade_ibge_2022","na_bacia":1,"area_pct_bacia":100.0,"metodo_recorte_bacia":"ponto_representativo_grade_2022; area_pct_geometrica"},"geometry":{"type":"Polygon","coordinates":[[[-52.02791296486666,-29.330448289906883],[-52.02798317243402,-29.321122682015442],[-52.0180238239115,-29.32105678009928],[-52.01795326179597,-29.330382382087773],[-52.02791296486666,-29.330448289906883]]]}},{"type":"Feature","properties":{"id_grade":"1KME5204N8081","pop":29,"dom":13,"universo_dom":"domicilios_ocupados_grade_ibge_2022","na_bacia":1,"area_pct_bacia":100.0,"metodo_recorte_bacia":"ponto_representativo_grade_2022; area_pct_geometrica"},"geometry":{"type":"Polygon","coordinates":[[[-51.96815482231315,-29.330047863195926],[-51.96822715716142,-29.320722291168885],[-51.95826783916059,-29.320654397517313],[-51.95819514976742,-29.329979963462804],[-51.96815482231315,-29.330047863195926]]]}},{"type":"Feature","properties":{"id_grade":"1KME5205N8081","pop":21,"dom":7,"universo_dom":"domicilios_ocupados_grade_ibge_2022","na_bacia":1,"area_pct_bacia":100.0,"metodo_recorte_bacia":"ponto_representativo_grade_2022; area_pct_geometrica"},"geometry":{"type":"Polygon","coordinates":[[[-51.95819514976742,-29.329979963462804],[-51.95826783916059,-29.320654397517313],[-51.94830852633506,-29.320586171911852],[-51.94823548239753,-29.329911731746225],[-51.95819514976742,-29.329979963462804]]]}},{"type":"Feature","properties":{"id_grade":"1KME5197N8082","pop":38,"dom":12,"universo_dom":"domicilios_ocupados_grade_ibge_2022","na_bacia":1,"area_pct_bacia":100.0,"metodo_recorte_bacia":"ponto_representativo_grade_2022; area_pct_geometrica"},"geometry":{"type":"Polygon","coordinates":[[[-52.03794252595515,-29.321188251973222],[-52.038012374000445,-29.311863141304134],[-52.02805337500278,-29.311797577216485],[-52.02798317243402,-29.321122682015442],[-52.03794252595515,-29.321188251973222]]]}},{"type":"Feature","properties":{"id_grade":"1KME5198N8082","pop":22,"dom":9,"universo_dom":"domicilios_ocupados_grade_ibge_2022","na_bacia":1,"area_pct_bacia":100.0,"metodo_recorte_bacia":"ponto_representativo_grade_2022; area_pct_geometrica"},"geometry":{"type":"Polygon","coordinates":[[[-52.02798317243402,-29.321122682015442],[-52.02805337500278,-29.311797577216485],[-52.01809438100318,-29.311731681200644],[-52.0180238239115,-29.32105678009928],[-52.02798317243402,-29.321122682015442]]]}},{"type":"Feature","properties":{"id_grade":"1KME5199N8082","pop":35,"dom":13,"universo_dom":"domicilios_ocupados_grade_ibge_2022","na_bacia":1,"area_pct_bacia":100.0,"metodo_recorte_bacia":"ponto_representativo_grade_2022; area_pct_geometrica"},"geometry":{"type":"Polygon","coordinates":[[[-52.0180238239115,-29.32105678009928],[-52.01809438100318,-29.311731681200644],[-52.008135392026894,-29.311665453256968],[-52.00806448041282,-29.320990546225897],[-52.0180238239115,-29.32105678009928]]]}},{"type":"Feature","properties":{"id_grade":"1KME5204N8082","pop":17,"dom":7,"universo_dom":"domicilios_ocupados_grade_ibge_2022","na_bacia":1,"area_pct_bacia":100.0,"metodo_recorte_bacia":"ponto_representativo_grade_2022; area_pct_geometrica"},"geometry":{"type":"Polygon","coordinates":[[[-51.96822715716142,-29.320722291168885],[-51.968299486859635,-29.311397222215632],[-51.958340523378475,-29.31132933464188],[-51.95826783916059,-29.320654397517313],[-51.96822715716142,-29.320722291168885]]]}},{"type":"Feature","properties":{"id_grade":"1KME5205N8082","pop":44,"dom":18,"universo_dom":"domicilios_ocupados_grade_ibge_2022","na_bacia":1,"area_pct_bacia":100.0,"metodo_recorte_bacia":"ponto_representativo_grade_2022; area_pct_geometrica"},"geometry":{"type":"Polygon","coordinates":[[[-51.95826783916059,-29.320654397517313],[-51.958340523378475,-29.31132933464188],[-51.94838156507206,-29.311261115144298],[-51.94830852633506,-29.320586171911852],[-51.95826783916059,-29.320654397517313]]]}},{"type":"Feature","properties":{"id_grade":"1KME5199N8083","pop":4,"dom":4,"universo_dom":"domicilios_ocupados_grade_ibge_2022","na_bacia":1,"area_pct_bacia":100.0,"metodo_recorte_bacia":"ponto_representativo_grade_2022; area_pct_geometrica"},"geometry":{"type":"Polygon","coordinates":[[[-52.01809438100318,-29.311731681200644],[-52.01816493307155,-29.302407085009666],[-52.00820629859242,-29.30234086299216],[-52.008135392026894,-29.311665453256968],[-52.01809438100318,-29.311731681200644]]]}},{"type":"Feature","properties":{"id_grade":"1KME5200N8083","pop":27,"dom":8,"universo_dom":"domicilios_ocupados_grade_ibge_2022","na_bacia":1,"area_pct_bacia":100.0,"metodo_recorte_bacia":"ponto_representativo_grade_2022; area_pct_geometrica"},"geometry":{"type":"Polygon","coordinates":[[[-52.008135392026894,-29.311665453256968],[-52.00820629859242,-29.30234086299216],[-51.9982476691613,-29.30227430907748],[-51.99817640809916,-29.311598893385728],[-52.008135392026894,-29.311665453256968]]]}},{"type":"Feature","properties":{"id_grade":"1KME5203N8083","pop":16,"dom":9,"universo_dom":"domicilios_ocupados_grade_ibge_2022","na_bacia":1,"area_pct_bacia":100.0,"metodo_recorte_bacia":"ponto_representativo_grade_2022; area_pct_geometrica"},"geometry":{"type":"Polygon","coordinates":[[[-51.97825845549029,-29.311464777864597],[-51.97833042554404,-29.302140205557738],[-51.96837181140835,-29.302072655954305],[-51.968299486859635,-29.311397222215632],[-51.97825845549029,-29.311464777864597]]]}},{"type":"Feature","properties":{"id_grade":"1KME5204N8083","pop":19,"dom":7,"universo_dom":"domicilios_ocupados_grade_ibge_2022","na_bacia":1,"area_pct_bacia":100.0,"metodo_recorte_bacia":"ponto_representativo_grade_2022; area_pct_geometrica"},"geometry":{"type":"Polygon","coordinates":[[[-51.968299486859635,-29.311397222215632],[-51.96837181140835,-29.302072655954305],[-51.958413202421625,-29.302004774455494],[-51.958340523378475,-29.31132933464188],[-51.968299486859635,-29.311397222215632]]]}},{"type":"Feature","properties":{"id_grade":"1KME5205N8083","pop":11,"dom":5,"universo_dom":"domicilios_ocupados_grade_ibge_2022","na_bacia":1,"area_pct_bacia":100.0,"metodo_recorte_bacia":"ponto_representativo_grade_2022; area_pct_geometrica"},"geometry":{"type":"Polygon","coordinates":[[[-51.958340523378475,-29.31132933464188],[-51.958413202421625,-29.302004774455494],[-51.94845459860908,-29.30193656106263],[-51.94838156507206,-29.311261115144298],[-51.958340523378475,-29.31132933464188]]]}},{"type":"Feature","properties":{"id_grade":"1KME5197N8084","pop":4,"dom":3,"universo_dom":"domicilios_ocupados_grade_ibge_2022","na_bacia":1,"area_pct_bacia":100.0,"metodo_recorte_bacia":"ponto_representativo_grade_2022; area_pct_geometrica"},"geometry":{"type":"Polygon","coordinates":[[[-52.038082217072905,-29.302538533349033],[-52.03815205517306,-29.29321442772648],[-52.0281937651466,-29.29314887537012],[-52.02812357257346,-29.302472975128754],[-52.038082217072905,-29.302538533349033]]]}},{"type":"Feature","properties":{"id_grade":"1KME5198N8084","pop":13,"dom":5,"universo_dom":"domicilios_ocupados_grade_ibge_2022","na_bacia":1,"area_pct_bacia":100.0,"metodo_recorte_bacia":"ponto_representativo_grade_2022; area_pct_geometrica"},"geometry":{"type":"Polygon","coordinates":[[[-52.02812357257346,-29.302472975128754],[-52.0281937651466,-29.29314887537012],[-52.01823548011715,-29.293082991144725],[-52.01816493307155,-29.302407085009666],[-52.02812357257346,-29.302472975128754]]]}},{"type":"Feature","properties":{"id_grade":"1KME5199N8084","pop":46,"dom":16,"universo_dom":"domicilios_ocupados_grade_ibge_2022","na_bacia":1,"area_pct_bacia":100.0,"metodo_recorte_bacia":"ponto_representativo_grade_2022; area_pct_geometrica"},"geometry":{"type":"Polygon","coordinates":[[[-52.01816493307155,-29.302407085009666],[-52.01823548011715,-29.293082991144725],[-52.00827720010994,-29.293016775050912],[-52.00820629859242,-29.30234086299216],[-52.01816493307155,-29.302407085009666]]]}},{"type":"Feature","properties":{"id_grade":"1KME5200N8084","pop":24,"dom":9,"universo_dom":"domicilios_ocupados_grade_ibge_2022","na_bacia":1,"area_pct_bacia":100.0,"metodo_recorte_bacia":"ponto_representativo_grade_2022; area_pct_geometrica"},"geometry":{"type":"Polygon","coordinates":[[[-52.00820629859242,-29.30234086299216],[-52.00827720010994,-29.293016775050912],[-51.998318925150194,-29.292950227089193],[-51.9982476691613,-29.30227430907748],[-52.00820629859242,-29.30234086299216]]]}},{"type":"Feature","properties":{"id_grade":"1KME5201N8084","pop":17,"dom":6,"universo_dom":"domicilios_ocupados_grade_ibge_2022","na_bacia":1,"area_pct_bacia":100.0,"metodo_recorte_bacia":"ponto_representativo_grade_2022; area_pct_geometrica"},"geometry":{"type":"Polygon","coordinates":[[[-51.9982476691613,-29.30227430907748],[-51.998318925150194,-29.292950227089193],[-51.98836065526316,-29.29288334726036],[-51.98828904480343,-29.30220742326589],[-51.9982476691613,-29.30227430907748]]]}},{"type":"Feature","properties":{"id_grade":"1KME5202N8084","pop":5,"dom":2,"universo_dom":"domicilios_ocupados_grade_ibge_2022","na_bacia":1,"area_pct_bacia":100.0,"metodo_recorte_bacia":"ponto_representativo_grade_2022; area_pct_geometrica"},"geometry":{"type":"Polygon","coordinates":[[[-51.98828904480343,-29.30220742326589],[-51.98836065526316,-29.29288334726036],[-51.97840239047406,-29.292816135564653],[-51.97833042554404,-29.302140205557738],[-51.98828904480343,-29.30220742326589]]]}},{"type":"Feature","properties":{"id_grade":"1KME5203N8084","pop":68,"dom":28,"universo_dom":"domicilios_ocupados_grade_ibge_2022","na_bacia":1,"area_pct_bacia":100.0,"metodo_recorte_bacia":"ponto_representativo_grade_2022; area_pct_geometrica"},"geometry":{"type":"Polygon","coordinates":[[[-51.97833042554404,-29.302140205557738],[-51.97840239047406,-29.292816135564653],[-51.96844413080812,-29.29274859200329],[-51.96837181140835,-29.302072655954305],[-51.97833042554404,-29.302140205557738]]]}},{"type":"Feature","properties":{"id_grade":"1KME5204N8084","pop":25,"dom":8,"universo_dom":"domicilios_ocupados_grade_ibge_2022","na_bacia":1,"area_pct_bacia":100.0,"metodo_recorte_bacia":"ponto_representativo_grade_2022; area_pct_geometrica"},"geometry":{"type":"Polygon","coordinates":[[[-51.96837181140835,-29.302072655954305],[-51.96844413080812,-29.29274859200329],[-51.958485876290595,-29.292680716576168],[-51.958413202421625,-29.302004774455494],[-51.96837181140835,-29.302072655954305]]]}},{"type":"Feature","properties":{"id_grade":"1KME5205N8084","pop":11,"dom":4,"universo_dom":"domicilios_ocupados_grade_ibge_2022","na_bacia":1,"area_pct_bacia":100.0,"metodo_recorte_bacia":"ponto_representativo_grade_2022; area_pct_geometrica"},"geometry":{"type":"Polygon","coordinates":[[[-51.958413202421625,-29.302004774455494],[-51.958485876290595,-29.292680716576168],[-51.94852762694669,-29.29261250928478],[-51.94845459860908,-29.30193656106263],[-51.958413202421625,-29.302004774455494]]]}},{"type":"Feature","properties":{"id_grade":"1KME5206N8084","pop":47,"dom":16,"universo_dom":"domicilios_ocupados_grade_ibge_2022","na_bacia":1,"area_pct_bacia":100.0,"metodo_recorte_bacia":"ponto_representativo_grade_2022; area_pct_geometrica"},"geometry":{"type":"Polygon","coordinates":[[[-51.94845459860908,-29.30193656106263],[-51.94852762694669,-29.29261250928478],[-51.93856938280166,-29.292543970129127],[-51.938495999995965,-29.301868015776012],[-51.94845459860908,-29.30193656106263]]]}},{"type":"Feature","properties":{"id_grade":"1KME5207N8084","pop":18,"dom":8,"universo_dom":"domicilios_ocupados_grade_ibge_2022","na_bacia":1,"area_pct_bacia":100.0,"metodo_recorte_bacia":"ponto_representativo_grade_2022; area_pct_geometrica"},"geometry":{"type":"Polygon","coordinates":[[[-51.938495999995965,-29.301868015776012],[-51.93856938280166,-29.292543970129127],[-51.928611143880715,-29.29247509911044],[-51.92853740660749,-29.30179913859653],[-51.938495999995965,-29.301868015776012]]]}},{"type":"Feature","properties":{"id_grade":"1KME5197N8085","pop":10,"dom":4,"universo_dom":"domicilios_ocupados_grade_ibge_2022","na_bacia":1,"area_pct_bacia":100.0,"metodo_recorte_bacia":"ponto_representativo_grade_2022; area_pct_geometrica"},"geometry":{"type":"Polygon","coordinates":[[[-52.03815205517306,-29.29321442772648],[-52.038221888301436,-29.283890824054705],[-52.02826395272273,-29.28382527755949],[-52.0281937651466,-29.29314887537012],[-52.03815205517306,-29.29321442772648]]]}},{"type":"Feature","properties":{"id_grade":"1KME5199N8085","pop":16,"dom":8,"universo_dom":"domicilios_ocupados_grade_ibge_2022","na_bacia":1,"area_pct_bacia":100.0,"metodo_recorte_bacia":"ponto_representativo_grade_2022; area_pct_geometrica"},"geometry":{"type":"Polygon","coordinates":[[[-52.01823548011715,-29.293082991144725],[-52.01830602214051,-29.28375939922477],[-52.00834809657997,-29.283693189051235],[-52.00827720010994,-29.293016775050912],[-52.01823548011715,-29.293082991144725]]]}},{"type":"Feature","properties":{"id_grade":"1KME5200N8085","pop":8,"dom":3,"universo_dom":"domicilios_ocupados_grade_ibge_2022","na_bacia":1,"area_pct_bacia":100.0,"metodo_recorte_bacia":"ponto_representativo_grade_2022; area_pct_geometrica"},"geometry":{"type":"Polygon","coordinates":[[[-52.00827720010994,-29.293016775050912],[-52.00834809657997,-29.283693189051235],[-51.99839017606638,-29.28362664703944],[-51.998318925150194,-29.292950227089193],[-52.00827720010994,-29.293016775050912]]]}},{"type":"Feature","properties":{"id_grade":"1KME5201N8085","pop":4,"dom":2,"universo_dom":"domicilios_ocupados_grade_ibge_2022","na_bacia":1,"area_pct_bacia":100.0,"metodo_recorte_bacia":"ponto_representativo_grade_2022; area_pct_geometrica"},"geometry":{"type":"Polygon","coordinates":[[[-51.998318925150194,-29.292950227089193],[-51.99839017606638,-29.28362664703944],[-51.98843226062495,-29.283559773190127],[-51.98836065526316,-29.29288334726036],[-51.998318925150194,-29.292950227089193]]]}},{"type":"Feature","properties":{"id_grade":"1KME5202N8085","pop":31,"dom":12,"universo_dom":"domicilios_ocupados_grade_ibge_2022","na_bacia":1,"area_pct_bacia":100.0,"metodo_recorte_bacia":"ponto_representativo_grade_2022; area_pct_geometrica"},"geometry":{"type":"Polygon","coordinates":[[[-51.98836065526316,-29.29288334726036],[-51.98843226062495,-29.283559773190127],[-51.97847435028091,-29.28349256750376],[-51.97840239047406,-29.292816135564653],[-51.98836065526316,-29.29288334726036]]]}},{"type":"Feature","properties":{"id_grade":"1KME5203N8085","pop":45,"dom":17,"universo_dom":"domicilios_ocupados_grade_ibge_2022","na_bacia":1,"area_pct_bacia":100.0,"metodo_recorte_bacia":"ponto_representativo_grade_2022; area_pct_geometrica"},"geometry":{"type":"Polygon","coordinates":[[[-51.97840239047406,-29.292816135564653],[-51.97847435028091,-29.28349256750376],[-51.96851644505949,-29.2834250299813],[-51.96844413080812,-29.29274859200329],[-51.97840239047406,-29.292816135564653]]]}},{"type":"Feature","properties":{"id_grade":"1KME5204N8085","pop":10,"dom":3,"universo_dom":"domicilios_ocupados_grade_ibge_2022","na_bacia":1,"area_pct_bacia":100.0,"metodo_recorte_bacia":"ponto_representativo_grade_2022; area_pct_geometrica"},"geometry":{"type":"Polygon","coordinates":[[[-51.96844413080812,-29.29274859200329],[-51.96851644505949,-29.2834250299813],[-51.95855854498592,-29.28335716062286],[-51.958485876290595,-29.292680716576168],[-51.96844413080812,-29.29274859200329]]]}},{"type":"Feature","properties":{"id_grade":"1KME5205N8085","pop":25,"dom":11,"universo_dom":"domicilios_ocupados_grade_ibge_2022","na_bacia":1,"area_pct_bacia":100.0,"metodo_recorte_bacia":"ponto_representativo_grade_2022; area_pct_geometrica"},"geometry":{"type":"Polygon","coordinates":[[[-51.958485876290595,-29.292680716576168],[-51.95855854498592,-29.28335716062286],[-51.94860065008544,-29.28328895942956],[-51.94852762694669,-29.29261250928478],[-51.958485876290595,-29.292680716576168]]]}},{"type":"Feature","properties":{"id_grade":"1KME5206N8085","pop":2,"dom":1,"universo_dom":"domicilios_ocupados_grade_ibge_2022","na_bacia":1,"area_pct_bacia":100.0,"metodo_recorte_bacia":"ponto_representativo_grade_2022; area_pct_geometrica"},"geometry":{"type":"Polygon","coordinates":[[[-51.94852762694669,-29.29261250928478],[-51.94860065008544,-29.28328895942956],[-51.93864276038325,-29.283220426401922],[-51.93856938280166,-29.292543970129127],[-51.94852762694669,-29.29261250928478]]]}},{"type":"Feature","properties":{"id_grade":"1KME5207N8085","pop":2,"dom":1,"universo_dom":"domicilios_ocupados_grade_ibge_2022","na_bacia":1,"area_pct_bacia":100.0,"metodo_recorte_bacia":"ponto_representativo_grade_2022; area_pct_geometrica"},"geometry":{"type":"Polygon","coordinates":[[[-51.93856938280166,-29.292543970129127],[-51.93864276038325,-29.283220426401922],[-51.928684875904615,-29.283151561540564],[-51.928611143880715,-29.29247509911044],[-51.93856938280166,-29.292543970129127]]]}},{"type":"Feature","properties":{"id_grade":"1KME5198N8086","pop":20,"dom":7,"universo_dom":"domicilios_ocupados_grade_ibge_2022","na_bacia":1,"area_pct_bacia":100.0,"metodo_recorte_bacia":"ponto_representativo_grade_2022; area_pct_geometrica"},"geometry":{"type":"Polygon","coordinates":[[[-52.02826395272273,-29.28382527755949],[-52.028334135302394,-29.274502181315682],[-52.018376559142155,-29.274436308868648],[-52.01830602214051,-29.28375939922477],[-52.02826395272273,-29.28382527755949]]]}},{"type":"Feature","properties":{"id_grade":"1KME5199N8086","pop":65,"dom":23,"universo_dom":"domicilios_ocupados_grade_ibge_2022","na_bacia":1,"area_pct_bacia":100.0,"metodo_recorte_bacia":"ponto_representativo_grade_2022; area_pct_geometrica"},"geometry":{"type":"Polygon","coordinates":[[[-52.01830602214051,-29.28375939922477],[-52.018376559142155,-29.274436308868648],[-52.008418988003086,-29.274370104612235],[-52.00834809657997,-29.283693189051235],[-52.01830602214051,-29.28375939922477]]]}},{"type":"Feature","properties":{"id_grade":"1KME5200N8086","pop":13,"dom":7,"universo_dom":"domicilios_ocupados_grade_ibge_2022","na_bacia":1,"area_pct_bacia":100.0,"metodo_recorte_bacia":"ponto_representativo_grade_2022; area_pct_geometrica"},"geometry":{"type":"Polygon","coordinates":[[[-52.00834809657997,-29.283693189051235],[-52.008418988003086,-29.274370104612235],[-51.99846142191041,-29.274303568547136],[-51.99839017606638,-29.28362664703944],[-52.00834809657997,-29.283693189051235]]]}},{"type":"Feature","properties":{"id_grade":"1KME5204N8086","pop":49,"dom":22,"universo_dom":"domicilios_ocupados_grade_ibge_2022","na_bacia":1,"area_pct_bacia":100.0,"metodo_recorte_bacia":"ponto_representativo_grade_2022; area_pct_geometrica"},"geometry":{"type":"Polygon","coordinates":[[[-51.96851644505949,-29.2834250299813],[-51.968588754163015,-29.274101969507058],[-51.95863120850817,-29.274034106214007],[-51.95855854498592,-29.28335716062286],[-51.96851644505949,-29.2834250299813]]]}},{"type":"Feature","properties":{"id_grade":"1KME5205N8086","pop":17,"dom":10,"universo_dom":"domicilios_ocupados_grade_ibge_2022","na_bacia":1,"area_pct_bacia":100.0,"metodo_recorte_bacia":"ponto_representativo_grade_2022; area_pct_geometrica"},"geometry":{"type":"Polygon","coordinates":[[[-51.95855854498592,-29.28335716062286],[-51.95863120850817,-29.274034106214007],[-51.94867366802587,-29.273965911116022],[-51.94860065008544,-29.28328895942956],[-51.95855854498592,-29.28335716062286]]]}},{"type":"Feature","properties":{"id_grade":"1KME5206N8086","pop":13,"dom":3,"universo_dom":"domicilios_ocupados_grade_ibge_2022","na_bacia":1,"area_pct_bacia":100.0,"metodo_recorte_bacia":"ponto_representativo_grade_2022; area_pct_geometrica"},"geometry":{"type":"Polygon","coordinates":[[[-51.94860065008544,-29.28328895942956],[-51.94867366802587,-29.273965911116022],[-51.93871613274132,-29.273897384212827],[-51.93864276038325,-29.283220426401922],[-51.94860065008544,-29.28328895942956]]]}},{"type":"Feature","properties":{"id_grade":"1KME5197N8087","pop":1,"dom":1,"universo_dom":"domicilios_ocupados_grade_ibge_2022","na_bacia":1,"area_pct_bacia":100.0,"metodo_recorte_bacia":"ponto_representativo_grade_2022; area_pct_geometrica"},"geometry":{"type":"Polygon","coordinates":[[[-52.03829171645857,-29.274567721952977],[-52.038361539644995,-29.26524512104005],[-52.02840431288611,-29.265179586257517],[-52.028334135302394,-29.274502181315682],[-52.03829171645857,-29.274567721952977]]]}},{"type":"Feature","properties":{"id_grade":"1KME5198N8087","pop":5,"dom":1,"universo_dom":"domicilios_ocupados_grade_ibge_2022","na_bacia":1,"area_pct_bacia":100.0,"metodo_recorte_bacia":"ponto_representativo_grade_2022; area_pct_geometrica"},"geometry":{"type":"Polygon","coordinates":[[[-52.028334135302394,-29.274502181315682],[-52.02840431288611,-29.265179586257517],[-52.018447091122646,-29.265113719694966],[-52.018376559142155,-29.274436308868648],[-52.028334135302394,-29.274502181315682]]]}},{"type":"Feature","properties":{"id_grade":"1KME5199N8087","pop":3,"dom":2,"universo_dom":"domicilios_ocupados_grade_ibge_2022","na_bacia":1,"area_pct_bacia":100.0,"metodo_recorte_bacia":"ponto_representativo_grade_2022; area_pct_geometrica"},"geometry":{"type":"Polygon","coordinates":[[[-52.018376559142155,-29.274436308868648],[-52.018447091122646,-29.265113719694966],[-52.0084898743798,-29.26504752135284],[-52.008418988003086,-29.274370104612235],[-52.018376559142155,-29.274436308868648]]]}},{"type":"Feature","properties":{"id_grade":"1KME5200N8087","pop":19,"dom":7,"universo_dom":"domicilios_ocupados_grade_ibge_2022","na_bacia":1,"area_pct_bacia":100.0,"metodo_recorte_bacia":"ponto_representativo_grade_2022; area_pct_geometrica"},"geometry":{"type":"Polygon","coordinates":[[[-52.008418988003086,-29.274370104612235],[-52.0084898743798,-29.26504752135284],[-51.99853266268281,-29.264980991231496],[-51.99846142191041,-29.274303568547136],[-52.008418988003086,-29.274370104612235]]]}},{"type":"Feature","properties":{"id_grade":"1KME5204N8087","pop":3,"dom":1,"universo_dom":"domicilios_ocupados_grade_ibge_2022","na_bacia":1,"area_pct_bacia":100.0,"metodo_recorte_bacia":"ponto_representativo_grade_2022; area_pct_geometrica"},"geometry":{"type":"Polygon","coordinates":[[[-51.968588754163015,-29.274101969507058],[-51.968661058119224,-29.26477941019995],[-51.958703866857896,-29.26471155296934],[-51.95863120850817,-29.274034106214007],[-51.968588754163015,-29.274101969507058]]]}},{"type":"Feature","properties":{"id_grade":"1KME5205N8087","pop":5,"dom":2,"universo_dom":"domicilios_ocupados_grade_ibge_2022","na_bacia":1,"area_pct_bacia":100.0,"metodo_recorte_bacia":"ponto_representativo_grade_2022; area_pct_geometrica"},"geometry":{"type":"Polygon","coordinates":[[[-51.95863120850817,-29.274034106214007],[-51.958703866857896,-29.26471155296934],[-51.94874668076855,-29.264643363962556],[-51.94867366802587,-29.273965911116022],[-51.95863120850817,-29.274034106214007]]]}},{"type":"Feature","properties":{"id_grade":"1KME5199N8088","pop":55,"dom":20,"universo_dom":"domicilios_ocupados_grade_ibge_2022","na_bacia":1,"area_pct_bacia":100.0,"metodo_recorte_bacia":"ponto_representativo_grade_2022; area_pct_geometrica"},"geometry":{"type":"Polygon","coordinates":[[[-52.018447091122646,-29.265113719694966],[-52.01851761808249,-29.25579163132344],[-52.00856075571066,-29.25572543889187],[-52.0084898743798,-29.26504752135284],[-52.018447091122646,-29.265113719694966]]]}},{"type":"Feature","properties":{"id_grade":"1KME5200N8088","pop":104,"dom":29,"universo_dom":"domicilios_ocupados_grade_ibge_2022","na_bacia":1,"area_pct_bacia":100.0,"metodo_recorte_bacia":"ponto_representativo_grade_2022; area_pct_geometrica"},"geometry":{"type":"Polygon","coordinates":[[[-52.0084898743798,-29.26504752135284],[-52.00856075571066,-29.25572543889187],[-51.99860389838414,-29.255658914711216],[-51.99853266268281,-29.264980991231496],[-52.0084898743798,-29.26504752135284]]]}},{"type":"Feature","properties":{"id_grade":"1KME5203N8088","pop":34,"dom":12,"universo_dom":"domicilios_ocupados_grade_ibge_2022","na_bacia":1,"area_pct_bacia":100.0,"metodo_recorte_bacia":"ponto_representativo_grade_2022; area_pct_geometrica"},"geometry":{"type":"Polygon","coordinates":[[[-51.9786182545273,-29.264846935654354],[-51.97869019896793,-29.25552487110416],[-51.9687333569287,-29.255457351679038],[-51.968661058119224,-29.26477941019995],[-51.9786182545273,-29.264846935654354]]]}},{"type":"Feature","properties":{"id_grade":"1KME5204N8088","pop":19,"dom":7,"universo_dom":"domicilios_ocupados_grade_ibge_2022","na_bacia":1,"area_pct_bacia":100.0,"metodo_recorte_bacia":"ponto_representativo_grade_2022; area_pct_geometrica"},"geometry":{"type":"Polygon","coordinates":[[[-51.968661058119224,-29.26477941019995],[-51.9687333569287,-29.255457351679038],[-51.95877652003565,-29.25538950050733],[-51.958703866857896,-29.26471155296934],[-51.968661058119224,-29.26477941019995]]]}},{"type":"Feature","properties":{"id_grade":"1KME5205N8088","pop":4,"dom":2,"universo_dom":"domicilios_ocupados_grade_ibge_2022","na_bacia":1,"area_pct_bacia":100.0,"metodo_recorte_bacia":"ponto_representativo_grade_2022; area_pct_geometrica"},"geometry":{"type":"Polygon","coordinates":[[[-51.958703866857896,-29.26471155296934],[-51.95877652003565,-29.25538950050733],[-51.94881968831403,-29.255321317589246],[-51.94874668076855,-29.264643363962556],[-51.958703866857896,-29.26471155296934]]]}},{"type":"Feature","properties":{"id_grade":"1KME5200N8089","pop":18,"dom":5,"universo_dom":"domicilios_ocupados_grade_ibge_2022","na_bacia":1,"area_pct_bacia":100.0,"metodo_recorte_bacia":"ponto_representativo_grade_2022; area_pct_geometrica"},"geometry":{"type":"Polygon","coordinates":[[[-52.00856075571066,-29.25572543889187],[-52.0086316319962,-29.24640385684974],[-51.99867512901493,-29.24633733860638],[-51.99860389838414,-29.255658914711216],[-52.00856075571066,-29.25572543889187]]]}},{"type":"Feature","properties":{"id_grade":"1KME5201N8089","pop":16,"dom":6,"universo_dom":"domicilios_ocupados_grade_ibge_2022","na_bacia":1,"area_pct_bacia":100.0,"metodo_recorte_bacia":"ponto_representativo_grade_2022; area_pct_geometrica"},"geometry":{"type":"Polygon","coordinates":[[[-51.99860389838414,-29.255658914711216],[-51.99867512901493,-29.24633733860638],[-51.988718631103644,-29.246270488643884],[-51.98864704612815,-29.25559205878189],[-51.99860389838414,-29.255658914711216]]]}},{"type":"Feature","properties":{"id_grade":"1KME5202N8089","pop":31,"dom":10,"universo_dom":"domicilios_ocupados_grade_ibge_2022","na_bacia":1,"area_pct_bacia":100.0,"metodo_recorte_bacia":"ponto_representativo_grade_2022; area_pct_geometrica"},"geometry":{"type":"Polygon","coordinates":[[[-51.98864704612815,-29.25559205878189],[-51.988718631103644,-29.246270488643884],[-51.978762138287586,-29.246203306962844],[-51.97869019896793,-29.25552487110416],[-51.98864704612815,-29.25559205878189]]]}},{"type":"Feature","properties":{"id_grade":"1KME5203N8089","pop":30,"dom":11,"universo_dom":"domicilios_ocupados_grade_ibge_2022","na_bacia":1,"area_pct_bacia":100.0,"metodo_recorte_bacia":"ponto_representativo_grade_2022; area_pct_geometrica"},"geometry":{"type":"Polygon","coordinates":[[[-51.97869019896793,-29.25552487110416],[-51.978762138287586,-29.246203306962844],[-51.96880565059195,-29.246135793564044],[-51.9687333569287,-29.255457351679038],[-51.97869019896793,-29.25552487110416]]]}},{"type":"Feature","properties":{"id_grade":"1KME5204N8089","pop":28,"dom":11,"universo_dom":"domicilios_ocupados_grade_ibge_2022","na_bacia":1,"area_pct_bacia":100.0,"metodo_recorte_bacia":"ponto_representativo_grade_2022; area_pct_geometrica"},"geometry":{"type":"Polygon","coordinates":[[[-51.9687333569287,-29.255457351679038],[-51.96880565059195,-29.246135793564044],[-51.95884916804198,-29.246067948447894],[-51.95877652003565,-29.25538950050733],[-51.9687333569287,-29.255457351679038]]]}},{"type":"Feature","properties":{"id_grade":"1KME5205N8089","pop":64,"dom":20,"universo_dom":"domicilios_ocupados_grade_ibge_2022","na_bacia":1,"area_pct_bacia":100.0,"metodo_recorte_bacia":"ponto_representativo_grade_2022; area_pct_geometrica"},"geometry":{"type":"Polygon","coordinates":[[[-51.95877652003565,-29.25538950050733],[-51.95884916804198,-29.246067948447894],[-51.948892690662866,-29.245999771615416],[-51.94881968831403,-29.255321317589246],[-51.95877652003565,-29.25538950050733]]]}},{"type":"Feature","properties":{"id_grade":"1KME5201N8090","pop":6,"dom":2,"universo_dom":"domicilios_ocupados_grade_ibge_2022","na_bacia":1,"area_pct_bacia":100.0,"metodo_recorte_bacia":"ponto_representativo_grade_2022; area_pct_geometrica"},"geometry":{"type":"Polygon","coordinates":[[[-51.99867512901493,-29.24633733860638],[-51.998746354575715,-29.237016262536393],[-51.98879021098392,-29.236949418537755],[-51.988718631103644,-29.246270488643884],[-51.99867512901493,-29.24633733860638]]]}},{"type":"Feature","properties":{"id_grade":"1KME5202N8090","pop":10,"dom":5,"universo_dom":"domicilios_ocupados_grade_ibge_2022","na_bacia":1,"area_pct_bacia":100.0,"metodo_recorte_bacia":"ponto_representativo_grade_2022; area_pct_geometrica"},"geometry":{"type":"Polygon","coordinates":[[[-51.988718631103644,-29.246270488643884],[-51.98879021098392,-29.236949418537755],[-51.978834072486805,-29.236882242850164],[-51.978762138287586,-29.246203306962844],[-51.988718631103644,-29.246270488643884]]]}},{"type":"Feature","properties":{"id_grade":"200ME52018N80862","pop":3,"dom":1,"universo_dom":"domicilios_ocupados_grade_ibge_2022","na_bacia":1,"area_pct_bacia":100.0,"metodo_recorte_bacia":"ponto_representativo_grade_2022; area_pct_geometrica"},"geometry":{"type":"Polygon","coordinates":[[[-51.990423842886,-29.2835731748621],[-51.9904381493011,-29.281708519632392],[-51.988446580844986,-29.281695118834634],[-51.98843226094004,-29.28355977316488],[-51.990423842886,-29.2835731748621]]]}},{"type":"Feature","properties":{"id_grade":"200ME52012N80872","pop":12,"dom":3,"universo_dom":"domicilios_ocupados_grade_ibge_2022","na_bacia":1,"area_pct_bacia":100.0,"metodo_recorte_bacia":"ponto_representativo_grade_2022; area_pct_geometrica"},"geometry":{"type":"Polygon","coordinates":[[[-51.99646990945871,-29.274290221616415],[-51.996484171807026,-29.272425666211515],[-51.99449267349803,-29.27241230588314],[-51.99447839676054,-29.274276861288094],[-51.99646990945871,-29.274290221616415]]]}},{"type":"Feature","properties":{"id_grade":"200ME52018N80872","pop":54,"dom":17,"universo_dom":"domicilios_ocupados_grade_ibge_2022","na_bacia":1,"area_pct_bacia":100.0,"metodo_recorte_bacia":"ponto_representativo_grade_2022; area_pct_geometrica"},"geometry":{"type":"Polygon","coordinates":[[[-51.99049537226358,-29.274250101061256],[-51.99050967777936,-29.27238554655569],[-51.98851818036968,-29.27237214665715],[-51.98850386046474,-29.27423670026351],[-51.99049537226358,-29.274250101061256]]]}},{"type":"Feature","properties":{"id_grade":"200ME52010N80874","pop":1,"dom":1,"universo_dom":"domicilios_ocupados_grade_ibge_2022","na_bacia":1,"area_pct_bacia":100.0,"metodo_recorte_bacia":"ponto_representativo_grade_2022; area_pct_geometrica"},"geometry":{"type":"Polygon","coordinates":[[[-51.998475670116015,-29.272439013049883],[-51.99848991897454,-29.270574477430177],[-51.9964984341554,-29.27056113059163],[-51.996484171807026,-29.272425666211515],[-51.998475670116015,-29.272439013049883]]]}},{"type":"Feature","properties":{"id_grade":"200ME52012N80874","pop":5,"dom":1,"universo_dom":"domicilios_ocupados_grade_ibge_2022","na_bacia":1,"area_pct_bacia":100.0,"metodo_recorte_bacia":"ponto_representativo_grade_2022; area_pct_geometrica"},"geometry":{"type":"Polygon","coordinates":[[[-51.996484171807026,-29.272425666211515],[-51.9964984341554,-29.27056113059163],[-51.994506950235525,-29.270547771162708],[-51.99449267349803,-29.27241230588314],[-51.996484171807026,-29.272425666211515]]]}},{"type":"Feature","properties":{"id_grade":"200ME52018N80874","pop":10,"dom":3,"universo_dom":"domicilios_ocupados_grade_ibge_2022","na_bacia":1,"area_pct_bacia":100.0,"metodo_recorte_bacia":"ponto_representativo_grade_2022; area_pct_geometrica"},"geometry":{"type":"Polygon","coordinates":[[[-51.99050967777936,-29.27238554655569],[-51.990523983295134,-29.27052101183513],[-51.98853249937531,-29.27050761193671],[-51.98851818036968,-29.27237214665715],[-51.99050967777936,-29.27238554655569]]]}},{"type":"Feature","properties":{"id_grade":"200ME52014N80876","pop":15,"dom":4,"universo_dom":"domicilios_ocupados_grade_ibge_2022","na_bacia":1,"area_pct_bacia":100.0,"metodo_recorte_bacia":"ponto_representativo_grade_2022; area_pct_geometrica"},"geometry":{"type":"Polygon","coordinates":[[[-51.994506950235525,-29.270547771162708],[-51.994521226973006,-29.268683256227234],[-51.9925297574423,-29.26866988330846],[-51.992515466315695,-29.270534398243814],[-51.994506950235525,-29.270547771162708]]]}},{"type":"Feature","properties":{"id_grade":"200ME52016N80876","pop":31,"dom":12,"universo_dom":"domicilios_ocupados_grade_ibge_2022","na_bacia":1,"area_pct_bacia":100.0,"metodo_recorte_bacia":"ponto_representativo_grade_2022; area_pct_geometrica"},"geometry":{"type":"Polygon","coordinates":[[[-51.992515466315695,-29.270534398243814],[-51.9925297574423,-29.26866988330846],[-51.99053828791158,-29.2686564968998],[-51.990523983295134,-29.27052101183513],[-51.992515466315695,-29.270534398243814]]]}},{"type":"Feature","properties":{"id_grade":"200ME52018N80876","pop":60,"dom":20,"universo_dom":"domicilios_ocupados_grade_ibge_2022","na_bacia":1,"area_pct_bacia":100.0,"metodo_recorte_bacia":"ponto_representativo_grade_2022; area_pct_geometrica"},"geometry":{"type":"Polygon","coordinates":[[[-51.990523983295134,-29.27052101183513],[-51.99053828791158,-29.2686564968998],[-51.98854681838094,-29.2686430979007],[-51.98853249937531,-29.27050761193671],[-51.990523983295134,-29.27052101183513]]]}},{"type":"Feature","properties":{"id_grade":"200ME52016N80878","pop":5,"dom":2,"universo_dom":"domicilios_ocupados_grade_ibge_2022","na_bacia":1,"area_pct_bacia":100.0,"metodo_recorte_bacia":"ponto_representativo_grade_2022; area_pct_geometrica"},"geometry":{"type":"Polygon","coordinates":[[[-51.9925297574423,-29.26866988330846],[-51.99254404766964,-29.26680538815804],[-51.990552592528104,-29.26679200264875],[-51.99053828791158,-29.2686564968998],[-51.9925297574423,-29.26866988330846]]]}},{"type":"Feature","properties":{"id_grade":"200ME52018N80878","pop":10,"dom":4,"universo_dom":"domicilios_ocupados_grade_ibge_2022","na_bacia":1,"area_pct_bacia":100.0,"metodo_recorte_bacia":"ponto_representativo_grade_2022; area_pct_geometrica"},"geometry":{"type":"Polygon","coordinates":[[[-51.99053828791158,-29.2686564968998],[-51.990552592528104,-29.26679200264875],[-51.98856113738651,-29.26677860364963],[-51.98854681838094,-29.2686430979007],[-51.99053828791158,-29.2686564968998]]]}},{"type":"Feature","properties":{"id_grade":"200ME52012N80880","pop":2,"dom":1,"universo_dom":"domicilios_ocupados_grade_ibge_2022","na_bacia":1,"area_pct_bacia":100.0,"metodo_recorte_bacia":"ponto_representativo_grade_2022; area_pct_geometrica"},"geometry":{"type":"Polygon","coordinates":[[[-51.99652695885203,-29.266832120505928],[-51.99654122120035,-29.264967645140597],[-51.99454977954866,-29.264954286610987],[-51.994535503710495,-29.26681876107699],[-51.99652695885203,-29.266832120505928]]]}},{"type":"Feature","properties":{"id_grade":"200ME52014N80880","pop":9,"dom":3,"universo_dom":"domicilios_ocupados_grade_ibge_2022","na_bacia":1,"area_pct_bacia":100.0,"metodo_recorte_bacia":"ponto_representativo_grade_2022; area_pct_geometrica"},"geometry":{"type":"Polygon","coordinates":[[[-51.994535503710495,-29.26681876107699],[-51.99454977954866,-29.264954286610987],[-51.992558337896924,-29.264940913692133],[-51.99254404766964,-29.26680538815804],[-51.994535503710495,-29.26681876107699]]]}},{"type":"Feature","properties":{"id_grade":"200ME52016N80880","pop":72,"dom":26,"universo_dom":"domicilios_ocupados_grade_ibge_2022","na_bacia":1,"area_pct_bacia":100.0,"metodo_recorte_bacia":"ponto_representativo_grade_2022; area_pct_geometrica"},"geometry":{"type":"Polygon","coordinates":[[[-51.99254404766964,-29.26680538815804],[-51.992558337896924,-29.264940913692133],[-51.99056689714456,-29.264927528182863],[-51.990552592528104,-29.26679200264875],[-51.99254404766964,-29.26680538815804]]]}},{"type":"Feature","properties":{"id_grade":"200ME52018N80880","pop":2,"dom":1,"universo_dom":"domicilios_ocupados_grade_ibge_2022","na_bacia":1,"area_pct_bacia":100.0,"metodo_recorte_bacia":"ponto_representativo_grade_2022; area_pct_geometrica"},"geometry":{"type":"Polygon","coordinates":[[[-51.990552592528104,-29.26679200264875],[-51.99056689714456,-29.264927528182863],[-51.98857545639214,-29.264914129183694],[-51.98856113738651,-29.26677860364963],[-51.990552592528104,-29.26679200264875]]]}},{"type":"Feature","properties":{"id_grade":"200ME52010N80882","pop":16,"dom":5,"universo_dom":"domicilios_ocupados_grade_ibge_2022","na_bacia":1,"area_pct_bacia":100.0,"metodo_recorte_bacia":"ponto_representativo_grade_2022; area_pct_geometrica"},"geometry":{"type":"Polygon","coordinates":[[[-51.998532662852085,-29.26498099107985],[-51.99854690991191,-29.263116535499634],[-51.99655548264934,-29.263103190459855],[-51.99654122120035,-29.264967645140597],[-51.998532662852085,-29.26498099107985]]]}},{"type":"Feature","properties":{"id_grade":"200ME52012N80882","pop":24,"dom":9,"universo_dom":"domicilios_ocupados_grade_ibge_2022","na_bacia":1,"area_pct_bacia":100.0,"metodo_recorte_bacia":"ponto_representativo_grade_2022; area_pct_geometrica"},"geometry":{"type":"Polygon","coordinates":[[[-51.99654122120035,-29.264967645140597],[-51.99655548264934,-29.263103190459855],[-51.99456405538684,-29.263089831030886],[-51.99454977954866,-29.264954286610987],[-51.99654122120035,-29.264967645140597]]]}},{"type":"Feature","properties":{"id_grade":"200ME52016N80882","pop":88,"dom":29,"universo_dom":"domicilios_ocupados_grade_ibge_2022","na_bacia":1,"area_pct_bacia":100.0,"metodo_recorte_bacia":"ponto_representativo_grade_2022; area_pct_geometrica"},"geometry":{"type":"Polygon","coordinates":[[[-51.992558337896924,-29.264940913692133],[-51.99257262812427,-29.263076459011295],[-51.9905812008617,-29.263063073502057],[-51.99056689714456,-29.264927528182863],[-51.992558337896924,-29.264940913692133]]]}},{"type":"Feature","properties":{"id_grade":"200ME52018N80882","pop":32,"dom":12,"universo_dom":"domicilios_ocupados_grade_ibge_2022","na_bacia":1,"area_pct_bacia":100.0,"metodo_recorte_bacia":"ponto_representativo_grade_2022; area_pct_geometrica"},"geometry":{"type":"Polygon","coordinates":[[[-51.99056689714456,-29.264927528182863],[-51.9905812008617,-29.263063073502057],[-51.98858977449845,-29.263049675402115],[-51.98857545639214,-29.264914129183694],[-51.99056689714456,-29.264927528182863]]]}},{"type":"Feature","properties":{"id_grade":"200ME52010N80884","pop":2,"dom":1,"universo_dom":"domicilios_ocupados_grade_ibge_2022","na_bacia":1,"area_pct_bacia":100.0,"metodo_recorte_bacia":"ponto_representativo_grade_2022; area_pct_geometrica"},"geometry":{"type":"Polygon","coordinates":[[[-51.99854690991191,-29.263116535499634],[-51.99856115787111,-29.261252100603954],[-51.99656974409839,-29.261238755564072],[-51.99655548264934,-29.263103190459855],[-51.99854690991191,-29.263116535499634]]]}},{"type":"Feature","properties":{"id_grade":"200ME52012N80884","pop":17,"dom":4,"universo_dom":"domicilios_ocupados_grade_ibge_2022","na_bacia":1,"area_pct_bacia":100.0,"metodo_recorte_bacia":"ponto_representativo_grade_2022; area_pct_geometrica"},"geometry":{"type":"Polygon","coordinates":[[[-51.99655548264934,-29.263103190459855],[-51.99656974409839,-29.261238755564072],[-51.99457833122494,-29.261225396135092],[-51.99456405538684,-29.263089831030886],[-51.99655548264934,-29.263103190459855]]]}},{"type":"Feature","properties":{"id_grade":"200ME52018N80884","pop":2,"dom":1,"universo_dom":"domicilios_ocupados_grade_ibge_2022","na_bacia":1,"area_pct_bacia":100.0,"metodo_recorte_bacia":"ponto_representativo_grade_2022; area_pct_geometrica"},"geometry":{"type":"Polygon","coordinates":[[[-51.9905812008617,-29.263063073502057],[-51.990595505478154,-29.261198639505558],[-51.98860409260477,-29.261185241405688],[-51.98858977449845,-29.263049675402115],[-51.9905812008617,-29.263063073502057]]]}},{"type":"Feature","properties":{"id_grade":"200ME52018N80886","pop":6,"dom":2,"universo_dom":"domicilios_ocupados_grade_ibge_2022","na_bacia":1,"area_pct_bacia":100.0,"metodo_recorte_bacia":"ponto_representativo_grade_2022; area_pct_geometrica"},"geometry":{"type":"Polygon","coordinates":[[[-51.990595505478154,-29.261198639505558],[-51.990609809195284,-29.259334225294197],[-51.98861841071108,-29.2593208271944],[-51.98860409260477,-29.261185241405688],[-51.990595505478154,-29.261198639505558]]]}},{"type":"Feature","properties":{"id_grade":"200ME52010N80888","pop":5,"dom":1,"universo_dom":"domicilios_ocupados_grade_ibge_2022","na_bacia":1,"area_pct_bacia":100.0,"metodo_recorte_bacia":"ponto_representativo_grade_2022; area_pct_geometrica"},"geometry":{"type":"Polygon","coordinates":[[[-51.99857540493094,-29.25938768549325],[-51.99858965199081,-29.25752329016772],[-51.996598266996386,-29.257509945127868],[-51.99658400554739,-29.25937434045339],[-51.99857540493094,-29.25938768549325]]]}},{"type":"Feature","properties":{"id_grade":"200ME52012N80890","pop":2,"dom":1,"universo_dom":"domicilios_ocupados_grade_ibge_2022","na_bacia":1,"area_pct_bacia":100.0,"metodo_recorte_bacia":"ponto_representativo_grade_2022; area_pct_geometrica"},"geometry":{"type":"Polygon","coordinates":[[[-51.996598266996386,-29.257509945127868],[-51.99661252754606,-29.255645570486664],[-51.994621156940816,-29.255632211956925],[-51.99460688200196,-29.257496586598194],[-51.996598266996386,-29.257509945127868]]]}},{"type":"Feature","properties":{"id_grade":"200ME52022N80862","pop":2,"dom":1,"universo_dom":"domicilios_ocupados_grade_ibge_2022","na_bacia":1,"area_pct_bacia":100.0,"metodo_recorte_bacia":"ponto_representativo_grade_2022; area_pct_geometrica"},"geometry":{"type":"Polygon","coordinates":[[[-51.986440678094766,-29.28354635887725],[-51.98645501238889,-29.281681704547044],[-51.984463444832045,-29.281668276769537],[-51.98444909614881,-29.283532931099952],[-51.986440678094766,-29.28354635887725]]]}},{"type":"Feature","properties":{"id_grade":"200ME52024N80862","pop":4,"dom":2,"universo_dom":"domicilios_ocupados_grade_ibge_2022","na_bacia":1,"area_pct_bacia":100.0,"metodo_recorte_bacia":"ponto_representativo_grade_2022; area_pct_geometrica"},"geometry":{"type":"Polygon","coordinates":[[[-51.98444909614881,-29.283532931099952],[-51.984463444832045,-29.281668276769537],[-51.98247187637594,-29.28165483550224],[-51.98245751420285,-29.283519489832468],[-51.98444909614881,-29.283532931099952]]]}},{"type":"Feature","properties":{"id_grade":"200ME52026N80862","pop":5,"dom":2,"universo_dom":"domicilios_ocupados_grade_ibge_2022","na_bacia":1,"area_pct_bacia":100.0,"metodo_recorte_bacia":"ponto_representativo_grade_2022; area_pct_geometrica"},"geometry":{"type":"Polygon","coordinates":[[[-51.98245751420285,-29.283519489832468],[-51.98247187637594,-29.28165483550224],[-51.98048030881916,-29.28164138164444],[-51.98046593225695,-29.283506035075444],[-51.98245751420285,-29.283519489832468]]]}},{"type":"Feature","properties":{"id_grade":"200ME52020N80864","pop":8,"dom":2,"universo_dom":"domicilios_ocupados_grade_ibge_2022","na_bacia":1,"area_pct_bacia":100.0,"metodo_recorte_bacia":"ponto_representativo_grade_2022; area_pct_geometrica"},"geometry":{"type":"Polygon","coordinates":[[[-51.988446580844986,-29.281695118834634],[-51.988460901649255,-29.27983048428941],[-51.98646934758227,-29.279817070001776],[-51.98645501238889,-29.281681704547044],[-51.988446580844986,-29.281695118834634]]]}},{"type":"Feature","properties":{"id_grade":"200ME52026N80864","pop":3,"dom":1,"universo_dom":"domicilios_ocupados_grade_ibge_2022","na_bacia":1,"area_pct_bacia":100.0,"metodo_recorte_bacia":"ponto_representativo_grade_2022; area_pct_geometrica"},"geometry":{"type":"Polygon","coordinates":[[[-51.98247187637594,-29.28165483550224],[-51.98248623944835,-29.279790201856212],[-51.98049468628068,-29.279776747998373],[-51.98048030881916,-29.28164138164444],[-51.98247187637594,-29.28165483550224]]]}},{"type":"Feature","properties":{"id_grade":"200ME52020N80866","pop":5,"dom":1,"universo_dom":"domicilios_ocupados_grade_ibge_2022","na_bacia":1,"area_pct_bacia":100.0,"metodo_recorte_bacia":"ponto_representativo_grade_2022; area_pct_geometrica"},"geometry":{"type":"Polygon","coordinates":[[[-51.988460901649255,-29.27983048428941],[-51.988475221554204,-29.277965869529144],[-51.98648368187639,-29.277952455241632],[-51.98646934758227,-29.279817070001776],[-51.988460901649255,-29.27983048428941]]]}},{"type":"Feature","properties":{"id_grade":"200ME52026N80866","pop":6,"dom":2,"universo_dom":"domicilios_ocupados_grade_ibge_2022","na_bacia":1,"area_pct_bacia":100.0,"metodo_recorte_bacia":"ponto_representativo_grade_2022; area_pct_geometrica"},"geometry":{"type":"Polygon","coordinates":[[[-51.98248623944835,-29.279790201856212],[-51.98250060252075,-29.27792558799546],[-51.98050906284294,-29.277912134137626],[-51.98049468628068,-29.279776747998373],[-51.98248623944835,-29.279790201856212]]]}},{"type":"Feature","properties":{"id_grade":"200ME52028N80866","pop":6,"dom":2,"universo_dom":"domicilios_ocupados_grade_ibge_2022","na_bacia":1,"area_pct_bacia":100.0,"metodo_recorte_bacia":"ponto_representativo_grade_2022; area_pct_geometrica"},"geometry":{"type":"Polygon","coordinates":[[[-51.98049468628068,-29.279776747998373],[-51.98050906284294,-29.277912134137626],[-51.97851752406444,-29.277898667689264],[-51.978503133113065,-29.2797632806509],[-51.98049468628068,-29.279776747998373]]]}},{"type":"Feature","properties":{"id_grade":"200ME52020N80868","pop":7,"dom":4,"universo_dom":"domicilios_ocupados_grade_ibge_2022","na_bacia":1,"area_pct_bacia":100.0,"metodo_recorte_bacia":"ponto_representativo_grade_2022; area_pct_geometrica"},"geometry":{"type":"Polygon","coordinates":[[[-51.988475221554204,-29.277965869529144],[-51.9884895414591,-29.27610127545346],[-51.98649801527114,-29.276087861165816],[-51.98648368187639,-29.277952455241632],[-51.988475221554204,-29.277965869529144]]]}},{"type":"Feature","properties":{"id_grade":"200ME52026N80868","pop":45,"dom":16,"universo_dom":"domicilios_ocupados_grade_ibge_2022","na_bacia":1,"area_pct_bacia":100.0,"metodo_recorte_bacia":"ponto_representativo_grade_2022; area_pct_geometrica"},"geometry":{"type":"Polygon","coordinates":[[[-51.98250060252075,-29.27792558799546],[-51.98251496469385,-29.276060993919696],[-51.98052343940514,-29.276047540961127],[-51.98050906284294,-29.277912134137626],[-51.98250060252075,-29.27792558799546]]]}},{"type":"Feature","properties":{"id_grade":"200ME52028N80868","pop":48,"dom":18,"universo_dom":"domicilios_ocupados_grade_ibge_2022","na_bacia":1,"area_pct_bacia":100.0,"metodo_recorte_bacia":"ponto_representativo_grade_2022; area_pct_geometrica"},"geometry":{"type":"Polygon","coordinates":[[[-51.98050906284294,-29.277912134137626],[-51.98052343940514,-29.276047540961127],[-51.9785319141165,-29.276034074512854],[-51.97851752406444,-29.277898667689264],[-51.98050906284294,-29.277912134137626]]]}},{"type":"Feature","properties":{"id_grade":"200ME52022N80870","pop":12,"dom":4,"universo_dom":"domicilios_ocupados_grade_ibge_2022","na_bacia":1,"area_pct_bacia":100.0,"metodo_recorte_bacia":"ponto_representativo_grade_2022; area_pct_geometrica"},"geometry":{"type":"Polygon","coordinates":[[[-51.98649801527114,-29.276087861165816],[-51.98651234956526,-29.27422328687511],[-51.984520837766404,-29.274209860896256],[-51.98450648998249,-29.2760744342877],[-51.98649801527114,-29.276087861165816]]]}},{"type":"Feature","properties":{"id_grade":"200ME52024N80870","pop":21,"dom":7,"universo_dom":"domicilios_ocupados_grade_ibge_2022","na_bacia":1,"area_pct_bacia":100.0,"metodo_recorte_bacia":"ponto_representativo_grade_2022; area_pct_geometrica"},"geometry":{"type":"Polygon","coordinates":[[[-51.98450648998249,-29.2760744342877],[-51.984520837766404,-29.274209860896256],[-51.98252932686689,-29.274196420528348],[-51.98251496469385,-29.276060993919696],[-51.98450648998249,-29.2760744342877]]]}},{"type":"Feature","properties":{"id_grade":"200ME52026N80870","pop":65,"dom":19,"universo_dom":"domicilios_ocupados_grade_ibge_2022","na_bacia":1,"area_pct_bacia":100.0,"metodo_recorte_bacia":"ponto_representativo_grade_2022; area_pct_geometrica"},"geometry":{"type":"Polygon","coordinates":[[[-51.98251496469385,-29.276060993919696],[-51.98252932686689,-29.274196420528348],[-51.98053781596741,-29.274182967569804],[-51.98052343940514,-29.276047540961127],[-51.98251496469385,-29.276060993919696]]]}},{"type":"Feature","properties":{"id_grade":"200ME52028N80870","pop":28,"dom":12,"universo_dom":"domicilios_ocupados_grade_ibge_2022","na_bacia":1,"area_pct_bacia":100.0,"metodo_recorte_bacia":"ponto_representativo_grade_2022; area_pct_geometrica"},"geometry":{"type":"Polygon","coordinates":[[[-51.98052343940514,-29.276047540961127],[-51.98053781596741,-29.274182967569804],[-51.97854630506788,-29.27416950112154],[-51.9785319141165,-29.276034074512854],[-51.98052343940514,-29.276047540961127]]]}},{"type":"Feature","properties":{"id_grade":"200ME52020N80872","pop":36,"dom":14,"universo_dom":"domicilios_ocupados_grade_ibge_2022","na_bacia":1,"area_pct_bacia":100.0,"metodo_recorte_bacia":"ponto_representativo_grade_2022; area_pct_geometrica"},"geometry":{"type":"Polygon","coordinates":[[[-51.98850386046474,-29.27423670026351],[-51.98851818036968,-29.27237214665715],[-51.986526682960005,-29.272358733268902],[-51.98651234956526,-29.27422328687511],[-51.98850386046474,-29.27423670026351]]]}},{"type":"Feature","properties":{"id_grade":"200ME52022N80872","pop":42,"dom":12,"universo_dom":"domicilios_ocupados_grade_ibge_2022","na_bacia":1,"area_pct_bacia":100.0,"metodo_recorte_bacia":"ponto_representativo_grade_2022; area_pct_geometrica"},"geometry":{"type":"Polygon","coordinates":[[[-51.98651234956526,-29.27422328687511],[-51.986526682960005,-29.272358733268902],[-51.984535185550335,-29.27234530639069],[-51.984520837766404,-29.274209860896256],[-51.98651234956526,-29.27422328687511]]]}},{"type":"Feature","properties":{"id_grade":"200ME52020N80874","pop":58,"dom":24,"universo_dom":"domicilios_ocupados_grade_ibge_2022","na_bacia":1,"area_pct_bacia":100.0,"metodo_recorte_bacia":"ponto_representativo_grade_2022; area_pct_geometrica"},"geometry":{"type":"Polygon","coordinates":[[[-51.98851818036968,-29.27237214665715],[-51.98853249937531,-29.27050761193671],[-51.986541016354806,-29.270494199447743],[-51.986526682960005,-29.272358733268902],[-51.98851818036968,-29.27237214665715]]]}},{"type":"Feature","properties":{"id_grade":"200ME52022N80874","pop":28,"dom":11,"universo_dom":"domicilios_ocupados_grade_ibge_2022","na_bacia":1,"area_pct_bacia":100.0,"metodo_recorte_bacia":"ponto_representativo_grade_2022; area_pct_geometrica"},"geometry":{"type":"Polygon","coordinates":[[[-51.986526682960005,-29.272358733268902],[-51.986541016354806,-29.270494199447743],[-51.98454953333425,-29.2704807725695],[-51.984535185550335,-29.27234530639069],[-51.986526682960005,-29.272358733268902]]]}},{"type":"Feature","properties":{"id_grade":"200ME52020N80876","pop":99,"dom":34,"universo_dom":"domicilios_ocupados_grade_ibge_2022","na_bacia":1,"area_pct_bacia":100.0,"metodo_recorte_bacia":"ponto_representativo_grade_2022; area_pct_geometrica"},"geometry":{"type":"Polygon","coordinates":[[[-51.98853249937531,-29.27050761193671],[-51.98854681838094,-29.2686430979007],[-51.986555349749544,-29.268629685411618],[-51.986541016354806,-29.270494199447743],[-51.98853249937531,-29.27050761193671]]]}},{"type":"Feature","properties":{"id_grade":"200ME52022N80876","pop":32,"dom":9,"universo_dom":"domicilios_ocupados_grade_ibge_2022","na_bacia":1,"area_pct_bacia":100.0,"metodo_recorte_bacia":"ponto_representativo_grade_2022; area_pct_geometrica"},"geometry":{"type":"Polygon","coordinates":[[[-51.986541016354806,-29.270494199447743],[-51.986555349749544,-29.268629685411618],[-51.98456388111816,-29.268616259432818],[-51.98454953333425,-29.2704807725695],[-51.986541016354806,-29.270494199447743]]]}},{"type":"Feature","properties":{"id_grade":"200ME52024N80876","pop":3,"dom":1,"universo_dom":"domicilios_ocupados_grade_ibge_2022","na_bacia":1,"area_pct_bacia":100.0,"metodo_recorte_bacia":"ponto_representativo_grade_2022; area_pct_geometrica"},"geometry":{"type":"Polygon","coordinates":[[[-51.98454953333425,-29.2704807725695],[-51.98456388111816,-29.268616259432818],[-51.982572411587455,-29.268602819964165],[-51.98255805031374,-29.270467333100886],[-51.98454953333425,-29.2704807725695]]]}},{"type":"Feature","properties":{"id_grade":"200ME52020N80878","pop":35,"dom":12,"universo_dom":"domicilios_ocupados_grade_ibge_2022","na_bacia":1,"area_pct_bacia":100.0,"metodo_recorte_bacia":"ponto_representativo_grade_2022; area_pct_geometrica"},"geometry":{"type":"Polygon","coordinates":[[[-51.98854681838094,-29.2686430979007],[-51.98856113738651,-29.26677860364963],[-51.986569682244976,-29.26676519116064],[-51.986555349749544,-29.268629685411618],[-51.98854681838094,-29.2686430979007]]]}},{"type":"Feature","properties":{"id_grade":"200ME52022N80878","pop":43,"dom":15,"universo_dom":"domicilios_ocupados_grade_ibge_2022","na_bacia":1,"area_pct_bacia":100.0,"metodo_recorte_bacia":"ponto_representativo_grade_2022; area_pct_geometrica"},"geometry":{"type":"Polygon","coordinates":[[[-51.986555349749544,-29.268629685411618],[-51.986569682244976,-29.26676519116064],[-51.98457822800275,-29.26675176518177],[-51.98456388111816,-29.268616259432818],[-51.986555349749544,-29.268629685411618]]]}},{"type":"Feature","properties":{"id_grade":"200ME52026N80878","pop":2,"dom":1,"universo_dom":"domicilios_ocupados_grade_ibge_2022","na_bacia":1,"area_pct_bacia":100.0,"metodo_recorte_bacia":"ponto_representativo_grade_2022; area_pct_geometrica"},"geometry":{"type":"Polygon","coordinates":[[[-51.982572411587455,-29.268602819964165],[-51.98258677376054,-29.266738326612483],[-51.980595319518336,-29.26672487455326],[-51.98058094385544,-29.268589367005614],[-51.982572411587455,-29.268602819964165]]]}},{"type":"Feature","properties":{"id_grade":"200ME52028N80878","pop":6,"dom":1,"universo_dom":"domicilios_ocupados_grade_ibge_2022","na_bacia":1,"area_pct_bacia":100.0,"metodo_recorte_bacia":"ponto_representativo_grade_2022; area_pct_geometrica"},"geometry":{"type":"Polygon","coordinates":[[[-51.98058094385544,-29.268589367005614],[-51.980595319518336,-29.26672487455326],[-51.978603865276106,-29.26671140900431],[-51.978589475224055,-29.268575901456718],[-51.98058094385544,-29.268589367005614]]]}},{"type":"Feature","properties":{"id_grade":"200ME52020N80880","pop":3,"dom":1,"universo_dom":"domicilios_ocupados_grade_ibge_2022","na_bacia":1,"area_pct_bacia":100.0,"metodo_recorte_bacia":"ponto_representativo_grade_2022; area_pct_geometrica"},"geometry":{"type":"Polygon","coordinates":[[[-51.98856113738651,-29.26677860364963],[-51.98857545639214,-29.264914129183694],[-51.98658401563978,-29.26490071669469],[-51.986569682244976,-29.26676519116064],[-51.98856113738651,-29.26677860364963]]]}},{"type":"Feature","properties":{"id_grade":"200ME52022N80880","pop":124,"dom":46,"universo_dom":"domicilios_ocupados_grade_ibge_2022","na_bacia":1,"area_pct_bacia":100.0,"metodo_recorte_bacia":"ponto_representativo_grade_2022; area_pct_geometrica"},"geometry":{"type":"Polygon","coordinates":[[[-51.986569682244976,-29.26676519116064],[-51.98658401563978,-29.26490071669469],[-51.98459257488736,-29.26488729161521],[-51.98457822800275,-29.26675176518177],[-51.986569682244976,-29.26676519116064]]]}},{"type":"Feature","properties":{"id_grade":"200ME52024N80880","pop":42,"dom":14,"universo_dom":"domicilios_ocupados_grade_ibge_2022","na_bacia":1,"area_pct_bacia":100.0,"metodo_recorte_bacia":"ponto_representativo_grade_2022; area_pct_geometrica"},"geometry":{"type":"Polygon","coordinates":[[[-51.98457822800275,-29.26675176518177],[-51.98459257488736,-29.26488729161521],[-51.982601134134995,-29.264873853045827],[-51.98258677376054,-29.266738326612483],[-51.98457822800275,-29.26675176518177]]]}},{"type":"Feature","properties":{"id_grade":"200ME52026N80880","pop":12,"dom":3,"universo_dom":"domicilios_ocupados_grade_ibge_2022","na_bacia":1,"area_pct_bacia":100.0,"metodo_recorte_bacia":"ponto_representativo_grade_2022; area_pct_geometrica"},"geometry":{"type":"Polygon","coordinates":[[[-51.98258677376054,-29.266738326612483],[-51.982601134134995,-29.264873853045827],[-51.98060969428195,-29.26486040098673],[-51.980595319518336,-29.26672487455326],[-51.98258677376054,-29.266738326612483]]]}},{"type":"Feature","properties":{"id_grade":"200ME52020N80882","pop":3,"dom":1,"universo_dom":"domicilios_ocupados_grade_ibge_2022","na_bacia":1,"area_pct_bacia":100.0,"metodo_recorte_bacia":"ponto_representativo_grade_2022; area_pct_geometrica"},"geometry":{"type":"Polygon","coordinates":[[[-51.98857545639214,-29.264914129183694],[-51.98858977449845,-29.263049675402115],[-51.9865983481352,-29.2630362629132],[-51.98658401563978,-29.26490071669469],[-51.98857545639214,-29.264914129183694]]]}},{"type":"Feature","properties":{"id_grade":"200ME52022N80882","pop":62,"dom":23,"universo_dom":"domicilios_ocupados_grade_ibge_2022","na_bacia":1,"area_pct_bacia":100.0,"metodo_recorte_bacia":"ponto_representativo_grade_2022; area_pct_geometrica"},"geometry":{"type":"Polygon","coordinates":[[[-51.98658401563978,-29.26490071669469],[-51.9865983481352,-29.2630362629132],[-51.984606921771956,-29.263022837833663],[-51.98459257488736,-29.26488729161521],[-51.98658401563978,-29.26490071669469]]]}},{"type":"Feature","properties":{"id_grade":"200ME52024N80882","pop":4,"dom":2,"universo_dom":"domicilios_ocupados_grade_ibge_2022","na_bacia":1,"area_pct_bacia":100.0,"metodo_recorte_bacia":"ponto_representativo_grade_2022; area_pct_geometrica"},"geometry":{"type":"Polygon","coordinates":[[[-51.98459257488736,-29.26488729161521],[-51.984606921771956,-29.263022837833663],[-51.98261549540877,-29.263009399264373],[-51.982601134134995,-29.264873853045827],[-51.98459257488736,-29.26488729161521]]]}},{"type":"Feature","properties":{"id_grade":"200ME52026N80882","pop":18,"dom":6,"universo_dom":"domicilios_ocupados_grade_ibge_2022","na_bacia":1,"area_pct_bacia":100.0,"metodo_recorte_bacia":"ponto_representativo_grade_2022; area_pct_geometrica"},"geometry":{"type":"Polygon","coordinates":[[[-51.982601134134995,-29.264873853045827],[-51.98261549540877,-29.263009399264373],[-51.98062406994484,-29.262995948104543],[-51.98060969428195,-29.26486040098673],[-51.982601134134995,-29.264873853045827]]]}},{"type":"Feature","properties":{"id_grade":"200ME52028N80882","pop":3,"dom":1,"universo_dom":"domicilios_ocupados_grade_ibge_2022","na_bacia":1,"area_pct_bacia":100.0,"metodo_recorte_bacia":"ponto_representativo_grade_2022; area_pct_geometrica"},"geometry":{"type":"Polygon","coordinates":[[[-51.98060969428195,-29.26486040098673],[-51.98062406994484,-29.262995948104543],[-51.9786326435816,-29.262982482555458],[-51.97861825442886,-29.264846935437703],[-51.98060969428195,-29.26486040098673]]]}},{"type":"Feature","properties":{"id_grade":"200ME52026N80884","pop":2,"dom":1,"universo_dom":"domicilios_ocupados_grade_ibge_2022","na_bacia":1,"area_pct_bacia":100.0,"metodo_recorte_bacia":"ponto_representativo_grade_2022; area_pct_geometrica"},"geometry":{"type":"Polygon","coordinates":[[[-51.98261549540877,-29.263009399264373],[-51.98262985578316,-29.26114496616715],[-51.980638444708404,-29.261131514108133],[-51.98062406994484,-29.262995948104543],[-51.98261549540877,-29.263009399264373]]]}},{"type":"Feature","properties":{"id_grade":"200ME52028N80884","pop":19,"dom":8,"universo_dom":"domicilios_ocupados_grade_ibge_2022","na_bacia":1,"area_pct_bacia":100.0,"metodo_recorte_bacia":"ponto_representativo_grade_2022; area_pct_geometrica"},"geometry":{"type":"Polygon","coordinates":[[[-51.98062406994484,-29.262995948104543],[-51.980638444708404,-29.261131514108133],[-51.97864703273433,-29.261118049458407],[-51.9786326435816,-29.262982482555458],[-51.98062406994484,-29.262995948104543]]]}},{"type":"Feature","properties":{"id_grade":"200ME52028N80886","pop":15,"dom":5,"universo_dom":"domicilios_ocupados_grade_ibge_2022","na_bacia":1,"area_pct_bacia":100.0,"metodo_recorte_bacia":"ponto_representativo_grade_2022; area_pct_geometrica"},"geometry":{"type":"Polygon","coordinates":[[[-51.980638444708404,-29.261131514108133],[-51.98065281947203,-29.259267101695386],[-51.978661421887075,-29.25925363704571],[-51.97864703273433,-29.261118049458407],[-51.980638444708404,-29.261131514108133]]]}},{"type":"Feature","properties":{"id_grade":"200ME52026N80888","pop":3,"dom":1,"universo_dom":"domicilios_ocupados_grade_ibge_2022","na_bacia":1,"area_pct_bacia":100.0,"metodo_recorte_bacia":"ponto_representativo_grade_2022; area_pct_geometrica"},"geometry":{"type":"Polygon","coordinates":[[[-51.98264421705694,-29.259280552855174],[-51.98265857743137,-29.2574161593283],[-51.980667193336274,-29.257402708168392],[-51.98065281947203,-29.259267101695386],[-51.98264421705694,-29.259280552855174]]]}},{"type":"Feature","properties":{"id_grade":"200ME52028N80888","pop":3,"dom":2,"universo_dom":"domicilios_ocupados_grade_ibge_2022","na_bacia":1,"area_pct_bacia":100.0,"metodo_recorte_bacia":"ponto_representativo_grade_2022; area_pct_geometrica"},"geometry":{"type":"Polygon","coordinates":[[[-51.98065281947203,-29.259267101695386],[-51.980667193336274,-29.257402708168392],[-51.97867581014049,-29.257389244418075],[-51.978661421887075,-29.25925363704571],[-51.98065281947203,-29.259267101695386]]]}},{"type":"Feature","properties":{"id_grade":"200ME52020N80890","pop":6,"dom":2,"universo_dom":"domicilios_ocupados_grade_ibge_2022","na_bacia":1,"area_pct_bacia":100.0,"metodo_recorte_bacia":"ponto_representativo_grade_2022; area_pct_geometrica"},"geometry":{"type":"Polygon","coordinates":[[[-51.98863272881732,-29.257456432768084],[-51.98864704602431,-29.255592059026274],[-51.98665567631837,-29.255578647436607],[-51.98664134472222,-29.25744302117835],[-51.98863272881732,-29.257456432768084]]]}},{"type":"Feature","properties":{"id_grade":"200ME52032N80866","pop":14,"dom":5,"universo_dom":"domicilios_ocupados_grade_ibge_2022","na_bacia":1,"area_pct_bacia":100.0,"metodo_recorte_bacia":"ponto_representativo_grade_2022; area_pct_geometrica"},"geometry":{"type":"Polygon","coordinates":[[[-51.97651157994539,-29.279749799813434],[-51.976525984386626,-29.277885186851822],[-51.97453444650745,-29.277871693423872],[-51.97452002677778,-29.279736306385328],[-51.97651157994539,-29.279749799813434]]]}},{"type":"Feature","properties":{"id_grade":"200ME52030N80868","pop":3,"dom":1,"universo_dom":"domicilios_ocupados_grade_ibge_2022","na_bacia":1,"area_pct_bacia":100.0,"metodo_recorte_bacia":"ponto_representativo_grade_2022; area_pct_geometrica"},"geometry":{"type":"Polygon","coordinates":[[[-51.97851752406444,-29.277898667689264],[-51.9785319141165,-29.276034074512854],[-51.976540389727184,-29.276020594574696],[-51.976525984386626,-29.277885186851822],[-51.97851752406444,-29.277898667689264]]]}},{"type":"Feature","properties":{"id_grade":"200ME52032N80868","pop":16,"dom":6,"universo_dom":"domicilios_ocupados_grade_ibge_2022","na_bacia":1,"area_pct_bacia":100.0,"metodo_recorte_bacia":"ponto_representativo_grade_2022; area_pct_geometrica"},"geometry":{"type":"Polygon","coordinates":[[[-51.976525984386626,-29.277885186851822],[-51.976540389727184,-29.276020594574696],[-51.97454886533785,-29.276007101146764],[-51.97453444650745,-29.277871693423872],[-51.976525984386626,-29.277885186851822]]]}},{"type":"Feature","properties":{"id_grade":"200ME52034N80868","pop":2,"dom":1,"universo_dom":"domicilios_ocupados_grade_ibge_2022","na_bacia":1,"area_pct_bacia":100.0,"metodo_recorte_bacia":"ponto_representativo_grade_2022; area_pct_geometrica"},"geometry":{"type":"Polygon","coordinates":[[[-51.97453444650745,-29.277871693423872],[-51.97454886533785,-29.276007101146764],[-51.97255734094847,-29.275993594229003],[-51.97254290772895,-29.277858186506098],[-51.97453444650745,-29.277871693423872]]]}},{"type":"Feature","properties":{"id_grade":"200ME52030N80870","pop":17,"dom":6,"universo_dom":"domicilios_ocupados_grade_ibge_2022","na_bacia":1,"area_pct_bacia":100.0,"metodo_recorte_bacia":"ponto_representativo_grade_2022; area_pct_geometrica"},"geometry":{"type":"Polygon","coordinates":[[[-51.9785319141165,-29.276034074512854],[-51.97854630506788,-29.27416950112154],[-51.976554794168344,-29.274156021183398],[-51.976540389727184,-29.276020594574696],[-51.9785319141165,-29.276034074512854]]]}},{"type":"Feature","properties":{"id_grade":"200ME52032N80870","pop":33,"dom":12,"universo_dom":"domicilios_ocupados_grade_ibge_2022","na_bacia":1,"area_pct_bacia":100.0,"metodo_recorte_bacia":"ponto_representativo_grade_2022; area_pct_geometrica"},"geometry":{"type":"Polygon","coordinates":[[[-51.976540389727184,-29.276020594574696],[-51.976554794168344,-29.274156021183398],[-51.9745632841682,-29.274142528654746],[-51.97454886533785,-29.276007101146764],[-51.976540389727184,-29.276020594574696]]]}},{"type":"Feature","properties":{"id_grade":"200ME52034N80870","pop":5,"dom":1,"universo_dom":"domicilios_ocupados_grade_ibge_2022","na_bacia":1,"area_pct_bacia":100.0,"metodo_recorte_bacia":"ponto_representativo_grade_2022; area_pct_geometrica"},"geometry":{"type":"Polygon","coordinates":[[[-51.97454886533785,-29.276007101146764],[-51.9745632841682,-29.274142528654746],[-51.97257177416799,-29.274129021736943],[-51.97255734094847,-29.275993594229003],[-51.97454886533785,-29.276007101146764]]]}},{"type":"Feature","properties":{"id_grade":"200ME52036N80870","pop":17,"dom":6,"universo_dom":"domicilios_ocupados_grade_ibge_2022","na_bacia":1,"area_pct_bacia":100.0,"metodo_recorte_bacia":"ponto_representativo_grade_2022; area_pct_geometrica"},"geometry":{"type":"Polygon","coordinates":[[[-51.97255734094847,-29.275993594229003],[-51.97257177416799,-29.274129021736943],[-51.97058026416783,-29.274115502228582],[-51.970565816559144,-29.27598007472069],[-51.97255734094847,-29.275993594229003]]]}},{"type":"Feature","properties":{"id_grade":"200ME52038N80870","pop":14,"dom":5,"universo_dom":"domicilios_ocupados_grade_ibge_2022","na_bacia":1,"area_pct_bacia":100.0,"metodo_recorte_bacia":"ponto_representativo_grade_2022; area_pct_geometrica"},"geometry":{"type":"Polygon","coordinates":[[[-51.970565816559144,-29.27598007472069],[-51.97058026416783,-29.274115502228582],[-51.96858875416763,-29.27410196923049],[-51.968574293069146,-29.275966541722493],[-51.970565816559144,-29.27598007472069]]]}},{"type":"Feature","properties":{"id_grade":"200ME52036N80872","pop":3,"dom":1,"universo_dom":"domicilios_ocupados_grade_ibge_2022","na_bacia":1,"area_pct_bacia":100.0,"metodo_recorte_bacia":"ponto_representativo_grade_2022; area_pct_geometrica"},"geometry":{"type":"Polygon","coordinates":[[[-51.97257177416799,-29.274129021736943],[-51.97258620648819,-29.272264469929326],[-51.970594710877144,-29.27225095042103],[-51.97058026416783,-29.274115502228582],[-51.97257177416799,-29.274129021736943]]]}},{"type":"Feature","properties":{"id_grade":"200ME52038N80872","pop":1,"dom":1,"universo_dom":"domicilios_ocupados_grade_ibge_2022","na_bacia":1,"area_pct_bacia":100.0,"metodo_recorte_bacia":"ponto_representativo_grade_2022; area_pct_geometrica"},"geometry":{"type":"Polygon","coordinates":[[[-51.97058026416783,-29.274115502228582],[-51.970594710877144,-29.27225095042103],[-51.968603215266114,-29.272237417422836],[-51.96858875416763,-29.27410196923049],[-51.97058026416783,-29.274115502228582]]]}},{"type":"Feature","properties":{"id_grade":"200ME52036N80874","pop":5,"dom":2,"universo_dom":"domicilios_ocupados_grade_ibge_2022","na_bacia":1,"area_pct_bacia":100.0,"metodo_recorte_bacia":"ponto_representativo_grade_2022; area_pct_geometrica"},"geometry":{"type":"Polygon","coordinates":[[[-51.97258620648819,-29.272264469929326],[-51.97260063970771,-29.270399937007483],[-51.97060915758652,-29.270386418398424],[-51.970594710877144,-29.27225095042103],[-51.97258620648819,-29.272264469929326]]]}},{"type":"Feature","properties":{"id_grade":"200ME52034N80876","pop":1,"dom":1,"universo_dom":"domicilios_ocupados_grade_ibge_2022","na_bacia":1,"area_pct_bacia":100.0,"metodo_recorte_bacia":"ponto_representativo_grade_2022; area_pct_geometrica"},"geometry":{"type":"Polygon","coordinates":[[[-51.97459212092957,-29.270413443025948],[-51.974606539759975,-29.268548930788437],[-51.97261507202791,-29.268535424769972],[-51.97260063970771,-29.270399937007483],[-51.97459212092957,-29.270413443025948]]]}},{"type":"Feature","properties":{"id_grade":"200ME52034N80878","pop":1,"dom":1,"universo_dom":"domicilios_ocupados_grade_ibge_2022","na_bacia":1,"area_pct_bacia":100.0,"metodo_recorte_bacia":"ponto_representativo_grade_2022; area_pct_geometrica"},"geometry":{"type":"Polygon","coordinates":[[[-51.974606539759975,-29.268548930788437],[-51.974620957691,-29.26668443743679],[-51.972629504348106,-29.266670932317673],[-51.97261507202791,-29.268535424769972],[-51.974606539759975,-29.268548930788437]]]}},{"type":"Feature","properties":{"id_grade":"200ME52032N80880","pop":8,"dom":2,"universo_dom":"domicilios_ocupados_grade_ibge_2022","na_bacia":1,"area_pct_bacia":100.0,"metodo_recorte_bacia":"ponto_representativo_grade_2022; area_pct_geometrica"},"geometry":{"type":"Polygon","coordinates":[[[-51.97661241103389,-29.266697929965403],[-51.97662681457581,-29.26483345729818],[-51.97463537562203,-29.26481996566876],[-51.974620957691,-29.26668443743679],[-51.97661241103389,-29.266697929965403]]]}}]}