{"type":"FeatureCollection","name":"4305835","crs":{"type":"name","properties":{"name":"urn:ogc:def:crs:OGC:1.3:CRS84"}},"features":[{"type":"Feature","properties":{"id_grade":"1KME5189N8092","pop":24,"dom":11,"universo_dom":"domicilios_ocupados_grade_ibge_2022","na_bacia":1,"area_pct_bacia":100.0,"metodo_recorte_bacia":"ponto_representativo_grade_2022; area_pct_geometrica"},"geometry":{"type":"Polygon","coordinates":[[[-52.11828743480157,-29.228471872918096],[-52.11835439895389,-29.2191517265919],[-52.10839890476886,-29.21908887411785],[-52.10833158634118,-29.228409014841404],[-52.11828743480157,-29.228471872918096]]]}},{"type":"Feature","properties":{"id_grade":"1KME5190N8092","pop":18,"dom":7,"universo_dom":"domicilios_ocupados_grade_ibge_2022","na_bacia":1,"area_pct_bacia":100.0,"metodo_recorte_bacia":"ponto_representativo_grade_2022; area_pct_geometrica"},"geometry":{"type":"Polygon","coordinates":[[[-52.10833158634118,-29.228409014841404],[-52.10839890476886,-29.21908887411785],[-52.098443415374895,-29.21902569000684],[-52.098375742672346,-29.228345825097716],[-52.10833158634118,-29.228409014841404]]]}},{"type":"Feature","properties":{"id_grade":"1KME5188N8093","pop":7,"dom":2,"universo_dom":"domicilios_ocupados_grade_ibge_2022","na_bacia":1,"area_pct_bacia":100.0,"metodo_recorte_bacia":"ponto_representativo_grade_2022; area_pct_geometrica"},"geometry":{"type":"Polygon","coordinates":[[[-52.12830989790475,-29.2192142474278],[-52.128376503040556,-29.209894594462696],[-52.118421358340356,-29.209832079197078],[-52.11835439895389,-29.2191517265919],[-52.12830989790475,-29.2192142474278]]]}},{"type":"Feature","properties":{"id_grade":"1KME5189N8093","pop":19,"dom":8,"universo_dom":"domicilios_ocupados_grade_ibge_2022","na_bacia":1,"area_pct_bacia":100.0,"metodo_recorte_bacia":"ponto_representativo_grade_2022; area_pct_geometrica"},"geometry":{"type":"Polygon","coordinates":[[[-52.11835439895389,-29.2191517265919],[-52.118421358340356,-29.209832079197078],[-52.1084662184055,-29.20976923232324],[-52.10839890476886,-29.21908887411785],[-52.11835439895389,-29.2191517265919]]]}},{"type":"Feature","properties":{"id_grade":"1KME5191N8093","pop":19,"dom":6,"universo_dom":"domicilios_ocupados_grade_ibge_2022","na_bacia":1,"area_pct_bacia":100.0,"metodo_recorte_bacia":"ponto_representativo_grade_2022; area_pct_geometrica"},"geometry":{"type":"Polygon","coordinates":[[[-52.098443415374895,-29.21902569000684],[-52.09851108326118,-29.209706053841707],[-52.0885559529326,-29.209642543753066],[-52.088487930797186,-29.218962174259016],[-52.098443415374895,-29.21902569000684]]]}},{"type":"Feature","properties":{"id_grade":"1KME5184N8094","pop":11,"dom":4,"universo_dom":"domicilios_ocupados_grade_ibge_2022","na_bacia":1,"area_pct_bacia":100.0,"metodo_recorte_bacia":"ponto_representativo_grade_2022; area_pct_geometrica"},"geometry":{"type":"Polygon","coordinates":[[[-52.16819712899048,-29.21014133942956],[-52.16826231247928,-29.200822163044307],[-52.15830750319732,-29.20076097966764],[-52.15824196548104,-29.21008015060338],[-52.16819712899048,-29.21014133942956]]]}},{"type":"Feature","properties":{"id_grade":"1KME5185N8094","pop":5,"dom":2,"universo_dom":"domicilios_ocupados_grade_ibge_2022","na_bacia":1,"area_pct_bacia":100.0,"metodo_recorte_bacia":"ponto_representativo_grade_2022; area_pct_geometrica"},"geometry":{"type":"Polygon","coordinates":[[[-52.15824196548104,-29.21008015060338],[-52.15830750319732,-29.20076097966764],[-52.14835269857936,-29.20069946470951],[-52.14828680663611,-29.210018630166243],[-52.15824196548104,-29.21008015060338]]]}},{"type":"Feature","properties":{"id_grade":"1KME5186N8094","pop":19,"dom":6,"universo_dom":"domicilios_ocupados_grade_ibge_2022","na_bacia":1,"area_pct_bacia":100.0,"metodo_recorte_bacia":"ponto_representativo_grade_2022; area_pct_geometrica"},"geometry":{"type":"Polygon","coordinates":[[[-52.14828680663611,-29.210018630166243],[-52.14835269857936,-29.20069946470951],[-52.13839789865059,-29.20063761817093],[-52.13833165248087,-29.20995677811912],[-52.14828680663611,-29.210018630166243]]]}},{"type":"Feature","properties":{"id_grade":"1KME5187N8094","pop":2,"dom":1,"universo_dom":"domicilios_ocupados_grade_ibge_2022","na_bacia":1,"area_pct_bacia":100.0,"metodo_recorte_bacia":"ponto_representativo_grade_2022; area_pct_geometrica"},"geometry":{"type":"Polygon","coordinates":[[[-52.13833165248087,-29.20995677811912],[-52.13839789865059,-29.20063761817093],[-52.12844310343624,-29.20057544005246],[-52.128376503040556,-29.209894594462696],[-52.13833165248087,-29.20995677811912]]]}},{"type":"Feature","properties":{"id_grade":"1KME5188N8094","pop":15,"dom":6,"universo_dom":"domicilios_ocupados_grade_ibge_2022","na_bacia":1,"area_pct_bacia":100.0,"metodo_recorte_bacia":"ponto_representativo_grade_2022; area_pct_geometrica"},"geometry":{"type":"Polygon","coordinates":[[[-52.128376503040556,-29.209894594462696],[-52.12844310343624,-29.20057544005246],[-52.11848831296151,-29.200512930354645],[-52.118421358340356,-29.209832079197078],[-52.128376503040556,-29.209894594462696]]]}},{"type":"Feature","properties":{"id_grade":"1KME5189N8094","pop":24,"dom":7,"universo_dom":"domicilios_ocupados_grade_ibge_2022","na_bacia":1,"area_pct_bacia":100.0,"metodo_recorte_bacia":"ponto_representativo_grade_2022; area_pct_geometrica"},"geometry":{"type":"Polygon","coordinates":[[[-52.118421358340356,-29.209832079197078],[-52.11848831296151,-29.200512930354645],[-52.108533527251595,-29.200450089077606],[-52.1084662184055,-29.20976923232324],[-52.118421358340356,-29.209832079197078]]]}},{"type":"Feature","properties":{"id_grade":"1KME5191N8094","pop":31,"dom":10,"universo_dom":"domicilios_ocupados_grade_ibge_2022","na_bacia":1,"area_pct_bacia":100.0,"metodo_recorte_bacia":"ponto_representativo_grade_2022; area_pct_geometrica"},"geometry":{"type":"Polygon","coordinates":[[[-52.09851108326118,-29.209706053841707],[-52.09857874633171,-29.200386916222815],[-52.08862397022706,-29.2003234117903],[-52.0885559529326,-29.209642543753066],[-52.09851108326118,-29.209706053841707]]]}},{"type":"Feature","properties":{"id_grade":"1KME5192N8094","pop":25,"dom":9,"universo_dom":"domicilios_ocupados_grade_ibge_2022","na_bacia":1,"area_pct_bacia":100.0,"metodo_recorte_bacia":"ponto_representativo_grade_2022; area_pct_geometrica"},"geometry":{"type":"Polygon","coordinates":[[[-52.0885559529326,-29.209642543753066],[-52.08862397022706,-29.2003234117903],[-52.07866919896286,-29.200259575780624],[-52.07860082744499,-29.20957870205788],[-52.0885559529326,-29.209642543753066]]]}},{"type":"Feature","properties":{"id_grade":"1KME5184N8095","pop":3,"dom":2,"universo_dom":"domicilios_ocupados_grade_ibge_2022","na_bacia":1,"area_pct_bacia":100.0,"metodo_recorte_bacia":"ponto_representativo_grade_2022; area_pct_geometrica"},"geometry":{"type":"Polygon","coordinates":[[[-52.16826231247928,-29.200822163044307],[-52.1683274913293,-29.19150348484636],[-52.1583730362496,-29.191442306916247],[-52.15830750319732,-29.20076097966764],[-52.16826231247928,-29.200822163044307]]]}},{"type":"Feature","properties":{"id_grade":"1KME5185N8095","pop":2,"dom":1,"universo_dom":"domicilios_ocupados_grade_ibge_2022","na_bacia":1,"area_pct_bacia":100.0,"metodo_recorte_bacia":"ponto_representativo_grade_2022; area_pct_geometrica"},"geometry":{"type":"Polygon","coordinates":[[[-52.15830750319732,-29.20076097966764],[-52.1583730362496,-29.191442306916247],[-52.1484185858334,-29.191380797434142],[-52.14835269857936,-29.20069946470951],[-52.15830750319732,-29.20076097966764]]]}},{"type":"Feature","properties":{"id_grade":"1KME5186N8095","pop":4,"dom":2,"universo_dom":"domicilios_ocupados_grade_ibge_2022","na_bacia":1,"area_pct_bacia":100.0,"metodo_recorte_bacia":"ponto_representativo_grade_2022; area_pct_geometrica"},"geometry":{"type":"Polygon","coordinates":[[[-52.14835269857936,-29.20069946470951],[-52.1484185858334,-29.191380797434142],[-52.138464140105896,-29.191318956401577],[-52.13839789865059,-29.20063761817093],[-52.14835269857936,-29.20069946470951]]]}},{"type":"Feature","properties":{"id_grade":"1KME5187N8095","pop":7,"dom":2,"universo_dom":"domicilios_ocupados_grade_ibge_2022","na_bacia":1,"area_pct_bacia":100.0,"metodo_recorte_bacia":"ponto_representativo_grade_2022; area_pct_geometrica"},"geometry":{"type":"Polygon","coordinates":[[[-52.13839789865059,-29.20063761817093],[-52.138464140105896,-29.191318956401577],[-52.128509699092305,-29.191256783818],[-52.12844310343624,-29.20057544005246],[-52.13839789865059,-29.20063761817093]]]}},{"type":"Feature","properties":{"id_grade":"1KME5188N8095","pop":6,"dom":3,"universo_dom":"domicilios_ocupados_grade_ibge_2022","na_bacia":1,"area_pct_bacia":100.0,"metodo_recorte_bacia":"ponto_representativo_grade_2022; area_pct_geometrica"},"geometry":{"type":"Polygon","coordinates":[[[-52.12844310343624,-29.20057544005246],[-52.128509699092305,-29.191256783818],[-52.11855526281783,-29.1911942796846],[-52.11848831296151,-29.200512930354645],[-52.12844310343624,-29.20057544005246]]]}},{"type":"Feature","properties":{"id_grade":"1KME5189N8095","pop":20,"dom":8,"universo_dom":"domicilios_ocupados_grade_ibge_2022","na_bacia":1,"area_pct_bacia":100.0,"metodo_recorte_bacia":"ponto_representativo_grade_2022; area_pct_geometrica"},"geometry":{"type":"Polygon","coordinates":[[[-52.11848831296151,-29.200512930354645],[-52.11855526281783,-29.1911942796846],[-52.10860083130766,-29.191131444002096],[-52.108533527251595,-29.200450089077606],[-52.11848831296151,-29.200512930354645]]]}},{"type":"Feature","properties":{"id_grade":"1KME5191N8095","pop":28,"dom":11,"universo_dom":"domicilios_ocupados_grade_ibge_2022","na_bacia":1,"area_pct_bacia":100.0,"metodo_recorte_bacia":"ponto_representativo_grade_2022; area_pct_geometrica"},"geometry":{"type":"Polygon","coordinates":[[[-52.09857874633171,-29.200386916222815],[-52.09864640458701,-29.191068276770668],[-52.088691982681084,-29.19100477799143],[-52.08862397022706,-29.2003234117903],[-52.09857874633171,-29.200386916222815]]]}},{"type":"Feature","properties":{"id_grade":"1KME5192N8095","pop":15,"dom":6,"universo_dom":"domicilios_ocupados_grade_ibge_2022","na_bacia":1,"area_pct_bacia":100.0,"metodo_recorte_bacia":"ponto_representativo_grade_2022; area_pct_geometrica"},"geometry":{"type":"Polygon","coordinates":[[[-52.08862397022706,-29.2003234117903],[-52.088691982681084,-29.19100477799143],[-52.07873756561508,-29.190940947664508],[-52.07866919896286,-29.200259575780624],[-52.08862397022706,-29.2003234117903]]]}},{"type":"Feature","properties":{"id_grade":"1KME5193N8095","pop":22,"dom":8,"universo_dom":"domicilios_ocupados_grade_ibge_2022","na_bacia":1,"area_pct_bacia":100.0,"metodo_recorte_bacia":"ponto_representativo_grade_2022; area_pct_geometrica"},"geometry":{"type":"Polygon","coordinates":[[[-52.07866919896286,-29.200259575780624],[-52.07873756561508,-29.190940947664508],[-52.0687831534142,-29.19087678579069],[-52.06871443256429,-29.20019540819481],[-52.07866919896286,-29.200259575780624]]]}},{"type":"Feature","properties":{"id_grade":"1KME5183N8096","pop":16,"dom":6,"universo_dom":"domicilios_ocupados_grade_ibge_2022","na_bacia":1,"area_pct_bacia":100.0,"metodo_recorte_bacia":"ponto_representativo_grade_2022; area_pct_geometrica"},"geometry":{"type":"Polygon","coordinates":[[[-52.178281951047296,-29.191564331224125],[-52.17834677108147,-29.182246145420308],[-52.16839266554103,-29.18218530445635],[-52.1683274913293,-29.19150348484636],[-52.178281951047296,-29.191564331224125]]]}},{"type":"Feature","properties":{"id_grade":"1KME5186N8096","pop":9,"dom":4,"universo_dom":"domicilios_ocupados_grade_ibge_2022","na_bacia":1,"area_pct_bacia":100.0,"metodo_recorte_bacia":"ponto_representativo_grade_2022; area_pct_geometrica"},"geometry":{"type":"Polygon","coordinates":[[[-52.1484185858334,-29.191380797434142],[-52.14848446839874,-29.18206262796167],[-52.13853037684731,-29.18200079243147],[-52.138464140105896,-29.191318956401577],[-52.1484185858334,-29.191380797434142]]]}},{"type":"Feature","properties":{"id_grade":"1KME5187N8096","pop":6,"dom":3,"universo_dom":"domicilios_ocupados_grade_ibge_2022","na_bacia":1,"area_pct_bacia":100.0,"metodo_recorte_bacia":"ponto_representativo_grade_2022; area_pct_geometrica"},"geometry":{"type":"Polygon","coordinates":[[[-52.138464140105896,-29.191318956401577],[-52.13853037684731,-29.18200079243147],[-52.12857629000926,-29.18193862538023],[-52.128509699092305,-29.191256783818],[-52.138464140105896,-29.191318956401577]]]}},{"type":"Feature","properties":{"id_grade":"1KME5189N8096","pop":17,"dom":7,"universo_dom":"domicilios_ocupados_grade_ibge_2022","na_bacia":1,"area_pct_bacia":100.0,"metodo_recorte_bacia":"ponto_representativo_grade_2022; area_pct_geometrica"},"geometry":{"type":"Polygon","coordinates":[[[-52.11855526281783,-29.1911942796846],[-52.11862220790984,-29.18187612680877],[-52.108668130574216,-29.181813296716946],[-52.10860083130766,-29.191131444002096],[-52.11855526281783,-29.1911942796846]]]}},{"type":"Feature","properties":{"id_grade":"1KME5190N8096","pop":42,"dom":17,"universo_dom":"domicilios_ocupados_grade_ibge_2022","na_bacia":1,"area_pct_bacia":100.0,"metodo_recorte_bacia":"ponto_representativo_grade_2022; area_pct_geometrica"},"geometry":{"type":"Polygon","coordinates":[[[-52.10860083130766,-29.191131444002096],[-52.108668130574216,-29.181813296716946],[-52.09871405802759,-29.181750135106594],[-52.09864640458701,-29.191068276770668],[-52.10860083130766,-29.191131444002096]]]}},{"type":"Feature","properties":{"id_grade":"1KME5191N8096","pop":26,"dom":10,"universo_dom":"domicilios_ocupados_grade_ibge_2022","na_bacia":1,"area_pct_bacia":100.0,"metodo_recorte_bacia":"ponto_representativo_grade_2022; area_pct_geometrica"},"geometry":{"type":"Polygon","coordinates":[[[-52.09864640458701,-29.191068276770668],[-52.09871405802759,-29.181750135106594],[-52.08875999029518,-29.18168664197717],[-52.088691982681084,-29.19100477799143],[-52.09864640458701,-29.191068276770668]]]}},{"type":"Feature","properties":{"id_grade":"1KME5193N8096","pop":6,"dom":3,"universo_dom":"domicilios_ocupados_grade_ibge_2022","na_bacia":1,"area_pct_bacia":100.0,"metodo_recorte_bacia":"ponto_representativo_grade_2022; area_pct_geometrica"},"geometry":{"type":"Polygon","coordinates":[[[-52.07873756561508,-29.190940947664508],[-52.078805927402165,-29.18162281733001],[-52.06885186937378,-29.181558661165315],[-52.0687831534142,-29.19087678579069],[-52.07873756561508,-29.190940947664508]]]}},{"type":"Feature","properties":{"id_grade":"1KME5195N8096","pop":12,"dom":5,"universo_dom":"domicilios_ocupados_grade_ibge_2022","na_bacia":1,"area_pct_bacia":100.0,"metodo_recorte_bacia":"ponto_representativo_grade_2022; area_pct_geometrica"},"geometry":{"type":"Polygon","coordinates":[[[-52.05882874610364,-29.190812292370627],[-52.05889781623519,-29.181494173483987],[-52.04894376801161,-29.181429354286177],[-52.04887434370864,-29.19074746740483],[-52.05882874610364,-29.190812292370627]]]}},{"type":"Feature","properties":{"id_grade":"1KME5196N8096","pop":21,"dom":8,"universo_dom":"domicilios_ocupados_grade_ibge_2022","na_bacia":1,"area_pct_bacia":100.0,"metodo_recorte_bacia":"ponto_representativo_grade_2022; area_pct_geometrica"},"geometry":{"type":"Polygon","coordinates":[[[-52.04887434370864,-29.19074746740483],[-52.04894376801161,-29.181429354286177],[-52.03898972472823,-29.181364203572905],[-52.03891994625436,-29.190682310893912],[-52.04887434370864,-29.19074746740483]]]}},{"type":"Feature","properties":{"id_grade":"1KME5184N8097","pop":7,"dom":3,"universo_dom":"domicilios_ocupados_grade_ibge_2022","na_bacia":1,"area_pct_bacia":100.0,"metodo_recorte_bacia":"ponto_representativo_grade_2022; area_pct_geometrica"},"geometry":{"type":"Polygon","coordinates":[[[-52.16839266554103,-29.18218530445635],[-52.16845783511495,-29.172867621496312],[-52.15850408836417,-29.17280645445063],[-52.15843856463838,-29.182124131970212],[-52.16839266554103,-29.18218530445635]]]}},{"type":"Feature","properties":{"id_grade":"1KME5186N8097","pop":18,"dom":5,"universo_dom":"domicilios_ocupados_grade_ibge_2022","na_bacia":1,"area_pct_bacia":100.0,"metodo_recorte_bacia":"ponto_representativo_grade_2022; area_pct_geometrica"},"geometry":{"type":"Polygon","coordinates":[[[-52.14848446839874,-29.18206262796167],[-52.14855034627588,-29.172744955912396],[-52.138596608875304,-29.172683125882013],[-52.13853037684731,-29.18200079243147],[-52.14848446839874,-29.18206262796167]]]}},{"type":"Feature","properties":{"id_grade":"1KME5187N8097","pop":19,"dom":7,"universo_dom":"domicilios_ocupados_grade_ibge_2022","na_bacia":1,"area_pct_bacia":100.0,"metodo_recorte_bacia":"ponto_representativo_grade_2022; area_pct_geometrica"},"geometry":{"type":"Polygon","coordinates":[[[-52.13853037684731,-29.18200079243147],[-52.138596608875304,-29.172683125882013],[-52.12864287618762,-29.172620964359982],[-52.12857629000926,-29.18193862538023],[-52.13853037684731,-29.18200079243147]]]}},{"type":"Feature","properties":{"id_grade":"1KME5188N8097","pop":17,"dom":8,"universo_dom":"domicilios_ocupados_grade_ibge_2022","na_bacia":1,"area_pct_bacia":100.0,"metodo_recorte_bacia":"ponto_representativo_grade_2022; area_pct_geometrica"},"geometry":{"type":"Polygon","coordinates":[[[-52.12857629000926,-29.18193862538023],[-52.12864287618762,-29.172620964359982],[-52.11868914823804,-29.172558471347273],[-52.11862220790984,-29.18187612680877],[-52.12857629000926,-29.18193862538023]]]}},{"type":"Feature","properties":{"id_grade":"1KME5193N8097","pop":3,"dom":2,"universo_dom":"domicilios_ocupados_grade_ibge_2022","na_bacia":1,"area_pct_bacia":100.0,"metodo_recorte_bacia":"ponto_representativo_grade_2022; area_pct_geometrica"},"geometry":{"type":"Polygon","coordinates":[[[-52.078805927402165,-29.18162281733001],[-52.07887428432467,-29.17230518439833],[-52.068920580443546,-29.172241033939862],[-52.06885186937378,-29.181558661165315],[-52.078805927402165,-29.18162281733001]]]}},{"type":"Feature","properties":{"id_grade":"1KME5184N8098","pop":7,"dom":3,"universo_dom":"domicilios_ocupados_grade_ibge_2022","na_bacia":1,"area_pct_bacia":100.0,"metodo_recorte_bacia":"ponto_representativo_grade_2022; area_pct_geometrica"},"geometry":{"type":"Polygon","coordinates":[[[-52.16845783511495,-29.172867621496312],[-52.16852300005157,-29.163550435586252],[-52.158569607427445,-29.1634892739787],[-52.15850408836417,-29.17280645445063],[-52.16845783511495,-29.172867621496312]]]}},{"type":"Feature","properties":{"id_grade":"1KME5186N8098","pop":6,"dom":2,"universo_dom":"domicilios_ocupados_grade_ibge_2022","na_bacia":1,"area_pct_bacia":100.0,"metodo_recorte_bacia":"ponto_representativo_grade_2022; area_pct_geometrica"},"geometry":{"type":"Polygon","coordinates":[[[-52.14855034627588,-29.172744955912396],[-52.14861621946532,-29.16342778090796],[-52.1386628361904,-29.163365956374456],[-52.138596608875304,-29.172683125882013],[-52.14855034627588,-29.172744955912396]]]}},{"type":"Feature","properties":{"id_grade":"1KME5187N8098","pop":10,"dom":3,"universo_dom":"domicilios_ocupados_grade_ibge_2022","na_bacia":1,"area_pct_bacia":100.0,"metodo_recorte_bacia":"ponto_representativo_grade_2022; area_pct_geometrica"},"geometry":{"type":"Polygon","coordinates":[[[-52.138596608875304,-29.172683125882013],[-52.1386628361904,-29.163365956374456],[-52.128709457627885,-29.163303800378912],[-52.12864287618762,-29.172620964359982],[-52.138596608875304,-29.172683125882013]]]}},{"type":"Feature","properties":{"id_grade":"1KME5190N8098","pop":4,"dom":3,"universo_dom":"domicilios_ocupados_grade_ibge_2022","na_bacia":1,"area_pct_bacia":100.0,"metodo_recorte_bacia":"ponto_representativo_grade_2022; area_pct_geometrica"},"geometry":{"type":"Polygon","coordinates":[[[-52.108735425051755,-29.17249564684414],[-52.108802714740804,-29.163178494004022],[-52.09884935046665,-29.163115343625797],[-52.098781706653966,-29.17243249085119],[-52.108735425051755,-29.17249564684414]]]}},{"type":"Feature","properties":{"id_grade":"1KME5194N8098","pop":17,"dom":6,"universo_dom":"domicilios_ocupados_grade_ibge_2022","na_bacia":1,"area_pct_bacia":100.0,"metodo_recorte_bacia":"ponto_representativo_grade_2022; area_pct_geometrica"},"geometry":{"type":"Polygon","coordinates":[[[-52.068920580443546,-29.172241033939862],[-52.06898928662403,-29.162923903735393],[-52.05903594175376,-29.1628594275219],[-52.05896688145172,-29.17217655199386],[-52.068920580443546,-29.172241033939862]]]}},{"type":"Feature","properties":{"id_grade":"1KME5195N8098","pop":24,"dom":6,"universo_dom":"domicilios_ocupados_grade_ibge_2022","na_bacia":1,"area_pct_bacia":100.0,"metodo_recorte_bacia":"ponto_representativo_grade_2022; area_pct_geometrica"},"geometry":{"type":"Polygon","coordinates":[[[-52.05896688145172,-29.17217655199386],[-52.05903594175376,-29.1628594275219],[-52.049082601797444,-29.16279461985127],[-52.04901318737437,-29.17211173856117],[-52.05896688145172,-29.17217655199386]]]}},{"type":"Feature","properties":{"id_grade":"1KME5196N8098","pop":7,"dom":4,"universo_dom":"domicilios_ocupados_grade_ibge_2022","na_bacia":1,"area_pct_bacia":100.0,"metodo_recorte_bacia":"ponto_representativo_grade_2022; area_pct_geometrica"},"geometry":{"type":"Polygon","coordinates":[[[-52.04901318737437,-29.17211173856117],[-52.049082601797444,-29.16279461985127],[-52.03912926678029,-29.16272948072392],[-52.0390594982367,-29.1720465936426],[-52.04901318737437,-29.17211173856117]]]}},{"type":"Feature","properties":{"id_grade":"1KME5197N8098","pop":5,"dom":2,"universo_dom":"domicilios_ocupados_grade_ibge_2022","na_bacia":1,"area_pct_bacia":100.0,"metodo_recorte_bacia":"ponto_representativo_grade_2022; area_pct_geometrica"},"geometry":{"type":"Polygon","coordinates":[[[-52.0390594982367,-29.1720465936426],[-52.03912926678029,-29.16272948072392],[-52.02917593672749,-29.16266401014058],[-52.029105814063925,-29.171981117238012],[-52.0390594982367,-29.1720465936426]]]}},{"type":"Feature","properties":{"id_grade":"1KME5198N8098","pop":9,"dom":2,"universo_dom":"domicilios_ocupados_grade_ibge_2022","na_bacia":1,"area_pct_bacia":100.0,"metodo_recorte_bacia":"ponto_representativo_grade_2022; area_pct_geometrica"},"geometry":{"type":"Polygon","coordinates":[[[-52.029105814063925,-29.171981117238012],[-52.02917593672749,-29.16266401014058],[-52.019222611664226,-29.162598208101656],[-52.01915213488121,-29.171915309349178],[-52.029105814063925,-29.171981117238012]]]}},{"type":"Feature","properties":{"id_grade":"1KME5182N8099","pop":7,"dom":2,"universo_dom":"domicilios_ocupados_grade_ibge_2022","na_bacia":1,"area_pct_bacia":100.0,"metodo_recorte_bacia":"ponto_representativo_grade_2022; area_pct_geometrica"},"geometry":{"type":"Polygon","coordinates":[[[-52.188429799185066,-29.163671764409294],[-52.18849425128047,-29.154355064389392],[-52.17854120351036,-29.154294571086346],[-52.178476397312515,-29.163611265729966],[-52.188429799185066,-29.163671764409294]]]}},{"type":"Feature","properties":{"id_grade":"1KME5183N8099","pop":5,"dom":2,"universo_dom":"domicilios_ocupados_grade_ibge_2022","na_bacia":1,"area_pct_bacia":100.0,"metodo_recorte_bacia":"ponto_representativo_grade_2022; area_pct_geometrica"},"geometry":{"type":"Polygon","coordinates":[[[-52.178476397312515,-29.163611265729966],[-52.17854120351036,-29.154294571086346],[-52.168588160351376,-29.154233746348357],[-52.16852300005157,-29.163550435586252],[-52.178476397312515,-29.163611265729966]]]}},{"type":"Feature","properties":{"id_grade":"1KME5184N8099","pop":2,"dom":2,"universo_dom":"domicilios_ocupados_grade_ibge_2022","na_bacia":1,"area_pct_bacia":100.0,"metodo_recorte_bacia":"ponto_representativo_grade_2022; area_pct_geometrica"},"geometry":{"type":"Polygon","coordinates":[[[-52.16852300005157,-29.163550435586252],[-52.168588160351376,-29.154233746348357],[-52.15863512182872,-29.154172590175758],[-52.158569607427445,-29.1634892739787],[-52.16852300005157,-29.163550435586252]]]}},{"type":"Feature","properties":{"id_grade":"1KME5185N8099","pop":5,"dom":2,"universo_dom":"domicilios_ocupados_grade_ibge_2022","na_bacia":1,"area_pct_bacia":100.0,"metodo_recorte_bacia":"ponto_representativo_grade_2022; area_pct_geometrica"},"geometry":{"type":"Polygon","coordinates":[[[-52.158569607427445,-29.1634892739787],[-52.15863512182872,-29.154172590175758],[-52.14868208796756,-29.15411110256968],[-52.14861621946532,-29.16342778090796],[-52.158569607427445,-29.1634892739787]]]}},{"type":"Feature","properties":{"id_grade":"1KME5186N8099","pop":6,"dom":2,"universo_dom":"domicilios_ocupados_grade_ibge_2022","na_bacia":1,"area_pct_bacia":100.0,"metodo_recorte_bacia":"ponto_representativo_grade_2022; area_pct_geometrica"},"geometry":{"type":"Polygon","coordinates":[[[-52.14861621946532,-29.16342778090796],[-52.14868208796756,-29.15411110256968],[-52.1387290587931,-29.154049283530334],[-52.1386628361904,-29.163365956374456],[-52.14861621946532,-29.16342778090796]]]}},{"type":"Feature","properties":{"id_grade":"1KME5187N8099","pop":5,"dom":1,"universo_dom":"domicilios_ocupados_grade_ibge_2022","na_bacia":1,"area_pct_bacia":100.0,"metodo_recorte_bacia":"ponto_representativo_grade_2022; area_pct_geometrica"},"geometry":{"type":"Polygon","coordinates":[[[-52.1386628361904,-29.163365956374456],[-52.1387290587931,-29.154049283530334],[-52.128776034330535,-29.153987133058354],[-52.128709457627885,-29.163303800378912],[-52.1386628361904,-29.163365956374456]]]}},{"type":"Feature","properties":{"id_grade":"1KME5188N8099","pop":2,"dom":1,"universo_dom":"domicilios_ocupados_grade_ibge_2022","na_bacia":1,"area_pct_bacia":100.0,"metodo_recorte_bacia":"ponto_representativo_grade_2022; area_pct_geometrica"},"geometry":{"type":"Polygon","coordinates":[[[-52.128709457627885,-29.163303800378912],[-52.128776034330535,-29.153987133058354],[-52.11882301460506,-29.15392465115391],[-52.11875608380295,-29.16324131292194],[-52.128709457627885,-29.163303800378912]]]}},{"type":"Feature","properties":{"id_grade":"1KME5189N8099","pop":9,"dom":5,"universo_dom":"domicilios_ocupados_grade_ibge_2022","na_bacia":1,"area_pct_bacia":100.0,"metodo_recorte_bacia":"ponto_representativo_grade_2022; area_pct_geometrica"},"geometry":{"type":"Polygon","coordinates":[[[-52.11875608380295,-29.16324131292194],[-52.11882301460506,-29.15392465115391],[-52.10886999964187,-29.153861837818525],[-52.108802714740804,-29.163178494004022],[-52.11875608380295,-29.16324131292194]]]}},{"type":"Feature","properties":{"id_grade":"1KME5190N8099","pop":9,"dom":4,"universo_dom":"domicilios_ocupados_grade_ibge_2022","na_bacia":1,"area_pct_bacia":100.0,"metodo_recorte_bacia":"ponto_representativo_grade_2022; area_pct_geometrica"},"geometry":{"type":"Polygon","coordinates":[[[-52.108802714740804,-29.163178494004022],[-52.10886999964187,-29.153861837818525],[-52.09891698946615,-29.153798693052035],[-52.09884935046665,-29.163115343625797],[-52.108802714740804,-29.163178494004022]]]}},{"type":"Feature","properties":{"id_grade":"1KME5191N8099","pop":5,"dom":1,"universo_dom":"domicilios_ocupados_grade_ibge_2022","na_bacia":1,"area_pct_bacia":100.0,"metodo_recorte_bacia":"ponto_representativo_grade_2022; area_pct_geometrica"},"geometry":{"type":"Polygon","coordinates":[[[-52.09884935046665,-29.163115343625797],[-52.09891698946615,-29.153798693052035],[-52.088963984103096,-29.153735216855182],[-52.088895991005664,-29.163051861787874],[-52.09884935046665,-29.163115343625797]]]}},{"type":"Feature","properties":{"id_grade":"1KME5182N8100","pop":1,"dom":1,"universo_dom":"domicilios_ocupados_grade_ibge_2022","na_bacia":1,"area_pct_bacia":100.0,"metodo_recorte_bacia":"ponto_representativo_grade_2022; area_pct_geometrica"},"geometry":{"type":"Polygon","coordinates":[[[-52.18849425128047,-29.154355064389392],[-52.18855869878994,-29.145038860669047],[-52.17860600509709,-29.144978372739427],[-52.17854120351036,-29.154294571086346],[-52.18849425128047,-29.154355064389392]]]}},{"type":"Feature","properties":{"id_grade":"1KME5183N8100","pop":8,"dom":3,"universo_dom":"domicilios_ocupados_grade_ibge_2022","na_bacia":1,"area_pct_bacia":100.0,"metodo_recorte_bacia":"ponto_representativo_grade_2022; area_pct_geometrica"},"geometry":{"type":"Polygon","coordinates":[[[-52.17854120351036,-29.154294571086346],[-52.17860600509709,-29.144978372739427],[-52.16865331601487,-29.144917553404227],[-52.168588160351376,-29.154233746348357],[-52.17854120351036,-29.154294571086346]]]}},{"type":"Feature","properties":{"id_grade":"1KME5184N8100","pop":4,"dom":1,"universo_dom":"domicilios_ocupados_grade_ibge_2022","na_bacia":1,"area_pct_bacia":100.0,"metodo_recorte_bacia":"ponto_representativo_grade_2022; area_pct_geometrica"},"geometry":{"type":"Polygon","coordinates":[[[-52.168588160351376,-29.154233746348357],[-52.16865331601487,-29.144917553404227],[-52.15870063156847,-29.14485640266384],[-52.15863512182872,-29.154172590175758],[-52.168588160351376,-29.154233746348357]]]}},{"type":"Feature","properties":{"id_grade":"1KME5186N8100","pop":2,"dom":1,"universo_dom":"domicilios_ocupados_grade_ibge_2022","na_bacia":1,"area_pct_bacia":100.0,"metodo_recorte_bacia":"ponto_representativo_grade_2022; area_pct_geometrica"},"geometry":{"type":"Polygon","coordinates":[[[-52.14868208796756,-29.15411110256968],[-52.148747951783086,-29.14479492051944],[-52.1387952766839,-29.1447331069711],[-52.1387290587931,-29.154049283530334],[-52.14868208796756,-29.15411110256968]]]}},{"type":"Feature","properties":{"id_grade":"1KME5187N8100","pop":14,"dom":4,"universo_dom":"domicilios_ocupados_grade_ibge_2022","na_bacia":1,"area_pct_bacia":100.0,"metodo_recorte_bacia":"ponto_representativo_grade_2022; area_pct_geometrica"},"geometry":{"type":"Polygon","coordinates":[[[-52.1387290587931,-29.154049283530334],[-52.1387952766839,-29.1447331069711],[-52.12884260629611,-29.144670962019422],[-52.128776034330535,-29.153987133058354],[-52.1387290587931,-29.154049283530334]]]}},{"type":"Feature","properties":{"id_grade":"1KME5188N8100","pop":18,"dom":7,"universo_dom":"domicilios_ocupados_grade_ibge_2022","na_bacia":1,"area_pct_bacia":100.0,"metodo_recorte_bacia":"ponto_representativo_grade_2022; area_pct_geometrica"},"geometry":{"type":"Polygon","coordinates":[[[-52.128776034330535,-29.153987133058354],[-52.12884260629611,-29.144670962019422],[-52.118889940644905,-29.14460848566527],[-52.11882301460506,-29.15392465115391],[-52.128776034330535,-29.153987133058354]]]}},{"type":"Feature","properties":{"id_grade":"1KME5182N8101","pop":3,"dom":2,"universo_dom":"domicilios_ocupados_grade_ibge_2022","na_bacia":1,"area_pct_bacia":100.0,"metodo_recorte_bacia":"ponto_representativo_grade_2022; area_pct_geometrica"},"geometry":{"type":"Polygon","coordinates":[[[-52.18855869878994,-29.145038860669047],[-52.188623141713975,-29.13572315286967],[-52.178670802073185,-29.13566267031059],[-52.17860600509709,-29.144978372739427],[-52.18855869878994,-29.145038860669047]]]}},{"type":"Feature","properties":{"id_grade":"1KME5184N8101","pop":4,"dom":2,"universo_dom":"domicilios_ocupados_grade_ibge_2022","na_bacia":1,"area_pct_bacia":100.0,"metodo_recorte_bacia":"ponto_representativo_grade_2022; area_pct_geometrica"},"geometry":{"type":"Polygon","coordinates":[[[-52.16865331601487,-29.144917553404227],[-52.168718467042545,-29.135601856375434],[-52.15876613664722,-29.13554071106469],[-52.15870063156847,-29.14485640266384],[-52.16865331601487,-29.144917553404227]]]}},{"type":"Feature","properties":{"id_grade":"1KME5185N8101","pop":3,"dom":2,"universo_dom":"domicilios_ocupados_grade_ibge_2022","na_bacia":1,"area_pct_bacia":100.0,"metodo_recorte_bacia":"ponto_representativo_grade_2022; area_pct_geometrica"},"geometry":{"type":"Polygon","coordinates":[[[-52.15870063156847,-29.14485640266384],[-52.15876613664722,-29.13554071106469],[-52.14881381091242,-29.13547923437896],[-52.148747951783086,-29.14479492051944],[-52.15870063156847,-29.14485640266384]]]}},{"type":"Feature","properties":{"id_grade":"1KME5187N8101","pop":3,"dom":1,"universo_dom":"domicilios_ocupados_grade_ibge_2022","na_bacia":1,"area_pct_bacia":100.0,"metodo_recorte_bacia":"ponto_representativo_grade_2022; area_pct_geometrica"},"geometry":{"type":"Polygon","coordinates":[[[-52.1387952766839,-29.1447331069711],[-52.13886148986332,-29.13541742631886],[-52.1289091735251,-29.135355286884963],[-52.12884260629611,-29.144670962019422],[-52.1387952766839,-29.1447331069711]]]}},{"type":"Feature","properties":{"id_grade":"1KME5182N8102","pop":13,"dom":5,"universo_dom":"domicilios_ocupados_grade_ibge_2022","na_bacia":1,"area_pct_bacia":100.0,"metodo_recorte_bacia":"ponto_representativo_grade_2022; area_pct_geometrica"},"geometry":{"type":"Polygon","coordinates":[[[-52.188623141713975,-29.13572315286967],[-52.18868758005305,-29.12640794061383],[-52.178735594439146,-29.12634746342238],[-52.178670802073185,-29.13566267031059],[-52.188623141713975,-29.13572315286967]]]}},{"type":"Feature","properties":{"id_grade":"1KME5183N8102","pop":1,"dom":1,"universo_dom":"domicilios_ocupados_grade_ibge_2022","na_bacia":1,"area_pct_bacia":100.0,"metodo_recorte_bacia":"ponto_representativo_grade_2022; area_pct_geometrica"},"geometry":{"type":"Polygon","coordinates":[[[-52.178670802073185,-29.13566267031059],[-52.178735594439146,-29.12634746342238],[-52.16878361343489,-29.12628665488427],[-52.168718467042545,-29.135601856375434],[-52.178670802073185,-29.13566267031059]]]}},{"type":"Feature","properties":{"id_grade":"1KME5184N8102","pop":6,"dom":1,"universo_dom":"domicilios_ocupados_grade_ibge_2022","na_bacia":1,"area_pct_bacia":100.0,"metodo_recorte_bacia":"ponto_representativo_grade_2022; area_pct_geometrica"},"geometry":{"type":"Polygon","coordinates":[[[-52.168718467042545,-29.135601856375434],[-52.16878361343489,-29.12628665488427],[-52.15883163706546,-29.126225515],[-52.15876613664722,-29.13554071106469],[-52.168718467042545,-29.135601856375434]]]}},{"type":"Feature","properties":{"id_grade":"1KME5186N8102","pop":2,"dom":1,"universo_dom":"domicilios_ocupados_grade_ibge_2022","na_bacia":1,"area_pct_bacia":100.0,"metodo_recorte_bacia":"ponto_representativo_grade_2022; area_pct_geometrica"},"geometry":{"type":"Polygon","coordinates":[[[-52.14881381091242,-29.13547923437896],[-52.14887966535605,-29.1261640437704],[-52.13892769833184,-29.126102241195603],[-52.13886148986332,-29.13541742631886],[-52.14881381091242,-29.13547923437896]]]}},{"type":"Feature","properties":{"id_grade":"1KME5181N8103","pop":3,"dom":1,"universo_dom":"domicilios_ocupados_grade_ibge_2022","na_bacia":1,"area_pct_bacia":100.0,"metodo_recorte_bacia":"ponto_representativo_grade_2022; area_pct_geometrica"},"geometry":{"type":"Polygon","coordinates":[[[-52.19863957025142,-29.126468086457677],[-52.198703650003864,-29.117153364031612],[-52.18875201380767,-29.117093223523316],[-52.18868758005305,-29.12640794061383],[-52.19863957025142,-29.126468086457677]]]}},{"type":"Feature","properties":{"id_grade":"1KME5182N8103","pop":9,"dom":3,"universo_dom":"domicilios_ocupados_grade_ibge_2022","na_bacia":1,"area_pct_bacia":100.0,"metodo_recorte_bacia":"ponto_representativo_grade_2022; area_pct_geometrica"},"geometry":{"type":"Polygon","coordinates":[[[-52.18868758005305,-29.12640794061383],[-52.18875201380767,-29.117093223523316],[-52.17880038219546,-29.117032751697156],[-52.178735594439146,-29.12634746342238],[-52.18868758005305,-29.12640794061383]]]}},{"type":"Feature","properties":{"id_grade":"1KME5183N8103","pop":11,"dom":4,"universo_dom":"domicilios_ocupados_grade_ibge_2022","na_bacia":1,"area_pct_bacia":100.0,"metodo_recorte_bacia":"ponto_representativo_grade_2022; area_pct_geometrica"},"geometry":{"type":"Polygon","coordinates":[[[-52.178735594439146,-29.12634746342238],[-52.17880038219546,-29.117032751697156],[-52.1688487551924,-29.116971948553235],[-52.16878361343489,-29.12628665488427],[-52.178735594439146,-29.12634746342238]]]}},{"type":"Feature","properties":{"id_grade":"1KME5184N8103","pop":16,"dom":7,"universo_dom":"domicilios_ocupados_grade_ibge_2022","na_bacia":1,"area_pct_bacia":100.0,"metodo_recorte_bacia":"ponto_representativo_grade_2022; area_pct_geometrica"},"geometry":{"type":"Polygon","coordinates":[[[-52.16878361343489,-29.12628665488427],[-52.1688487551924,-29.116971948553235],[-52.15889713282368,-29.11691081409284],[-52.15883163706546,-29.126225515],[-52.16878361343489,-29.12628665488427]]]}},{"type":"Feature","properties":{"id_grade":"1KME5185N8103","pop":5,"dom":1,"universo_dom":"domicilios_ocupados_grade_ibge_2022","na_bacia":1,"area_pct_bacia":100.0,"metodo_recorte_bacia":"ponto_representativo_grade_2022; area_pct_geometrica"},"geometry":{"type":"Polygon","coordinates":[[[-52.15883163706546,-29.126225515],[-52.15889713282368,-29.11691081409284],[-52.14894551511448,-29.116849348316013],[-52.14887966535605,-29.1261640437704],[-52.15883163706546,-29.126225515]]]}},{"type":"Feature","properties":{"id_grade":"1KME5186N8103","pop":7,"dom":3,"universo_dom":"domicilios_ocupados_grade_ibge_2022","na_bacia":1,"area_pct_bacia":100.0,"metodo_recorte_bacia":"ponto_representativo_grade_2022; area_pct_geometrica"},"geometry":{"type":"Polygon","coordinates":[[[-52.14887966535605,-29.1261640437704],[-52.14894551511448,-29.116849348316013],[-52.13899390208997,-29.11678755122376],[-52.13892769833184,-29.126102241195603],[-52.14887966535605,-29.1261640437704]]]}},{"type":"Feature","properties":{"id_grade":"1KME5182N8104","pop":6,"dom":3,"universo_dom":"domicilios_ocupados_grade_ibge_2022","na_bacia":1,"area_pct_bacia":100.0,"metodo_recorte_bacia":"ponto_representativo_grade_2022; area_pct_geometrica"},"geometry":{"type":"Polygon","coordinates":[[[-52.18875201380767,-29.117093223523316],[-52.18881644297832,-29.107779001221072],[-52.17886516534262,-29.107718534756916],[-52.17880038219546,-29.117032751697156],[-52.18875201380767,-29.117093223523316]]]}},{"type":"Feature","properties":{"id_grade":"1KME5183N8104","pop":14,"dom":4,"universo_dom":"domicilios_ocupados_grade_ibge_2022","na_bacia":1,"area_pct_bacia":100.0,"metodo_recorte_bacia":"ponto_representativo_grade_2022; area_pct_geometrica"},"geometry":{"type":"Polygon","coordinates":[[[-52.17880038219546,-29.117032751697156],[-52.17886516534262,-29.107718534756916],[-52.16891389231558,-29.107657737004473],[-52.1688487551924,-29.116971948553235],[-52.17880038219546,-29.117032751697156]]]}},{"type":"Feature","properties":{"id_grade":"1KME5184N8104","pop":18,"dom":7,"universo_dom":"domicilios_ocupados_grade_ibge_2022","na_bacia":1,"area_pct_bacia":100.0,"metodo_recorte_bacia":"ponto_representativo_grade_2022; area_pct_geometrica"},"geometry":{"type":"Polygon","coordinates":[[[-52.1688487551924,-29.116971948553235],[-52.16891389231558,-29.107657737004473],[-52.15896262392238,-29.10759660796475],[-52.15889713282368,-29.11691081409284],[-52.1688487551924,-29.116971948553235]]]}},{"type":"Feature","properties":{"id_grade":"1KME5185N8104","pop":5,"dom":2,"universo_dom":"domicilios_ocupados_grade_ibge_2022","na_bacia":1,"area_pct_bacia":100.0,"metodo_recorte_bacia":"ponto_representativo_grade_2022; area_pct_geometrica"},"geometry":{"type":"Polygon","coordinates":[[[-52.15889713282368,-29.11691081409284],[-52.15896262392238,-29.10759660796475],[-52.149011360188204,-29.10753514763818],[-52.14894551511448,-29.116849348316013],[-52.15889713282368,-29.11691081409284]]]}},{"type":"Feature","properties":{"id_grade":"1KME5186N8104","pop":9,"dom":3,"universo_dom":"domicilios_ocupados_grade_ibge_2022","na_bacia":1,"area_pct_bacia":100.0,"metodo_recorte_bacia":"ponto_representativo_grade_2022; area_pct_geometrica"},"geometry":{"type":"Polygon","coordinates":[[[-52.14894551511448,-29.116849348316013],[-52.149011360188204,-29.10753514763818],[-52.139060101138234,-29.107473356025316],[-52.13899390208997,-29.11678755122376],[-52.14894551511448,-29.116849348316013]]]}},{"type":"Feature","properties":{"id_grade":"1KME5184N8105","pop":2,"dom":1,"universo_dom":"domicilios_ocupados_grade_ibge_2022","na_bacia":1,"area_pct_bacia":100.0,"metodo_recorte_bacia":"ponto_representativo_grade_2022; area_pct_geometrica"},"geometry":{"type":"Polygon","coordinates":[[[-52.16891389231558,-29.107657737004473],[-52.16897902480491,-29.098344019860765],[-52.15902811036206,-29.09828289623904],[-52.15896262392238,-29.10759660796475],[-52.16891389231558,-29.107657737004473]]]}},{"type":"Feature","properties":{"id_grade":"1KME5185N8105","pop":15,"dom":7,"universo_dom":"domicilios_ocupados_grade_ibge_2022","na_bacia":1,"area_pct_bacia":100.0,"metodo_recorte_bacia":"ponto_representativo_grade_2022; area_pct_geometrica"},"geometry":{"type":"Polygon","coordinates":[[[-52.15896262392238,-29.10759660796475],[-52.15902811036206,-29.09828289623904],[-52.14907720057773,-29.098221441359897],[-52.149011360188204,-29.10753514763818],[-52.15896262392238,-29.10759660796475]]]}},{"type":"Feature","properties":{"id_grade":"1KME5184N8106","pop":3,"dom":1,"universo_dom":"domicilios_ocupados_grade_ibge_2022","na_bacia":1,"area_pct_bacia":100.0,"metodo_recorte_bacia":"ponto_representativo_grade_2022; area_pct_geometrica"},"geometry":{"type":"Polygon","coordinates":[[[-52.16897902480491,-29.098344019860765],[-52.169044152660895,-29.08903079674507],[-52.15909359214321,-29.088969678538376],[-52.15902811036206,-29.09828289623904],[-52.16897902480491,-29.098344019860765]]]}},{"type":"Feature","properties":{"id_grade":"1KME5185N8106","pop":4,"dom":1,"universo_dom":"domicilios_ocupados_grade_ibge_2022","na_bacia":1,"area_pct_bacia":100.0,"metodo_recorte_bacia":"ponto_representativo_grade_2022; area_pct_geometrica"},"geometry":{"type":"Polygon","coordinates":[[[-52.15902811036206,-29.09828289623904],[-52.15909359214321,-29.088969678538376],[-52.149143036283554,-29.088908229103495],[-52.14907720057773,-29.098221441359897],[-52.15902811036206,-29.09828289623904]]]}},{"type":"Feature","properties":{"id_grade":"200ME51854N80962","pop":2,"dom":1,"universo_dom":"domicilios_ocupados_grade_ibge_2022","na_bacia":1,"area_pct_bacia":100.0,"metodo_recorte_bacia":"ponto_representativo_grade_2022; area_pct_geometrica"},"geometry":{"type":"Polygon","coordinates":[[[-52.15439125555196,-29.19141774273455],[-52.15440439015043,-29.189554068665284],[-52.152413514172274,-29.189541766838968],[-52.15240036518469,-29.191405440908348],[-52.15439125555196,-29.19141774273455]]]}},{"type":"Feature","properties":{"id_grade":"200ME51856N80964","pop":3,"dom":1,"universo_dom":"domicilios_ocupados_grade_ibge_2022","na_bacia":1,"area_pct_bacia":100.0,"metodo_recorte_bacia":"ponto_representativo_grade_2022; area_pct_geometrica"},"geometry":{"type":"Polygon","coordinates":[[[-52.152413514172274,-29.189541766838968],[-52.1524266622606,-29.187678112554792],[-52.15043580067163,-29.187665798138017],[-52.15042263819413,-29.18952945152289],[-52.152413514172274,-29.189541766838968]]]}},{"type":"Feature","properties":{"id_grade":"200ME51854N80972","pop":2,"dom":1,"universo_dom":"domicilios_ocupados_grade_ibge_2022","na_bacia":1,"area_pct_bacia":100.0,"metodo_recorte_bacia":"ponto_representativo_grade_2022; area_pct_geometrica"},"geometry":{"type":"Polygon","coordinates":[[[-52.15445692584643,-29.182099570238915],[-52.15447005864627,-29.18023599509504],[-52.152479253714546,-29.18022369506743],[-52.15246610652554,-29.182087269311964],[-52.15445692584643,-29.182099570238915]]]}},{"type":"Feature","properties":{"id_grade":"200ME51856N80972","pop":15,"dom":8,"universo_dom":"domicilios_ocupados_grade_ibge_2022","na_bacia":1,"area_pct_bacia":100.0,"metodo_recorte_bacia":"ponto_representativo_grade_2022; area_pct_geometrica"},"geometry":{"type":"Polygon","coordinates":[[[-52.15246610652554,-29.182087269311964],[-52.152479253714546,-29.18022369506743],[-52.15048844878282,-29.18021138065068],[-52.1504752872047,-29.182074954895203],[-52.15246610652554,-29.182087269311964]]]}},{"type":"Feature","properties":{"id_grade":"200ME51858N80972","pop":15,"dom":7,"universo_dom":"domicilios_ocupados_grade_ibge_2022","na_bacia":1,"area_pct_bacia":100.0,"metodo_recorte_bacia":"ponto_representativo_grade_2022; area_pct_geometrica"},"geometry":{"type":"Polygon","coordinates":[[[-52.1504752872047,-29.182074954895203],[-52.15048844878282,-29.18021138065068],[-52.14849764475047,-29.180199053643445],[-52.14848446878318,-29.18206262788795],[-52.1504752872047,-29.182074954895203]]]}},{"type":"Feature","properties":{"id_grade":"200ME51854N80974","pop":8,"dom":4,"universo_dom":"domicilios_ocupados_grade_ibge_2022","na_bacia":1,"area_pct_bacia":100.0,"metodo_recorte_bacia":"ponto_representativo_grade_2022; area_pct_geometrica"},"geometry":{"type":"Polygon","coordinates":[[[-52.15447005864627,-29.18023599509504],[-52.15448319234542,-29.17837244063557],[-52.15249240180287,-29.178360139708637],[-52.152479253714546,-29.18022369506743],[-52.15447005864627,-29.18023599509504]]]}},{"type":"Feature","properties":{"id_grade":"200ME51858N80974","pop":2,"dom":1,"universo_dom":"domicilios_ocupados_grade_ibge_2022","na_bacia":1,"area_pct_bacia":100.0,"metodo_recorte_bacia":"ponto_representativo_grade_2022; area_pct_geometrica"},"geometry":{"type":"Polygon","coordinates":[[[-52.15048844878282,-29.18021138065068],[-52.150501610361005,-29.178347826191146],[-52.148510819818455,-29.178335499183902],[-52.14849764475047,-29.180199053643445],[-52.15048844878282,-29.18021138065068]]]}},{"type":"Feature","properties":{"id_grade":"200ME51850N80976","pop":2,"dom":1,"universo_dom":"domicilios_ocupados_grade_ibge_2022","na_bacia":1,"area_pct_bacia":100.0,"metodo_recorte_bacia":"ponto_representativo_grade_2022; area_pct_geometrica"},"geometry":{"type":"Polygon","coordinates":[[[-52.15846477432984,-29.178397001120732],[-52.15847787925071,-29.176533465546946],[-52.15648710219796,-29.17652119249894],[-52.1564739837873,-29.17838472717331],[-52.15846477432984,-29.178397001120732]]]}},{"type":"Feature","properties":{"id_grade":"200ME51852N80976","pop":2,"dom":1,"universo_dom":"domicilios_ocupados_grade_ibge_2022","na_bacia":1,"area_pct_bacia":100.0,"metodo_recorte_bacia":"ponto_representativo_grade_2022; area_pct_geometrica"},"geometry":{"type":"Polygon","coordinates":[[[-52.1564739837873,-29.17838472717331],[-52.15648710219796,-29.17652119249894],[-52.15449632514526,-29.176508905061905],[-52.15448319234542,-29.17837244063557],[-52.1564739837873,-29.17838472717331]]]}},{"type":"Feature","properties":{"id_grade":"200ME51902N80974","pop":5,"dom":1,"universo_dom":"domicilios_ocupados_grade_ibge_2022","na_bacia":1,"area_pct_bacia":100.0,"metodo_recorte_bacia":"ponto_representativo_grade_2022; area_pct_geometrica"},"geometry":{"type":"Polygon","coordinates":[[[-52.106690788848766,-29.179937121600936],[-52.10670426249169,-29.178073571638006],[-52.104713476445745,-29.178060953250263],[-52.1046999884137,-29.179924502313902],[-52.106690788848766,-29.179937121600936]]]}},{"type":"Feature","properties":{"id_grade":"200ME51908N80974","pop":8,"dom":6,"universo_dom":"domicilios_ocupados_grade_ibge_2022","na_bacia":1,"area_pct_bacia":100.0,"metodo_recorte_bacia":"ponto_representativo_grade_2022; area_pct_geometrica"},"geometry":{"type":"Polygon","coordinates":[[[-52.100718388442836,-29.179899225069146],[-52.100731903454516,-29.178035676005575],[-52.09874111830795,-29.178023018047718],[-52.09872758800777,-29.17988656621207],[-52.100718388442836,-29.179899225069146]]]}},{"type":"Feature","properties":{"id_grade":"200ME51906N80976","pop":7,"dom":2,"universo_dom":"domicilios_ocupados_grade_ibge_2022","na_bacia":1,"area_pct_bacia":100.0,"metodo_recorte_bacia":"ponto_representativo_grade_2022; area_pct_geometrica"},"geometry":{"type":"Polygon","coordinates":[[[-52.10272268950047,-29.17804832137287],[-52.10273619102236,-29.176184792094382],[-52.10074541936558,-29.176172146727065],[-52.100731903454516,-29.178035676005575],[-52.10272268950047,-29.17804832137287]]]}},{"type":"Feature","properties":{"id_grade":"200ME51908N80976","pop":11,"dom":6,"universo_dom":"domicilios_ocupados_grade_ibge_2022","na_bacia":1,"area_pct_bacia":100.0,"metodo_recorte_bacia":"ponto_representativo_grade_2022; area_pct_geometrica"},"geometry":{"type":"Polygon","coordinates":[[[-52.100731903454516,-29.178035676005575],[-52.10074541936558,-29.176172146727065],[-52.09875464770881,-29.176159488769432],[-52.09874111830795,-29.178023018047718],[-52.100731903454516,-29.178035676005575]]]}},{"type":"Feature","properties":{"id_grade":"200ME51904N80978","pop":6,"dom":2,"universo_dom":"domicilios_ocupados_grade_ibge_2022","na_bacia":1,"area_pct_bacia":100.0,"metodo_recorte_bacia":"ponto_representativo_grade_2022; area_pct_geometrica"},"geometry":{"type":"Polygon","coordinates":[[[-52.10472696357846,-29.17619742397189],[-52.104740450711176,-29.174333913579193],[-52.10274969254425,-29.17432128260106],[-52.10273619102236,-29.176184792094382],[-52.10472696357846,-29.17619742397189]]]}},{"type":"Feature","properties":{"id_grade":"200ME51908N80978","pop":15,"dom":8,"universo_dom":"domicilios_ocupados_grade_ibge_2022","na_bacia":1,"area_pct_bacia":100.0,"metodo_recorte_bacia":"ponto_representativo_grade_2022; area_pct_geometrica"},"geometry":{"type":"Polygon","coordinates":[[[-52.10074541936558,-29.176172146727065],[-52.10075893437727,-29.174308638133173],[-52.09876817710966,-29.174295980175348],[-52.09875464770881,-29.176159488769432],[-52.10074541936558,-29.176172146727065]]]}},{"type":"Feature","properties":{"id_grade":"200ME51906N80980","pop":3,"dom":1,"universo_dom":"domicilios_ocupados_grade_ibge_2022","na_bacia":1,"area_pct_bacia":100.0,"metodo_recorte_bacia":"ponto_representativo_grade_2022; area_pct_geometrica"},"geometry":{"type":"Polygon","coordinates":[[[-52.10274969254425,-29.17432128260106],[-52.102763193166766,-29.17245779289278],[-52.10077245028834,-29.172445148424792],[-52.10075893437727,-29.174308638133173],[-52.10274969254425,-29.17432128260106]]]}},{"type":"Feature","properties":{"id_grade":"200ME51908N80980","pop":4,"dom":2,"universo_dom":"domicilios_ocupados_grade_ibge_2022","na_bacia":1,"area_pct_bacia":100.0,"metodo_recorte_bacia":"ponto_representativo_grade_2022; area_pct_geometrica"},"geometry":{"type":"Polygon","coordinates":[[[-52.10075893437727,-29.174308638133173],[-52.10077245028834,-29.172445148424792],[-52.09878170651052,-29.172432490467024],[-52.09876817710966,-29.174295980175348],[-52.10075893437727,-29.174308638133173]]]}},{"type":"Feature","properties":{"id_grade":"200ME51910N80972","pop":6,"dom":1,"universo_dom":"domicilios_ocupados_grade_ibge_2022","na_bacia":1,"area_pct_bacia":100.0,"metodo_recorte_bacia":"ponto_representativo_grade_2022; area_pct_geometrica"},"geometry":{"type":"Polygon","coordinates":[[[-52.098714057707575,-29.18175013506071],[-52.09872758800777,-29.17988656621207],[-52.09673678847196,-29.179873894764423],[-52.0967232437826,-29.181737462713713],[-52.098714057707575,-29.18175013506071]]]}},{"type":"Feature","properties":{"id_grade":"200ME51914N80972","pop":4,"dom":1,"universo_dom":"domicilios_ocupados_grade_ibge_2022","na_bacia":1,"area_pct_bacia":100.0,"metodo_recorte_bacia":"ponto_representativo_grade_2022; area_pct_geometrica"},"geometry":{"type":"Polygon","coordinates":[[[-52.094732430757006,-29.181724777776214],[-52.09474598893621,-29.17986120982693],[-52.09275518940041,-29.179848511399666],[-52.09274161683208,-29.18171207934887],[-52.094732430757006,-29.181724777776214]]]}},{"type":"Feature","properties":{"id_grade":"200ME51910N80974","pop":17,"dom":8,"universo_dom":"domicilios_ocupados_grade_ibge_2022","na_bacia":1,"area_pct_bacia":100.0,"metodo_recorte_bacia":"ponto_representativo_grade_2022; area_pct_geometrica"},"geometry":{"type":"Polygon","coordinates":[[[-52.09872758800777,-29.17988656621207],[-52.09874111830795,-29.178023018047718],[-52.09675033226199,-29.178010345700912],[-52.09673678847196,-29.179873894764423],[-52.09872758800777,-29.17988656621207]]]}},{"type":"Feature","properties":{"id_grade":"200ME51912N80974","pop":5,"dom":2,"universo_dom":"domicilios_ocupados_grade_ibge_2022","na_bacia":1,"area_pct_bacia":100.0,"metodo_recorte_bacia":"ponto_representativo_grade_2022; area_pct_geometrica"},"geometry":{"type":"Polygon","coordinates":[[[-52.09673678847196,-29.179873894764423],[-52.09675033226199,-29.178010345700912],[-52.09475954711536,-29.177997660763317],[-52.09474598893621,-29.17986120982693],[-52.09673678847196,-29.179873894764423]]]}},{"type":"Feature","properties":{"id_grade":"200ME51914N80974","pop":32,"dom":12,"universo_dom":"domicilios_ocupados_grade_ibge_2022","na_bacia":1,"area_pct_bacia":100.0,"metodo_recorte_bacia":"ponto_representativo_grade_2022; area_pct_geometrica"},"geometry":{"type":"Polygon","coordinates":[[[-52.09474598893621,-29.17986120982693],[-52.09475954711536,-29.177997660763317],[-52.09276876196873,-29.17798496323539],[-52.09275518940041,-29.179848511399666],[-52.09474598893621,-29.17986120982693]]]}},{"type":"Feature","properties":{"id_grade":"200ME51916N80974","pop":5,"dom":2,"universo_dom":"domicilios_ocupados_grade_ibge_2022","na_bacia":1,"area_pct_bacia":100.0,"metodo_recorte_bacia":"ponto_representativo_grade_2022; area_pct_geometrica"},"geometry":{"type":"Polygon","coordinates":[[[-52.09275518940041,-29.179848511399666],[-52.09276876196873,-29.17798496323539],[-52.09077797682215,-29.177972251318227],[-52.09076438986466,-29.179835799482557],[-52.09275518940041,-29.179848511399666]]]}},{"type":"Feature","properties":{"id_grade":"200ME51918N80974","pop":17,"dom":5,"universo_dom":"domicilios_ocupados_grade_ibge_2022","na_bacia":1,"area_pct_bacia":100.0,"metodo_recorte_bacia":"ponto_representativo_grade_2022; area_pct_geometrica"},"geometry":{"type":"Polygon","coordinates":[[[-52.09076438986466,-29.179835799482557],[-52.09077797682215,-29.177972251318227],[-52.08878719167552,-29.17795952681067],[-52.08877359122823,-29.17982307407548],[-52.09076438986466,-29.179835799482557]]]}},{"type":"Feature","properties":{"id_grade":"200ME51910N80976","pop":29,"dom":10,"universo_dom":"domicilios_ocupados_grade_ibge_2022","na_bacia":1,"area_pct_bacia":100.0,"metodo_recorte_bacia":"ponto_representativo_grade_2022; area_pct_geometrica"},"geometry":{"type":"Polygon","coordinates":[[[-52.09874111830795,-29.178023018047718],[-52.09875464770881,-29.176159488769432],[-52.09676387605202,-29.17614681732162],[-52.09675033226199,-29.178010345700912],[-52.09874111830795,-29.178023018047718]]]}},{"type":"Feature","properties":{"id_grade":"200ME51912N80976","pop":17,"dom":8,"universo_dom":"domicilios_ocupados_grade_ibge_2022","na_bacia":1,"area_pct_bacia":100.0,"metodo_recorte_bacia":"ponto_representativo_grade_2022; area_pct_geometrica"},"geometry":{"type":"Polygon","coordinates":[[[-52.09675033226199,-29.178010345700912],[-52.09676387605202,-29.17614681732162],[-52.09477310529451,-29.176134132384213],[-52.09475954711536,-29.177997660763317],[-52.09675033226199,-29.178010345700912]]]}},{"type":"Feature","properties":{"id_grade":"200ME51914N80976","pop":27,"dom":11,"universo_dom":"domicilios_ocupados_grade_ibge_2022","na_bacia":1,"area_pct_bacia":100.0,"metodo_recorte_bacia":"ponto_representativo_grade_2022; area_pct_geometrica"},"geometry":{"type":"Polygon","coordinates":[[[-52.09475954711536,-29.177997660763317],[-52.09477310529451,-29.176134132384213],[-52.09278233363772,-29.176121434856285],[-52.09276876196873,-29.17798496323539],[-52.09475954711536,-29.177997660763317]]]}},{"type":"Feature","properties":{"id_grade":"200ME51928N80968","pop":6,"dom":3,"universo_dom":"domicilios_ocupados_grade_ibge_2022","na_bacia":1,"area_pct_bacia":100.0,"metodo_recorte_bacia":"ponto_representativo_grade_2022; area_pct_geometrica"},"geometry":{"type":"Polygon","coordinates":[[[-52.08076942357002,-29.18536280165191],[-52.08078308157395,-29.183499195031807],[-52.07879225505849,-29.183486403974314],[-52.07877858356471,-29.185350009695153],[-52.08076942357002,-29.18536280165191]]]}},{"type":"Feature","properties":{"id_grade":"200ME51922N80970","pop":10,"dom":3,"universo_dom":"domicilios_ocupados_grade_ibge_2022","na_bacia":1,"area_pct_bacia":100.0,"metodo_recorte_bacia":"ponto_representativo_grade_2022; area_pct_geometrica"},"geometry":{"type":"Polygon","coordinates":[[[-52.086755562019505,-29.18353749086249],[-52.08676917775528,-29.181673903128058],[-52.08477836472969,-29.18166115164089],[-52.08476473550411,-29.18352473847583],[-52.086755562019505,-29.18353749086249]]]}},{"type":"Feature","properties":{"id_grade":"200ME51926N80970","pop":2,"dom":1,"universo_dom":"domicilios_ocupados_grade_ibge_2022","na_bacia":1,"area_pct_bacia":100.0,"metodo_recorte_bacia":"ponto_representativo_grade_2022; area_pct_geometrica"},"geometry":{"type":"Polygon","coordinates":[[[-52.08277390808934,-29.18351197349878],[-52.082787551704094,-29.181648386663632],[-52.0807967395778,-29.18163560909603],[-52.08078308157395,-29.183499195031807],[-52.08277390808934,-29.18351197349878]]]}},{"type":"Feature","properties":{"id_grade":"200ME51920N80972","pop":6,"dom":3,"universo_dom":"domicilios_ocupados_grade_ibge_2022","na_bacia":1,"area_pct_bacia":100.0,"metodo_recorte_bacia":"ponto_representativo_grade_2022; area_pct_geometrica"},"geometry":{"type":"Polygon","coordinates":[[[-52.08875998988157,-29.181686642024914],[-52.08877359122823,-29.17982307407548],[-52.08678279259175,-29.179810336078155],[-52.08676917775528,-29.181673903128058],[-52.08875998988157,-29.181686642024914]]]}},{"type":"Feature","properties":{"id_grade":"200ME51922N80972","pop":7,"dom":2,"universo_dom":"domicilios_ocupados_grade_ibge_2022","na_bacia":1,"area_pct_bacia":100.0,"metodo_recorte_bacia":"ponto_representativo_grade_2022; area_pct_geometrica"},"geometry":{"type":"Polygon","coordinates":[[[-52.08676917775528,-29.181673903128058],[-52.08678279259175,-29.179810336078155],[-52.08479199395532,-29.179797584590794],[-52.08477836472969,-29.18166115164089],[-52.08676917775528,-29.181673903128058]]]}},{"type":"Feature","properties":{"id_grade":"200ME51920N80974","pop":24,"dom":8,"universo_dom":"domicilios_ocupados_grade_ibge_2022","na_bacia":1,"area_pct_bacia":100.0,"metodo_recorte_bacia":"ponto_representativo_grade_2022; area_pct_geometrica"},"geometry":{"type":"Polygon","coordinates":[[[-52.08877359122823,-29.17982307407548],[-52.08878719167552,-29.17795952681067],[-52.08679640742821,-29.17794678881317],[-52.08678279259175,-29.179810336078155],[-52.08877359122823,-29.17982307407548]]]}},{"type":"Feature","properties":{"id_grade":"200ME51922N80978","pop":9,"dom":3,"universo_dom":"domicilios_ocupados_grade_ibge_2022","na_bacia":1,"area_pct_bacia":100.0,"metodo_recorte_bacia":"ponto_representativo_grade_2022; area_pct_geometrica"},"geometry":{"type":"Polygon","coordinates":[[[-52.08681002226467,-29.17608326133345],[-52.086823636201814,-29.174219753638692],[-52.0848328807328,-29.174207003050665],[-52.084819251507206,-29.176070510745376],[-52.08681002226467,-29.17608326133345]]]}}]}