{"type":"FeatureCollection","name":"4305587","crs":{"type":"name","properties":{"name":"urn:ogc:def:crs:OGC:1.3:CRS84"}},"features":[{"type":"Feature","properties":{"id_grade":"1KME5208N8071","pop":47,"dom":19,"universo_dom":"domicilios_ocupados_grade_ibge_2022","na_bacia":1,"area_pct_bacia":100.0,"metodo_recorte_bacia":"ponto_representativo_grade_2022; area_pct_geometrica","status_borda_bacia":"total","metodo_area_bacia":"interseção geométrica em EPSG:5880","metodo_na_bacia":"ponto_representativo_grade_2022_within_bacia","pop_n_validos":1,"pop_n_total":1,"pop_completude":1.0,"dom_n_validos":1,"dom_n_total":1,"dom_completude":1.0},"geometry":{"type":"Polygon","coordinates":[[[-51.92757834411159,-29.42305750006995],[-51.92765214967711,-29.413726900897963],[-51.917689305965844,-29.41365761728529],[-51.9176151456051,-29.422988210224155],[-51.92757834411159,-29.42305750006995]]]}},{"type":"Feature","properties":{"id_grade":"1KME5209N8071","pop":43,"dom":15,"universo_dom":"domicilios_ocupados_grade_ibge_2022","na_bacia":1,"area_pct_bacia":100.0,"metodo_recorte_bacia":"ponto_representativo_grade_2022; area_pct_geometrica","status_borda_bacia":"total","metodo_area_bacia":"interseção geométrica em EPSG:5880","metodo_na_bacia":"ponto_representativo_grade_2022_within_bacia","pop_n_validos":1,"pop_n_total":1,"pop_completude":1.0,"dom_n_validos":1,"dom_n_total":1,"dom_completude":1.0},"geometry":{"type":"Polygon","coordinates":[[[-51.9176151456051,-29.422988210224155],[-51.917689305965844,-29.41365761728529],[-51.90772646753647,-29.41358800142327],[-51.90765195238106,-29.42291858809939],[-51.9176151456051,-29.422988210224155]]]}},{"type":"Feature","properties":{"id_grade":"1KME5210N8071","pop":4,"dom":2,"universo_dom":"domicilios_ocupados_grade_ibge_2022","na_bacia":1,"area_pct_bacia":100.0,"metodo_recorte_bacia":"ponto_representativo_grade_2022; area_pct_geometrica","status_borda_bacia":"total","metodo_area_bacia":"interseção geométrica em EPSG:5880","metodo_na_bacia":"ponto_representativo_grade_2022_within_bacia","pop_n_validos":1,"pop_n_total":1,"pop_completude":1.0,"dom_n_validos":1,"dom_n_total":1,"dom_completude":1.0},"geometry":{"type":"Polygon","coordinates":[[[-51.90765195238106,-29.42291858809939],[-51.90772646753647,-29.41358800142327],[-51.89776363441425,-29.41351805331343],[-51.897688764464746,-29.42284863369663],[-51.90765195238106,-29.42291858809939]]]}},{"type":"Feature","properties":{"id_grade":"1KME5211N8071","pop":16,"dom":7,"universo_dom":"domicilios_ocupados_grade_ibge_2022","na_bacia":1,"area_pct_bacia":100.0,"metodo_recorte_bacia":"ponto_representativo_grade_2022; area_pct_geometrica","status_borda_bacia":"total","metodo_area_bacia":"interseção geométrica em EPSG:5880","metodo_na_bacia":"ponto_representativo_grade_2022_within_bacia","pop_n_validos":1,"pop_n_total":1,"pop_completude":1.0,"dom_n_validos":1,"dom_n_total":1,"dom_completude":1.0},"geometry":{"type":"Polygon","coordinates":[[[-51.897688764464746,-29.42284863369663],[-51.89776363441425,-29.41351805331343],[-51.88780080662445,-29.41344777295605],[-51.88772558188142,-29.422778347016518],[-51.897688764464746,-29.42284863369663]]]}},{"type":"Feature","properties":{"id_grade":"1KME5212N8071","pop":2,"dom":1,"universo_dom":"domicilios_ocupados_grade_ibge_2022","na_bacia":1,"area_pct_bacia":100.0,"metodo_recorte_bacia":"ponto_representativo_grade_2022; area_pct_geometrica","status_borda_bacia":"total","metodo_area_bacia":"interseção geométrica em EPSG:5880","metodo_na_bacia":"ponto_representativo_grade_2022_within_bacia","pop_n_validos":1,"pop_n_total":1,"pop_completude":1.0,"dom_n_validos":1,"dom_n_total":1,"dom_completude":1.0},"geometry":{"type":"Polygon","coordinates":[[[-51.88772558188142,-29.422778347016518],[-51.88780080662445,-29.41344777295605],[-51.87783798419233,-29.41337716035151],[-51.87776240465636,-29.422707728059404],[-51.88772558188142,-29.422778347016518]]]}},{"type":"Feature","properties":{"id_grade":"1KME5213N8071","pop":6,"dom":3,"universo_dom":"domicilios_ocupados_grade_ibge_2022","na_bacia":1,"area_pct_bacia":100.0,"metodo_recorte_bacia":"ponto_representativo_grade_2022; area_pct_geometrica","status_borda_bacia":"total","metodo_area_bacia":"interseção geométrica em EPSG:5880","metodo_na_bacia":"ponto_representativo_grade_2022_within_bacia","pop_n_validos":1,"pop_n_total":1,"pop_completude":1.0,"dom_n_validos":1,"dom_n_total":1,"dom_completude":1.0},"geometry":{"type":"Polygon","coordinates":[[[-51.87776240465636,-29.422707728059404],[-51.87783798419233,-29.41337716035151],[-51.86787516714317,-29.413306215500864],[-51.86779923281482,-29.42263677682627],[-51.87776240465636,-29.422707728059404]]]}},{"type":"Feature","properties":{"id_grade":"1KME5214N8071","pop":5,"dom":2,"universo_dom":"domicilios_ocupados_grade_ibge_2022","na_bacia":1,"area_pct_bacia":100.0,"metodo_recorte_bacia":"ponto_representativo_grade_2022; area_pct_geometrica","status_borda_bacia":"total","metodo_area_bacia":"interseção geométrica em EPSG:5880","metodo_na_bacia":"ponto_representativo_grade_2022_within_bacia","pop_n_validos":1,"pop_n_total":1,"pop_completude":1.0,"dom_n_validos":1,"dom_n_total":1,"dom_completude":1.0},"geometry":{"type":"Polygon","coordinates":[[[-51.86779923281482,-29.42263677682627],[-51.86787516714317,-29.413306215500864],[-51.857912355502236,-29.41323493840478],[-51.85783606638208,-29.422565493317688],[-51.86779923281482,-29.42263677682627]]]}},{"type":"Feature","properties":{"id_grade":"1KME5215N8071","pop":16,"dom":5,"universo_dom":"domicilios_ocupados_grade_ibge_2022","na_bacia":1,"area_pct_bacia":100.0,"metodo_recorte_bacia":"ponto_representativo_grade_2022; area_pct_geometrica","status_borda_bacia":"total","metodo_area_bacia":"interseção geométrica em EPSG:5880","metodo_na_bacia":"ponto_representativo_grade_2022_within_bacia","pop_n_validos":1,"pop_n_total":1,"pop_completude":1.0,"dom_n_validos":1,"dom_n_total":1,"dom_completude":1.0},"geometry":{"type":"Polygon","coordinates":[[[-51.85783606638208,-29.422565493317688],[-51.857912355502236,-29.41323493840478],[-51.84794954929478,-29.41316332906374],[-51.847872905383404,-29.422493877534528],[-51.85783606638208,-29.422565493317688]]]}},{"type":"Feature","properties":{"id_grade":"1KME5216N8071","pop":15,"dom":4,"universo_dom":"domicilios_ocupados_grade_ibge_2022","na_bacia":1,"area_pct_bacia":100.0,"metodo_recorte_bacia":"ponto_representativo_grade_2022; area_pct_geometrica","status_borda_bacia":"total","metodo_area_bacia":"interseção geométrica em EPSG:5880","metodo_na_bacia":"ponto_representativo_grade_2022_within_bacia","pop_n_validos":1,"pop_n_total":1,"pop_completude":1.0,"dom_n_validos":1,"dom_n_total":1,"dom_completude":1.0},"geometry":{"type":"Polygon","coordinates":[[[-51.847872905383404,-29.422493877534528],[-51.84794954929478,-29.41316332906374],[-51.83798674854608,-29.41309138747856],[-51.837909749844066,-29.42242192947766],[-51.847872905383404,-29.422493877534528]]]}},{"type":"Feature","properties":{"id_grade":"1KME5208N8072","pop":59,"dom":22,"universo_dom":"domicilios_ocupados_grade_ibge_2022","na_bacia":1,"area_pct_bacia":100.0,"metodo_recorte_bacia":"ponto_representativo_grade_2022; area_pct_geometrica","status_borda_bacia":"total","metodo_area_bacia":"interseção geométrica em EPSG:5880","metodo_na_bacia":"ponto_representativo_grade_2022_within_bacia","pop_n_validos":1,"pop_n_total":1,"pop_completude":1.0,"dom_n_validos":1,"dom_n_total":1,"dom_completude":1.0},"geometry":{"type":"Polygon","coordinates":[[[-51.92765214967711,-29.413726900897963],[-51.92772594998602,-29.404396808615317],[-51.91776346104471,-29.4043275312324],[-51.917689305965844,-29.41365761728529],[-51.92765214967711,-29.413726900897963]]]}},{"type":"Feature","properties":{"id_grade":"1KME5211N8072","pop":12,"dom":5,"universo_dom":"domicilios_ocupados_grade_ibge_2022","na_bacia":1,"area_pct_bacia":100.0,"metodo_recorte_bacia":"ponto_representativo_grade_2022; area_pct_geometrica","status_borda_bacia":"total","metodo_area_bacia":"interseção geométrica em EPSG:5880","metodo_na_bacia":"ponto_representativo_grade_2022_within_bacia","pop_n_validos":1,"pop_n_total":1,"pop_completude":1.0,"dom_n_validos":1,"dom_n_total":1,"dom_completude":1.0},"geometry":{"type":"Polygon","coordinates":[[[-51.89776363441425,-29.41351805331343],[-51.89783849903134,-29.404187979809848],[-51.88787602600979,-29.404117705771753],[-51.88780080662445,-29.41344777295605],[-51.89776363441425,-29.41351805331343]]]}},{"type":"Feature","properties":{"id_grade":"1KME5212N8072","pop":24,"dom":11,"universo_dom":"domicilios_ocupados_grade_ibge_2022","na_bacia":1,"area_pct_bacia":100.0,"metodo_recorte_bacia":"ponto_representativo_grade_2022; area_pct_geometrica","status_borda_bacia":"total","metodo_area_bacia":"interseção geométrica em EPSG:5880","metodo_na_bacia":"ponto_representativo_grade_2022_within_bacia","pop_n_validos":1,"pop_n_total":1,"pop_completude":1.0,"dom_n_validos":1,"dom_n_total":1,"dom_completude":1.0},"geometry":{"type":"Polygon","coordinates":[[[-51.88780080662445,-29.41344777295605],[-51.88787602600979,-29.404117705771753],[-51.87791355834536,-29.404047099516553],[-51.87783798419233,-29.41337716035151],[-51.88780080662445,-29.41344777295605]]]}},{"type":"Feature","properties":{"id_grade":"1KME5213N8072","pop":20,"dom":7,"universo_dom":"domicilios_ocupados_grade_ibge_2022","na_bacia":1,"area_pct_bacia":100.0,"metodo_recorte_bacia":"ponto_representativo_grade_2022; area_pct_geometrica","status_borda_bacia":"total","metodo_area_bacia":"interseção geométrica em EPSG:5880","metodo_na_bacia":"ponto_representativo_grade_2022_within_bacia","pop_n_validos":1,"pop_n_total":1,"pop_completude":1.0,"dom_n_validos":1,"dom_n_total":1,"dom_completude":1.0},"geometry":{"type":"Polygon","coordinates":[[[-51.87783798419233,-29.41337716035151],[-51.87791355834536,-29.404047099516553],[-51.867951096063315,-29.403976161044866],[-51.86787516714317,-29.413306215500864],[-51.87783798419233,-29.41337716035151]]]}},{"type":"Feature","properties":{"id_grade":"1KME5214N8072","pop":35,"dom":11,"universo_dom":"domicilios_ocupados_grade_ibge_2022","na_bacia":1,"area_pct_bacia":100.0,"metodo_recorte_bacia":"ponto_representativo_grade_2022; area_pct_geometrica","status_borda_bacia":"total","metodo_area_bacia":"interseção geométrica em EPSG:5880","metodo_na_bacia":"ponto_representativo_grade_2022_within_bacia","pop_n_validos":1,"pop_n_total":1,"pop_completude":1.0,"dom_n_validos":1,"dom_n_total":1,"dom_completude":1.0},"geometry":{"type":"Polygon","coordinates":[[[-51.86787516714317,-29.413306215500864],[-51.867951096063315,-29.403976161044866],[-51.85798863918891,-29.403904890357648],[-51.857912355502236,-29.41323493840478],[-51.86787516714317,-29.413306215500864]]]}},{"type":"Feature","properties":{"id_grade":"1KME5215N8072","pop":18,"dom":8,"universo_dom":"domicilios_ocupados_grade_ibge_2022","na_bacia":1,"area_pct_bacia":100.0,"metodo_recorte_bacia":"ponto_representativo_grade_2022; area_pct_geometrica","status_borda_bacia":"total","metodo_area_bacia":"interseção geométrica em EPSG:5880","metodo_na_bacia":"ponto_representativo_grade_2022_within_bacia","pop_n_validos":1,"pop_n_total":1,"pop_completude":1.0,"dom_n_validos":1,"dom_n_total":1,"dom_completude":1.0},"geometry":{"type":"Polygon","coordinates":[[[-51.857912355502236,-29.41323493840478],[-51.85798863918891,-29.403904890357648],[-51.84802618774741,-29.40383328745558],[-51.84794954929478,-29.41316332906374],[-51.857912355502236,-29.41323493840478]]]}},{"type":"Feature","properties":{"id_grade":"1KME5216N8072","pop":1,"dom":1,"universo_dom":"domicilios_ocupados_grade_ibge_2022","na_bacia":1,"area_pct_bacia":100.0,"metodo_recorte_bacia":"ponto_representativo_grade_2022; area_pct_geometrica","status_borda_bacia":"total","metodo_area_bacia":"interseção geométrica em EPSG:5880","metodo_na_bacia":"ponto_representativo_grade_2022_within_bacia","pop_n_validos":1,"pop_n_total":1,"pop_completude":1.0,"dom_n_validos":1,"dom_n_total":1,"dom_completude":1.0},"geometry":{"type":"Polygon","coordinates":[[[-51.84794954929478,-29.41316332906374],[-51.84802618774741,-29.40383328745558],[-51.838063741764074,-29.40376135233905],[-51.83798674854608,-29.41309138747856],[-51.84794954929478,-29.41316332906374]]]}},{"type":"Feature","properties":{"id_grade":"1KME5217N8072","pop":10,"dom":3,"universo_dom":"domicilios_ocupados_grade_ibge_2022","na_bacia":1,"area_pct_bacia":100.0,"metodo_recorte_bacia":"ponto_representativo_grade_2022; area_pct_geometrica","status_borda_bacia":"total","metodo_area_bacia":"interseção geométrica em EPSG:5880","metodo_na_bacia":"ponto_representativo_grade_2022_within_bacia","pop_n_validos":1,"pop_n_total":1,"pop_completude":1.0,"dom_n_validos":1,"dom_n_total":1,"dom_completude":1.0},"geometry":{"type":"Polygon","coordinates":[[[-51.83798674854608,-29.41309138747856],[-51.838063741764074,-29.40376135233905],[-51.82810130126418,-29.40368908500897],[-51.828023953281395,-29.413019113650073],[-51.83798674854608,-29.41309138747856]]]}},{"type":"Feature","properties":{"id_grade":"1KME5218N8072","pop":31,"dom":10,"universo_dom":"domicilios_ocupados_grade_ibge_2022","na_bacia":1,"area_pct_bacia":100.0,"metodo_recorte_bacia":"ponto_representativo_grade_2022; area_pct_geometrica","status_borda_bacia":"total","metodo_area_bacia":"interseção geométrica em EPSG:5880","metodo_na_bacia":"ponto_representativo_grade_2022_within_bacia","pop_n_validos":1,"pop_n_total":1,"pop_completude":1.0,"dom_n_validos":1,"dom_n_total":1,"dom_completude":1.0},"geometry":{"type":"Polygon","coordinates":[[[-51.828023953281395,-29.413019113650073],[-51.82810130126418,-29.40368908500897],[-51.81813886627297,-29.403616485465935],[-51.818061163526,-29.412946507578674],[-51.828023953281395,-29.413019113650073]]]}},{"type":"Feature","properties":{"id_grade":"1KME5212N8073","pop":52,"dom":19,"universo_dom":"domicilios_ocupados_grade_ibge_2022","na_bacia":1,"area_pct_bacia":100.0,"metodo_recorte_bacia":"ponto_representativo_grade_2022; area_pct_geometrica","status_borda_bacia":"total","metodo_area_bacia":"interseção geométrica em EPSG:5880","metodo_na_bacia":"ponto_representativo_grade_2022_within_bacia","pop_n_validos":1,"pop_n_total":1,"pop_completude":1.0,"dom_n_validos":1,"dom_n_total":1,"dom_completude":1.0},"geometry":{"type":"Polygon","coordinates":[[[-51.88787602600979,-29.404117705771753],[-51.88795124003802,-29.39478814508023],[-51.87798912711601,-29.3947175451707],[-51.87791355834536,-29.404047099516553],[-51.88787602600979,-29.404117705771753]]]}},{"type":"Feature","properties":{"id_grade":"1KME5216N8073","pop":3,"dom":2,"universo_dom":"domicilios_ocupados_grade_ibge_2022","na_bacia":1,"area_pct_bacia":100.0,"metodo_recorte_bacia":"ponto_representativo_grade_2022; area_pct_geometrica","status_borda_bacia":"total","metodo_area_bacia":"interseção geométrica em EPSG:5880","metodo_na_bacia":"ponto_representativo_grade_2022_within_bacia","pop_n_validos":1,"pop_n_total":1,"pop_completude":1.0,"dom_n_validos":1,"dom_n_total":1,"dom_completude":1.0},"geometry":{"type":"Polygon","coordinates":[[[-51.84802618774741,-29.40383328745558],[-51.848102820741865,-29.394503752326315],[-51.83814072949863,-29.394431823675184],[-51.838063741764074,-29.40376135233905],[-51.84802618774741,-29.40383328745558]]]}},{"type":"Feature","properties":{"id_grade":"1KME5217N8073","pop":64,"dom":20,"universo_dom":"domicilios_ocupados_grade_ibge_2022","na_bacia":1,"area_pct_bacia":100.0,"metodo_recorte_bacia":"ponto_representativo_grade_2022; area_pct_geometrica","status_borda_bacia":"total","metodo_area_bacia":"interseção geométrica em EPSG:5880","metodo_na_bacia":"ponto_representativo_grade_2022_within_bacia","pop_n_validos":1,"pop_n_total":1,"pop_completude":1.0,"dom_n_validos":1,"dom_n_total":1,"dom_completude":1.0},"geometry":{"type":"Polygon","coordinates":[[[-51.838063741764074,-29.40376135233905],[-51.83814072949863,-29.394431823675184],[-51.82817864373826,-29.394359562839856],[-51.82810130126418,-29.40368908500897],[-51.838063741764074,-29.40376135233905]]]}},{"type":"Feature","properties":{"id_grade":"1KME5218N8073","pop":49,"dom":19,"universo_dom":"domicilios_ocupados_grade_ibge_2022","na_bacia":1,"area_pct_bacia":100.0,"metodo_recorte_bacia":"ponto_representativo_grade_2022; area_pct_geometrica","status_borda_bacia":"total","metodo_area_bacia":"interseção geométrica em EPSG:5880","metodo_na_bacia":"ponto_representativo_grade_2022_within_bacia","pop_n_validos":1,"pop_n_total":1,"pop_completude":1.0,"dom_n_validos":1,"dom_n_total":1,"dom_completude":1.0},"geometry":{"type":"Polygon","coordinates":[[[-51.82810130126418,-29.40368908500897],[-51.82817864373826,-29.394359562839856],[-51.81821656348599,-29.394286969822],[-51.81813886627297,-29.403616485465935],[-51.82810130126418,-29.40368908500897]]]}},{"type":"Feature","properties":{"id_grade":"1KME5219N8073","pop":44,"dom":17,"universo_dom":"domicilios_ocupados_grade_ibge_2022","na_bacia":1,"area_pct_bacia":100.0,"metodo_recorte_bacia":"ponto_representativo_grade_2022; area_pct_geometrica","status_borda_bacia":"total","metodo_area_bacia":"interseção geométrica em EPSG:5880","metodo_na_bacia":"ponto_representativo_grade_2022_within_bacia","pop_n_validos":1,"pop_n_total":1,"pop_completude":1.0,"dom_n_validos":1,"dom_n_total":1,"dom_completude":1.0},"geometry":{"type":"Polygon","coordinates":[[[-51.81813886627297,-29.403616485465935],[-51.81821656348599,-29.394286969822],[-51.808254488767076,-29.394214044621464],[-51.80817643681573,-29.403543553710534],[-51.81813886627297,-29.403616485465935]]]}},{"type":"Feature","properties":{"id_grade":"1KME5215N8074","pop":77,"dom":23,"universo_dom":"domicilios_ocupados_grade_ibge_2022","na_bacia":1,"area_pct_bacia":100.0,"metodo_recorte_bacia":"ponto_representativo_grade_2022; area_pct_geometrica","status_borda_bacia":"total","metodo_area_bacia":"interseção geométrica em EPSG:5880","metodo_na_bacia":"ponto_representativo_grade_2022_within_bacia","pop_n_validos":1,"pop_n_total":1,"pop_completude":1.0,"dom_n_validos":1,"dom_n_total":1,"dom_completude":1.0},"geometry":{"type":"Polygon","coordinates":[[[-51.858064917442675,-29.394575348793165],[-51.858141190264114,-29.38524631332737],[-51.84817944827873,-29.385174723292497],[-51.848102820741865,-29.394503752326315],[-51.858064917442675,-29.394575348793165]]]}},{"type":"Feature","properties":{"id_grade":"1KME5216N8074","pop":53,"dom":21,"universo_dom":"domicilios_ocupados_grade_ibge_2022","na_bacia":1,"area_pct_bacia":100.0,"metodo_recorte_bacia":"ponto_representativo_grade_2022; area_pct_geometrica","status_borda_bacia":"total","metodo_area_bacia":"interseção geométrica em EPSG:5880","metodo_na_bacia":"ponto_representativo_grade_2022_within_bacia","pop_n_validos":1,"pop_n_total":1,"pop_completude":1.0,"dom_n_validos":1,"dom_n_total":1,"dom_completude":1.0},"geometry":{"type":"Polygon","coordinates":[[[-51.848102820741865,-29.394503752326315],[-51.84817944827873,-29.385174723292497],[-51.83821771175035,-29.385102801103017],[-51.83814072949863,-29.394431823675184],[-51.848102820741865,-29.394503752326315]]]}},{"type":"Feature","properties":{"id_grade":"1KME5217N8074","pop":13,"dom":5,"universo_dom":"domicilios_ocupados_grade_ibge_2022","na_bacia":1,"area_pct_bacia":100.0,"metodo_recorte_bacia":"ponto_representativo_grade_2022; area_pct_geometrica","status_borda_bacia":"total","metodo_area_bacia":"interseção geométrica em EPSG:5880","metodo_na_bacia":"ponto_representativo_grade_2022_within_bacia","pop_n_validos":1,"pop_n_total":1,"pop_completude":1.0,"dom_n_validos":1,"dom_n_total":1,"dom_completude":1.0},"geometry":{"type":"Polygon","coordinates":[[[-51.83814072949863,-29.394431823675184],[-51.83821771175035,-29.385102801103017],[-51.82825598070423,-29.385030546759392],[-51.82817864373826,-29.394359562839856],[-51.83814072949863,-29.394431823675184]]]}},{"type":"Feature","properties":{"id_grade":"1KME5218N8074","pop":17,"dom":6,"universo_dom":"domicilios_ocupados_grade_ibge_2022","na_bacia":1,"area_pct_bacia":100.0,"metodo_recorte_bacia":"ponto_representativo_grade_2022; area_pct_geometrica","status_borda_bacia":"total","metodo_area_bacia":"interseção geométrica em EPSG:5880","metodo_na_bacia":"ponto_representativo_grade_2022_within_bacia","pop_n_validos":1,"pop_n_total":1,"pop_completude":1.0,"dom_n_validos":1,"dom_n_total":1,"dom_completude":1.0},"geometry":{"type":"Polygon","coordinates":[[[-51.82817864373826,-29.394359562839856],[-51.82825598070423,-29.385030546759392],[-51.818294255165625,-29.384957960262803],[-51.81821656348599,-29.394286969822],[-51.82817864373826,-29.394359562839856]]]}},{"type":"Feature","properties":{"id_grade":"1KME5219N8074","pop":11,"dom":4,"universo_dom":"domicilios_ocupados_grade_ibge_2022","na_bacia":1,"area_pct_bacia":100.0,"metodo_recorte_bacia":"ponto_representativo_grade_2022; area_pct_geometrica","status_borda_bacia":"total","metodo_area_bacia":"interseção geométrica em EPSG:5880","metodo_na_bacia":"ponto_representativo_grade_2022_within_bacia","pop_n_validos":1,"pop_n_total":1,"pop_completude":1.0,"dom_n_validos":1,"dom_n_total":1,"dom_completude":1.0},"geometry":{"type":"Polygon","coordinates":[[[-51.81821656348599,-29.394286969822],[-51.818294255165625,-29.384957960262803],[-51.8083325351598,-29.384885041613543],[-51.808254488767076,-29.394214044621464],[-51.81821656348599,-29.394286969822]]]}},{"type":"Feature","properties":{"id_grade":"1KME5220N8074","pop":5,"dom":2,"universo_dom":"domicilios_ocupados_grade_ibge_2022","na_bacia":1,"area_pct_bacia":100.0,"metodo_recorte_bacia":"ponto_representativo_grade_2022; area_pct_geometrica","status_borda_bacia":"total","metodo_area_bacia":"interseção geométrica em EPSG:5880","metodo_na_bacia":"ponto_representativo_grade_2022_within_bacia","pop_n_validos":1,"pop_n_total":1,"pop_completude":1.0,"dom_n_validos":1,"dom_n_total":1,"dom_completude":1.0},"geometry":{"type":"Polygon","coordinates":[[[-51.808254488767076,-29.394214044621464],[-51.8083325351598,-29.384885041613543],[-51.79837082071201,-29.38481179081234],[-51.798292419606796,-29.394140787238896],[-51.808254488767076,-29.394214044621464]]]}},{"type":"Feature","properties":{"id_grade":"1KME5216N8075","pop":11,"dom":5,"universo_dom":"domicilios_ocupados_grade_ibge_2022","na_bacia":1,"area_pct_bacia":100.0,"metodo_recorte_bacia":"ponto_representativo_grade_2022; area_pct_geometrica","status_borda_bacia":"total","metodo_area_bacia":"interseção geométrica em EPSG:5880","metodo_na_bacia":"ponto_representativo_grade_2022_within_bacia","pop_n_validos":1,"pop_n_total":1,"pop_completude":1.0,"dom_n_validos":1,"dom_n_total":1,"dom_completude":1.0},"geometry":{"type":"Polygon","coordinates":[[[-51.84817944827873,-29.385174723292497],[-51.8482560703586,-29.37584619997068],[-51.8382946885198,-29.37577428423958],[-51.83821771175035,-29.385102801103017],[-51.84817944827873,-29.385174723292497]]]}},{"type":"Feature","properties":{"id_grade":"1KME5218N8075","pop":12,"dom":4,"universo_dom":"domicilios_ocupados_grade_ibge_2022","na_bacia":1,"area_pct_bacia":100.0,"metodo_recorte_bacia":"ponto_representativo_grade_2022; area_pct_geometrica","status_borda_bacia":"total","metodo_area_bacia":"interseção geométrica em EPSG:5880","metodo_na_bacia":"ponto_representativo_grade_2022_within_bacia","pop_n_validos":1,"pop_n_total":1,"pop_completude":1.0,"dom_n_validos":1,"dom_n_total":1,"dom_completude":1.0},"geometry":{"type":"Polygon","coordinates":[[[-51.82825598070423,-29.385030546759392],[-51.82833331216269,-29.375702036384183],[-51.8183719413125,-29.375629456405505],[-51.818294255165625,-29.384957960262803],[-51.82825598070423,-29.385030546759392]]]}},{"type":"Feature","properties":{"id_grade":"1KME5219N8075","pop":10,"dom":6,"universo_dom":"domicilios_ocupados_grade_ibge_2022","na_bacia":1,"area_pct_bacia":100.0,"metodo_recorte_bacia":"ponto_representativo_grade_2022; area_pct_geometrica","status_borda_bacia":"total","metodo_area_bacia":"interseção geométrica em EPSG:5880","metodo_na_bacia":"ponto_representativo_grade_2022_within_bacia","pop_n_validos":1,"pop_n_total":1,"pop_completude":1.0,"dom_n_validos":1,"dom_n_total":1,"dom_completude":1.0},"geometry":{"type":"Polygon","coordinates":[[[-51.818294255165625,-29.384957960262803],[-51.8183719413125,-29.375629456405505],[-51.80841057599449,-29.375556544303834],[-51.8083325351598,-29.384885041613543],[-51.818294255165625,-29.384957960262803]]]}},{"type":"Feature","properties":{"id_grade":"1KME5213N8076","pop":23,"dom":10,"universo_dom":"domicilios_ocupados_grade_ibge_2022","na_bacia":1,"area_pct_bacia":100.0,"metodo_recorte_bacia":"ponto_representativo_grade_2022; area_pct_geometrica","status_borda_bacia":"total","metodo_area_bacia":"interseção geométrica em EPSG:5880","metodo_na_bacia":"ponto_representativo_grade_2022_within_bacia","pop_n_validos":1,"pop_n_total":1,"pop_completude":1.0,"dom_n_validos":1,"dom_n_total":1,"dom_completude":1.0},"geometry":{"type":"Polygon","coordinates":[[[-51.87814024851248,-29.376059954412177],[-51.87821580113944,-29.366731917232954],[-51.86825475767323,-29.366661004244005],[-51.86817885038018,-29.375989035057927],[-51.87814024851248,-29.376059954412177]]]}},{"type":"Feature","properties":{"id_grade":"1KME5214N8076","pop":18,"dom":7,"universo_dom":"domicilios_ocupados_grade_ibge_2022","na_bacia":1,"area_pct_bacia":100.0,"metodo_recorte_bacia":"ponto_representativo_grade_2022; area_pct_geometrica","status_borda_bacia":"total","metodo_area_bacia":"interseção geométrica em EPSG:5880","metodo_na_bacia":"ponto_representativo_grade_2022_within_bacia","pop_n_validos":1,"pop_n_total":1,"pop_completude":1.0,"dom_n_validos":1,"dom_n_total":1,"dom_completude":1.0},"geometry":{"type":"Polygon","coordinates":[[[-51.86817885038018,-29.375989035057927],[-51.86825475767323,-29.366661004244005],[-51.85829371961234,-29.366589759159055],[-51.858217457653815,-29.37591778357713],[-51.86817885038018,-29.375989035057927]]]}},{"type":"Feature","properties":{"id_grade":"1KME5215N8076","pop":16,"dom":5,"universo_dom":"domicilios_ocupados_grade_ibge_2022","na_bacia":1,"area_pct_bacia":100.0,"metodo_recorte_bacia":"ponto_representativo_grade_2022; area_pct_geometrica","status_borda_bacia":"total","metodo_area_bacia":"interseção geométrica em EPSG:5880","metodo_na_bacia":"ponto_representativo_grade_2022_within_bacia","pop_n_validos":1,"pop_n_total":1,"pop_completude":1.0,"dom_n_validos":1,"dom_n_total":1,"dom_completude":1.0},"geometry":{"type":"Polygon","coordinates":[[[-51.858217457653815,-29.37591778357713],[-51.85829371961234,-29.366589759159055],[-51.84833268698205,-29.36651818197767],[-51.8482560703586,-29.37584619997068],[-51.858217457653815,-29.37591778357713]]]}},{"type":"Feature","properties":{"id_grade":"1KME5212N8077","pop":68,"dom":27,"universo_dom":"domicilios_ocupados_grade_ibge_2022","na_bacia":1,"area_pct_bacia":100.0,"metodo_recorte_bacia":"ponto_representativo_grade_2022; area_pct_geometrica","status_borda_bacia":"total","metodo_area_bacia":"interseção geométrica em EPSG:5880","metodo_na_bacia":"ponto_representativo_grade_2022_within_bacia","pop_n_validos":1,"pop_n_total":1,"pop_completude":1.0,"dom_n_validos":1,"dom_n_total":1,"dom_completude":1.0},"geometry":{"type":"Polygon","coordinates":[[[-51.88817684998573,-29.36680249812497],[-51.88825204259122,-29.357474959569295],[-51.87829134838632,-29.35740438500993],[-51.87821580113944,-29.366731917232954],[-51.88817684998573,-29.36680249812497]]]}},{"type":"Feature","properties":{"id_grade":"1KME5213N8077","pop":34,"dom":11,"universo_dom":"domicilios_ocupados_grade_ibge_2022","na_bacia":1,"area_pct_bacia":100.0,"metodo_recorte_bacia":"ponto_representativo_grade_2022; area_pct_geometrica","status_borda_bacia":"total","metodo_area_bacia":"interseção geométrica em EPSG:5880","metodo_na_bacia":"ponto_representativo_grade_2022_within_bacia","pop_n_validos":1,"pop_n_total":1,"pop_completude":1.0,"dom_n_validos":1,"dom_n_total":1,"dom_completude":1.0},"geometry":{"type":"Polygon","coordinates":[[[-51.87821580113944,-29.366731917232954],[-51.87829134838632,-29.35740438500993],[-51.868330659560925,-29.357333478383357],[-51.86825475767323,-29.366661004244005],[-51.87821580113944,-29.366731917232954]]]}},{"type":"Feature","properties":{"id_grade":"1KME5214N8077","pop":15,"dom":6,"universo_dom":"domicilios_ocupados_grade_ibge_2022","na_bacia":1,"area_pct_bacia":100.0,"metodo_recorte_bacia":"ponto_representativo_grade_2022; area_pct_geometrica","status_borda_bacia":"total","metodo_area_bacia":"interseção geométrica em EPSG:5880","metodo_na_bacia":"ponto_representativo_grade_2022_within_bacia","pop_n_validos":1,"pop_n_total":1,"pop_completude":1.0,"dom_n_validos":1,"dom_n_total":1,"dom_completude":1.0},"geometry":{"type":"Polygon","coordinates":[[[-51.86825475767323,-29.366661004244005],[-51.868330659560925,-29.357333478383357],[-51.85836997614029,-29.357262239689895],[-51.85829371961234,-29.366589759159055],[-51.86825475767323,-29.366661004244005]]]}},{"type":"Feature","properties":{"id_grade":"1KME5211N8078","pop":17,"dom":6,"universo_dom":"domicilios_ocupados_grade_ibge_2022","na_bacia":1,"area_pct_bacia":100.0,"metodo_recorte_bacia":"ponto_representativo_grade_2022; area_pct_geometrica","status_borda_bacia":"total","metodo_area_bacia":"interseção geométrica em EPSG:5880","metodo_na_bacia":"ponto_representativo_grade_2022_within_bacia","pop_n_validos":1,"pop_n_total":1,"pop_completude":1.0,"dom_n_validos":1,"dom_n_total":1,"dom_completude":1.0},"geometry":{"type":"Polygon","coordinates":[[[-51.89821274215038,-29.35754520206065],[-51.89828757478489,-29.348218161782516],[-51.88832722984247,-29.348147925590215],[-51.88825204259122,-29.357474959569295],[-51.89821274215038,-29.35754520206065]]]}},{"type":"Feature","properties":{"id_grade":"1KME5212N8078","pop":45,"dom":20,"universo_dom":"domicilios_ocupados_grade_ibge_2022","na_bacia":1,"area_pct_bacia":100.0,"metodo_recorte_bacia":"ponto_representativo_grade_2022; area_pct_geometrica","status_borda_bacia":"total","metodo_area_bacia":"interseção geométrica em EPSG:5880","metodo_na_bacia":"ponto_representativo_grade_2022_within_bacia","pop_n_validos":1,"pop_n_total":1,"pop_completude":1.0,"dom_n_validos":1,"dom_n_total":1,"dom_completude":1.0},"geometry":{"type":"Polygon","coordinates":[[[-51.88825204259122,-29.357474959569295],[-51.88832722984247,-29.348147925590215],[-51.8783668902537,-29.348077357359827],[-51.87829134838632,-29.35740438500993],[-51.88825204259122,-29.357474959569295]]]}},{"type":"Feature","properties":{"id_grade":"1KME5213N8078","pop":7,"dom":3,"universo_dom":"domicilios_ocupados_grade_ibge_2022","na_bacia":1,"area_pct_bacia":100.0,"metodo_recorte_bacia":"ponto_representativo_grade_2022; area_pct_geometrica","status_borda_bacia":"total","metodo_area_bacia":"interseção geométrica em EPSG:5880","metodo_na_bacia":"ponto_representativo_grade_2022_within_bacia","pop_n_validos":1,"pop_n_total":1,"pop_completude":1.0,"dom_n_validos":1,"dom_n_total":1,"dom_completude":1.0},"geometry":{"type":"Polygon","coordinates":[[[-51.87829134838632,-29.35740438500993],[-51.8783668902537,-29.348077357359827],[-51.86840655604388,-29.348006457092243],[-51.868330659560925,-29.357333478383357],[-51.87829134838632,-29.35740438500993]]]}},{"type":"Feature","properties":{"id_grade":"1KME5214N8078","pop":16,"dom":9,"universo_dom":"domicilios_ocupados_grade_ibge_2022","na_bacia":1,"area_pct_bacia":100.0,"metodo_recorte_bacia":"ponto_representativo_grade_2022; area_pct_geometrica","status_borda_bacia":"total","metodo_area_bacia":"interseção geométrica em EPSG:5880","metodo_na_bacia":"ponto_representativo_grade_2022_within_bacia","pop_n_validos":1,"pop_n_total":1,"pop_completude":1.0,"dom_n_validos":1,"dom_n_total":1,"dom_completude":1.0},"geometry":{"type":"Polygon","coordinates":[[[-51.868330659560925,-29.357333478383357],[-51.86840655604388,-29.348006457092243],[-51.85844622723823,-29.347935224787395],[-51.85836997614029,-29.357262239689895],[-51.868330659560925,-29.357333478383357]]]}},{"type":"Feature","properties":{"id_grade":"1KME5215N8078","pop":1,"dom":1,"universo_dom":"domicilios_ocupados_grade_ibge_2022","na_bacia":1,"area_pct_bacia":100.0,"metodo_recorte_bacia":"ponto_representativo_grade_2022; area_pct_geometrica","status_borda_bacia":"total","metodo_area_bacia":"interseção geométrica em EPSG:5880","metodo_na_bacia":"ponto_representativo_grade_2022_within_bacia","pop_n_validos":1,"pop_n_total":1,"pop_completude":1.0,"dom_n_validos":1,"dom_n_total":1,"dom_completude":1.0},"geometry":{"type":"Polygon","coordinates":[[[-51.85836997614029,-29.357262239689895],[-51.85844622723823,-29.347935224787395],[-51.848485903862006,-29.34786366044639],[-51.848409298149654,-29.357190668930482],[-51.85836997614029,-29.357262239689895]]]}},{"type":"Feature","properties":{"id_grade":"1KME5216N8078","pop":22,"dom":8,"universo_dom":"domicilios_ocupados_grade_ibge_2022","na_bacia":1,"area_pct_bacia":100.0,"metodo_recorte_bacia":"ponto_representativo_grade_2022; area_pct_geometrica","status_borda_bacia":"total","metodo_area_bacia":"interseção geométrica em EPSG:5880","metodo_na_bacia":"ponto_representativo_grade_2022_within_bacia","pop_n_validos":1,"pop_n_total":1,"pop_completude":1.0,"dom_n_validos":1,"dom_n_total":1,"dom_completude":1.0},"geometry":{"type":"Polygon","coordinates":[[[-51.848409298149654,-29.357190668930482],[-51.848485903862006,-29.34786366044639],[-51.83852558594046,-29.347791764069974],[-51.83844862561428,-29.357118766105756],[-51.848409298149654,-29.357190668930482]]]}},{"type":"Feature","properties":{"id_grade":"200ME52062N80718","pop":5,"dom":1,"universo_dom":"domicilios_ocupados_grade_ibge_2022","na_bacia":1,"area_pct_bacia":100.0,"metodo_recorte_bacia":"ponto_representativo_grade_2022; area_pct_geometrica","status_borda_bacia":"total","metodo_area_bacia":"interseção geométrica em EPSG:5880","metodo_na_bacia":"ponto_representativo_grade_2022_within_bacia","pop_n_validos":1,"pop_n_total":1,"pop_completude":1.0,"dom_n_validos":1,"dom_n_total":1,"dom_completude":1.0},"geometry":{"type":"Polygon","coordinates":[[[-51.945556015797415,-29.41758295698781],[-51.94557064866649,-29.415716855648256],[-51.9435780630771,-29.4157031445844],[-51.94356341581898,-29.417569246823277],[-51.945556015797415,-29.41758295698781]]]}},{"type":"Feature","properties":{"id_grade":"200ME52064N80718","pop":2,"dom":1,"universo_dom":"domicilios_ocupados_grade_ibge_2022","na_bacia":1,"area_pct_bacia":100.0,"metodo_recorte_bacia":"ponto_representativo_grade_2022; area_pct_geometrica","status_borda_bacia":"total","metodo_area_bacia":"interseção geométrica em EPSG:5880","metodo_na_bacia":"ponto_representativo_grade_2022_within_bacia","pop_n_validos":1,"pop_n_total":1,"pop_completude":1.0,"dom_n_validos":1,"dom_n_total":1,"dom_completude":1.0},"geometry":{"type":"Polygon","coordinates":[[[-51.94356341581898,-29.417569246823277],[-51.9435780630771,-29.4157031445844],[-51.94158547838708,-29.41568942092998],[-51.941570816739784,-29.41755552226951],[-51.94356341581898,-29.417569246823277]]]}},{"type":"Feature","properties":{"id_grade":"200ME52066N80722","pop":1,"dom":1,"universo_dom":"domicilios_ocupados_grade_ibge_2022","na_bacia":1,"area_pct_bacia":100.0,"metodo_recorte_bacia":"ponto_representativo_grade_2022; area_pct_geometrica","status_borda_bacia":"total","metodo_area_bacia":"interseção geométrica em EPSG:5880","metodo_na_bacia":"ponto_representativo_grade_2022_within_bacia","pop_n_validos":1,"pop_n_total":1,"pop_completude":1.0,"dom_n_validos":1,"dom_n_total":1,"dom_completude":1.0},"geometry":{"type":"Polygon","coordinates":[[[-51.94160014003438,-29.4138233393755],[-51.94161480078236,-29.411957279404884],[-51.939622243971314,-29.41194354226067],[-51.93960756883421,-29.413809602231286],[-51.94160014003438,-29.4138233393755]]]}},{"type":"Feature","properties":{"id_grade":"200ME52066N80726","pop":4,"dom":2,"universo_dom":"domicilios_ocupados_grade_ibge_2022","na_bacia":1,"area_pct_bacia":100.0,"metodo_recorte_bacia":"ponto_representativo_grade_2022; area_pct_geometrica","status_borda_bacia":"total","metodo_area_bacia":"interseção geométrica em EPSG:5880","metodo_na_bacia":"ponto_representativo_grade_2022_within_bacia","pop_n_validos":1,"pop_n_total":1,"pop_completude":1.0,"dom_n_validos":1,"dom_n_total":1,"dom_completude":1.0},"geometry":{"type":"Polygon","coordinates":[[[-51.94162946153039,-29.41009123831993],[-51.941644122278376,-29.408225218818824],[-51.93965159424562,-29.408211481674474],[-51.939636919108466,-29.41007750207494],[-51.94162946153039,-29.41009123831993]]]}},{"type":"Feature","properties":{"id_grade":"200ME52068N80726","pop":6,"dom":2,"universo_dom":"domicilios_ocupados_grade_ibge_2022","na_bacia":1,"area_pct_bacia":100.0,"metodo_recorte_bacia":"ponto_representativo_grade_2022; area_pct_geometrica","status_borda_bacia":"total","metodo_area_bacia":"interseção geométrica em EPSG:5880","metodo_na_bacia":"ponto_representativo_grade_2022_within_bacia","pop_n_validos":1,"pop_n_total":1,"pop_completude":1.0,"dom_n_validos":1,"dom_n_total":1,"dom_completude":1.0},"geometry":{"type":"Polygon","coordinates":[[[-51.939636919108466,-29.41007750207494],[-51.93965159424562,-29.408211481674474],[-51.937659066212916,-29.408197731939683],[-51.93764437758591,-29.41006375234032],[-51.939636919108466,-29.41007750207494]]]}},{"type":"Feature","properties":{"id_grade":"200ME52074N80722","pop":7,"dom":2,"universo_dom":"domicilios_ocupados_grade_ibge_2022","na_bacia":1,"area_pct_bacia":100.0,"metodo_recorte_bacia":"ponto_representativo_grade_2022; area_pct_geometrica","status_borda_bacia":"total","metodo_area_bacia":"interseção geométrica em EPSG:5880","metodo_na_bacia":"ponto_representativo_grade_2022_within_bacia","pop_n_validos":1,"pop_n_total":1,"pop_completude":1.0,"dom_n_validos":1,"dom_n_total":1,"dom_completude":1.0},"geometry":{"type":"Polygon","coordinates":[[[-51.9336298588309,-29.41376831165823],[-51.93364457623619,-29.4119022516875],[-51.931652020324464,-29.411888461483255],[-51.93163728853,-29.41375452145396],[-51.9336298588309,-29.41376831165823]]]}},{"type":"Feature","properties":{"id_grade":"200ME52076N80722","pop":5,"dom":2,"universo_dom":"domicilios_ocupados_grade_ibge_2022","na_bacia":1,"area_pct_bacia":100.0,"metodo_recorte_bacia":"ponto_representativo_grade_2022; area_pct_geometrica","status_borda_bacia":"total","metodo_area_bacia":"interseção geométrica em EPSG:5880","metodo_na_bacia":"ponto_representativo_grade_2022_within_bacia","pop_n_validos":1,"pop_n_total":1,"pop_completude":1.0,"dom_n_validos":1,"dom_n_total":1,"dom_completude":1.0},"geometry":{"type":"Polygon","coordinates":[[[-51.93163728853,-29.41375452145396],[-51.931652020324464,-29.411888461483255],[-51.92965946531205,-29.411874658688475],[-51.92964471912842,-29.413740717759808],[-51.93163728853,-29.41375452145396]]]}},{"type":"Feature","properties":{"id_grade":"200ME52078N80722","pop":6,"dom":2,"universo_dom":"domicilios_ocupados_grade_ibge_2022","na_bacia":1,"area_pct_bacia":100.0,"metodo_recorte_bacia":"ponto_representativo_grade_2022; area_pct_geometrica","status_borda_bacia":"total","metodo_area_bacia":"interseção geométrica em EPSG:5880","metodo_na_bacia":"ponto_representativo_grade_2022_within_bacia","pop_n_validos":1,"pop_n_total":1,"pop_completude":1.0,"dom_n_validos":1,"dom_n_total":1,"dom_completude":1.0},"geometry":{"type":"Polygon","coordinates":[[[-51.92964471912842,-29.413740717759808],[-51.92965946531205,-29.411874658688475],[-51.92766691029965,-29.411860841504552],[-51.927652149726896,-29.41372690057597],[-51.92964471912842,-29.413740717759808]]]}},{"type":"Feature","properties":{"id_grade":"200ME52070N80724","pop":5,"dom":2,"universo_dom":"domicilios_ocupados_grade_ibge_2022","na_bacia":1,"area_pct_bacia":100.0,"metodo_recorte_bacia":"ponto_representativo_grade_2022; area_pct_geometrica","status_borda_bacia":"total","metodo_area_bacia":"interseção geométrica em EPSG:5880","metodo_na_bacia":"ponto_representativo_grade_2022_within_bacia","pop_n_validos":1,"pop_n_total":1,"pop_completude":1.0,"dom_n_validos":1,"dom_n_total":1,"dom_completude":1.0},"geometry":{"type":"Polygon","coordinates":[[[-51.93762968805959,-29.411929791626566],[-51.93764437758591,-29.41006375234032],[-51.93565183606336,-29.410049989115585],[-51.93563713214785,-29.41191602840189],[-51.93762968805959,-29.411929791626566]]]}},{"type":"Feature","properties":{"id_grade":"200ME52072N80724","pop":2,"dom":1,"universo_dom":"domicilios_ocupados_grade_ibge_2022","na_bacia":1,"area_pct_bacia":100.0,"metodo_recorte_bacia":"ponto_representativo_grade_2022; area_pct_geometrica","status_borda_bacia":"total","metodo_area_bacia":"interseção geométrica em EPSG:5880","metodo_na_bacia":"ponto_representativo_grade_2022_within_bacia","pop_n_validos":1,"pop_n_total":1,"pop_completude":1.0,"dom_n_validos":1,"dom_n_total":1,"dom_completude":1.0},"geometry":{"type":"Polygon","coordinates":[[[-51.93563713214785,-29.41191602840189],[-51.93565183606336,-29.410049989115585],[-51.933659293641426,-29.41003621240127],[-51.93364457623619,-29.4119022516875],[-51.93563713214785,-29.41191602840189]]]}},{"type":"Feature","properties":{"id_grade":"200ME52076N80724","pop":9,"dom":4,"universo_dom":"domicilios_ocupados_grade_ibge_2022","na_bacia":1,"area_pct_bacia":100.0,"metodo_recorte_bacia":"ponto_representativo_grade_2022; area_pct_geometrica","status_borda_bacia":"total","metodo_area_bacia":"interseção geométrica em EPSG:5880","metodo_na_bacia":"ponto_representativo_grade_2022_within_bacia","pop_n_validos":1,"pop_n_total":1,"pop_completude":1.0,"dom_n_validos":1,"dom_n_total":1,"dom_completude":1.0},"geometry":{"type":"Polygon","coordinates":[[[-51.931652020324464,-29.411888461483255],[-51.931666753018185,-29.41002242219698],[-51.92967421149564,-29.410008619402213],[-51.92965946531205,-29.411874658688475],[-51.931652020324464,-29.411888461483255]]]}},{"type":"Feature","properties":{"id_grade":"200ME52070N80726","pop":2,"dom":1,"universo_dom":"domicilios_ocupados_grade_ibge_2022","na_bacia":1,"area_pct_bacia":100.0,"metodo_recorte_bacia":"ponto_representativo_grade_2022; area_pct_geometrica","status_borda_bacia":"total","metodo_area_bacia":"interseção geométrica em EPSG:5880","metodo_na_bacia":"ponto_representativo_grade_2022_within_bacia","pop_n_validos":1,"pop_n_total":1,"pop_completude":1.0,"dom_n_validos":1,"dom_n_total":1,"dom_completude":1.0},"geometry":{"type":"Polygon","coordinates":[[[-51.93764437758591,-29.41006375234032],[-51.937659066212916,-29.408197731939683],[-51.93566653907948,-29.408183969614505],[-51.93565183606336,-29.410049989115585],[-51.93764437758591,-29.41006375234032]]]}},{"type":"Feature","properties":{"id_grade":"200ME52072N80726","pop":4,"dom":1,"universo_dom":"domicilios_ocupados_grade_ibge_2022","na_bacia":1,"area_pct_bacia":100.0,"metodo_recorte_bacia":"ponto_representativo_grade_2022; area_pct_geometrica","status_borda_bacia":"total","metodo_area_bacia":"interseção geométrica em EPSG:5880","metodo_na_bacia":"ponto_representativo_grade_2022_within_bacia","pop_n_validos":1,"pop_n_total":1,"pop_completude":1.0,"dom_n_validos":1,"dom_n_total":1,"dom_completude":1.0},"geometry":{"type":"Polygon","coordinates":[[[-51.93565183606336,-29.410049989115585],[-51.93566653907948,-29.408183969614505],[-51.93367401194604,-29.408170192900073],[-51.933659293641426,-29.41003621240127],[-51.93565183606336,-29.410049989115585]]]}},{"type":"Feature","properties":{"id_grade":"200ME52098N80710","pop":18,"dom":7,"universo_dom":"domicilios_ocupados_grade_ibge_2022","na_bacia":1,"area_pct_bacia":100.0,"metodo_recorte_bacia":"ponto_representativo_grade_2022; area_pct_geometrica","status_borda_bacia":"total","metodo_area_bacia":"interseção geométrica em EPSG:5880","metodo_na_bacia":"ponto_representativo_grade_2022_within_bacia","pop_n_validos":1,"pop_n_total":1,"pop_completude":1.0,"dom_n_validos":1,"dom_n_total":1,"dom_completude":1.0},"geometry":{"type":"Polygon","coordinates":[[[-51.90962970084996,-29.42479871778646],[-51.9096445909251,-29.422932539105396],[-51.90765195227573,-29.422918587922418],[-51.9076370487108,-29.424784766603715],[-51.90962970084996,-29.42479871778646]]]}},{"type":"Feature","properties":{"id_grade":"200ME52134N80734","pop":4,"dom":1,"universo_dom":"domicilios_ocupados_grade_ibge_2022","na_bacia":1,"area_pct_bacia":100.0,"metodo_recorte_bacia":"ponto_representativo_grade_2022; area_pct_geometrica","status_borda_bacia":"total","metodo_area_bacia":"interseção geométrica em EPSG:5880","metodo_na_bacia":"ponto_representativo_grade_2022_within_bacia","pop_n_validos":1,"pop_n_total":1,"pop_completude":1.0,"dom_n_validos":1,"dom_n_total":1,"dom_completude":1.0},"geometry":{"type":"Polygon","coordinates":[[[-51.87394371533014,-29.40215281290192],[-51.87395885811475,-29.40028688243362],[-51.87196639393391,-29.40027269562838],[-51.87195123676014,-29.402138626096765],[-51.87394371533014,-29.40215281290192]]]}},{"type":"Feature","properties":{"id_grade":"200ME52138N80734","pop":3,"dom":1,"universo_dom":"domicilios_ocupados_grade_ibge_2022","na_bacia":1,"area_pct_bacia":100.0,"metodo_recorte_bacia":"ponto_representativo_grade_2022; area_pct_geometrica","status_borda_bacia":"total","metodo_area_bacia":"interseção geométrica em EPSG:5880","metodo_na_bacia":"ponto_representativo_grade_2022_within_bacia","pop_n_validos":1,"pop_n_total":1,"pop_completude":1.0,"dom_n_validos":1,"dom_n_total":1,"dom_completude":1.0},"geometry":{"type":"Polygon","coordinates":[[[-51.86995875908939,-29.402124424902308],[-51.86997392975302,-29.400258494433896],[-51.86798146647147,-29.40024428154835],[-51.86796628141872,-29.402110211117293],[-51.86995875908939,-29.402124424902308]]]}},{"type":"Feature","properties":{"id_grade":"200ME52136N80736","pop":3,"dom":1,"universo_dom":"domicilios_ocupados_grade_ibge_2022","na_bacia":1,"area_pct_bacia":100.0,"metodo_recorte_bacia":"ponto_representativo_grade_2022; area_pct_geometrica","status_borda_bacia":"total","metodo_area_bacia":"interseção geométrica em EPSG:5880","metodo_na_bacia":"ponto_representativo_grade_2022_within_bacia","pop_n_validos":1,"pop_n_total":1,"pop_completude":1.0,"dom_n_validos":1,"dom_n_total":1,"dom_completude":1.0},"geometry":{"type":"Polygon","coordinates":[[[-51.87196639393391,-29.40027269562838],[-51.87198155020832,-29.398406784945106],[-51.86998910041661,-29.39839258465005],[-51.86997392975302,-29.400258494433896],[-51.87196639393391,-29.40027269562838]]]}},{"type":"Feature","properties":{"id_grade":"200ME52138N80736","pop":24,"dom":9,"universo_dom":"domicilios_ocupados_grade_ibge_2022","na_bacia":1,"area_pct_bacia":100.0,"metodo_recorte_bacia":"ponto_representativo_grade_2022; area_pct_geometrica","status_borda_bacia":"total","metodo_area_bacia":"interseção geométrica em EPSG:5880","metodo_na_bacia":"ponto_representativo_grade_2022_within_bacia","pop_n_validos":1,"pop_n_total":1,"pop_completude":1.0,"dom_n_validos":1,"dom_n_total":1,"dom_completude":1.0},"geometry":{"type":"Polygon","coordinates":[[[-51.86997392975302,-29.400258494433896],[-51.86998910041661,-29.39839258465005],[-51.86799665062489,-29.398378371764395],[-51.86798146647147,-29.40024428154835],[-51.86997392975302,-29.400258494433896]]]}},{"type":"Feature","properties":{"id_grade":"200ME52130N80738","pop":2,"dom":1,"universo_dom":"domicilios_ocupados_grade_ibge_2022","na_bacia":1,"area_pct_bacia":100.0,"metodo_recorte_bacia":"ponto_representativo_grade_2022; area_pct_geometrica","status_borda_bacia":"total","metodo_area_bacia":"interseção geométrica em EPSG:5880","metodo_na_bacia":"ponto_representativo_grade_2022_within_bacia","pop_n_validos":1,"pop_n_total":1,"pop_completude":1.0,"dom_n_validos":1,"dom_n_total":1,"dom_completude":1.0},"geometry":{"type":"Polygon","coordinates":[[[-51.87795890048284,-29.3984493057908],[-51.877974013589835,-29.396583415791927],[-51.87598157728792,-29.396569255067114],[-51.8759664497918,-29.39843514596522],[-51.87795890048284,-29.3984493057908]]]}},{"type":"Feature","properties":{"id_grade":"200ME52134N80738","pop":5,"dom":2,"universo_dom":"domicilios_ocupados_grade_ibge_2022","na_bacia":1,"area_pct_bacia":100.0,"metodo_recorte_bacia":"ponto_representativo_grade_2022; area_pct_geometrica","status_borda_bacia":"total","metodo_area_bacia":"interseção geométrica em EPSG:5880","metodo_na_bacia":"ponto_representativo_grade_2022_within_bacia","pop_n_validos":1,"pop_n_total":1,"pop_completude":1.0,"dom_n_validos":1,"dom_n_total":1,"dom_completude":1.0},"geometry":{"type":"Polygon","coordinates":[[[-51.873974,-29.3984209717504],[-51.87398914188538,-29.396555081751515],[-51.87199670648278,-29.396540894946313],[-51.87198155020832,-29.398406784945106],[-51.873974,-29.3984209717504]]]}},{"type":"Feature","properties":{"id_grade":"200ME52138N80738","pop":14,"dom":6,"universo_dom":"domicilios_ocupados_grade_ibge_2022","na_bacia":1,"area_pct_bacia":100.0,"metodo_recorte_bacia":"ponto_representativo_grade_2022; area_pct_geometrica","status_borda_bacia":"total","metodo_area_bacia":"interseção geométrica em EPSG:5880","metodo_na_bacia":"ponto_representativo_grade_2022_within_bacia","pop_n_validos":1,"pop_n_total":1,"pop_completude":1.0,"dom_n_validos":1,"dom_n_total":1,"dom_completude":1.0},"geometry":{"type":"Polygon","coordinates":[[[-51.86998910041661,-29.39839258465005],[-51.87000427018086,-29.39652669555055],[-51.868011835677635,-29.396512481765573],[-51.86799665062489,-29.398378371764395],[-51.86998910041661,-29.39839258465005]]]}},{"type":"Feature","properties":{"id_grade":"200ME52134N80740","pop":5,"dom":2,"universo_dom":"domicilios_ocupados_grade_ibge_2022","na_bacia":1,"area_pct_bacia":100.0,"metodo_recorte_bacia":"ponto_representativo_grade_2022; area_pct_geometrica","status_borda_bacia":"total","metodo_area_bacia":"interseção geométrica em EPSG:5880","metodo_na_bacia":"ponto_representativo_grade_2022_within_bacia","pop_n_validos":1,"pop_n_total":1,"pop_completude":1.0,"dom_n_validos":1,"dom_n_total":1,"dom_completude":1.0},"geometry":{"type":"Polygon","coordinates":[[[-51.87398914188538,-29.396555081751515],[-51.87400428377066,-29.39468921243716],[-51.87201186185792,-29.394675025631894],[-51.87199670648278,-29.396540894946313],[-51.87398914188538,-29.396555081751515]]]}},{"type":"Feature","properties":{"id_grade":"200ME52136N80740","pop":84,"dom":33,"universo_dom":"domicilios_ocupados_grade_ibge_2022","na_bacia":1,"area_pct_bacia":100.0,"metodo_recorte_bacia":"ponto_representativo_grade_2022; area_pct_geometrica","status_borda_bacia":"total","metodo_area_bacia":"interseção geométrica em EPSG:5880","metodo_na_bacia":"ponto_representativo_grade_2022_within_bacia","pop_n_validos":1,"pop_n_total":1,"pop_completude":1.0,"dom_n_validos":1,"dom_n_total":1,"dom_completude":1.0},"geometry":{"type":"Polygon","coordinates":[[[-51.87199670648278,-29.396540894946313],[-51.87201186185792,-29.394675025631894],[-51.870019440844494,-29.394660826236098],[-51.87000427018086,-29.39652669555055],[-51.87199670648278,-29.396540894946313]]]}},{"type":"Feature","properties":{"id_grade":"200ME52138N80740","pop":40,"dom":16,"universo_dom":"domicilios_ocupados_grade_ibge_2022","na_bacia":1,"area_pct_bacia":100.0,"metodo_recorte_bacia":"ponto_representativo_grade_2022; area_pct_geometrica","status_borda_bacia":"total","metodo_area_bacia":"interseção geométrica em EPSG:5880","metodo_na_bacia":"ponto_representativo_grade_2022_within_bacia","pop_n_validos":1,"pop_n_total":1,"pop_completude":1.0,"dom_n_validos":1,"dom_n_total":1,"dom_completude":1.0},"geometry":{"type":"Polygon","coordinates":[[[-51.87000427018086,-29.39652669555055],[-51.870019440844494,-29.394660826236098],[-51.86802701983106,-29.39464661335045],[-51.868011835677635,-29.396512481765573],[-51.87000427018086,-29.39652669555055]]]}},{"type":"Feature","properties":{"id_grade":"200ME52134N80742","pop":8,"dom":2,"universo_dom":"domicilios_ocupados_grade_ibge_2022","na_bacia":1,"area_pct_bacia":100.0,"metodo_recorte_bacia":"ponto_representativo_grade_2022; area_pct_geometrica","status_borda_bacia":"total","metodo_area_bacia":"interseção geométrica em EPSG:5880","metodo_na_bacia":"ponto_representativo_grade_2022_within_bacia","pop_n_validos":1,"pop_n_total":1,"pop_completude":1.0,"dom_n_validos":1,"dom_n_total":1,"dom_completude":1.0},"geometry":{"type":"Polygon","coordinates":[[[-51.87400428377066,-29.39468921243716],[-51.87401942475663,-29.39282336290787],[-51.872027017233,-29.392809176102585],[-51.87201186185792,-29.394675025631894],[-51.87400428377066,-29.39468921243716]]]}},{"type":"Feature","properties":{"id_grade":"200ME52136N80742","pop":73,"dom":26,"universo_dom":"domicilios_ocupados_grade_ibge_2022","na_bacia":1,"area_pct_bacia":100.0,"metodo_recorte_bacia":"ponto_representativo_grade_2022; area_pct_geometrica","status_borda_bacia":"total","metodo_area_bacia":"interseção geométrica em EPSG:5880","metodo_na_bacia":"ponto_representativo_grade_2022_within_bacia","pop_n_validos":1,"pop_n_total":1,"pop_completude":1.0,"dom_n_validos":1,"dom_n_total":1,"dom_completude":1.0},"geometry":{"type":"Polygon","coordinates":[[[-51.87201186185792,-29.394675025631894],[-51.872027017233,-29.392809176102585],[-51.870034610608734,-29.392794976706742],[-51.870019440844494,-29.394660826236098],[-51.87201186185792,-29.394675025631894]]]}},{"type":"Feature","properties":{"id_grade":"200ME52138N80742","pop":20,"dom":7,"universo_dom":"domicilios_ocupados_grade_ibge_2022","na_bacia":1,"area_pct_bacia":100.0,"metodo_recorte_bacia":"ponto_representativo_grade_2022; area_pct_geometrica","status_borda_bacia":"total","metodo_area_bacia":"interseção geométrica em EPSG:5880","metodo_na_bacia":"ponto_representativo_grade_2022_within_bacia","pop_n_validos":1,"pop_n_total":1,"pop_completude":1.0,"dom_n_validos":1,"dom_n_total":1,"dom_completude":1.0},"geometry":{"type":"Polygon","coordinates":[[[-51.870019440844494,-29.394660826236098],[-51.870034610608734,-29.392794976706742],[-51.86804220398449,-29.39278076382112],[-51.86802701983106,-29.39464661335045],[-51.870019440844494,-29.394660826236098]]]}},{"type":"Feature","properties":{"id_grade":"200ME52134N80744","pop":11,"dom":6,"universo_dom":"domicilios_ocupados_grade_ibge_2022","na_bacia":1,"area_pct_bacia":100.0,"metodo_recorte_bacia":"ponto_representativo_grade_2022; area_pct_geometrica","status_borda_bacia":"total","metodo_area_bacia":"interseção geométrica em EPSG:5880","metodo_na_bacia":"ponto_representativo_grade_2022_within_bacia","pop_n_validos":1,"pop_n_total":1,"pop_completude":1.0,"dom_n_validos":1,"dom_n_total":1,"dom_completude":1.0},"geometry":{"type":"Polygon","coordinates":[[[-51.87401942475663,-29.39282336290787],[-51.87403456664191,-29.390957533163647],[-51.87204217350745,-29.390943347257615],[-51.872027017233,-29.392809176102585],[-51.87401942475663,-29.39282336290787]]]}},{"type":"Feature","properties":{"id_grade":"200ME52136N80744","pop":40,"dom":15,"universo_dom":"domicilios_ocupados_grade_ibge_2022","na_bacia":1,"area_pct_bacia":100.0,"metodo_recorte_bacia":"ponto_representativo_grade_2022; area_pct_geometrica","status_borda_bacia":"total","metodo_area_bacia":"interseção geométrica em EPSG:5880","metodo_na_bacia":"ponto_representativo_grade_2022_within_bacia","pop_n_validos":1,"pop_n_total":1,"pop_completude":1.0,"dom_n_validos":1,"dom_n_total":1,"dom_completude":1.0},"geometry":{"type":"Polygon","coordinates":[[[-51.872027017233,-29.392809176102585],[-51.87204217350745,-29.390943347257615],[-51.87004978037306,-29.39092914786182],[-51.870034610608734,-29.392794976706742],[-51.872027017233,-29.392809176102585]]]}},{"type":"Feature","properties":{"id_grade":"200ME52138N80744","pop":6,"dom":2,"universo_dom":"domicilios_ocupados_grade_ibge_2022","na_bacia":1,"area_pct_bacia":100.0,"metodo_recorte_bacia":"ponto_representativo_grade_2022; area_pct_geometrica","status_borda_bacia":"total","metodo_area_bacia":"interseção geométrica em EPSG:5880","metodo_na_bacia":"ponto_representativo_grade_2022_within_bacia","pop_n_validos":1,"pop_n_total":1,"pop_completude":1.0,"dom_n_validos":1,"dom_n_total":1,"dom_completude":1.0},"geometry":{"type":"Polygon","coordinates":[[[-51.870034610608734,-29.392794976706742],[-51.87004978037306,-29.39092914786182],[-51.86805738723859,-29.390914935875568],[-51.86804220398449,-29.39278076382112],[-51.870034610608734,-29.392794976706742]]]}},{"type":"Feature","properties":{"id_grade":"200ME52136N80746","pop":27,"dom":14,"universo_dom":"domicilios_ocupados_grade_ibge_2022","na_bacia":1,"area_pct_bacia":100.0,"metodo_recorte_bacia":"ponto_representativo_grade_2022; area_pct_geometrica","status_borda_bacia":"total","metodo_area_bacia":"interseção geométrica em EPSG:5880","metodo_na_bacia":"ponto_representativo_grade_2022_within_bacia","pop_n_validos":1,"pop_n_total":1,"pop_completude":1.0,"dom_n_validos":1,"dom_n_total":1,"dom_completude":1.0},"geometry":{"type":"Polygon","coordinates":[[[-51.87204217350745,-29.390943347257615],[-51.87205732798327,-29.389077538197853],[-51.87006494923798,-29.389063339701327],[-51.87004978037306,-29.39092914786182],[-51.87204217350745,-29.390943347257615]]]}},{"type":"Feature","properties":{"id_grade":"200ME52138N80746","pop":80,"dom":29,"universo_dom":"domicilios_ocupados_grade_ibge_2022","na_bacia":1,"area_pct_bacia":100.0,"metodo_recorte_bacia":"ponto_representativo_grade_2022; area_pct_geometrica","status_borda_bacia":"total","metodo_area_bacia":"interseção geométrica em EPSG:5880","metodo_na_bacia":"ponto_representativo_grade_2022_within_bacia","pop_n_validos":1,"pop_n_total":1,"pop_completude":1.0,"dom_n_validos":1,"dom_n_total":1,"dom_completude":1.0},"geometry":{"type":"Polygon","coordinates":[[[-51.87004978037306,-29.39092914786182],[-51.87006494923798,-29.389063339701327],[-51.86807257139203,-29.38904912681568],[-51.86805738723859,-29.390914935875568],[-51.87004978037306,-29.39092914786182]]]}},{"type":"Feature","properties":{"id_grade":"200ME52136N80748","pop":53,"dom":22,"universo_dom":"domicilios_ocupados_grade_ibge_2022","na_bacia":1,"area_pct_bacia":100.0,"metodo_recorte_bacia":"ponto_representativo_grade_2022; area_pct_geometrica","status_borda_bacia":"total","metodo_area_bacia":"interseção geométrica em EPSG:5880","metodo_na_bacia":"ponto_representativo_grade_2022_within_bacia","pop_n_validos":1,"pop_n_total":1,"pop_completude":1.0,"dom_n_validos":1,"dom_n_total":1,"dom_completude":1.0},"geometry":{"type":"Polygon","coordinates":[[[-51.87205732798327,-29.389077538197853],[-51.87207248335835,-29.387211749822395],[-51.87008011900224,-29.387197551325798],[-51.87006494923798,-29.389063339701327],[-51.87205732798327,-29.389077538197853]]]}},{"type":"Feature","properties":{"id_grade":"200ME52138N80748","pop":54,"dom":25,"universo_dom":"domicilios_ocupados_grade_ibge_2022","na_bacia":1,"area_pct_bacia":100.0,"metodo_recorte_bacia":"ponto_representativo_grade_2022; area_pct_geometrica","status_borda_bacia":"total","metodo_area_bacia":"interseção geométrica em EPSG:5880","metodo_na_bacia":"ponto_representativo_grade_2022_within_bacia","pop_n_validos":1,"pop_n_total":1,"pop_completude":1.0,"dom_n_validos":1,"dom_n_total":1,"dom_completude":1.0},"geometry":{"type":"Polygon","coordinates":[[[-51.87006494923798,-29.389063339701327],[-51.87008011900224,-29.387197551325798],[-51.868087754646126,-29.387183339339646],[-51.86807257139203,-29.38904912681568],[-51.87006494923798,-29.389063339701327]]]}},{"type":"Feature","properties":{"id_grade":"200ME52134N80750","pop":5,"dom":2,"universo_dom":"domicilios_ocupados_grade_ibge_2022","na_bacia":1,"area_pct_bacia":100.0,"metodo_recorte_bacia":"ponto_representativo_grade_2022; area_pct_geometrica","status_borda_bacia":"total","metodo_area_bacia":"interseção geométrica em EPSG:5880","metodo_na_bacia":"ponto_representativo_grade_2022_within_bacia","pop_n_validos":1,"pop_n_total":1,"pop_completude":1.0,"dom_n_validos":1,"dom_n_total":1,"dom_completude":1.0},"geometry":{"type":"Polygon","coordinates":[[[-51.87406484771452,-29.387225934828987],[-51.87407998870049,-29.38536016623867],[-51.87208763783417,-29.385345981231932],[-51.87207248335835,-29.387211749822395],[-51.87406484771452,-29.387225934828987]]]}},{"type":"Feature","properties":{"id_grade":"200ME52136N80750","pop":56,"dom":22,"universo_dom":"domicilios_ocupados_grade_ibge_2022","na_bacia":1,"area_pct_bacia":100.0,"metodo_recorte_bacia":"ponto_representativo_grade_2022; area_pct_geometrica","status_borda_bacia":"total","metodo_area_bacia":"interseção geométrica em EPSG:5880","metodo_na_bacia":"ponto_representativo_grade_2022_within_bacia","pop_n_validos":1,"pop_n_total":1,"pop_completude":1.0,"dom_n_validos":1,"dom_n_total":1,"dom_completude":1.0},"geometry":{"type":"Polygon","coordinates":[[[-51.87207248335835,-29.387211749822395],[-51.87208763783417,-29.385345981231932],[-51.87009528786717,-29.385331782735566],[-51.87008011900224,-29.387197551325798],[-51.87207248335835,-29.387211749822395]]]}},{"type":"Feature","properties":{"id_grade":"200ME52138N80750","pop":54,"dom":25,"universo_dom":"domicilios_ocupados_grade_ibge_2022","na_bacia":1,"area_pct_bacia":100.0,"metodo_recorte_bacia":"ponto_representativo_grade_2022; area_pct_geometrica","status_borda_bacia":"total","metodo_area_bacia":"interseção geométrica em EPSG:5880","metodo_na_bacia":"ponto_representativo_grade_2022_within_bacia","pop_n_validos":1,"pop_n_total":1,"pop_completude":1.0,"dom_n_validos":1,"dom_n_total":1,"dom_completude":1.0},"geometry":{"type":"Polygon","coordinates":[[[-51.87008011900224,-29.387197551325798],[-51.87009528786717,-29.385331782735566],[-51.86810293790023,-29.385317571648628],[-51.868087754646126,-29.387183339339646],[-51.87008011900224,-29.387197551325798]]]}},{"type":"Feature","properties":{"id_grade":"200ME52136N80752","pop":41,"dom":17,"universo_dom":"domicilios_ocupados_grade_ibge_2022","na_bacia":1,"area_pct_bacia":100.0,"metodo_recorte_bacia":"ponto_representativo_grade_2022; area_pct_geometrica","status_borda_bacia":"total","metodo_area_bacia":"interseção geométrica em EPSG:5880","metodo_na_bacia":"ponto_representativo_grade_2022_within_bacia","pop_n_validos":1,"pop_n_total":1,"pop_completude":1.0,"dom_n_validos":1,"dom_n_total":1,"dom_completude":1.0},"geometry":{"type":"Polygon","coordinates":[[[-51.87208763783417,-29.385345981231932],[-51.87210279230998,-29.38348023332601],[-51.87011045673217,-29.383466034829663],[-51.87009528786717,-29.385331782735566],[-51.87208763783417,-29.385345981231932]]]}},{"type":"Feature","properties":{"id_grade":"200ME52138N80752","pop":82,"dom":36,"universo_dom":"domicilios_ocupados_grade_ibge_2022","na_bacia":1,"area_pct_bacia":100.0,"metodo_recorte_bacia":"ponto_representativo_grade_2022; area_pct_geometrica","status_borda_bacia":"total","metodo_area_bacia":"interseção geométrica em EPSG:5880","metodo_na_bacia":"ponto_representativo_grade_2022_within_bacia","pop_n_validos":1,"pop_n_total":1,"pop_completude":1.0,"dom_n_validos":1,"dom_n_total":1,"dom_completude":1.0},"geometry":{"type":"Polygon","coordinates":[[[-51.87009528786717,-29.385331782735566],[-51.87011045673217,-29.383466034829663],[-51.86811812025502,-29.383451823742682],[-51.86810293790023,-29.385317571648628],[-51.87009528786717,-29.385331782735566]]]}},{"type":"Feature","properties":{"id_grade":"200ME52138N80754","pop":5,"dom":1,"universo_dom":"domicilios_ocupados_grade_ibge_2022","na_bacia":1,"area_pct_bacia":100.0,"metodo_recorte_bacia":"ponto_representativo_grade_2022; area_pct_geometrica","status_borda_bacia":"total","metodo_area_bacia":"interseção geométrica em EPSG:5880","metodo_na_bacia":"ponto_representativo_grade_2022_within_bacia","pop_n_validos":1,"pop_n_total":1,"pop_completude":1.0,"dom_n_validos":1,"dom_n_total":1,"dom_completude":1.0},"geometry":{"type":"Polygon","coordinates":[[[-51.87011045673217,-29.383466034829663],[-51.8701256255971,-29.381600307608036],[-51.868133303509126,-29.38158609652111],[-51.86811812025502,-29.383451823742682],[-51.87011045673217,-29.383466034829663]]]}},{"type":"Feature","properties":{"id_grade":"200ME52136N80758","pop":3,"dom":1,"universo_dom":"domicilios_ocupados_grade_ibge_2022","na_bacia":1,"area_pct_bacia":100.0,"metodo_recorte_bacia":"ponto_representativo_grade_2022; area_pct_geometrica","status_borda_bacia":"total","metodo_area_bacia":"interseção geométrica em EPSG:5880","metodo_na_bacia":"ponto_representativo_grade_2022_within_bacia","pop_n_validos":1,"pop_n_total":1,"pop_completude":1.0,"dom_n_validos":1,"dom_n_total":1,"dom_completude":1.0},"geometry":{"type":"Polygon","coordinates":[[[-51.87213310126157,-29.37974879776874],[-51.87214825483806,-29.377883110117345],[-51.87015596152839,-29.37786891252023],[-51.87014079356271,-29.379734600171616],[-51.87213310126157,-29.37974879776874]]]}},{"type":"Feature","properties":{"id_grade":"200ME52138N80758","pop":14,"dom":6,"universo_dom":"domicilios_ocupados_grade_ibge_2022","na_bacia":1,"area_pct_bacia":100.0,"metodo_recorte_bacia":"ponto_representativo_grade_2022; area_pct_geometrica","status_borda_bacia":"total","metodo_area_bacia":"interseção geométrica em EPSG:5880","metodo_na_bacia":"ponto_representativo_grade_2022_within_bacia","pop_n_validos":1,"pop_n_total":1,"pop_completude":1.0,"dom_n_validos":1,"dom_n_total":1,"dom_completude":1.0},"geometry":{"type":"Polygon","coordinates":[[[-51.87014079356271,-29.379734600171616],[-51.87015596152839,-29.37786891252023],[-51.868163668218706,-29.3778547014333],[-51.86814848586391,-29.379720389084675],[-51.87014079356271,-29.379734600171616]]]}},{"type":"Feature","properties":{"id_grade":"200ME52136N80760","pop":5,"dom":1,"universo_dom":"domicilios_ocupados_grade_ibge_2022","na_bacia":1,"area_pct_bacia":100.0,"metodo_recorte_bacia":"ponto_representativo_grade_2022; area_pct_geometrica","status_borda_bacia":"total","metodo_area_bacia":"interseção geométrica em EPSG:5880","metodo_na_bacia":"ponto_representativo_grade_2022_within_bacia","pop_n_validos":1,"pop_n_total":1,"pop_completude":1.0,"dom_n_validos":1,"dom_n_total":1,"dom_completude":1.0},"geometry":{"type":"Polygon","coordinates":[[[-51.87214825483806,-29.377883110117345],[-51.872163409313835,-29.37601744225109],[-51.870171129494,-29.376003245553324],[-51.87015596152839,-29.37786891252023],[-51.87214825483806,-29.377883110117345]]]}},{"type":"Feature","properties":{"id_grade":"200ME52138N80760","pop":13,"dom":5,"universo_dom":"domicilios_ocupados_grade_ibge_2022","na_bacia":1,"area_pct_bacia":100.0,"metodo_recorte_bacia":"ponto_representativo_grade_2022; area_pct_geometrica","status_borda_bacia":"total","metodo_area_bacia":"interseção geométrica em EPSG:5880","metodo_na_bacia":"ponto_representativo_grade_2022_within_bacia","pop_n_validos":1,"pop_n_total":1,"pop_completude":1.0,"dom_n_validos":1,"dom_n_total":1,"dom_completude":1.0},"geometry":{"type":"Polygon","coordinates":[[[-51.87015596152839,-29.37786891252023],[-51.870171129494,-29.376003245553324],[-51.86817885057343,-29.375989035365595],[-51.868163668218706,-29.3778547014333],[-51.87015596152839,-29.37786891252023]]]}},{"type":"Feature","properties":{"id_grade":"200ME52140N80734","pop":6,"dom":4,"universo_dom":"domicilios_ocupados_grade_ibge_2022","na_bacia":1,"area_pct_bacia":100.0,"metodo_recorte_bacia":"ponto_representativo_grade_2022; area_pct_geometrica","status_borda_bacia":"total","metodo_area_bacia":"interseção geométrica em EPSG:5880","metodo_na_bacia":"ponto_representativo_grade_2022_within_bacia","pop_n_validos":1,"pop_n_total":1,"pop_completude":1.0,"dom_n_validos":1,"dom_n_total":1,"dom_completude":1.0},"geometry":{"type":"Polygon","coordinates":[[[-51.86796628141872,-29.402110211117293],[-51.86798146647147,-29.40024428154835],[-51.865989002290576,-29.40023005427352],[-51.86597380374798,-29.402095983842496],[-51.86796628141872,-29.402110211117293]]]}},{"type":"Feature","properties":{"id_grade":"200ME52142N80734","pop":5,"dom":1,"universo_dom":"domicilios_ocupados_grade_ibge_2022","na_bacia":1,"area_pct_bacia":100.0,"metodo_recorte_bacia":"ponto_representativo_grade_2022; area_pct_geometrica","status_borda_bacia":"total","metodo_area_bacia":"interseção geométrica em EPSG:5880","metodo_na_bacia":"ponto_representativo_grade_2022_within_bacia","pop_n_validos":1,"pop_n_total":1,"pop_completude":1.0,"dom_n_validos":1,"dom_n_total":1,"dom_completude":1.0},"geometry":{"type":"Polygon","coordinates":[[[-51.86597380374798,-29.402095983842496],[-51.865989002290576,-29.40023005427352],[-51.863996539908335,-29.4002158135089],[-51.863981326077294,-29.402081743077925],[-51.86597380374798,-29.402095983842496]]]}},{"type":"Feature","properties":{"id_grade":"200ME52140N80736","pop":6,"dom":3,"universo_dom":"domicilios_ocupados_grade_ibge_2022","na_bacia":1,"area_pct_bacia":100.0,"metodo_recorte_bacia":"ponto_representativo_grade_2022; area_pct_geometrica","status_borda_bacia":"total","metodo_area_bacia":"interseção geométrica em EPSG:5880","metodo_na_bacia":"ponto_representativo_grade_2022_within_bacia","pop_n_validos":1,"pop_n_total":1,"pop_completude":1.0,"dom_n_validos":1,"dom_n_total":1,"dom_completude":1.0},"geometry":{"type":"Polygon","coordinates":[[[-51.86798146647147,-29.40024428154835],[-51.86799665062489,-29.398378371764395],[-51.86600420173249,-29.398364144489594],[-51.865989002290576,-29.40023005427352],[-51.86798146647147,-29.40024428154835]]]}},{"type":"Feature","properties":{"id_grade":"200ME52142N80736","pop":2,"dom":1,"universo_dom":"domicilios_ocupados_grade_ibge_2022","na_bacia":1,"area_pct_bacia":100.0,"metodo_recorte_bacia":"ponto_representativo_grade_2022; area_pct_geometrica","status_borda_bacia":"total","metodo_area_bacia":"interseção geométrica em EPSG:5880","metodo_na_bacia":"ponto_representativo_grade_2022_within_bacia","pop_n_validos":1,"pop_n_total":1,"pop_completude":1.0,"dom_n_validos":1,"dom_n_total":1,"dom_completude":1.0},"geometry":{"type":"Polygon","coordinates":[[[-51.865989002290576,-29.40023005427352],[-51.86600420173249,-29.398364144489594],[-51.864011752840106,-29.398349904624368],[-51.863996539908335,-29.4002158135089],[-51.865989002290576,-29.40023005427352]]]}},{"type":"Feature","properties":{"id_grade":"200ME52140N80738","pop":3,"dom":1,"universo_dom":"domicilios_ocupados_grade_ibge_2022","na_bacia":1,"area_pct_bacia":100.0,"metodo_recorte_bacia":"ponto_representativo_grade_2022; area_pct_geometrica","status_borda_bacia":"total","metodo_area_bacia":"interseção geométrica em EPSG:5880","metodo_na_bacia":"ponto_representativo_grade_2022_within_bacia","pop_n_validos":1,"pop_n_total":1,"pop_completude":1.0,"dom_n_validos":1,"dom_n_total":1,"dom_completude":1.0},"geometry":{"type":"Polygon","coordinates":[[[-51.86799665062489,-29.398378371764395],[-51.868011835677635,-29.396512481765573],[-51.866019400275036,-29.39649825539015],[-51.86600420173249,-29.398364144489594],[-51.86799665062489,-29.398378371764395]]]}},{"type":"Feature","properties":{"id_grade":"200ME52140N80740","pop":9,"dom":4,"universo_dom":"domicilios_ocupados_grade_ibge_2022","na_bacia":1,"area_pct_bacia":100.0,"metodo_recorte_bacia":"ponto_representativo_grade_2022; area_pct_geometrica","status_borda_bacia":"total","metodo_area_bacia":"interseção geométrica em EPSG:5880","metodo_na_bacia":"ponto_representativo_grade_2022_within_bacia","pop_n_validos":1,"pop_n_total":1,"pop_completude":1.0,"dom_n_validos":1,"dom_n_total":1,"dom_completude":1.0},"geometry":{"type":"Polygon","coordinates":[[[-51.868011835677635,-29.396512481765573],[-51.86802701983106,-29.39464661335045],[-51.866034598817635,-29.39463238697508],[-51.866019400275036,-29.39649825539015],[-51.868011835677635,-29.396512481765573]]]}},{"type":"Feature","properties":{"id_grade":"200ME52140N80742","pop":3,"dom":1,"universo_dom":"domicilios_ocupados_grade_ibge_2022","na_bacia":1,"area_pct_bacia":100.0,"metodo_recorte_bacia":"ponto_representativo_grade_2022; area_pct_geometrica","status_borda_bacia":"total","metodo_area_bacia":"interseção geométrica em EPSG:5880","metodo_na_bacia":"ponto_representativo_grade_2022_within_bacia","pop_n_validos":1,"pop_n_total":1,"pop_completude":1.0,"dom_n_validos":1,"dom_n_total":1,"dom_completude":1.0},"geometry":{"type":"Polygon","coordinates":[[[-51.86802701983106,-29.39464661335045],[-51.86804220398449,-29.39278076382112],[-51.86604979736023,-29.392766538345086],[-51.866034598817635,-29.39463238697508],[-51.86802701983106,-29.39464661335045]]]}},{"type":"Feature","properties":{"id_grade":"200ME52140N80746","pop":39,"dom":15,"universo_dom":"domicilios_ocupados_grade_ibge_2022","na_bacia":1,"area_pct_bacia":100.0,"metodo_recorte_bacia":"ponto_representativo_grade_2022; area_pct_geometrica","status_borda_bacia":"total","metodo_area_bacia":"interseção geométrica em EPSG:5880","metodo_na_bacia":"ponto_representativo_grade_2022_within_bacia","pop_n_validos":1,"pop_n_total":1,"pop_completude":1.0,"dom_n_validos":1,"dom_n_total":1,"dom_completude":1.0},"geometry":{"type":"Polygon","coordinates":[[[-51.86805738723859,-29.390914935875568],[-51.86807257139203,-29.38904912681568],[-51.866080192646734,-29.389034901339638],[-51.86606499500345,-29.39090070950009],[-51.86805738723859,-29.390914935875568]]]}},{"type":"Feature","properties":{"id_grade":"200ME52140N80748","pop":2,"dom":1,"universo_dom":"domicilios_ocupados_grade_ibge_2022","na_bacia":1,"area_pct_bacia":100.0,"metodo_recorte_bacia":"ponto_representativo_grade_2022; area_pct_geometrica","status_borda_bacia":"total","metodo_area_bacia":"interseção geométrica em EPSG:5880","metodo_na_bacia":"ponto_representativo_grade_2022_within_bacia","pop_n_validos":1,"pop_n_total":1,"pop_completude":1.0,"dom_n_validos":1,"dom_n_total":1,"dom_completude":1.0},"geometry":{"type":"Polygon","coordinates":[[[-51.86807257139203,-29.38904912681568],[-51.868087754646126,-29.387183339339646],[-51.86609539029001,-29.387169113863486],[-51.866080192646734,-29.389034901339638],[-51.86807257139203,-29.38904912681568]]]}},{"type":"Feature","properties":{"id_grade":"200ME52140N80750","pop":33,"dom":14,"universo_dom":"domicilios_ocupados_grade_ibge_2022","na_bacia":1,"area_pct_bacia":100.0,"metodo_recorte_bacia":"ponto_representativo_grade_2022; area_pct_geometrica","status_borda_bacia":"total","metodo_area_bacia":"interseção geométrica em EPSG:5880","metodo_na_bacia":"ponto_representativo_grade_2022_within_bacia","pop_n_validos":1,"pop_n_total":1,"pop_completude":1.0,"dom_n_validos":1,"dom_n_total":1,"dom_completude":1.0},"geometry":{"type":"Polygon","coordinates":[[[-51.868087754646126,-29.387183339339646],[-51.86810293790023,-29.385317571648628],[-51.866110587933235,-29.38530334617252],[-51.86609539029001,-29.387169113863486],[-51.868087754646126,-29.387183339339646]]]}},{"type":"Feature","properties":{"id_grade":"200ME52142N80750","pop":32,"dom":10,"universo_dom":"domicilios_ocupados_grade_ibge_2022","na_bacia":1,"area_pct_bacia":100.0,"metodo_recorte_bacia":"ponto_representativo_grade_2022; area_pct_geometrica","status_borda_bacia":"total","metodo_area_bacia":"interseção geométrica em EPSG:5880","metodo_na_bacia":"ponto_representativo_grade_2022_within_bacia","pop_n_validos":1,"pop_n_total":1,"pop_completude":1.0,"dom_n_validos":1,"dom_n_total":1,"dom_completude":1.0},"geometry":{"type":"Polygon","coordinates":[[[-51.86609539029001,-29.387169113863486],[-51.866110587933235,-29.38530334617252],[-51.864118237966295,-29.38528910810584],[-51.86410302683316,-29.387154874897544],[-51.86609539029001,-29.387169113863486]]]}},{"type":"Feature","properties":{"id_grade":"200ME52140N80752","pop":14,"dom":7,"universo_dom":"domicilios_ocupados_grade_ibge_2022","na_bacia":1,"area_pct_bacia":100.0,"metodo_recorte_bacia":"ponto_representativo_grade_2022; area_pct_geometrica","status_borda_bacia":"total","metodo_area_bacia":"interseção geométrica em EPSG:5880","metodo_na_bacia":"ponto_representativo_grade_2022_within_bacia","pop_n_validos":1,"pop_n_total":1,"pop_completude":1.0,"dom_n_validos":1,"dom_n_total":1,"dom_completude":1.0},"geometry":{"type":"Polygon","coordinates":[[[-51.86810293790023,-29.385317571648628],[-51.86811812025502,-29.383451823742682],[-51.8661257846772,-29.3834375991658],[-51.866110587933235,-29.38530334617252],[-51.86810293790023,-29.385317571648628]]]}},{"type":"Feature","properties":{"id_grade":"200ME52142N80752","pop":31,"dom":13,"universo_dom":"domicilios_ocupados_grade_ibge_2022","na_bacia":1,"area_pct_bacia":100.0,"metodo_recorte_bacia":"ponto_representativo_grade_2022; area_pct_geometrica","status_borda_bacia":"total","metodo_area_bacia":"interseção geométrica em EPSG:5880","metodo_na_bacia":"ponto_representativo_grade_2022_within_bacia","pop_n_validos":1,"pop_n_total":1,"pop_completude":1.0,"dom_n_validos":1,"dom_n_total":1,"dom_completude":1.0},"geometry":{"type":"Polygon","coordinates":[[[-51.866110587933235,-29.38530334617252],[-51.8661257846772,-29.3834375991658],[-51.86413344909937,-29.383423361099176],[-51.864118237966295,-29.38528910810584],[-51.866110587933235,-29.38530334617252]]]}},{"type":"Feature","properties":{"id_grade":"200ME52144N80752","pop":29,"dom":11,"universo_dom":"domicilios_ocupados_grade_ibge_2022","na_bacia":1,"area_pct_bacia":100.0,"metodo_recorte_bacia":"ponto_representativo_grade_2022; area_pct_geometrica","status_borda_bacia":"total","metodo_area_bacia":"interseção geométrica em EPSG:5880","metodo_na_bacia":"ponto_representativo_grade_2022_within_bacia","pop_n_validos":1,"pop_n_total":1,"pop_completude":1.0,"dom_n_validos":1,"dom_n_total":1,"dom_completude":1.0},"geometry":{"type":"Polygon","coordinates":[[[-51.864118237966295,-29.38528910810584],[-51.86413344909937,-29.383423361099176],[-51.86214111442086,-29.383409109542797],[-51.86212588889862,-29.385274856549398],[-51.864118237966295,-29.38528910810584]]]}},{"type":"Feature","properties":{"id_grade":"200ME52146N80752","pop":8,"dom":2,"universo_dom":"domicilios_ocupados_grade_ibge_2022","na_bacia":1,"area_pct_bacia":100.0,"metodo_recorte_bacia":"ponto_representativo_grade_2022; area_pct_geometrica","status_borda_bacia":"total","metodo_area_bacia":"interseção geométrica em EPSG:5880","metodo_na_bacia":"ponto_representativo_grade_2022_within_bacia","pop_n_validos":1,"pop_n_total":1,"pop_completude":1.0,"dom_n_validos":1,"dom_n_total":1,"dom_completude":1.0},"geometry":{"type":"Polygon","coordinates":[[[-51.86212588889862,-29.385274856549398],[-51.86214111442086,-29.383409109542797],[-51.86014877884304,-29.383394844496486],[-51.86013353893162,-29.385260591503034],[-51.86212588889862,-29.385274856549398]]]}},{"type":"Feature","properties":{"id_grade":"200ME52148N80752","pop":4,"dom":3,"universo_dom":"domicilios_ocupados_grade_ibge_2022","na_bacia":1,"area_pct_bacia":100.0,"metodo_recorte_bacia":"ponto_representativo_grade_2022; area_pct_geometrica","status_borda_bacia":"total","metodo_area_bacia":"interseção geométrica em EPSG:5880","metodo_na_bacia":"ponto_representativo_grade_2022_within_bacia","pop_n_validos":1,"pop_n_total":1,"pop_completude":1.0,"dom_n_validos":1,"dom_n_total":1,"dom_completude":1.0},"geometry":{"type":"Polygon","coordinates":[[[-51.86013353893162,-29.385260591503034],[-51.86014877884304,-29.383394844496486],[-51.858156444164536,-29.383380566859636],[-51.858141189864,-29.385246312966903],[-51.86013353893162,-29.385260591503034]]]}},{"type":"Feature","properties":{"id_grade":"200ME52148N80754","pop":15,"dom":5,"universo_dom":"domicilios_ocupados_grade_ibge_2022","na_bacia":1,"area_pct_bacia":100.0,"metodo_recorte_bacia":"ponto_representativo_grade_2022; area_pct_geometrica","status_borda_bacia":"total","metodo_area_bacia":"interseção geométrica em EPSG:5880","metodo_na_bacia":"ponto_representativo_grade_2022_within_bacia","pop_n_validos":1,"pop_n_total":1,"pop_completude":1.0,"dom_n_validos":1,"dom_n_total":1,"dom_completude":1.0},"geometry":{"type":"Polygon","coordinates":[[[-51.86014877884304,-29.383394844496486],[-51.8601640187544,-29.381529118174164],[-51.85817169756575,-29.381514840537417],[-51.858156444164536,-29.383380566859636],[-51.86014877884304,-29.383394844496486]]]}},{"type":"Feature","properties":{"id_grade":"200ME52150N80752","pop":10,"dom":3,"universo_dom":"domicilios_ocupados_grade_ibge_2022","na_bacia":1,"area_pct_bacia":100.0,"metodo_recorte_bacia":"ponto_representativo_grade_2022; area_pct_geometrica","status_borda_bacia":"total","metodo_area_bacia":"interseção geométrica em EPSG:5880","metodo_na_bacia":"ponto_representativo_grade_2022_within_bacia","pop_n_validos":1,"pop_n_total":1,"pop_completude":1.0,"dom_n_validos":1,"dom_n_total":1,"dom_completude":1.0},"geometry":{"type":"Polygon","coordinates":[[[-51.858141189864,-29.385246312966903],[-51.858156444164536,-29.383380566859636],[-51.85616410948603,-29.38336627573298],[-51.85614884169564,-29.385232021840302],[-51.858141189864,-29.385246312966903]]]}},{"type":"Feature","properties":{"id_grade":"200ME52152N80752","pop":14,"dom":6,"universo_dom":"domicilios_ocupados_grade_ibge_2022","na_bacia":1,"area_pct_bacia":100.0,"metodo_recorte_bacia":"ponto_representativo_grade_2022; area_pct_geometrica","status_borda_bacia":"total","metodo_area_bacia":"interseção geométrica em EPSG:5880","metodo_na_bacia":"ponto_representativo_grade_2022_within_bacia","pop_n_validos":1,"pop_n_total":1,"pop_completude":1.0,"dom_n_validos":1,"dom_n_total":1,"dom_completude":1.0},"geometry":{"type":"Polygon","coordinates":[[[-51.85614884169564,-29.385232021840302],[-51.85616410948603,-29.38336627573298],[-51.854171774807526,-29.38335197111659],[-51.854156492627965,-29.385217717223888],[-51.85614884169564,-29.385232021840302]]]}},{"type":"Feature","properties":{"id_grade":"200ME52154N80752","pop":16,"dom":6,"universo_dom":"domicilios_ocupados_grade_ibge_2022","na_bacia":1,"area_pct_bacia":100.0,"metodo_recorte_bacia":"ponto_representativo_grade_2022; area_pct_geometrica","status_borda_bacia":"total","metodo_area_bacia":"interseção geométrica em EPSG:5880","metodo_na_bacia":"ponto_representativo_grade_2022_within_bacia","pop_n_validos":1,"pop_n_total":1,"pop_completude":1.0,"dom_n_validos":1,"dom_n_total":1,"dom_completude":1.0},"geometry":{"type":"Polygon","coordinates":[[[-51.854156492627965,-29.385217717223888],[-51.854171774807526,-29.38335197111659],[-51.85217944102834,-29.383337653909585],[-51.852164144459664,-29.385203399117493],[-51.854156492627965,-29.385217717223888]]]}},{"type":"Feature","properties":{"id_grade":"200ME52158N80752","pop":3,"dom":1,"universo_dom":"domicilios_ocupados_grade_ibge_2022","na_bacia":1,"area_pct_bacia":100.0,"metodo_recorte_bacia":"ponto_representativo_grade_2022; area_pct_geometrica","status_borda_bacia":"total","metodo_area_bacia":"interseção geométrica em EPSG:5880","metodo_na_bacia":"ponto_representativo_grade_2022_within_bacia","pop_n_validos":1,"pop_n_total":1,"pop_completude":1.0,"dom_n_validos":1,"dom_n_total":1,"dom_completude":1.0},"geometry":{"type":"Polygon","coordinates":[[[-51.8501717962913,-29.385189067521356],[-51.850187107249155,-29.383323322313398],[-51.84819477346997,-29.38330897812682],[-51.848179448123005,-29.385174723334824],[-51.8501717962913,-29.385189067521356]]]}},{"type":"Feature","properties":{"id_grade":"200ME52150N80754","pop":21,"dom":9,"universo_dom":"domicilios_ocupados_grade_ibge_2022","na_bacia":1,"area_pct_bacia":100.0,"metodo_recorte_bacia":"ponto_representativo_grade_2022; area_pct_geometrica","status_borda_bacia":"total","metodo_area_bacia":"interseção geométrica em EPSG:5880","metodo_na_bacia":"ponto_representativo_grade_2022_within_bacia","pop_n_validos":1,"pop_n_total":1,"pop_completude":1.0,"dom_n_validos":1,"dom_n_total":1,"dom_completude":1.0},"geometry":{"type":"Polygon","coordinates":[[[-51.858156444164536,-29.383380566859636],[-51.85817169756575,-29.381514840537417],[-51.856179377276426,-29.381500549410735],[-51.85616410948603,-29.38336627573298],[-51.858156444164536,-29.383380566859636]]]}},{"type":"Feature","properties":{"id_grade":"200ME52152N80754","pop":13,"dom":6,"universo_dom":"domicilios_ocupados_grade_ibge_2022","na_bacia":1,"area_pct_bacia":100.0,"metodo_recorte_bacia":"ponto_representativo_grade_2022; area_pct_geometrica","status_borda_bacia":"total","metodo_area_bacia":"interseção geométrica em EPSG:5880","metodo_na_bacia":"ponto_representativo_grade_2022_within_bacia","pop_n_validos":1,"pop_n_total":1,"pop_completude":1.0,"dom_n_validos":1,"dom_n_total":1,"dom_completude":1.0},"geometry":{"type":"Polygon","coordinates":[[[-51.85616410948603,-29.38336627573298],[-51.856179377276426,-29.381500549410735],[-51.85418705698703,-29.38148624569364],[-51.854171774807526,-29.38335197111659],[-51.85616410948603,-29.38336627573298]]]}},{"type":"Feature","properties":{"id_grade":"200ME52152N80756","pop":12,"dom":5,"universo_dom":"domicilios_ocupados_grade_ibge_2022","na_bacia":1,"area_pct_bacia":100.0,"metodo_recorte_bacia":"ponto_representativo_grade_2022; area_pct_geometrica","status_borda_bacia":"total","metodo_area_bacia":"interseção geométrica em EPSG:5880","metodo_na_bacia":"ponto_representativo_grade_2022_within_bacia","pop_n_validos":1,"pop_n_total":1,"pop_completude":1.0,"dom_n_validos":1,"dom_n_total":1,"dom_completude":1.0},"geometry":{"type":"Polygon","coordinates":[[[-51.856179377276426,-29.381500549410735],[-51.85619464506675,-29.379634843772973],[-51.85420233916659,-29.379620540055917],[-51.85418705698703,-29.38148624569364],[-51.856179377276426,-29.381500549410735]]]}},{"type":"Feature","properties":{"id_grade":"200ME52154N80756","pop":20,"dom":10,"universo_dom":"domicilios_ocupados_grade_ibge_2022","na_bacia":1,"area_pct_bacia":100.0,"metodo_recorte_bacia":"ponto_representativo_grade_2022; area_pct_geometrica","status_borda_bacia":"total","metodo_area_bacia":"interseção geométrica em EPSG:5880","metodo_na_bacia":"ponto_representativo_grade_2022_within_bacia","pop_n_validos":1,"pop_n_total":1,"pop_completude":1.0,"dom_n_validos":1,"dom_n_total":1,"dom_completude":1.0},"geometry":{"type":"Polygon","coordinates":[[[-51.85418705698703,-29.38148624569364],[-51.85420233916659,-29.379620540055917],[-51.852210033266374,-29.37960622284884],[-51.85219473759701,-29.381471928486754],[-51.85418705698703,-29.38148624569364]]]}},{"type":"Feature","properties":{"id_grade":"200ME52156N80756","pop":4,"dom":1,"universo_dom":"domicilios_ocupados_grade_ibge_2022","na_bacia":1,"area_pct_bacia":100.0,"metodo_recorte_bacia":"ponto_representativo_grade_2022; area_pct_geometrica","status_borda_bacia":"total","metodo_area_bacia":"interseção geométrica em EPSG:5880","metodo_na_bacia":"ponto_representativo_grade_2022_within_bacia","pop_n_validos":1,"pop_n_total":1,"pop_completude":1.0,"dom_n_validos":1,"dom_n_total":1,"dom_completude":1.0},"geometry":{"type":"Polygon","coordinates":[[[-51.85219473759701,-29.381471928486754],[-51.852210033266374,-29.37960622284884],[-51.85021772736616,-29.379591892152053],[-51.850202417307685,-29.381457597789847],[-51.85219473759701,-29.381471928486754]]]}},{"type":"Feature","properties":{"id_grade":"200ME52156N80758","pop":9,"dom":4,"universo_dom":"domicilios_ocupados_grade_ibge_2022","na_bacia":1,"area_pct_bacia":100.0,"metodo_recorte_bacia":"ponto_representativo_grade_2022; area_pct_geometrica","status_borda_bacia":"total","metodo_area_bacia":"interseção geométrica em EPSG:5880","metodo_na_bacia":"ponto_representativo_grade_2022_within_bacia","pop_n_validos":1,"pop_n_total":1,"pop_completude":1.0,"dom_n_validos":1,"dom_n_total":1,"dom_completude":1.0},"geometry":{"type":"Polygon","coordinates":[[[-51.852210033266374,-29.37960622284884],[-51.85222532893574,-29.377740537895516],[-51.850233037424694,-29.377726208097958],[-51.85021772736616,-29.379591892152053],[-51.852210033266374,-29.37960622284884]]]}}]}
