{"type":"FeatureCollection","name":"4307864","crs":{"type":"name","properties":{"name":"urn:ogc:def:crs:OGC:1.3:CRS84"}},"features":[{"type":"Feature","properties":{"id_grade":"1KME5224N8123","pop":3,"dom":1,"universo_dom":"domicilios_ocupados_grade_ibge_2022","na_bacia":1,"area_pct_bacia":100.0,"metodo_recorte_bacia":"ponto_representativo_grade_2022; area_pct_geometrica"},"geometry":{"type":"Polygon","coordinates":[[[-51.77229339850526,-28.937386842014398],[-51.77237258715951,-28.928082197206354],[-51.762428245103266,-28.928007941822223],[-51.76234870297338,-28.937312580101132],[-51.77229339850526,-28.937386842014398]]]}},{"type":"Feature","properties":{"id_grade":"1KME5225N8123","pop":8,"dom":2,"universo_dom":"domicilios_ocupados_grade_ibge_2022","na_bacia":1,"area_pct_bacia":100.0,"metodo_recorte_bacia":"ponto_representativo_grade_2022; area_pct_geometrica"},"geometry":{"type":"Polygon","coordinates":[[[-51.76234870297338,-28.937312580101132],[-51.762428245103266,-28.928007941822223],[-51.752483908701706,-28.92793335573171],[-51.75240401309677,-28.93723798745209],[-51.76234870297338,-28.937312580101132]]]}},{"type":"Feature","properties":{"id_grade":"1KME5227N8123","pop":10,"dom":2,"universo_dom":"domicilios_ocupados_grade_ibge_2022","na_bacia":1,"area_pct_bacia":100.0,"metodo_recorte_bacia":"ponto_representativo_grade_2022; area_pct_geometrica"},"geometry":{"type":"Polygon","coordinates":[[[-51.742459328900566,-28.937163064068734],[-51.74253957797994,-28.92785843893524],[-51.73259525296309,-28.927783191433686],[-51.73251465040989,-28.93708780995067],[-51.742459328900566,-28.937163064068734]]]}},{"type":"Feature","properties":{"id_grade":"1KME5228N8123","pop":6,"dom":1,"universo_dom":"domicilios_ocupados_grade_ibge_2022","na_bacia":1,"area_pct_bacia":100.0,"metodo_recorte_bacia":"ponto_representativo_grade_2022; area_pct_geometrica"},"geometry":{"type":"Polygon","coordinates":[[[-51.73251465040989,-28.93708780995067],[-51.73259525296309,-28.927783191433686],[-51.72265093367629,-28.927707613227582],[-51.72256997764986,-28.937012225099316],[-51.73251465040989,-28.93708780995067]]]}},{"type":"Feature","properties":{"id_grade":"1KME5229N8123","pop":3,"dom":1,"universo_dom":"domicilios_ocupados_grade_ibge_2022","na_bacia":1,"area_pct_bacia":100.0,"metodo_recorte_bacia":"ponto_representativo_grade_2022; area_pct_geometrica"},"geometry":{"type":"Polygon","coordinates":[[[-51.72256997764986,-28.937012225099316],[-51.72265093367629,-28.927707613227582],[-51.71270662014465,-28.927631704318088],[-51.712625310645635,-28.93693630951523],[-51.72256997764986,-28.937012225099316]]]}},{"type":"Feature","properties":{"id_grade":"1KME5224N8124","pop":9,"dom":3,"universo_dom":"domicilios_ocupados_grade_ibge_2022","na_bacia":1,"area_pct_bacia":100.0,"metodo_recorte_bacia":"ponto_representativo_grade_2022; area_pct_geometrica"},"geometry":{"type":"Polygon","coordinates":[[[-51.77237258715951,-28.928082197206354],[-51.77245177018421,-28.91877803954732],[-51.7625077815785,-28.91870379068886],[-51.762428245103266,-28.928007941822223],[-51.77237258715951,-28.928082197206354]]]}},{"type":"Feature","properties":{"id_grade":"1KME5225N8124","pop":21,"dom":6,"universo_dom":"domicilios_ocupados_grade_ibge_2022","na_bacia":1,"area_pct_bacia":100.0,"metodo_recorte_bacia":"ponto_representativo_grade_2022; area_pct_geometrica"},"geometry":{"type":"Polygon","coordinates":[[[-51.762428245103266,-28.928007941822223],[-51.7625077815785,-28.91870379068886],[-51.752563798626845,-28.918629211153107],[-51.752483908701706,-28.92793335573171],[-51.762428245103266,-28.928007941822223]]]}},{"type":"Feature","properties":{"id_grade":"1KME5226N8124","pop":32,"dom":11,"universo_dom":"domicilios_ocupados_grade_ibge_2022","na_bacia":1,"area_pct_bacia":100.0,"metodo_recorte_bacia":"ponto_representativo_grade_2022; area_pct_geometrica"},"geometry":{"type":"Polygon","coordinates":[[[-51.752483908701706,-28.92793335573171],[-51.752563798626845,-28.918629211153107],[-51.74261982135439,-28.918554300940322],[-51.74253957797994,-28.92785843893524],[-51.752483908701706,-28.92793335573171]]]}},{"type":"Feature","properties":{"id_grade":"1KME5227N8124","pop":6,"dom":2,"universo_dom":"domicilios_ocupados_grade_ibge_2022","na_bacia":1,"area_pct_bacia":100.0,"metodo_recorte_bacia":"ponto_representativo_grade_2022; area_pct_geometrica"},"geometry":{"type":"Polygon","coordinates":[[[-51.74253957797994,-28.92785843893524],[-51.74261982135439,-28.918554300940322],[-51.73267584978625,-28.918479060051624],[-51.73259525296309,-28.927783191433686],[-51.74253957797994,-28.92785843893524]]]}},{"type":"Feature","properties":{"id_grade":"1KME5228N8124","pop":7,"dom":3,"universo_dom":"domicilios_ocupados_grade_ibge_2022","na_bacia":1,"area_pct_bacia":100.0,"metodo_recorte_bacia":"ponto_representativo_grade_2022; area_pct_geometrica"},"geometry":{"type":"Polygon","coordinates":[[[-51.73259525296309,-28.927783191433686],[-51.73267584978625,-28.918479060051624],[-51.72273188394754,-28.918403488487623],[-51.72265093367629,-28.927707613227582],[-51.73259525296309,-28.927783191433686]]]}},{"type":"Feature","properties":{"id_grade":"1KME5229N8124","pop":16,"dom":5,"universo_dom":"domicilios_ocupados_grade_ibge_2022","na_bacia":1,"area_pct_bacia":100.0,"metodo_recorte_bacia":"ponto_representativo_grade_2022; area_pct_geometrica"},"geometry":{"type":"Polygon","coordinates":[[[-51.72265093367629,-28.927707613227582],[-51.72273188394754,-28.918403488487623],[-51.712787923863395,-28.91832758624882],[-51.71270662014465,-28.927631704318088],[-51.72265093367629,-28.927707613227582]]]}},{"type":"Feature","properties":{"id_grade":"1KME5230N8124","pop":12,"dom":4,"universo_dom":"domicilios_ocupados_grade_ibge_2022","na_bacia":1,"area_pct_bacia":100.0,"metodo_recorte_bacia":"ponto_representativo_grade_2022; area_pct_geometrica"},"geometry":{"type":"Polygon","coordinates":[[[-51.71270662014465,-28.927631704318088],[-51.712787923863395,-28.91832758624882],[-51.70284396955893,-28.918251353335897],[-51.702762312393325,-28.92755546470556],[-51.71270662014465,-28.927631704318088]]]}},{"type":"Feature","properties":{"id_grade":"1KME5231N8124","pop":8,"dom":2,"universo_dom":"domicilios_ocupados_grade_ibge_2022","na_bacia":1,"area_pct_bacia":100.0,"metodo_recorte_bacia":"ponto_representativo_grade_2022; area_pct_geometrica"},"geometry":{"type":"Polygon","coordinates":[[[-51.702762312393325,-28.92755546470556],[-51.70284396955893,-28.918251353335897],[-51.69290002105925,-28.918174789749948],[-51.69281801044742,-28.927478894390674],[-51.702762312393325,-28.92755546470556]]]}},{"type":"Feature","properties":{"id_grade":"1KME5232N8124","pop":10,"dom":3,"universo_dom":"domicilios_ocupados_grade_ibge_2022","na_bacia":1,"area_pct_bacia":100.0,"metodo_recorte_bacia":"ponto_representativo_grade_2022; area_pct_geometrica"},"geometry":{"type":"Polygon","coordinates":[[[-51.69281801044742,-28.927478894390674],[-51.69290002105925,-28.918174789749948],[-51.682956078389516,-28.918097895491744],[-51.68287371433205,-28.927401993374243],[-51.69281801044742,-28.927478894390674]]]}},{"type":"Feature","properties":{"id_grade":"1KME5227N8125","pop":16,"dom":3,"universo_dom":"domicilios_ocupados_grade_ibge_2022","na_bacia":1,"area_pct_bacia":100.0,"metodo_recorte_bacia":"ponto_representativo_grade_2022; area_pct_geometrica"},"geometry":{"type":"Polygon","coordinates":[[[-51.74261982135439,-28.918554300940322],[-51.74270005902453,-28.909250649710433],[-51.732756440879974,-28.909175415430877],[-51.73267584978625,-28.918479060051624],[-51.74261982135439,-28.918554300940322]]]}},{"type":"Feature","properties":{"id_grade":"1KME5231N8125","pop":7,"dom":2,"universo_dom":"domicilios_ocupados_grade_ibge_2022","na_bacia":1,"area_pct_bacia":100.0,"metodo_recorte_bacia":"ponto_representativo_grade_2022; area_pct_geometrica"},"geometry":{"type":"Polygon","coordinates":[[[-51.70284396955893,-28.918251353335897],[-51.702925620919714,-28.908947728717695],[-51.69298202584117,-28.908871171857363],[-51.69290002105925,-28.918174789749948],[-51.70284396955893,-28.918251353335897]]]}},{"type":"Feature","properties":{"id_grade":"1KME5221N8126","pop":2,"dom":1,"universo_dom":"domicilios_ocupados_grade_ibge_2022","na_bacia":1,"area_pct_bacia":100.0,"metodo_recorte_bacia":"ponto_representativo_grade_2022; area_pct_geometrica"},"geometry":{"type":"Polygon","coordinates":[[[-51.80236188679051,-28.909695111774173],[-51.8024399983535,-28.90039190791055],[-51.79249669976558,-28.900318663955495],[-51.792418234800515,-28.909621861387688],[-51.80236188679051,-28.909695111774173]]]}},{"type":"Feature","properties":{"id_grade":"1KME5222N8126","pop":13,"dom":4,"universo_dom":"domicilios_ocupados_grade_ibge_2022","na_bacia":1,"area_pct_bacia":100.0,"metodo_recorte_bacia":"ponto_representativo_grade_2022; area_pct_geometrica"},"geometry":{"type":"Polygon","coordinates":[[[-51.792418234800515,-28.909621861387688],[-51.79249669976558,-28.900318663955495],[-51.78255340675517,-28.90024508937932],[-51.78247458838863,-28.909548280350453],[-51.792418234800515,-28.909621861387688]]]}},{"type":"Feature","properties":{"id_grade":"1KME5223N8126","pop":11,"dom":3,"universo_dom":"domicilios_ocupados_grade_ibge_2022","na_bacia":1,"area_pct_bacia":100.0,"metodo_recorte_bacia":"ponto_representativo_grade_2022; area_pct_geometrica"},"geometry":{"type":"Polygon","coordinates":[[[-51.78247458838863,-28.909548280350453],[-51.78255340675517,-28.90024508937932],[-51.772610119347384,-28.900171184182128],[-51.772530947579966,-28.90947436866351],[-51.78247458838863,-28.909548280350453]]]}},{"type":"Feature","properties":{"id_grade":"1KME5224N8126","pop":27,"dom":6,"universo_dom":"domicilios_ocupados_grade_ibge_2022","na_bacia":1,"area_pct_bacia":100.0,"metodo_recorte_bacia":"ponto_representativo_grade_2022; area_pct_geometrica"},"geometry":{"type":"Polygon","coordinates":[[[-51.772530947579966,-28.90947436866351],[-51.772610119347384,-28.900171184182128],[-51.762666837567345,-28.900096948364837],[-51.76258731239965,-28.909400126327245],[-51.772530947579966,-28.90947436866351]]]}},{"type":"Feature","properties":{"id_grade":"1KME5225N8126","pop":29,"dom":7,"universo_dom":"domicilios_ocupados_grade_ibge_2022","na_bacia":1,"area_pct_bacia":100.0,"metodo_recorte_bacia":"ponto_representativo_grade_2022; area_pct_geometrica"},"geometry":{"type":"Polygon","coordinates":[[[-51.76258731239965,-28.909400126327245],[-51.762666837567345,-28.900096948364837],[-51.75272356144016,-28.90002238192811],[-51.7526436828728,-28.909325553342754],[-51.76258731239965,-28.909400126327245]]]}},{"type":"Feature","properties":{"id_grade":"1KME5226N8126","pop":21,"dom":6,"universo_dom":"domicilios_ocupados_grade_ibge_2022","na_bacia":1,"area_pct_bacia":100.0,"metodo_recorte_bacia":"ponto_representativo_grade_2022; area_pct_geometrica"},"geometry":{"type":"Polygon","coordinates":[[[-51.7526436828728,-28.909325553342754],[-51.75272356144016,-28.90002238192811],[-51.74278029099097,-28.899947484872428],[-51.74270005902453,-28.909250649710433],[-51.7526436828728,-28.909325553342754]]]}},{"type":"Feature","properties":{"id_grade":"1KME5227N8126","pop":22,"dom":6,"universo_dom":"domicilios_ocupados_grade_ibge_2022","na_bacia":1,"area_pct_bacia":100.0,"metodo_recorte_bacia":"ponto_representativo_grade_2022; area_pct_geometrica"},"geometry":{"type":"Polygon","coordinates":[[[-51.74270005902453,-28.909250649710433],[-51.74278029099097,-28.899947484872428],[-51.73283702624487,-28.89987225719916],[-51.732756440879974,-28.909175415430877],[-51.74270005902453,-28.909250649710433]]]}},{"type":"Feature","properties":{"id_grade":"1KME5228N8126","pop":32,"dom":11,"universo_dom":"domicilios_ocupados_grade_ibge_2022","na_bacia":1,"area_pct_bacia":100.0,"metodo_recorte_bacia":"ponto_representativo_grade_2022; area_pct_geometrica"},"geometry":{"type":"Polygon","coordinates":[[[-51.732756440879974,-28.909175415430877],[-51.73283702624487,-28.89987225719916],[-51.722893767226985,-28.89979669890841],[-51.722812828464235,-28.909099850505335],[-51.732756440879974,-28.909175415430877]]]}},{"type":"Feature","properties":{"id_grade":"1KME5229N8126","pop":24,"dom":6,"universo_dom":"domicilios_ocupados_grade_ibge_2022","na_bacia":1,"area_pct_bacia":100.0,"metodo_recorte_bacia":"ponto_representativo_grade_2022; area_pct_geometrica"},"geometry":{"type":"Polygon","coordinates":[[[-51.722812828464235,-28.909099850505335],[-51.722893767226985,-28.89979669890841],[-51.712950513962426,-28.899720810000787],[-51.71286922180244,-28.909023954933943],[-51.722812828464235,-28.909099850505335]]]}},{"type":"Feature","properties":{"id_grade":"1KME5230N8126","pop":28,"dom":11,"universo_dom":"domicilios_ocupados_grade_ibge_2022","na_bacia":1,"area_pct_bacia":100.0,"metodo_recorte_bacia":"ponto_representativo_grade_2022; area_pct_geometrica"},"geometry":{"type":"Polygon","coordinates":[[[-51.71286922180244,-28.909023954933943],[-51.712950513962426,-28.899720810000787],[-51.70300726647632,-28.89964459047747],[-51.702925620919714,-28.908947728717695],[-51.71286922180244,-28.909023954933943]]]}},{"type":"Feature","properties":{"id_grade":"1KME5231N8126","pop":12,"dom":3,"universo_dom":"domicilios_ocupados_grade_ibge_2022","na_bacia":1,"area_pct_bacia":100.0,"metodo_recorte_bacia":"ponto_representativo_grade_2022; area_pct_geometrica"},"geometry":{"type":"Polygon","coordinates":[[[-51.702925620919714,-28.908947728717695],[-51.70300726647632,-28.89964459047747],[-51.69306402479378,-28.89956804033886],[-51.69298202584117,-28.908871171857363],[-51.702925620919714,-28.908947728717695]]]}},{"type":"Feature","properties":{"id_grade":"1KME5232N8126","pop":23,"dom":6,"universo_dom":"domicilios_ocupados_grade_ibge_2022","na_bacia":1,"area_pct_bacia":100.0,"metodo_recorte_bacia":"ponto_representativo_grade_2022; area_pct_geometrica"},"geometry":{"type":"Polygon","coordinates":[[[-51.69298202584117,-28.908871171857363],[-51.69306402479378,-28.89956804033886],[-51.683120788939924,-28.899491159585615],[-51.68303843659193,-28.908794284353203],[-51.69298202584117,-28.908871171857363]]]}},{"type":"Feature","properties":{"id_grade":"1KME5233N8126","pop":16,"dom":6,"universo_dom":"domicilios_ocupados_grade_ibge_2022","na_bacia":1,"area_pct_bacia":100.0,"metodo_recorte_bacia":"ponto_representativo_grade_2022; area_pct_geometrica"},"geometry":{"type":"Polygon","coordinates":[[[-51.68303843659193,-28.908794284353203],[-51.683120788939924,-28.899491159585615],[-51.673177558939855,-28.89941394821875],[-51.673094853197114,-28.90871706620638],[-51.68303843659193,-28.908794284353203]]]}},{"type":"Feature","properties":{"id_grade":"1KME5234N8126","pop":20,"dom":7,"universo_dom":"domicilios_ocupados_grade_ibge_2022","na_bacia":1,"area_pct_bacia":100.0,"metodo_recorte_bacia":"ponto_representativo_grade_2022; area_pct_geometrica"},"geometry":{"type":"Polygon","coordinates":[[[-51.673094853197114,-28.90871706620638],[-51.673177558939855,-28.89941394821875],[-51.66323433481871,-28.89933640623895],[-51.663151275681834,-28.908639517417644],[-51.673094853197114,-28.90871706620638]]]}},{"type":"Feature","properties":{"id_grade":"1KME5235N8126","pop":10,"dom":4,"universo_dom":"domicilios_ocupados_grade_ibge_2022","na_bacia":1,"area_pct_bacia":100.0,"metodo_recorte_bacia":"ponto_representativo_grade_2022; area_pct_geometrica"},"geometry":{"type":"Polygon","coordinates":[[[-51.663151275681834,-28.908639517417644],[-51.66323433481871,-28.89933640623895],[-51.6532911166016,-28.89925853364632],[-51.653207704071214,-28.908561637987532],[-51.663151275681834,-28.908639517417644]]]}},{"type":"Feature","properties":{"id_grade":"1KME5236N8126","pop":19,"dom":5,"universo_dom":"domicilios_ocupados_grade_ibge_2022","na_bacia":1,"area_pct_bacia":100.0,"metodo_recorte_bacia":"ponto_representativo_grade_2022; area_pct_geometrica"},"geometry":{"type":"Polygon","coordinates":[[[-51.653207704071214,-28.908561637987532],[-51.6532911166016,-28.89925853364632],[-51.64334790431363,-28.89918033044278],[-51.643264138390386,-28.90848342791676],[-51.653207704071214,-28.908561637987532]]]}},{"type":"Feature","properties":{"id_grade":"1KME5230N8127","pop":4,"dom":2,"universo_dom":"domicilios_ocupados_grade_ibge_2022","na_bacia":1,"area_pct_bacia":100.0,"metodo_recorte_bacia":"ponto_representativo_grade_2022; area_pct_geometrica"},"geometry":{"type":"Polygon","coordinates":[[[-51.712950513962426,-28.899720810000787],[-51.71303180034397,-28.890418151076],[-51.70308890622936,-28.89034193824196],[-51.70300726647632,-28.89964459047747],[-51.712950513962426,-28.899720810000787]]]}},{"type":"Feature","properties":{"id_grade":"1KME5231N8127","pop":30,"dom":10,"universo_dom":"domicilios_ocupados_grade_ibge_2022","na_bacia":1,"area_pct_bacia":100.0,"metodo_recorte_bacia":"ponto_representativo_grade_2022; area_pct_geometrica"},"geometry":{"type":"Polygon","coordinates":[[[-51.70300726647632,-28.89964459047747],[-51.70308890622936,-28.89034193824196],[-51.693146017917705,-28.89026539482198],[-51.69306402479378,-28.89956804033886],[-51.70300726647632,-28.89964459047747]]]}},{"type":"Feature","properties":{"id_grade":"1KME5233N8127","pop":4,"dom":1,"universo_dom":"domicilios_ocupados_grade_ibge_2022","na_bacia":1,"area_pct_bacia":100.0,"metodo_recorte_bacia":"ponto_representativo_grade_2022; area_pct_geometrica"},"geometry":{"type":"Polygon","coordinates":[[[-51.683120788939924,-28.899491159585615],[-51.683203135434105,-28.890188520815915],[-51.67326025880369,-28.890111316225514],[-51.673177558939855,-28.89941394821875],[-51.683120788939924,-28.899491159585615]]]}},{"type":"Feature","properties":{"id_grade":"1KME5236N8127","pop":2,"dom":1,"universo_dom":"domicilios_ocupados_grade_ibge_2022","na_bacia":1,"area_pct_bacia":100.0,"metodo_recorte_bacia":"ponto_representativo_grade_2022; area_pct_geometrica"},"geometry":{"type":"Polygon","coordinates":[[[-51.6532911166016,-28.89925853364632],[-51.65337452320282,-28.889955915292962],[-51.643431664282616,-28.889877718952267],[-51.64334790431363,-28.89918033044278],[-51.6532911166016,-28.89925853364632]]]}},{"type":"Feature","properties":{"id_grade":"1KME5223N8128","pop":2,"dom":1,"universo_dom":"domicilios_ocupados_grade_ibge_2022","na_bacia":1,"area_pct_bacia":100.0,"metodo_recorte_bacia":"ponto_representativo_grade_2022; area_pct_geometrica"},"geometry":{"type":"Polygon","coordinates":[[[-51.78263221951907,-28.890942384440923],[-51.78271102668095,-28.88164016516299],[-51.772768445999574,-28.881566272935228],[-51.772689285487054,-28.890868485730252],[-51.78263221951907,-28.890942384440923]]]}},{"type":"Feature","properties":{"id_grade":"1KME5224N8128","pop":18,"dom":7,"universo_dom":"domicilios_ocupados_grade_ibge_2022","na_bacia":1,"area_pct_bacia":100.0,"metodo_recorte_bacia":"ponto_representativo_grade_2022; area_pct_geometrica"},"geometry":{"type":"Polygon","coordinates":[[[-51.772689285487054,-28.890868485730252],[-51.772768445999574,-28.881566272935228],[-51.76282587094474,-28.881492050145305],[-51.76274635708218,-28.89079425642833],[-51.772689285487054,-28.890868485730252]]]}},{"type":"Feature","properties":{"id_grade":"1KME5225N8128","pop":7,"dom":3,"universo_dom":"domicilios_ocupados_grade_ibge_2022","na_bacia":1,"area_pct_bacia":100.0,"metodo_recorte_bacia":"ponto_representativo_grade_2022; area_pct_geometrica"},"geometry":{"type":"Polygon","coordinates":[[[-51.76274635708218,-28.89079425642833],[-51.76282587094474,-28.881492050145305],[-51.75288330154157,-28.881417496793876],[-51.75280343432956,-28.89071969653603],[-51.76274635708218,-28.89079425642833]]]}},{"type":"Feature","properties":{"id_grade":"1KME5226N8128","pop":17,"dom":7,"universo_dom":"domicilios_ocupados_grade_ibge_2022","na_bacia":1,"area_pct_bacia":100.0,"metodo_recorte_bacia":"ponto_representativo_grade_2022; area_pct_geometrica"},"geometry":{"type":"Polygon","coordinates":[[[-51.75280343432956,-28.89071969653603],[-51.75288330154157,-28.881417496793876],[-51.74294073781516,-28.881342612881696],[-51.742860517254314,-28.8906448060539],[-51.75280343432956,-28.89071969653603]]]}},{"type":"Feature","properties":{"id_grade":"1KME5227N8128","pop":28,"dom":10,"universo_dom":"domicilios_ocupados_grade_ibge_2022","na_bacia":1,"area_pct_bacia":100.0,"metodo_recorte_bacia":"ponto_representativo_grade_2022; area_pct_geometrica"},"geometry":{"type":"Polygon","coordinates":[[[-51.742860517254314,-28.8906448060539],[-51.74294073781516,-28.881342612881696],[-51.732998179790634,-28.88126739840946],[-51.73291760588155,-28.890569584982757],[-51.742860517254314,-28.8906448060539]]]}},{"type":"Feature","properties":{"id_grade":"1KME5228N8128","pop":30,"dom":8,"universo_dom":"domicilios_ocupados_grade_ibge_2022","na_bacia":1,"area_pct_bacia":100.0,"metodo_recorte_bacia":"ponto_representativo_grade_2022; area_pct_geometrica"},"geometry":{"type":"Polygon","coordinates":[[[-51.73291760588155,-28.890569584982757],[-51.732998179790634,-28.88126739840946],[-51.7230556274931,-28.881191853377846],[-51.7229747002364,-28.890494033323264],[-51.73291760588155,-28.890569584982757]]]}},{"type":"Feature","properties":{"id_grade":"1KME5234N8128","pop":8,"dom":4,"universo_dom":"domicilios_ocupados_grade_ibge_2022","na_bacia":1,"area_pct_bacia":100.0,"metodo_recorte_bacia":"ponto_representativo_grade_2022; area_pct_geometrica"},"geometry":{"type":"Polygon","coordinates":[[[-51.67326025880369,-28.890111316225514],[-51.673342952789234,-28.880809169853872],[-51.66340043538101,-28.88073164148096],[-51.66331738805155,-28.890033781050892],[-51.67326025880369,-28.890111316225514]]]}},{"type":"Feature","properties":{"id_grade":"1KME5235N8128","pop":16,"dom":5,"universo_dom":"domicilios_ocupados_grade_ibge_2022","na_bacia":1,"area_pct_bacia":100.0,"metodo_recorte_bacia":"ponto_representativo_grade_2022; area_pct_geometrica"},"geometry":{"type":"Polygon","coordinates":[[[-51.66331738805155,-28.890033781050892],[-51.66340043538101,-28.88073164148096],[-51.653457923875536,-28.880653782553892],[-51.65337452320282,-28.889955915292962],[-51.66331738805155,-28.890033781050892]]]}},{"type":"Feature","properties":{"id_grade":"1KME5236N8128","pop":16,"dom":6,"universo_dom":"domicilios_ocupados_grade_ibge_2022","na_bacia":1,"area_pct_bacia":100.0,"metodo_recorte_bacia":"ponto_representativo_grade_2022; area_pct_geometrica"},"geometry":{"type":"Polygon","coordinates":[[[-51.65337452320282,-28.889955915292962],[-51.653457923875536,-28.880653782553892],[-51.643515418297966,-28.880575593073146],[-51.643431664282616,-28.889877718952267],[-51.65337452320282,-28.889955915292962]]]}},{"type":"Feature","properties":{"id_grade":"1KME5234N8129","pop":10,"dom":3,"universo_dom":"domicilios_ocupados_grade_ibge_2022","na_bacia":1,"area_pct_bacia":100.0,"metodo_recorte_bacia":"ponto_representativo_grade_2022; area_pct_geometrica"},"geometry":{"type":"Polygon","coordinates":[[[-51.673342952789234,-28.880809169853872],[-51.673425640897115,-28.87150750873185],[-51.66348347680767,-28.8714299871571],[-51.66340043538101,-28.88073164148096],[-51.673342952789234,-28.880809169853872]]]}},{"type":"Feature","properties":{"id_grade":"1KME5235N8129","pop":5,"dom":2,"universo_dom":"domicilios_ocupados_grade_ibge_2022","na_bacia":1,"area_pct_bacia":100.0,"metodo_recorte_bacia":"ponto_representativo_grade_2022; area_pct_geometrica"},"geometry":{"type":"Polygon","coordinates":[[[-51.66340043538101,-28.88073164148096],[-51.66348347680767,-28.8714299871571],[-51.65354131862036,-28.871352135056963],[-51.653457923875536,-28.880653782553892],[-51.66340043538101,-28.88073164148096]]]}},{"type":"Feature","properties":{"id_grade":"1KME5236N8129","pop":13,"dom":5,"universo_dom":"domicilios_ocupados_grade_ibge_2022","na_bacia":1,"area_pct_bacia":100.0,"metodo_recorte_bacia":"ponto_representativo_grade_2022; area_pct_geometrica"},"geometry":{"type":"Polygon","coordinates":[[[-51.653457923875536,-28.880653782553892],[-51.65354131862036,-28.871352135056963],[-51.64359916636032,-28.87127395243205],[-51.643515418297966,-28.880575593073146],[-51.653457923875536,-28.880653782553892]]]}},{"type":"Feature","properties":{"id_grade":"1KME5237N8129","pop":17,"dom":4,"universo_dom":"domicilios_ocupados_grade_ibge_2022","na_bacia":1,"area_pct_bacia":100.0,"metodo_recorte_bacia":"ponto_representativo_grade_2022; area_pct_geometrica"},"geometry":{"type":"Polygon","coordinates":[[[-51.643515418297966,-28.880575593073146],[-51.64359916636032,-28.87127395243205],[-51.63365702005263,-28.871195439283337],[-51.63357291867337,-28.88049707303937],[-51.643515418297966,-28.880575593073146]]]}},{"type":"Feature","properties":{"id_grade":"1KME5238N8129","pop":24,"dom":7,"universo_dom":"domicilios_ocupados_grade_ibge_2022","na_bacia":1,"area_pct_bacia":100.0,"metodo_recorte_bacia":"ponto_representativo_grade_2022; area_pct_geometrica"},"geometry":{"type":"Polygon","coordinates":[[[-51.63357291867337,-28.88049707303937],[-51.63365702005263,-28.871195439283337],[-51.62371487972241,-28.87111659561132],[-51.6236304250269,-28.880418222453258],[-51.63357291867337,-28.88049707303937]]]}},{"type":"Feature","properties":{"id_grade":"1KME5228N8130","pop":2,"dom":1,"universo_dom":"domicilios_ocupados_grade_ibge_2022","na_bacia":1,"area_pct_bacia":100.0,"metodo_recorte_bacia":"ponto_representativo_grade_2022; area_pct_geometrica"},"geometry":{"type":"Polygon","coordinates":[[[-51.733078747972726,-28.871965697106628],[-51.733159310428434,-28.862664480702055],[-51.7232174647508,-28.862588948915565],[-51.7231365489977,-28.871890158699212],[-51.733078747972726,-28.871965697106628]]]}},{"type":"Feature","properties":{"id_grade":"1KME5229N8130","pop":3,"dom":2,"universo_dom":"domicilios_ocupados_grade_ibge_2022","na_bacia":1,"area_pct_bacia":100.0,"metodo_recorte_bacia":"ponto_representativo_grade_2022; area_pct_geometrica"},"geometry":{"type":"Polygon","coordinates":[[[-51.7231365489977,-28.871890158699212],[-51.7232174647508,-28.862588948915565],[-51.71327562482406,-28.862513086628574],[-51.713194355774164,-28.871814289762444],[-51.7231365489977,-28.871890158699212]]]}},{"type":"Feature","properties":{"id_grade":"1KME5230N8130","pop":1,"dom":1,"universo_dom":"domicilios_ocupados_grade_ibge_2022","na_bacia":1,"area_pct_bacia":100.0,"metodo_recorte_bacia":"ponto_representativo_grade_2022; area_pct_geometrica"},"geometry":{"type":"Polygon","coordinates":[[[-51.713194355774164,-28.871814289762444],[-51.71327562482406,-28.862513086628574],[-51.70333379067329,-28.862436893841394],[-51.70325216832724,-28.871738090296418],[-51.713194355774164,-28.871814289762444]]]}},{"type":"Feature","properties":{"id_grade":"1KME5231N8130","pop":15,"dom":3,"universo_dom":"domicilios_ocupados_grade_ibge_2022","na_bacia":1,"area_pct_bacia":100.0,"metodo_recorte_bacia":"ponto_representativo_grade_2022; area_pct_geometrica"},"geometry":{"type":"Polygon","coordinates":[[[-51.70325216832724,-28.871738090296418],[-51.70333379067329,-28.862436893841394],[-51.693391962323616,-28.862360370554732],[-51.693309986682,-28.871661560302435],[-51.70325216832724,-28.871738090296418]]]}},{"type":"Feature","properties":{"id_grade":"1KME5232N8130","pop":3,"dom":1,"universo_dom":"domicilios_ocupados_grade_ibge_2022","na_bacia":1,"area_pct_bacia":100.0,"metodo_recorte_bacia":"ponto_representativo_grade_2022; area_pct_geometrica"},"geometry":{"type":"Polygon","coordinates":[[[-51.693309986682,-28.871661560302435],[-51.693391962323616,-28.862360370554732],[-51.68345013980014,-28.862283516769793],[-51.683367810863594,-28.871584699780485],[-51.693309986682,-28.871661560302435]]]}},{"type":"Feature","properties":{"id_grade":"1KME5235N8130","pop":3,"dom":1,"universo_dom":"domicilios_ocupados_grade_ibge_2022","na_bacia":1,"area_pct_bacia":100.0,"metodo_recorte_bacia":"ponto_representativo_grade_2022; area_pct_geometrica"},"geometry":{"type":"Polygon","coordinates":[[[-51.66348347680767,-28.8714299871571],[-51.663566512332196,-28.862128817706548],[-51.65362470743794,-28.86205097242983],[-51.65354131862036,-28.871352135056963],[-51.66348347680767,-28.8714299871571]]]}},{"type":"Feature","properties":{"id_grade":"1KME5227N8131","pop":4,"dom":2,"universo_dom":"domicilios_ocupados_grade_ibge_2022","na_bacia":1,"area_pct_bacia":100.0,"metodo_recorte_bacia":"ponto_representativo_grade_2022; area_pct_geometrica"},"geometry":{"type":"Polygon","coordinates":[[[-51.74310116183183,-28.862739681986934],[-51.74318136528886,-28.853438943520043],[-51.73323986715837,-28.85336374882357],[-51.733159310428434,-28.862664480702055],[-51.74310116183183,-28.862739681986934]]]}},{"type":"Feature","properties":{"id_grade":"1KME5228N8131","pop":14,"dom":3,"universo_dom":"domicilios_ocupados_grade_ibge_2022","na_bacia":1,"area_pct_bacia":100.0,"metodo_recorte_bacia":"ponto_representativo_grade_2022; area_pct_geometrica"},"geometry":{"type":"Polygon","coordinates":[[[-51.733159310428434,-28.862664480702055],[-51.73323986715837,-28.85336374882357],[-51.72329837475303,-28.853288223654477],[-51.7232174647508,-28.862588948915565],[-51.733159310428434,-28.862664480702055]]]}},{"type":"Feature","properties":{"id_grade":"1KME5229N8131","pop":5,"dom":1,"universo_dom":"domicilios_ocupados_grade_ibge_2022","na_bacia":1,"area_pct_bacia":100.0,"metodo_recorte_bacia":"ponto_representativo_grade_2022; area_pct_geometrica"},"geometry":{"type":"Polygon","coordinates":[[[-51.7232174647508,-28.862588948915565],[-51.72329837475303,-28.853288223654477],[-51.713356888097955,-28.853212368013843],[-51.71327562482406,-28.862513086628574],[-51.7232174647508,-28.862588948915565]]]}},{"type":"Feature","properties":{"id_grade":"1KME5230N8131","pop":16,"dom":4,"universo_dom":"domicilios_ocupados_grade_ibge_2022","na_bacia":1,"area_pct_bacia":100.0,"metodo_recorte_bacia":"ponto_representativo_grade_2022; area_pct_geometrica"},"geometry":{"type":"Polygon","coordinates":[[[-51.71327562482406,-28.862513086628574],[-51.713356888097955,-28.853212368013843],[-51.70341540721826,-28.85313618190189],[-51.70333379067329,-28.862436893841394],[-51.71327562482406,-28.862513086628574]]]}},{"type":"Feature","properties":{"id_grade":"1KME5231N8131","pop":19,"dom":4,"universo_dom":"domicilios_ocupados_grade_ibge_2022","na_bacia":1,"area_pct_bacia":100.0,"metodo_recorte_bacia":"ponto_representativo_grade_2022; area_pct_geometrica"},"geometry":{"type":"Polygon","coordinates":[[[-51.70333379067329,-28.862436893841394],[-51.70341540721826,-28.85313618190189],[-51.69347393213903,-28.85305966531946],[-51.693391962323616,-28.862360370554732],[-51.70333379067329,-28.862436893841394]]]}},{"type":"Feature","properties":{"id_grade":"1KME5232N8131","pop":9,"dom":4,"universo_dom":"domicilios_ocupados_grade_ibge_2022","na_bacia":1,"area_pct_bacia":100.0,"metodo_recorte_bacia":"ponto_representativo_grade_2022; area_pct_geometrica"},"geometry":{"type":"Polygon","coordinates":[[[-51.693391962323616,-28.862360370554732],[-51.69347393213903,-28.85305966531946],[-51.68353246288538,-28.85298281826759],[-51.68345013980014,-28.862283516769793],[-51.693391962323616,-28.862360370554732]]]}},{"type":"Feature","properties":{"id_grade":"1KME5233N8131","pop":14,"dom":4,"universo_dom":"domicilios_ocupados_grade_ibge_2022","na_bacia":1,"area_pct_bacia":100.0,"metodo_recorte_bacia":"ponto_representativo_grade_2022; area_pct_geometrica"},"geometry":{"type":"Polygon","coordinates":[[[-51.68345013980014,-28.862283516769793],[-51.68353246288538,-28.85298281826759],[-51.6735909994824,-28.852905640746727],[-51.67350832312796,-28.86220633248677],[-51.68345013980014,-28.862283516769793]]]}},{"type":"Feature","properties":{"id_grade":"1KME5234N8131","pop":25,"dom":6,"universo_dom":"domicilios_ocupados_grade_ibge_2022","na_bacia":1,"area_pct_bacia":100.0,"metodo_recorte_bacia":"ponto_representativo_grade_2022; area_pct_geometrica"},"geometry":{"type":"Polygon","coordinates":[[[-51.67350832312796,-28.86220633248677],[-51.6735909994824,-28.852905640746727],[-51.66364954195521,-28.85282813275734],[-51.663566512332196,-28.862128817706548],[-51.67350832312796,-28.86220633248677]]]}},{"type":"Feature","properties":{"id_grade":"1KME5235N8131","pop":9,"dom":4,"universo_dom":"domicilios_ocupados_grade_ibge_2022","na_bacia":1,"area_pct_bacia":100.0,"metodo_recorte_bacia":"ponto_representativo_grade_2022; area_pct_geometrica"},"geometry":{"type":"Polygon","coordinates":[[[-51.663566512332196,-28.862128817706548],[-51.66364954195521,-28.85282813275734],[-51.653708090328905,-28.85275029430055],[-51.65362470743794,-28.86205097242983],[-51.663566512332196,-28.862128817706548]]]}},{"type":"Feature","properties":{"id_grade":"1KME5236N8131","pop":20,"dom":4,"universo_dom":"domicilios_ocupados_grade_ibge_2022","na_bacia":1,"area_pct_bacia":100.0,"metodo_recorte_bacia":"ponto_representativo_grade_2022; area_pct_geometrica"},"geometry":{"type":"Polygon","coordinates":[[[-51.65362470743794,-28.86205097242983],[-51.653708090328905,-28.85275029430055],[-51.643766644628585,-28.852672125376955],[-51.64368290847031,-28.861972796657604],[-51.65362470743794,-28.86205097242983]]]}},{"type":"Feature","properties":{"id_grade":"1KME5227N8132","pop":29,"dom":8,"universo_dom":"domicilios_ocupados_grade_ibge_2022","na_bacia":1,"area_pct_bacia":100.0,"metodo_recorte_bacia":"ponto_representativo_grade_2022; area_pct_geometrica"},"geometry":{"type":"Polygon","coordinates":[[[-51.74318136528886,-28.853438943520043],[-51.743261563045834,-28.844138689210933],[-51.73332041816314,-28.844063501099452],[-51.73323986715837,-28.85336374882357],[-51.74318136528886,-28.853438943520043]]]}},{"type":"Feature","properties":{"id_grade":"1KME5228N8132","pop":15,"dom":4,"universo_dom":"domicilios_ocupados_grade_ibge_2022","na_bacia":1,"area_pct_bacia":100.0,"metodo_recorte_bacia":"ponto_representativo_grade_2022; area_pct_geometrica"},"geometry":{"type":"Polygon","coordinates":[[[-51.73323986715837,-28.85336374882357],[-51.73332041816314,-28.844063501099452],[-51.723379279004995,-28.84398798254437],[-51.72329837475303,-28.853288223654477],[-51.73323986715837,-28.85336374882357]]]}},{"type":"Feature","properties":{"id_grade":"1KME5229N8132","pop":19,"dom":7,"universo_dom":"domicilios_ocupados_grade_ibge_2022","na_bacia":1,"area_pct_bacia":100.0,"metodo_recorte_bacia":"ponto_representativo_grade_2022; area_pct_geometrica"},"geometry":{"type":"Polygon","coordinates":[[[-51.72329837475303,-28.853288223654477],[-51.723379279004995,-28.84398798254437],[-51.7134381455965,-28.843912133546393],[-51.713356888097955,-28.853212368013843],[-51.72329837475303,-28.853288223654477]]]}},{"type":"Feature","properties":{"id_grade":"1KME5230N8132","pop":43,"dom":11,"universo_dom":"domicilios_ocupados_grade_ibge_2022","na_bacia":1,"area_pct_bacia":100.0,"metodo_recorte_bacia":"ponto_representativo_grade_2022; area_pct_geometrica"},"geometry":{"type":"Polygon","coordinates":[[[-51.713356888097955,-28.853212368013843],[-51.7134381455965,-28.843912133546393],[-51.70349701796276,-28.843835954106048],[-51.70341540721826,-28.85313618190189],[-51.713356888097955,-28.853212368013843]]]}},{"type":"Feature","properties":{"id_grade":"1KME5231N8132","pop":6,"dom":2,"universo_dom":"domicilios_ocupados_grade_ibge_2022","na_bacia":1,"area_pct_bacia":100.0,"metodo_recorte_bacia":"ponto_representativo_grade_2022; area_pct_geometrica"},"geometry":{"type":"Polygon","coordinates":[[[-51.70341540721826,-28.85313618190189],[-51.70349701796276,-28.843835954106048],[-51.69355589612887,-28.843759444224652],[-51.69347393213903,-28.85305966531946],[-51.70341540721826,-28.85313618190189]]]}},{"type":"Feature","properties":{"id_grade":"1KME5232N8132","pop":8,"dom":2,"universo_dom":"domicilios_ocupados_grade_ibge_2022","na_bacia":1,"area_pct_bacia":100.0,"metodo_recorte_bacia":"ponto_representativo_grade_2022; area_pct_geometrica"},"geometry":{"type":"Polygon","coordinates":[[[-51.69347393213903,-28.85305966531946],[-51.69355589612887,-28.843759444224652],[-51.68361478011994,-28.843682603902202],[-51.68353246288538,-28.85298281826759],[-51.69347393213903,-28.85305966531946]]]}},{"type":"Feature","properties":{"id_grade":"1KME5234N8132","pop":9,"dom":2,"universo_dom":"domicilios_ocupados_grade_ibge_2022","na_bacia":1,"area_pct_bacia":100.0,"metodo_recorte_bacia":"ponto_representativo_grade_2022; area_pct_geometrica"},"geometry":{"type":"Polygon","coordinates":[[[-51.6735909994824,-28.852905640746727],[-51.673673669961055,-28.843605433139537],[-51.66373256567734,-28.843527931937643],[-51.66364954195521,-28.85282813275734],[-51.6735909994824,-28.852905640746727]]]}},{"type":"Feature","properties":{"id_grade":"1KME5235N8132","pop":11,"dom":3,"universo_dom":"domicilios_ocupados_grade_ibge_2022","na_bacia":1,"area_pct_bacia":100.0,"metodo_recorte_bacia":"ponto_representativo_grade_2022; area_pct_geometrica"},"geometry":{"type":"Polygon","coordinates":[[[-51.66364954195521,-28.85282813275734],[-51.66373256567734,-28.843527931937643],[-51.65379146729387,-28.843450100297037],[-51.653708090328905,-28.85275029430055],[-51.66364954195521,-28.85282813275734]]]}},{"type":"Feature","properties":{"id_grade":"1KME5226N8133","pop":6,"dom":2,"universo_dom":"domicilios_ocupados_grade_ibge_2022","na_bacia":1,"area_pct_bacia":100.0,"metodo_recorte_bacia":"ponto_representativo_grade_2022; area_pct_geometrica"},"geometry":{"type":"Polygon","coordinates":[[[-51.753202713627985,-28.844213546877967],[-51.7532825524622,-28.834913769802277],[-51.74334175510336,-28.834838918687936],[-51.743261563045834,-28.844138689210933],[-51.753202713627985,-28.844213546877967]]]}},{"type":"Feature","properties":{"id_grade":"1KME5227N8133","pop":5,"dom":3,"universo_dom":"domicilios_ocupados_grade_ibge_2022","na_bacia":1,"area_pct_bacia":100.0,"metodo_recorte_bacia":"ponto_representativo_grade_2022; area_pct_geometrica"},"geometry":{"type":"Polygon","coordinates":[[[-51.743261563045834,-28.844138689210933],[-51.74334175510336,-28.834838918687936],[-51.733400963443366,-28.834763737157648],[-51.73332041816314,-28.844063501099452],[-51.743261563045834,-28.844138689210933]]]}},{"type":"Feature","properties":{"id_grade":"1KME5228N8133","pop":11,"dom":5,"universo_dom":"domicilios_ocupados_grade_ibge_2022","na_bacia":1,"area_pct_bacia":100.0,"metodo_recorte_bacia":"ponto_representativo_grade_2022; area_pct_geometrica"},"geometry":{"type":"Polygon","coordinates":[[[-51.73332041816314,-28.844063501099452],[-51.733400963443366,-28.834763737157648],[-51.72346017750731,-28.834688225213164],[-51.723379279004995,-28.84398798254437],[-51.73332041816314,-28.844063501099452]]]}},{"type":"Feature","properties":{"id_grade":"1KME5230N8133","pop":4,"dom":1,"universo_dom":"domicilios_ocupados_grade_ibge_2022","na_bacia":1,"area_pct_bacia":100.0,"metodo_recorte_bacia":"ponto_representativo_grade_2022; area_pct_geometrica"},"geometry":{"type":"Polygon","coordinates":[[[-51.7134381455965,-28.843912133546393],[-51.71351939732028,-28.834612382854523],[-51.7035786229074,-28.834536210082543],[-51.70349701796276,-28.843835954106048],[-51.7134381455965,-28.843912133546393]]]}},{"type":"Feature","properties":{"id_grade":"1KME5231N8133","pop":7,"dom":1,"universo_dom":"domicilios_ocupados_grade_ibge_2022","na_bacia":1,"area_pct_bacia":100.0,"metodo_recorte_bacia":"ponto_representativo_grade_2022; area_pct_geometrica"},"geometry":{"type":"Polygon","coordinates":[[[-51.70349701796276,-28.843835954106048],[-51.7035786229074,-28.834536210082543],[-51.693637854293755,-28.834459706897995],[-51.69355589612887,-28.843759444224652],[-51.70349701796276,-28.843835954106048]]]}},{"type":"Feature","properties":{"id_grade":"1KME5232N8133","pop":9,"dom":3,"universo_dom":"domicilios_ocupados_grade_ibge_2022","na_bacia":1,"area_pct_bacia":100.0,"metodo_recorte_bacia":"ponto_representativo_grade_2022; area_pct_geometrica"},"geometry":{"type":"Polygon","coordinates":[[[-51.69355589612887,-28.843759444224652],[-51.693637854293755,-28.834459706897995],[-51.68369709150444,-28.834382873301482],[-51.68361478011994,-28.843682603902202],[-51.69355589612887,-28.843759444224652]]]}},{"type":"Feature","properties":{"id_grade":"1KME5233N8133","pop":2,"dom":1,"universo_dom":"domicilios_ocupados_grade_ibge_2022","na_bacia":1,"area_pct_bacia":100.0,"metodo_recorte_bacia":"ponto_representativo_grade_2022; area_pct_geometrica"},"geometry":{"type":"Polygon","coordinates":[[[-51.68361478011994,-28.843682603902202],[-51.68369709150444,-28.834382873301482],[-51.67375633456456,-28.83430570929408],[-51.673673669961055,-28.843605433139537],[-51.68361478011994,-28.843682603902202]]]}},{"type":"Feature","properties":{"id_grade":"1KME5234N8133","pop":4,"dom":1,"universo_dom":"domicilios_ocupados_grade_ibge_2022","na_bacia":1,"area_pct_bacia":100.0,"metodo_recorte_bacia":"ponto_representativo_grade_2022; area_pct_geometrica"},"geometry":{"type":"Polygon","coordinates":[[[-51.673673669961055,-28.843605433139537],[-51.67375633456456,-28.83430570929408],[-51.66381558349921,-28.834228214875896],[-51.66373256567734,-28.843527931937643],[-51.673673669961055,-28.843605433139537]]]}},{"type":"Feature","properties":{"id_grade":"200ME52292N81286","pop":2,"dom":1,"universo_dom":"domicilios_ocupados_grade_ibge_2022","na_bacia":1,"area_pct_bacia":100.0,"metodo_recorte_bacia":"ponto_representativo_grade_2022; area_pct_geometrica"},"geometry":{"type":"Polygon","coordinates":[[[-51.72101851958893,-28.886757953816453],[-51.721034719076954,-28.884897518205875],[-51.719046181336175,-28.88488235563614],[-51.719029967459,-28.88674279124673],[-51.72101851958893,-28.886757953816453]]]}},{"type":"Feature","properties":{"id_grade":"200ME52294N81288","pop":8,"dom":3,"universo_dom":"domicilios_ocupados_grade_ibge_2022","na_bacia":1,"area_pct_bacia":100.0,"metodo_recorte_bacia":"ponto_representativo_grade_2022; area_pct_geometrica"},"geometry":{"type":"Polygon","coordinates":[[[-51.719046181336175,-28.88488235563614],[-51.719062395213314,-28.88302193981061],[-51.71707387186166,-28.883006763751112],[-51.71705764359535,-28.884867179576624],[-51.719046181336175,-28.88488235563614]]]}},{"type":"Feature","properties":{"id_grade":"200ME52298N81288","pop":3,"dom":1,"universo_dom":"domicilios_ocupados_grade_ibge_2022","na_bacia":1,"area_pct_bacia":100.0,"metodo_recorte_bacia":"ponto_representativo_grade_2022; area_pct_geometrica"},"geometry":{"type":"Polygon","coordinates":[[[-51.715069106753845,-28.88485199092667],[-51.71508534851,-28.882991575101038],[-51.71309682515829,-28.882976373860476],[-51.713080569013016,-28.884836788786725],[-51.715069106753845,-28.88485199092667]]]}},{"type":"Feature","properties":{"id_grade":"200ME52290N81290","pop":1,"dom":1,"universo_dom":"domicilios_ocupados_grade_ibge_2022","na_bacia":1,"area_pct_bacia":100.0,"metodo_recorte_bacia":"ponto_representativo_grade_2022; area_pct_geometrica"},"geometry":{"type":"Polygon","coordinates":[[[-51.723039442816,-28.883052250560866],[-51.72305562791484,-28.881191853621125],[-51.721067118053035,-28.88117670454121],[-51.72105091856503,-28.883037101481044],[-51.723039442816,-28.883052250560866]]]}},{"type":"Feature","properties":{"id_grade":"200ME52294N81290","pop":3,"dom":1,"universo_dom":"domicilios_ocupados_grade_ibge_2022","na_bacia":1,"area_pct_bacia":100.0,"metodo_recorte_bacia":"ponto_representativo_grade_2022; area_pct_geometrica"},"geometry":{"type":"Polygon","coordinates":[[[-51.719062395213314,-28.88302193981061],[-51.71907860819119,-28.881161542870828],[-51.71709009922864,-28.881146367710656],[-51.71707387186166,-28.883006763751112],[-51.719062395213314,-28.88302193981061]]]}},{"type":"Feature","properties":{"id_grade":"200ME52298N81290","pop":8,"dom":2,"universo_dom":"domicilios_ocupados_grade_ibge_2022","na_bacia":1,"area_pct_bacia":100.0,"metodo_recorte_bacia":"ponto_representativo_grade_2022; area_pct_geometrica"},"geometry":{"type":"Polygon","coordinates":[[[-51.71508534851,-28.882991575101038],[-51.71510158936684,-28.881131179060606],[-51.71311308130362,-28.881115977820016],[-51.71309682515829,-28.882976373860476],[-51.71508534851,-28.882991575101038]]]}},{"type":"Feature","properties":{"id_grade":"200ME52304N81282","pop":23,"dom":7,"universo_dom":"domicilios_ocupados_grade_ibge_2022","na_bacia":1,"area_pct_bacia":100.0,"metodo_recorte_bacia":"ponto_representativo_grade_2022; area_pct_geometrica"},"geometry":{"type":"Polygon","coordinates":[[[-51.70905464235785,-28.89038770572803],[-51.7090709272814,-28.88852723234583],[-51.707082362560925,-28.888511990635827],[-51.70706606324819,-28.890372463118645],[-51.70905464235785,-28.89038770572803]]]}},{"type":"Feature","properties":{"id_grade":"200ME52304N81284","pop":8,"dom":3,"universo_dom":"domicilios_ocupados_grade_ibge_2022","na_bacia":1,"area_pct_bacia":100.0,"metodo_recorte_bacia":"ponto_representativo_grade_2022; area_pct_geometrica"},"geometry":{"type":"Polygon","coordinates":[[[-51.7090709272814,-28.88852723234583],[-51.7090872113057,-28.886666778748733],[-51.70709866097439,-28.886651537038723],[-51.707082362560925,-28.888511990635827],[-51.7090709272814,-28.88852723234583]]]}},{"type":"Feature","properties":{"id_grade":"200ME52306N81284","pop":4,"dom":1,"universo_dom":"domicilios_ocupados_grade_ibge_2022","na_bacia":1,"area_pct_bacia":100.0,"metodo_recorte_bacia":"ponto_representativo_grade_2022; area_pct_geometrica"},"geometry":{"type":"Polygon","coordinates":[[[-51.707082362560925,-28.888511990635827],[-51.70709866097439,-28.886651537038723],[-51.70511011064303,-28.886636281838882],[-51.70509379784045,-28.88849673453658],[-51.707082362560925,-28.888511990635827]]]}},{"type":"Feature","properties":{"id_grade":"200ME52302N81286","pop":47,"dom":13,"universo_dom":"domicilios_ocupados_grade_ibge_2022","na_bacia":1,"area_pct_bacia":100.0,"metodo_recorte_bacia":"ponto_representativo_grade_2022; area_pct_geometrica"},"geometry":{"type":"Polygon","coordinates":[[[-51.71107576253638,-28.886682007868274],[-51.71109203217151,-28.88482157315701],[-51.70910349622932,-28.884806344936848],[-51.7090872113057,-28.886666778748733],[-51.71107576253638,-28.886682007868274]]]}},{"type":"Feature","properties":{"id_grade":"200ME52304N81286","pop":2,"dom":1,"universo_dom":"domicilios_ocupados_grade_ibge_2022","na_bacia":1,"area_pct_bacia":100.0,"metodo_recorte_bacia":"ponto_representativo_grade_2022; area_pct_geometrica"},"geometry":{"type":"Polygon","coordinates":[[[-51.7090872113057,-28.886666778748733],[-51.70910349622932,-28.884806344936848],[-51.70711495938781,-28.884791103226814],[-51.70709866097439,-28.886651537038723],[-51.7090872113057,-28.886666778748733]]]}},{"type":"Feature","properties":{"id_grade":"200ME52306N81286","pop":41,"dom":14,"universo_dom":"domicilios_ocupados_grade_ibge_2022","na_bacia":1,"area_pct_bacia":100.0,"metodo_recorte_bacia":"ponto_representativo_grade_2022; area_pct_geometrica"},"geometry":{"type":"Polygon","coordinates":[[[-51.70709866097439,-28.886651537038723],[-51.70711495938781,-28.884791103226814],[-51.70512642344562,-28.884775848026973],[-51.70511011064303,-28.886636281838882],[-51.70709866097439,-28.886651537038723]]]}},{"type":"Feature","properties":{"id_grade":"200ME52300N81288","pop":5,"dom":2,"universo_dom":"domicilios_ocupados_grade_ibge_2022","na_bacia":1,"area_pct_bacia":100.0,"metodo_recorte_bacia":"ponto_representativo_grade_2022; area_pct_geometrica"},"geometry":{"type":"Polygon","coordinates":[[[-51.713080569013016,-28.884836788786725],[-51.71309682515829,-28.882976373860476],[-51.71110830270595,-28.88296115823087],[-51.71109203217151,-28.88482157315701],[-51.713080569013016,-28.884836788786725]]]}},{"type":"Feature","properties":{"id_grade":"200ME52302N81288","pop":81,"dom":31,"universo_dom":"domicilios_ocupados_grade_ibge_2022","na_bacia":1,"area_pct_bacia":100.0,"metodo_recorte_bacia":"ponto_representativo_grade_2022; area_pct_geometrica"},"geometry":{"type":"Polygon","coordinates":[[[-51.71109203217151,-28.88482157315701],[-51.71110830270595,-28.88296115823087],[-51.709119780253616,-28.882945930010614],[-51.70910349622932,-28.884806344936848],[-51.71109203217151,-28.88482157315701]]]}},{"type":"Feature","properties":{"id_grade":"200ME52304N81288","pop":75,"dom":25,"universo_dom":"domicilios_ocupados_grade_ibge_2022","na_bacia":1,"area_pct_bacia":100.0,"metodo_recorte_bacia":"ponto_representativo_grade_2022; area_pct_geometrica"},"geometry":{"type":"Polygon","coordinates":[[[-51.70910349622932,-28.884806344936848],[-51.709119780253616,-28.882945930010614],[-51.70713125780128,-28.882930689199913],[-51.70711495938781,-28.884791103226814],[-51.70910349622932,-28.884806344936848]]]}},{"type":"Feature","properties":{"id_grade":"200ME52306N81288","pop":111,"dom":36,"universo_dom":"domicilios_ocupados_grade_ibge_2022","na_bacia":1,"area_pct_bacia":100.0,"metodo_recorte_bacia":"ponto_representativo_grade_2022; area_pct_geometrica"},"geometry":{"type":"Polygon","coordinates":[[[-51.70711495938781,-28.884791103226814],[-51.70713125780128,-28.882930689199913],[-51.705142735348936,-28.882915434000118],[-51.70512642344562,-28.884775848026973],[-51.70711495938781,-28.884791103226814]]]}},{"type":"Feature","properties":{"id_grade":"200ME52308N81288","pop":79,"dom":31,"universo_dom":"domicilios_ocupados_grade_ibge_2022","na_bacia":1,"area_pct_bacia":100.0,"metodo_recorte_bacia":"ponto_representativo_grade_2022; area_pct_geometrica"},"geometry":{"type":"Polygon","coordinates":[[[-51.70512642344562,-28.884775848026973],[-51.705142735348936,-28.882915434000118],[-51.70315421379587,-28.88290016620967],[-51.70313788750348,-28.884760580236538],[-51.70512642344562,-28.884775848026973]]]}},{"type":"Feature","properties":{"id_grade":"200ME52300N81290","pop":17,"dom":6,"universo_dom":"domicilios_ocupados_grade_ibge_2022","na_bacia":1,"area_pct_bacia":100.0,"metodo_recorte_bacia":"ponto_representativo_grade_2022; area_pct_geometrica"},"geometry":{"type":"Polygon","coordinates":[[[-51.71309682515829,-28.882976373860476],[-51.71311308130362,-28.881115977820016],[-51.71112457234108,-28.881100763089705],[-51.71110830270595,-28.88296115823087],[-51.71309682515829,-28.882976373860476]]]}},{"type":"Feature","properties":{"id_grade":"200ME52302N81290","pop":40,"dom":10,"universo_dom":"domicilios_ocupados_grade_ibge_2022","na_bacia":1,"area_pct_bacia":100.0,"metodo_recorte_bacia":"ponto_representativo_grade_2022; area_pct_geometrica"},"geometry":{"type":"Polygon","coordinates":[[[-51.71110830270595,-28.88296115823087],[-51.71112457234108,-28.881100763089705],[-51.709136064277914,-28.881085534869506],[-51.709119780253616,-28.882945930010614],[-51.71110830270595,-28.88296115823087]]]}},{"type":"Feature","properties":{"id_grade":"200ME52304N81290","pop":11,"dom":4,"universo_dom":"domicilios_ocupados_grade_ibge_2022","na_bacia":1,"area_pct_bacia":100.0,"metodo_recorte_bacia":"ponto_representativo_grade_2022; area_pct_geometrica"},"geometry":{"type":"Polygon","coordinates":[[[-51.709119780253616,-28.882945930010614],[-51.709136064277914,-28.881085534869506],[-51.70714755621469,-28.881070294058773],[-51.70713125780128,-28.882930689199913],[-51.709119780253616,-28.882945930010614]]]}},{"type":"Feature","properties":{"id_grade":"200ME52306N81290","pop":25,"dom":10,"universo_dom":"domicilios_ocupados_grade_ibge_2022","na_bacia":1,"area_pct_bacia":100.0,"metodo_recorte_bacia":"ponto_representativo_grade_2022; area_pct_geometrica"},"geometry":{"type":"Polygon","coordinates":[[[-51.70713125780128,-28.882930689199913],[-51.70714755621469,-28.881070294058773],[-51.70515904815153,-28.881055039758213],[-51.705142735348936,-28.882915434000118],[-51.70713125780128,-28.882930689199913]]]}},{"type":"Feature","properties":{"id_grade":"200ME52308N81290","pop":101,"dom":44,"universo_dom":"domicilios_ocupados_grade_ibge_2022","na_bacia":1,"area_pct_bacia":100.0,"metodo_recorte_bacia":"ponto_representativo_grade_2022; area_pct_geometrica"},"geometry":{"type":"Polygon","coordinates":[[[-51.705142735348936,-28.882915434000118],[-51.70515904815153,-28.881055039758213],[-51.70317054008831,-28.881039771967817],[-51.70315421379587,-28.88290016620967],[-51.705142735348936,-28.882915434000118]]]}},{"type":"Feature","properties":{"id_grade":"200ME52308N81292","pop":42,"dom":16,"universo_dom":"domicilios_ocupados_grade_ibge_2022","na_bacia":1,"area_pct_bacia":100.0,"metodo_recorte_bacia":"ponto_representativo_grade_2022; area_pct_geometrica"},"geometry":{"type":"Polygon","coordinates":[[[-51.70515904815153,-28.881055039758213],[-51.7051753600548,-28.879194664402146],[-51.70318686638075,-28.879179396611825],[-51.70317054008831,-28.881039771967817],[-51.70515904815153,-28.881055039758213]]]}},{"type":"Feature","properties":{"id_grade":"200ME52308N81294","pop":4,"dom":1,"universo_dom":"domicilios_ocupados_grade_ibge_2022","na_bacia":1,"area_pct_bacia":100.0,"metodo_recorte_bacia":"ponto_representativo_grade_2022; area_pct_geometrica"},"geometry":{"type":"Polygon","coordinates":[[[-51.7051753600548,-28.879194664402146],[-51.70519167195806,-28.87733430793198],[-51.703203191773866,-28.877319041040884],[-51.70318686638075,-28.879179396611825],[-51.7051753600548,-28.879194664402146]]]}},{"type":"Feature","properties":{"id_grade":"200ME52312N81282","pop":2,"dom":1,"universo_dom":"domicilios_ocupados_grade_ibge_2022","na_bacia":1,"area_pct_bacia":100.0,"metodo_recorte_bacia":"ponto_representativo_grade_2022; area_pct_geometrica"},"geometry":{"type":"Polygon","coordinates":[[[-51.70110032771788,-28.890326656150144],[-51.70111666929881,-28.888466183667383],[-51.699128105477655,-28.88845088889733],[-51.69911175040693,-28.890311360480855],[-51.70110032771788,-28.890326656150144]]]}},{"type":"Feature","properties":{"id_grade":"200ME52314N81282","pop":4,"dom":2,"universo_dom":"domicilios_ocupados_grade_ibge_2022","na_bacia":1,"area_pct_bacia":100.0,"metodo_recorte_bacia":"ponto_representativo_grade_2022; area_pct_geometrica"},"geometry":{"type":"Polygon","coordinates":[[[-51.69911175040693,-28.890311360480855],[-51.699128105477655,-28.88845088889733],[-51.69713954255582,-28.888435580637513],[-51.6971231721966,-28.89029605222102],[-51.69911175040693,-28.890311360480855]]]}},{"type":"Feature","properties":{"id_grade":"200ME52314N81286","pop":10,"dom":3,"universo_dom":"domicilios_ocupados_grade_ibge_2022","na_bacia":1,"area_pct_bacia":100.0,"metodo_recorte_bacia":"ponto_representativo_grade_2022; area_pct_geometrica"},"geometry":{"type":"Polygon","coordinates":[[[-51.6991444614477,-28.886590437099017],[-51.69916081651842,-28.884730004186256],[-51.69717228057623,-28.88471469592643],[-51.69715591201566,-28.886575128839052],[-51.6991444614477,-28.886590437099017]]]}},{"type":"Feature","properties":{"id_grade":"200ME52310N81288","pop":7,"dom":3,"universo_dom":"domicilios_ocupados_grade_ibge_2022","na_bacia":1,"area_pct_bacia":100.0,"metodo_recorte_bacia":"ponto_representativo_grade_2022; area_pct_geometrica"},"geometry":{"type":"Polygon","coordinates":[[[-51.70313788750348,-28.884760580236538],[-51.70315421379587,-28.88290016620967],[-51.70116569224285,-28.882884884929425],[-51.70114935156129,-28.884745298956332],[-51.70313788750348,-28.884760580236538]]]}},{"type":"Feature","properties":{"id_grade":"200ME52310N81290","pop":82,"dom":30,"universo_dom":"domicilios_ocupados_grade_ibge_2022","na_bacia":1,"area_pct_bacia":100.0,"metodo_recorte_bacia":"ponto_representativo_grade_2022; area_pct_geometrica"},"geometry":{"type":"Polygon","coordinates":[[[-51.70315421379587,-28.88290016620967],[-51.70317054008831,-28.881039771967817],[-51.701182032924464,-28.88102449068763],[-51.70116569224285,-28.882884884929425],[-51.70315421379587,-28.88290016620967]]]}},{"type":"Feature","properties":{"id_grade":"200ME52312N81290","pop":56,"dom":25,"universo_dom":"domicilios_ocupados_grade_ibge_2022","na_bacia":1,"area_pct_bacia":100.0,"metodo_recorte_bacia":"ponto_representativo_grade_2022; area_pct_geometrica"},"geometry":{"type":"Polygon","coordinates":[[[-51.70116569224285,-28.882884884929425],[-51.701182032924464,-28.88102449068763],[-51.699193525760556,-28.881009196816926],[-51.69917717068984,-28.882869590159412],[-51.70116569224285,-28.882884884929425]]]}},{"type":"Feature","properties":{"id_grade":"200ME52314N81290","pop":50,"dom":26,"universo_dom":"domicilios_ocupados_grade_ibge_2022","na_bacia":1,"area_pct_bacia":100.0,"metodo_recorte_bacia":"ponto_representativo_grade_2022; area_pct_geometrica"},"geometry":{"type":"Polygon","coordinates":[[[-51.69917717068984,-28.882869590159412],[-51.699193525760556,-28.881009196816926],[-51.69720501859666,-28.880993889456363],[-51.697188650036146,-28.882854282798878],[-51.69917717068984,-28.882869590159412]]]}},{"type":"Feature","properties":{"id_grade":"200ME52316N81290","pop":14,"dom":6,"universo_dom":"domicilios_ocupados_grade_ibge_2022","na_bacia":1,"area_pct_bacia":100.0,"metodo_recorte_bacia":"ponto_representativo_grade_2022; area_pct_geometrica"},"geometry":{"type":"Polygon","coordinates":[[[-51.697188650036146,-28.882854282798878],[-51.69720501859666,-28.880993889456363],[-51.69521651143282,-28.880978568605983],[-51.69520012848313,-28.882838961948423],[-51.697188650036146,-28.882854282798878]]]}},{"type":"Feature","properties":{"id_grade":"200ME52318N81290","pop":55,"dom":19,"universo_dom":"domicilios_ocupados_grade_ibge_2022","na_bacia":1,"area_pct_bacia":100.0,"metodo_recorte_bacia":"ponto_representativo_grade_2022; area_pct_geometrica"},"geometry":{"type":"Polygon","coordinates":[[[-51.69520012848313,-28.882838961948423],[-51.69521651143282,-28.880978568605983],[-51.69322800516824,-28.880963235165183],[-51.69321160782936,-28.882823628507598],[-51.69520012848313,-28.882838961948423]]]}},{"type":"Feature","properties":{"id_grade":"200ME52310N81292","pop":31,"dom":9,"universo_dom":"domicilios_ocupados_grade_ibge_2022","na_bacia":1,"area_pct_bacia":100.0,"metodo_recorte_bacia":"ponto_representativo_grade_2022; area_pct_geometrica"},"geometry":{"type":"Polygon","coordinates":[[[-51.70317054008831,-28.881039771967817],[-51.70318686638075,-28.879179396611825],[-51.7011983727067,-28.87916411623097],[-51.701182032924464,-28.88102449068763],[-51.70317054008831,-28.881039771967817]]]}},{"type":"Feature","properties":{"id_grade":"200ME52312N81292","pop":73,"dom":29,"universo_dom":"domicilios_ocupados_grade_ibge_2022","na_bacia":1,"area_pct_bacia":100.0,"metodo_recorte_bacia":"ponto_representativo_grade_2022; area_pct_geometrica"},"geometry":{"type":"Polygon","coordinates":[[[-51.701182032924464,-28.88102449068763],[-51.7011983727067,-28.87916411623097],[-51.69920987993197,-28.879148822360186],[-51.699193525760556,-28.881009196816926],[-51.701182032924464,-28.88102449068763]]]}},{"type":"Feature","properties":{"id_grade":"200ME52314N81292","pop":106,"dom":42,"universo_dom":"domicilios_ocupados_grade_ibge_2022","na_bacia":1,"area_pct_bacia":100.0,"metodo_recorte_bacia":"ponto_representativo_grade_2022; area_pct_geometrica"},"geometry":{"type":"Polygon","coordinates":[[[-51.699193525760556,-28.881009196816926],[-51.69920987993197,-28.879148822360186],[-51.69722138715724,-28.879133514999694],[-51.69720501859666,-28.880993889456363],[-51.699193525760556,-28.881009196816926]]]}},{"type":"Feature","properties":{"id_grade":"200ME52316N81292","pop":40,"dom":16,"universo_dom":"domicilios_ocupados_grade_ibge_2022","na_bacia":1,"area_pct_bacia":100.0,"metodo_recorte_bacia":"ponto_representativo_grade_2022; area_pct_geometrica"},"geometry":{"type":"Polygon","coordinates":[[[-51.69720501859666,-28.880993889456363],[-51.69722138715724,-28.879133514999694],[-51.69523289438252,-28.87911819504858],[-51.69521651143282,-28.880978568605983],[-51.69720501859666,-28.880993889456363]]]}},{"type":"Feature","properties":{"id_grade":"200ME52318N81292","pop":45,"dom":16,"universo_dom":"domicilios_ocupados_grade_ibge_2022","na_bacia":1,"area_pct_bacia":100.0,"metodo_recorte_bacia":"ponto_representativo_grade_2022; area_pct_geometrica"},"geometry":{"type":"Polygon","coordinates":[[[-51.69521651143282,-28.880978568605983],[-51.69523289438252,-28.87911819504858],[-51.693244401607785,-28.879102861607763],[-51.69322800516824,-28.880963235165183],[-51.69521651143282,-28.880978568605983]]]}},{"type":"Feature","properties":{"id_grade":"200ME52310N81294","pop":5,"dom":2,"universo_dom":"domicilios_ocupados_grade_ibge_2022","na_bacia":1,"area_pct_bacia":100.0,"metodo_recorte_bacia":"ponto_representativo_grade_2022; area_pct_geometrica"},"geometry":{"type":"Polygon","coordinates":[[[-51.70318686638075,-28.879179396611825],[-51.703203191773866,-28.877319041040884],[-51.701214713388254,-28.877303760659952],[-51.7011983727067,-28.87916411623097],[-51.70318686638075,-28.879179396611825]]]}},{"type":"Feature","properties":{"id_grade":"200ME52314N81294","pop":23,"dom":9,"universo_dom":"domicilios_ocupados_grade_ibge_2022","na_bacia":1,"area_pct_bacia":100.0,"metodo_recorte_bacia":"ponto_representativo_grade_2022; area_pct_geometrica"},"geometry":{"type":"Polygon","coordinates":[[[-51.69920987993197,-28.879148822360186],[-51.69922623410338,-28.87728846678927],[-51.69723775481851,-28.877273160328087],[-51.69722138715724,-28.879133514999694],[-51.69920987993197,-28.879148822360186]]]}},{"type":"Feature","properties":{"id_grade":"200ME52312N81296","pop":1,"dom":1,"universo_dom":"domicilios_ocupados_grade_ibge_2022","na_bacia":1,"area_pct_bacia":100.0,"metodo_recorte_bacia":"ponto_representativo_grade_2022; area_pct_geometrica"},"geometry":{"type":"Polygon","coordinates":[[[-51.701214713388254,-28.877303760659952],[-51.701231052271226,-28.87544342487418],[-51.699242588274785,-28.87542813100343],[-51.69922623410338,-28.87728846678927],[-51.701214713388254,-28.877303760659952]]]}},{"type":"Feature","properties":{"id_grade":"200ME52320N81288","pop":5,"dom":2,"universo_dom":"domicilios_ocupados_grade_ibge_2022","na_bacia":1,"area_pct_bacia":100.0,"metodo_recorte_bacia":"ponto_representativo_grade_2022; area_pct_geometrica"},"geometry":{"type":"Polygon","coordinates":[[[-51.69319521138988,-28.884684040735927],[-51.69321160782936,-28.882823628507598],[-51.69122308807499,-28.882808280677594],[-51.69120667634701,-28.88466869290577],[-51.69319521138988,-28.884684040735927]]]}},{"type":"Feature","properties":{"id_grade":"200ME52320N81290","pop":16,"dom":7,"universo_dom":"domicilios_ocupados_grade_ibge_2022","na_bacia":1,"area_pct_bacia":100.0,"metodo_recorte_bacia":"ponto_representativo_grade_2022; area_pct_geometrica"},"geometry":{"type":"Polygon","coordinates":[[[-51.69321160782936,-28.882823628507598],[-51.69322800516824,-28.880963235165183],[-51.69123949890371,-28.88094788823437],[-51.69122308807499,-28.882808280677594],[-51.69321160782936,-28.882823628507598]]]}},{"type":"Feature","properties":{"id_grade":"200ME52322N81290","pop":36,"dom":10,"universo_dom":"domicilios_ocupados_grade_ibge_2022","na_bacia":1,"area_pct_bacia":100.0,"metodo_recorte_bacia":"ponto_representativo_grade_2022; area_pct_geometrica"},"geometry":{"type":"Polygon","coordinates":[[[-51.69122308807499,-28.882808280677594],[-51.69123949890371,-28.88094788823437],[-51.68925099263913,-28.88093252781385],[-51.6892345674213,-28.88279292025701],[-51.69122308807499,-28.882808280677594]]]}},{"type":"Feature","properties":{"id_grade":"200ME52324N81290","pop":17,"dom":7,"universo_dom":"domicilios_ocupados_grade_ibge_2022","na_bacia":1,"area_pct_bacia":100.0,"metodo_recorte_bacia":"ponto_representativo_grade_2022; area_pct_geometrica"},"geometry":{"type":"Polygon","coordinates":[[[-51.6892345674213,-28.88279292025701],[-51.68925099263913,-28.88093252781385],[-51.68726248727393,-28.880917153903457],[-51.68724604766691,-28.88277754634664],[-51.6892345674213,-28.88279292025701]]]}},{"type":"Feature","properties":{"id_grade":"200ME52326N81290","pop":17,"dom":8,"universo_dom":"domicilios_ocupados_grade_ibge_2022","na_bacia":1,"area_pct_bacia":100.0,"metodo_recorte_bacia":"ponto_representativo_grade_2022; area_pct_geometrica"},"geometry":{"type":"Polygon","coordinates":[[[-51.68724604766691,-28.88277754634664],[-51.68726248727393,-28.880917153903457],[-51.6852739810094,-28.880901767402634],[-51.68525752791254,-28.882762159845726],[-51.68724604766691,-28.88277754634664]]]}},{"type":"Feature","properties":{"id_grade":"200ME52328N81290","pop":12,"dom":4,"universo_dom":"domicilios_ocupados_grade_ibge_2022","na_bacia":1,"area_pct_bacia":100.0,"metodo_recorte_bacia":"ponto_representativo_grade_2022; area_pct_geometrica"},"geometry":{"type":"Polygon","coordinates":[[[-51.68525752791254,-28.882762159845726],[-51.6852739810094,-28.880901767402634],[-51.68328547564414,-28.880886367411897],[-51.683269008158156,-28.882746759855042],[-51.68525752791254,-28.882762159845726]]]}},{"type":"Feature","properties":{"id_grade":"200ME52320N81292","pop":5,"dom":2,"universo_dom":"domicilios_ocupados_grade_ibge_2022","na_bacia":1,"area_pct_bacia":100.0,"metodo_recorte_bacia":"ponto_representativo_grade_2022; area_pct_geometrica"},"geometry":{"type":"Polygon","coordinates":[[[-51.69322800516824,-28.880963235165183],[-51.693244401607785,-28.879102861607763],[-51.69125590973243,-28.87908751467698],[-51.69123949890371,-28.88094788823437],[-51.69322800516824,-28.880963235165183]]]}},{"type":"Feature","properties":{"id_grade":"200ME52330N81290","pop":12,"dom":4,"universo_dom":"domicilios_ocupados_grade_ibge_2022","na_bacia":1,"area_pct_bacia":100.0,"metodo_recorte_bacia":"ponto_representativo_grade_2022; area_pct_geometrica"},"geometry":{"type":"Polygon","coordinates":[[[-51.683269008158156,-28.882746759855042],[-51.68328547564414,-28.880886367411897],[-51.681296971178256,-28.88087095483064],[-51.681280489303106,-28.88273134637449],[-51.683269008158156,-28.882746759855042]]]}},{"type":"Feature","properties":{"id_grade":"200ME52332N81290","pop":18,"dom":5,"universo_dom":"domicilios_ocupados_grade_ibge_2022","na_bacia":1,"area_pct_bacia":100.0,"metodo_recorte_bacia":"ponto_representativo_grade_2022; area_pct_geometrica"},"geometry":{"type":"Polygon","coordinates":[[[-51.681280489303106,-28.88273134637449],[-51.681296971178256,-28.88087095483064],[-51.679308465813,-28.880855527860266],[-51.67929197044805,-28.882715919404067],[-51.681280489303106,-28.88273134637449]]]}},{"type":"Feature","properties":{"id_grade":"200ME52334N81290","pop":1,"dom":1,"universo_dom":"domicilios_ocupados_grade_ibge_2022","na_bacia":1,"area_pct_bacia":100.0,"metodo_recorte_bacia":"ponto_representativo_grade_2022; area_pct_geometrica"},"geometry":{"type":"Polygon","coordinates":[[[-51.67929197044805,-28.882715919404067],[-51.679308465813,-28.880855527860266],[-51.6773199613471,-28.88084008829939],[-51.677303451592984,-28.882700479843198],[-51.67929197044805,-28.882715919404067]]]}},{"type":"Feature","properties":{"id_grade":"200ME52338N81292","pop":3,"dom":1,"universo_dom":"domicilios_ocupados_grade_ibge_2022","na_bacia":1,"area_pct_bacia":100.0,"metodo_recorte_bacia":"ponto_representativo_grade_2022; area_pct_geometrica"},"geometry":{"type":"Polygon","coordinates":[[[-51.67533145688117,-28.880824636148013],[-51.67534798102446,-28.87896426438926],[-51.67335949094769,-28.878948798748052],[-51.67334295241528,-28.880809169607424],[-51.67533145688117,-28.880824636148013]]]}}]}