{"type":"FeatureCollection","name":"4308078","crs":{"type":"name","properties":{"name":"urn:ogc:def:crs:OGC:1.3:CRS84"}},"features":[{"type":"Feature","properties":{"id_grade":"200ME52182N80542","pop":2,"dom":1,"universo_dom":"domicilios_ocupados_grade_ibge_2022","na_bacia":1,"area_pct_bacia":100.0,"metodo_recorte_bacia":"ponto_representativo_grade_2022; area_pct_geometrica"},"geometry":{"type":"Polygon","coordinates":[[[-51.82463691052397,-29.581032156241786],[-51.82465241462273,-29.579164273219476],[-51.82265859264372,-29.579149741959583],[-51.82264307433577,-29.58101762471836],[-51.82463691052397,-29.581032156241786]]]}},{"type":"Feature","properties":{"id_grade":"200ME52184N80542","pop":2,"dom":1,"universo_dom":"domicilios_ocupados_grade_ibge_2022","na_bacia":1,"area_pct_bacia":100.0,"metodo_recorte_bacia":"ponto_representativo_grade_2022; area_pct_geometrica"},"geometry":{"type":"Polygon","coordinates":[[[-51.82264307433577,-29.58101762471836],[-51.82265859264372,-29.579149741959583],[-51.820664770885905,-29.579135197388506],[-51.82064923836877,-29.581003079883672],[-51.82264307433577,-29.58101762471836]]]}},{"type":"Feature","properties":{"id_grade":"200ME52186N80542","pop":4,"dom":2,"universo_dom":"domicilios_ocupados_grade_ibge_2022","na_bacia":1,"area_pct_bacia":100.0,"metodo_recorte_bacia":"ponto_representativo_grade_2022; area_pct_geometrica"},"geometry":{"type":"Polygon","coordinates":[[[-51.82064923836877,-29.581003079883672],[-51.820664770885905,-29.579135197388506],[-51.81867094934949,-29.579120639506378],[-51.81865540262318,-29.580988521737616],[-51.82064923836877,-29.581003079883672]]]}},{"type":"Feature","properties":{"id_grade":"200ME52188N80542","pop":5,"dom":2,"universo_dom":"domicilios_ocupados_grade_ibge_2022","na_bacia":1,"area_pct_bacia":100.0,"metodo_recorte_bacia":"ponto_representativo_grade_2022; area_pct_geometrica"},"geometry":{"type":"Polygon","coordinates":[[[-51.81865540262318,-29.580988521737616],[-51.81867094934949,-29.579120639506378],[-51.81667712803467,-29.579106068313283],[-51.81666156709919,-29.580973950280413],[-51.81865540262318,-29.580988521737616]]]}},{"type":"Feature","properties":{"id_grade":"200ME52180N80544","pop":1,"dom":1,"universo_dom":"domicilios_ocupados_grade_ibge_2022","na_bacia":1,"area_pct_bacia":100.0,"metodo_recorte_bacia":"ponto_representativo_grade_2022; area_pct_geometrica"},"geometry":{"type":"Polygon","coordinates":[[[-51.82664623682274,-29.579178791168363],[-51.82666172649153,-29.57731092843175],[-51.82466791850051,-29.577296410746055],[-51.82465241462273,-29.579164273219476],[-51.82664623682274,-29.579178791168363]]]}},{"type":"Feature","properties":{"id_grade":"200ME52182N80544","pop":3,"dom":1,"universo_dom":"domicilios_ocupados_grade_ibge_2022","na_bacia":1,"area_pct_bacia":100.0,"metodo_recorte_bacia":"ponto_representativo_grade_2022; area_pct_geometrica"},"geometry":{"type":"Polygon","coordinates":[[[-51.82465241462273,-29.579164273219476],[-51.82466791850051,-29.577296410746055],[-51.82267411073048,-29.5772818797495],[-51.82265859264372,-29.579149741959583],[-51.82465241462273,-29.579164273219476]]]}},{"type":"Feature","properties":{"id_grade":"200ME52180N80548","pop":33,"dom":11,"universo_dom":"domicilios_ocupados_grade_ibge_2022","na_bacia":1,"area_pct_bacia":100.0,"metodo_recorte_bacia":"ponto_representativo_grade_2022; area_pct_geometrica"},"geometry":{"type":"Polygon","coordinates":[[[-51.826677215939526,-29.57544308624093],[-51.82669270516674,-29.57357526459281],[-51.82469892559309,-29.573560747433355],[-51.82468342215729,-29.575428568818356],[-51.826677215939526,-29.57544308624093]]]}},{"type":"Feature","properties":{"id_grade":"200ME52182N80548","pop":3,"dom":2,"universo_dom":"domicilios_ocupados_grade_ibge_2022","na_bacia":1,"area_pct_bacia":100.0,"metodo_recorte_bacia":"ponto_representativo_grade_2022; area_pct_geometrica"},"geometry":{"type":"Polygon","coordinates":[[[-51.82468342215729,-29.575428568818356],[-51.82469892559309,-29.573560747433355],[-51.822705146240416,-29.57354621696353],[-51.82268962859604,-29.575414038085196],[-51.82468342215729,-29.575428568818356]]]}},{"type":"Feature","properties":{"id_grade":"200ME52180N80550","pop":17,"dom":6,"universo_dom":"domicilios_ocupados_grade_ibge_2022","na_bacia":1,"area_pct_bacia":100.0,"metodo_recorte_bacia":"ponto_representativo_grade_2022; area_pct_geometrica"},"geometry":{"type":"Polygon","coordinates":[[[-51.82669270516674,-29.57357526459281],[-51.826708194173186,-29.571707463484213],[-51.82471442880791,-29.57169294658789],[-51.82469892559309,-29.573560747433355],[-51.82669270516674,-29.57357526459281]]]}},{"type":"Feature","properties":{"id_grade":"200ME52178N80592","pop":2,"dom":1,"universo_dom":"domicilios_ocupados_grade_ibge_2022","na_bacia":1,"area_pct_bacia":100.0,"metodo_recorte_bacia":"ponto_representativo_grade_2022; area_pct_geometrica"},"geometry":{"type":"Polygon","coordinates":[[[-51.82901140940699,-29.534370248191312],[-51.82902687957407,-29.532502877436414],[-51.82703341231734,-29.532488379363635],[-51.82701792794613,-29.53435574985629],[-51.82901140940699,-29.534370248191312]]]}},{"type":"Feature","properties":{"id_grade":"200ME52188N80592","pop":22,"dom":7,"universo_dom":"domicilios_ocupados_grade_ibge_2022","na_bacia":1,"area_pct_bacia":100.0,"metodo_recorte_bacia":"ponto_representativo_grade_2022; area_pct_geometrica"},"geometry":{"type":"Polygon","coordinates":[[[-51.81904400431147,-29.53429762346324],[-51.81905954549917,-29.532430254022053],[-51.81706607934783,-29.532415689424063],[-51.81705052395602,-29.534283058601773],[-51.81904400431147,-29.53429762346324]]]}},{"type":"Feature","properties":{"id_grade":"200ME52180N80594","pop":2,"dom":1,"universo_dom":"domicilios_ocupados_grade_ibge_2022","na_bacia":1,"area_pct_bacia":100.0,"metodo_recorte_bacia":"ponto_representativo_grade_2022; area_pct_geometrica"},"geometry":{"type":"Polygon","coordinates":[[[-51.82703341231734,-29.532488379363635],[-51.827048896467886,-29.53062102934243],[-51.825055443635755,-29.530606518227078],[-51.82503994528128,-29.532473867985765],[-51.82703341231734,-29.532488379363635]]]}},{"type":"Feature","properties":{"id_grade":"200ME52184N80596","pop":10,"dom":3,"universo_dom":"domicilios_ocupados_grade_ibge_2022","na_bacia":1,"area_pct_bacia":100.0,"metodo_recorte_bacia":"ponto_representativo_grade_2022; area_pct_geometrica"},"geometry":{"type":"Polygon","coordinates":[[[-51.823061991024495,-29.530591993806915],[-51.823077503361816,-29.528724664779272],[-51.82108406517534,-29.52871012731726],[-51.82106853863431,-29.53057745608198],[-51.823061991024495,-29.530591993806915]]]}},{"type":"Feature","properties":{"id_grade":"200ME52188N80596","pop":11,"dom":6,"universo_dom":"domicilios_ocupados_grade_ibge_2022","na_bacia":1,"area_pct_bacia":100.0,"metodo_recorte_bacia":"ponto_representativo_grade_2022; area_pct_geometrica"},"geometry":{"type":"Polygon","coordinates":[[[-51.819075086465396,-29.530562905052275],[-51.81909062721014,-29.52869557655073],[-51.81709718946641,-29.528681012479545],[-51.81708163451796,-29.530548340717726],[-51.819075086465396,-29.530562905052275]]]}},{"type":"Feature","properties":{"id_grade":"1KME5218N8047","pop":7,"dom":3,"universo_dom":"domicilios_ocupados_grade_ibge_2022","na_bacia":1,"area_pct_bacia":100.0,"metodo_recorte_bacia":"ponto_representativo_grade_2022; area_pct_geometrica"},"geometry":{"type":"Polygon","coordinates":[[[-51.826088461663026,-29.64643555936814],[-51.826165947554685,-29.6370927436484],[-51.81619463587265,-29.63701997985699],[-51.81611679458435,-29.646362788961095],[-51.826088461663026,-29.64643555936814]]]}},{"type":"Feature","properties":{"id_grade":"1KME5213N8048","pop":15,"dom":6,"universo_dom":"domicilios_ocupados_grade_ibge_2022","na_bacia":1,"area_pct_bacia":100.0,"metodo_recorte_bacia":"ponto_representativo_grade_2022; area_pct_geometrica"},"geometry":{"type":"Polygon","coordinates":[[[-51.876022588309745,-29.63745156813348],[-51.87609829181256,-29.628109235938524],[-51.86612730814091,-29.628038143434154],[-51.86605124926385,-29.63738046916849],[-51.876022588309745,-29.63745156813348]]]}},{"type":"Feature","properties":{"id_grade":"1KME5214N8048","pop":15,"dom":7,"universo_dom":"domicilios_ocupados_grade_ibge_2022","na_bacia":1,"area_pct_bacia":100.0,"metodo_recorte_bacia":"ponto_representativo_grade_2022; area_pct_geometrica"},"geometry":{"type":"Polygon","coordinates":[[[-51.86605124926385,-29.63738046916849],[-51.86612730814091,-29.628038143434154],[-51.8561563298908,-29.627966717993093],[-51.85607991564006,-29.637309037236843],[-51.86605124926385,-29.63738046916849]]]}},{"type":"Feature","properties":{"id_grade":"1KME5215N8048","pop":14,"dom":8,"universo_dom":"domicilios_ocupados_grade_ibge_2022","na_bacia":1,"area_pct_bacia":100.0,"metodo_recorte_bacia":"ponto_representativo_grade_2022; area_pct_geometrica"},"geometry":{"type":"Polygon","coordinates":[[[-51.85607991564006,-29.637309037236843],[-51.8561563298908,-29.627966717993093],[-51.846185357087535,-29.62789495961668],[-51.84610858746372,-29.637237272339316],[-51.85607991564006,-29.637309037236843]]]}},{"type":"Feature","properties":{"id_grade":"1KME5216N8048","pop":5,"dom":3,"universo_dom":"domicilios_ocupados_grade_ibge_2022","na_bacia":1,"area_pct_bacia":100.0,"metodo_recorte_bacia":"ponto_representativo_grade_2022; area_pct_geometrica"},"geometry":{"type":"Polygon","coordinates":[[[-51.84610858746372,-29.637237272339316],[-51.846185357087535,-29.62789495961668],[-51.836214389756464,-29.627822868304968],[-51.836137264760154,-29.63716517447619],[-51.84610858746372,-29.637237272339316]]]}},{"type":"Feature","properties":{"id_grade":"1KME5217N8048","pop":3,"dom":3,"universo_dom":"domicilios_ocupados_grade_ibge_2022","na_bacia":1,"area_pct_bacia":100.0,"metodo_recorte_bacia":"ponto_representativo_grade_2022; area_pct_geometrica"},"geometry":{"type":"Polygon","coordinates":[[[-51.836137264760154,-29.63716517447619],[-51.836214389756464,-29.627822868304968],[-51.826243427922904,-29.627750444058723],[-51.826165947554685,-29.6370927436484],[-51.836137264760154,-29.63716517447619]]]}},{"type":"Feature","properties":{"id_grade":"1KME5219N8048","pop":1,"dom":1,"universo_dom":"domicilios_ocupados_grade_ibge_2022","na_bacia":1,"area_pct_bacia":100.0,"metodo_recorte_bacia":"ponto_representativo_grade_2022; area_pct_geometrica"},"geometry":{"type":"Polygon","coordinates":[[[-51.81619463587265,-29.63701997985699],[-51.816272471612194,-29.627677686878958],[-51.80630152084966,-29.62760459676619],[-51.80622332973938,-29.63694688310229],[-51.81619463587265,-29.63701997985699]]]}},{"type":"Feature","properties":{"id_grade":"1KME5213N8049","pop":15,"dom":7,"universo_dom":"domicilios_ocupados_grade_ibge_2022","na_bacia":1,"area_pct_bacia":100.0,"metodo_recorte_bacia":"ponto_representativo_grade_2022; area_pct_geometrica"},"geometry":{"type":"Polygon","coordinates":[[[-51.87609829181256,-29.628109235938524],[-51.876173989919174,-29.61876741950158],[-51.86620336159645,-29.61869633345465],[-51.86612730814091,-29.628038143434154],[-51.87609829181256,-29.628109235938524]]]}},{"type":"Feature","properties":{"id_grade":"1KME5214N8049","pop":9,"dom":7,"universo_dom":"domicilios_ocupados_grade_ibge_2022","na_bacia":1,"area_pct_bacia":100.0,"metodo_recorte_bacia":"ponto_representativo_grade_2022; area_pct_geometrica"},"geometry":{"type":"Polygon","coordinates":[[[-51.86612730814091,-29.628038143434154],[-51.86620336159645,-29.61869633345465],[-51.856232738694665,-29.61862491450098],[-51.8561563298908,-29.627966717993093],[-51.86612730814091,-29.628038143434154]]]}},{"type":"Feature","properties":{"id_grade":"1KME5215N8049","pop":3,"dom":2,"universo_dom":"domicilios_ocupados_grade_ibge_2022","na_bacia":1,"area_pct_bacia":100.0,"metodo_recorte_bacia":"ponto_representativo_grade_2022; area_pct_geometrica"},"geometry":{"type":"Polygon","coordinates":[[[-51.8561563298908,-29.627966717993093],[-51.856232738694665,-29.61862491450098],[-51.84626212123916,-29.618553162641785],[-51.846185357087535,-29.62789495961668],[-51.8561563298908,-29.627966717993093]]]}},{"type":"Feature","properties":{"id_grade":"1KME5216N8049","pop":6,"dom":4,"universo_dom":"domicilios_ocupados_grade_ibge_2022","na_bacia":1,"area_pct_bacia":100.0,"metodo_recorte_bacia":"ponto_representativo_grade_2022; area_pct_geometrica"},"geometry":{"type":"Polygon","coordinates":[[[-51.846185357087535,-29.62789495961668],[-51.84626212123916,-29.618553162641785],[-51.83629150925526,-29.61848107787798],[-51.836214389756464,-29.627822868304968],[-51.846185357087535,-29.62789495961668]]]}},{"type":"Feature","properties":{"id_grade":"1KME5214N8050","pop":26,"dom":11,"universo_dom":"domicilios_ocupados_grade_ibge_2022","na_bacia":1,"area_pct_bacia":100.0,"metodo_recorte_bacia":"ponto_representativo_grade_2022; area_pct_geometrica"},"geometry":{"type":"Polygon","coordinates":[[[-51.86620336159645,-29.61869633345465],[-51.86627940963103,-29.609355038840988],[-51.85630914205226,-29.609283626371358],[-51.856232738694665,-29.61862491450098],[-51.86620336159645,-29.61869633345465]]]}},{"type":"Feature","properties":{"id_grade":"1KME5215N8050","pop":11,"dom":3,"universo_dom":"domicilios_ocupados_grade_ibge_2022","na_bacia":1,"area_pct_bacia":100.0,"metodo_recorte_bacia":"ponto_representativo_grade_2022; area_pct_geometrica"},"geometry":{"type":"Polygon","coordinates":[[[-51.856232738694665,-29.61862491450098],[-51.85630914205226,-29.609283626371358],[-51.84633887991918,-29.609211881026628],[-51.84626212123916,-29.618553162641785],[-51.856232738694665,-29.61862491450098]]]}},{"type":"Feature","properties":{"id_grade":"1KME5218N8050","pop":14,"dom":5,"universo_dom":"domicilios_ocupados_grade_ibge_2022","na_bacia":1,"area_pct_bacia":100.0,"metodo_recorte_bacia":"ponto_representativo_grade_2022; area_pct_geometrica"},"geometry":{"type":"Polygon","coordinates":[[[-51.82632090276828,-29.61840866021006],[-51.826398372091404,-29.6090673917135],[-51.81642812644735,-29.608994647746748],[-51.81635030180356,-29.618335909638652],[-51.82632090276828,-29.61840866021006]]]}},{"type":"Feature","properties":{"id_grade":"1KME5220N8050","pop":58,"dom":22,"universo_dom":"domicilios_ocupados_grade_ibge_2022","na_bacia":1,"area_pct_bacia":100.0,"metodo_recorte_bacia":"ponto_representativo_grade_2022; area_pct_geometrica"},"geometry":{"type":"Polygon","coordinates":[[[-51.80637970638642,-29.61826282616422],[-51.80645788635029,-29.608921570907402],[-51.79648765182553,-29.608848161195887],[-51.796409116542186,-29.61818940978786],[-51.80637970638642,-29.61826282616422]]]}},{"type":"Feature","properties":{"id_grade":"1KME5213N8051","pop":66,"dom":25,"universo_dom":"domicilios_ocupados_grade_ibge_2022","na_bacia":1,"area_pct_bacia":100.0,"metodo_recorte_bacia":"ponto_representativo_grade_2022; area_pct_geometrica"},"geometry":{"type":"Polygon","coordinates":[[[-51.87624968263017,-29.60942611843433],[-51.8763253699461,-29.60008533234805],[-51.86635545224523,-29.600014259204897],[-51.86627940963103,-29.609355038840988],[-51.87624968263017,-29.60942611843433]]]}},{"type":"Feature","properties":{"id_grade":"1KME5214N8051","pop":4,"dom":2,"universo_dom":"domicilios_ocupados_grade_ibge_2022","na_bacia":1,"area_pct_bacia":100.0,"metodo_recorte_bacia":"ponto_representativo_grade_2022; area_pct_geometrica"},"geometry":{"type":"Polygon","coordinates":[[[-51.86627940963103,-29.609355038840988],[-51.86635545224523,-29.600014259204897],[-51.85638553996415,-29.599942853215914],[-51.85630914205226,-29.609283626371358],[-51.86627940963103,-29.609355038840988]]]}},{"type":"Feature","properties":{"id_grade":"1KME5216N8051","pop":11,"dom":4,"universo_dom":"domicilios_ocupados_grade_ibge_2022","na_bacia":1,"area_pct_bacia":100.0,"metodo_recorte_bacia":"ponto_representativo_grade_2022; area_pct_geometrica"},"geometry":{"type":"Polygon","coordinates":[[[-51.84633887991918,-29.609211881026628],[-51.84641563312819,-29.599871114381564],[-51.83644573176265,-29.599799042702926],[-51.83636862325713,-29.609139802806755],[-51.84633887991918,-29.609211881026628]]]}},{"type":"Feature","properties":{"id_grade":"1KME5217N8051","pop":2,"dom":1,"universo_dom":"domicilios_ocupados_grade_ibge_2022","na_bacia":1,"area_pct_bacia":100.0,"metodo_recorte_bacia":"ponto_representativo_grade_2022; area_pct_geometrica"},"geometry":{"type":"Polygon","coordinates":[[[-51.83636862325713,-29.609139802806755],[-51.83644573176265,-29.599799042702926],[-51.82647583589287,-29.599726638180613],[-51.826398372091404,-29.6090673917135],[-51.83636862325713,-29.609139802806755]]]}},{"type":"Feature","properties":{"id_grade":"1KME5219N8051","pop":74,"dom":25,"universo_dom":"domicilios_ocupados_grade_ibge_2022","na_bacia":1,"area_pct_bacia":100.0,"metodo_recorte_bacia":"ponto_representativo_grade_2022; area_pct_geometrica"},"geometry":{"type":"Polygon","coordinates":[[[-51.81642812644735,-29.608994647746748],[-51.81650594554416,-29.599653900815042],[-51.80653606074185,-29.59958083060713],[-51.80645788635029,-29.608921570907402],[-51.81642812644735,-29.608994647746748]]]}},{"type":"Feature","properties":{"id_grade":"1KME5220N8051","pop":63,"dom":26,"universo_dom":"domicilios_ocupados_grade_ibge_2022","na_bacia":1,"area_pct_bacia":100.0,"metodo_recorte_bacia":"ponto_representativo_grade_2022; area_pct_geometrica"},"geometry":{"type":"Polygon","coordinates":[[[-51.80645788635029,-29.608921570907402],[-51.80653606074185,-29.59958083060713],[-51.79656618151124,-29.599507427557583],[-51.79648765182553,-29.608848161195887],[-51.80645788635029,-29.608921570907402]]]}},{"type":"Feature","properties":{"id_grade":"1KME5212N8052","pop":22,"dom":10,"universo_dom":"domicilios_ocupados_grade_ibge_2022","na_bacia":1,"area_pct_bacia":100.0,"metodo_recorte_bacia":"ponto_representativo_grade_2022; area_pct_geometrica"},"geometry":{"type":"Polygon","coordinates":[[[-51.88629529304144,-29.60015607264464],[-51.88637061968939,-29.590815794734453],[-51.876401051867575,-29.59074506085449],[-51.8763253699461,-29.60008533234805],[-51.88629529304144,-29.60015607264464]]]}},{"type":"Feature","properties":{"id_grade":"1KME5213N8052","pop":30,"dom":12,"universo_dom":"domicilios_ocupados_grade_ibge_2022","na_bacia":1,"area_pct_bacia":100.0,"metodo_recorte_bacia":"ponto_representativo_grade_2022; area_pct_geometrica"},"geometry":{"type":"Polygon","coordinates":[[[-51.8763253699461,-29.60008533234805],[-51.876401051867575,-29.59074506085449],[-51.866431489439655,-29.590673994158347],[-51.86635545224523,-29.600014259204897],[-51.8763253699461,-29.60008533234805]]]}},{"type":"Feature","properties":{"id_grade":"1KME5214N8052","pop":97,"dom":38,"universo_dom":"domicilios_ocupados_grade_ibge_2022","na_bacia":1,"area_pct_bacia":100.0,"metodo_recorte_bacia":"ponto_representativo_grade_2022; area_pct_geometrica"},"geometry":{"type":"Polygon","coordinates":[[[-51.86635545224523,-29.600014259204897],[-51.866431489439655,-29.590673994158347],[-51.85646193243094,-29.590602594646462],[-51.85638553996415,-29.599942853215914],[-51.86635545224523,-29.600014259204897]]]}},{"type":"Feature","properties":{"id_grade":"1KME5215N8052","pop":15,"dom":6,"universo_dom":"domicilios_ocupados_grade_ibge_2022","na_bacia":1,"area_pct_bacia":100.0,"metodo_recorte_bacia":"ponto_representativo_grade_2022; area_pct_geometrica"},"geometry":{"type":"Polygon","coordinates":[[[-51.85638553996415,-29.599942853215914],[-51.85646193243094,-29.590602594646462],[-51.84649238086676,-29.59053086231949],[-51.84641563312819,-29.599871114381564],[-51.85638553996415,-29.599942853215914]]]}},{"type":"Feature","properties":{"id_grade":"1KME5216N8052","pop":18,"dom":8,"universo_dom":"domicilios_ocupados_grade_ibge_2022","na_bacia":1,"area_pct_bacia":100.0,"metodo_recorte_bacia":"ponto_representativo_grade_2022; area_pct_geometrica"},"geometry":{"type":"Polygon","coordinates":[[[-51.84641563312819,-29.599871114381564],[-51.84649238086676,-29.59053086231949],[-51.83652283477243,-29.590458797178414],[-51.83644573176265,-29.599799042702926],[-51.84641563312819,-29.599871114381564]]]}},{"type":"Feature","properties":{"id_grade":"1KME5220N8052","pop":17,"dom":7,"universo_dom":"domicilios_ocupados_grade_ibge_2022","na_bacia":1,"area_pct_bacia":100.0,"metodo_recorte_bacia":"ponto_representativo_grade_2022; area_pct_geometrica"},"geometry":{"type":"Polygon","coordinates":[[[-51.80653606074185,-29.59958083060713],[-51.80661422956169,-29.590240604875778],[-51.79664470559992,-29.590167208484],[-51.79656618151124,-29.599507427557583],[-51.80653606074185,-29.59958083060713]]]}},{"type":"Feature","properties":{"id_grade":"1KME5214N8053","pop":11,"dom":6,"universo_dom":"domicilios_ocupados_grade_ibge_2022","na_bacia":1,"area_pct_bacia":100.0,"metodo_recorte_bacia":"ponto_representativo_grade_2022; area_pct_geometrica"},"geometry":{"type":"Polygon","coordinates":[[[-51.866431489439655,-29.590673994158347],[-51.86650752121486,-29.58133424331329],[-51.8565383194532,-29.581262850275067],[-51.85646193243094,-29.590602594646462],[-51.866431489439655,-29.590673994158347]]]}},{"type":"Feature","properties":{"id_grade":"1KME5215N8053","pop":7,"dom":2,"universo_dom":"domicilios_ocupados_grade_ibge_2022","na_bacia":1,"area_pct_bacia":100.0,"metodo_recorte_bacia":"ponto_representativo_grade_2022; area_pct_geometrica"},"geometry":{"type":"Polygon","coordinates":[[[-51.85646193243094,-29.590602594646462],[-51.8565383194532,-29.581262850275067],[-51.84656912313549,-29.581191124451948],[-51.84649238086676,-29.59053086231949],[-51.85646193243094,-29.590602594646462]]]}},{"type":"Feature","properties":{"id_grade":"1KME5220N8053","pop":27,"dom":11,"universo_dom":"domicilios_ocupados_grade_ibge_2022","na_bacia":1,"area_pct_bacia":100.0,"metodo_recorte_bacia":"ponto_representativo_grade_2022; area_pct_geometrica"},"geometry":{"type":"Polygon","coordinates":[[[-51.80661422956169,-29.590240604875778],[-51.80669239281042,-29.580900893324753],[-51.79672322409217,-29.580827503587557],[-51.79664470559992,-29.590167208484],[-51.80661422956169,-29.590240604875778]]]}},{"type":"Feature","properties":{"id_grade":"1KME5214N8054","pop":5,"dom":3,"universo_dom":"domicilios_ocupados_grade_ibge_2022","na_bacia":1,"area_pct_bacia":100.0,"metodo_recorte_bacia":"ponto_representativo_grade_2022; area_pct_geometrica"},"geometry":{"type":"Polygon","coordinates":[[[-51.86650752121486,-29.58133424331329],[-51.86658354757142,-29.57199500628213],[-51.8566147010315,-29.57192361971386],[-51.8565383194532,-29.581262850275067],[-51.86650752121486,-29.58133424331329]]]}},{"type":"Feature","properties":{"id_grade":"1KME5215N8054","pop":69,"dom":25,"universo_dom":"domicilios_ocupados_grade_ibge_2022","na_bacia":1,"area_pct_bacia":100.0,"metodo_recorte_bacia":"ponto_representativo_grade_2022; area_pct_geometrica"},"geometry":{"type":"Polygon","coordinates":[[[-51.8565383194532,-29.581262850275067],[-51.8566147010315,-29.57192361971386],[-51.84664585993495,-29.57185190039095],[-51.84656912313549,-29.581191124451948],[-51.8565383194532,-29.581262850275067]]]}},{"type":"Feature","properties":{"id_grade":"1KME5219N8054","pop":7,"dom":3,"universo_dom":"domicilios_ocupados_grade_ibge_2022","na_bacia":1,"area_pct_bacia":100.0,"metodo_recorte_bacia":"ponto_representativo_grade_2022; area_pct_geometrica"},"geometry":{"type":"Polygon","coordinates":[[[-51.81666156709919,-29.58097395028034],[-51.8167393695586,-29.57163474590136],[-51.80677055048863,-29.571561695566807],[-51.80669239281042,-29.580900893324753],[-51.81666156709919,-29.58097395028034]]]}},{"type":"Feature","properties":{"id_grade":"1KME5213N8055","pop":35,"dom":10,"universo_dom":"domicilios_ocupados_grade_ibge_2022","na_bacia":1,"area_pct_bacia":100.0,"metodo_recorte_bacia":"ponto_representativo_grade_2022; area_pct_geometrica"},"geometry":{"type":"Polygon","coordinates":[[[-51.8765523995294,-29.572066060094595],[-51.876628065270914,-29.562727330052553],[-51.866659568509945,-29.562656282676745],[-51.86658354757142,-29.57199500628213],[-51.8765523995294,-29.572066060094595]]]}},{"type":"Feature","properties":{"id_grade":"1KME5214N8055","pop":29,"dom":13,"universo_dom":"domicilios_ocupados_grade_ibge_2022","na_bacia":1,"area_pct_bacia":100.0,"metodo_recorte_bacia":"ponto_representativo_grade_2022; area_pct_geometrica"},"geometry":{"type":"Polygon","coordinates":[[[-51.86658354757142,-29.57199500628213],[-51.866659568509945,-29.562656282676745],[-51.856691077166445,-29.562584902575182],[-51.8566147010315,-29.57192361971386],[-51.86658354757142,-29.57199500628213]]]}},{"type":"Feature","properties":{"id_grade":"1KME5215N8055","pop":7,"dom":5,"universo_dom":"domicilios_ocupados_grade_ibge_2022","na_bacia":1,"area_pct_bacia":100.0,"metodo_recorte_bacia":"ponto_representativo_grade_2022; area_pct_geometrica"},"geometry":{"type":"Polygon","coordinates":[[[-51.8566147010315,-29.57192361971386],[-51.856691077166445,-29.562584902575182],[-51.84672259126573,-29.562513189749577],[-51.84664585993495,-29.57185190039095],[-51.8566147010315,-29.57192361971386]]]}},{"type":"Feature","properties":{"id_grade":"1KME5216N8055","pop":24,"dom":9,"universo_dom":"domicilios_ocupados_grade_ibge_2022","na_bacia":1,"area_pct_bacia":100.0,"metodo_recorte_bacia":"ponto_representativo_grade_2022; area_pct_geometrica"},"geometry":{"type":"Polygon","coordinates":[[[-51.84664585993495,-29.57185190039095],[-51.84672259126573,-29.562513189749577],[-51.83675411083311,-29.562441144199934],[-51.83667702430707,-29.571779848314343],[-51.84664585993495,-29.57185190039095]]]}},{"type":"Feature","properties":{"id_grade":"1KME5217N8055","pop":26,"dom":9,"universo_dom":"domicilios_ocupados_grade_ibge_2022","na_bacia":1,"area_pct_bacia":100.0,"metodo_recorte_bacia":"ponto_representativo_grade_2022; area_pct_geometrica"},"geometry":{"type":"Polygon","coordinates":[[[-51.83667702430707,-29.571779848314343],[-51.83675411083311,-29.562441144199934],[-51.8267856358939,-29.56236876592686],[-51.826708194173186,-29.571707463484213],[-51.83667702430707,-29.571779848314343]]]}},{"type":"Feature","properties":{"id_grade":"1KME5218N8055","pop":27,"dom":11,"universo_dom":"domicilios_ocupados_grade_ibge_2022","na_bacia":1,"area_pct_bacia":100.0,"metodo_recorte_bacia":"ponto_representativo_grade_2022; area_pct_geometrica"},"geometry":{"type":"Polygon","coordinates":[[[-51.826708194173186,-29.571707463484213],[-51.8267856358939,-29.56236876592686],[-51.81681716647339,-29.562296054931405],[-51.8167393695586,-29.57163474590136],[-51.826708194173186,-29.571707463484213]]]}},{"type":"Feature","properties":{"id_grade":"1KME5219N8055","pop":38,"dom":15,"universo_dom":"domicilios_ocupados_grade_ibge_2022","na_bacia":1,"area_pct_bacia":100.0,"metodo_recorte_bacia":"ponto_representativo_grade_2022; area_pct_geometrica"},"geometry":{"type":"Polygon","coordinates":[[[-51.8167393695586,-29.57163474590136],[-51.81681716647339,-29.562296054931405],[-51.80684870259691,-29.56222301121412],[-51.80677055048863,-29.571561695566807],[-51.8167393695586,-29.57163474590136]]]}},{"type":"Feature","properties":{"id_grade":"1KME5220N8055","pop":28,"dom":9,"universo_dom":"domicilios_ocupados_grade_ibge_2022","na_bacia":1,"area_pct_bacia":100.0,"metodo_recorte_bacia":"ponto_representativo_grade_2022; area_pct_geometrica"},"geometry":{"type":"Polygon","coordinates":[[[-51.80677055048863,-29.571561695566807],[-51.80684870259691,-29.56222301121412],[-51.79688024428975,-29.562149634775775],[-51.796801736988584,-29.571488312481005],[-51.80677055048863,-29.571561695566807]]]}},{"type":"Feature","properties":{"id_grade":"1KME5213N8056","pop":31,"dom":15,"universo_dom":"domicilios_ocupados_grade_ibge_2022","na_bacia":1,"area_pct_bacia":100.0,"metodo_recorte_bacia":"ponto_representativo_grade_2022; area_pct_geometrica"},"geometry":{"type":"Polygon","coordinates":[[[-51.876628065270914,-29.562727330052553],[-51.87670372562027,-29.553389113052642],[-51.866735584030984,-29.553318072109864],[-51.866659568509945,-29.562656282676745],[-51.876628065270914,-29.562727330052553]]]}},{"type":"Feature","properties":{"id_grade":"1KME5214N8056","pop":38,"dom":14,"universo_dom":"domicilios_ocupados_grade_ibge_2022","na_bacia":1,"area_pct_bacia":100.0,"metodo_recorte_bacia":"ponto_representativo_grade_2022; area_pct_geometrica"},"geometry":{"type":"Polygon","coordinates":[[[-51.866659568509945,-29.562656282676745],[-51.866735584030984,-29.553318072109864],[-51.8567674478586,-29.553246698472183],[-51.856691077166445,-29.562584902575182],[-51.866659568509945,-29.562656282676745]]]}},{"type":"Feature","properties":{"id_grade":"1KME5215N8056","pop":38,"dom":13,"universo_dom":"domicilios_ocupados_grade_ibge_2022","na_bacia":1,"area_pct_bacia":100.0,"metodo_recorte_bacia":"ponto_representativo_grade_2022; area_pct_geometrica"},"geometry":{"type":"Polygon","coordinates":[[[-51.856691077166445,-29.562584902575182],[-51.8567674478586,-29.553246698472183],[-51.84679931712843,-29.55317499213967],[-51.84672259126573,-29.562513189749577],[-51.856691077166445,-29.562584902575182]]]}},{"type":"Feature","properties":{"id_grade":"1KME5216N8056","pop":11,"dom":5,"universo_dom":"domicilios_ocupados_grade_ibge_2022","na_bacia":1,"area_pct_bacia":100.0,"metodo_recorte_bacia":"ponto_representativo_grade_2022; area_pct_geometrica"},"geometry":{"type":"Polygon","coordinates":[[[-51.84672259126573,-29.562513189749577],[-51.84679931712843,-29.55317499213967],[-51.836831191865755,-29.55310295311375],[-51.83675411083311,-29.562441144199934],[-51.84672259126573,-29.562513189749577]]]}},{"type":"Feature","properties":{"id_grade":"1KME5217N8056","pop":32,"dom":10,"universo_dom":"domicilios_ocupados_grade_ibge_2022","na_bacia":1,"area_pct_bacia":100.0,"metodo_recorte_bacia":"ponto_representativo_grade_2022; area_pct_geometrica"},"geometry":{"type":"Polygon","coordinates":[[[-51.83675411083311,-29.562441144199934],[-51.836831191865755,-29.55310295311375],[-51.8268630720959,-29.5530305813944],[-51.8267856358939,-29.56236876592686],[-51.83675411083311,-29.562441144199934]]]}},{"type":"Feature","properties":{"id_grade":"1KME5218N8056","pop":11,"dom":3,"universo_dom":"domicilios_ocupados_grade_ibge_2022","na_bacia":1,"area_pct_bacia":100.0,"metodo_recorte_bacia":"ponto_representativo_grade_2022; area_pct_geometrica"},"geometry":{"type":"Polygon","coordinates":[[[-51.8267856358939,-29.56236876592686],[-51.8268630720959,-29.5530305813944],[-51.81689495784416,-29.55295787698277],[-51.81681716647339,-29.562296054931405],[-51.8267856358939,-29.56236876592686]]]}},{"type":"Feature","properties":{"id_grade":"1KME5219N8056","pop":25,"dom":8,"universo_dom":"domicilios_ocupados_grade_ibge_2022","na_bacia":1,"area_pct_bacia":100.0,"metodo_recorte_bacia":"ponto_representativo_grade_2022; area_pct_geometrica"},"geometry":{"type":"Polygon","coordinates":[[[-51.81681716647339,-29.562296054931405],[-51.81689495784416,-29.55295787698277],[-51.80692684913586,-29.552884839879454],[-51.80684870259691,-29.56222301121412],[-51.81681716647339,-29.562296054931405]]]}},{"type":"Feature","properties":{"id_grade":"1KME5220N8056","pop":38,"dom":16,"universo_dom":"domicilios_ocupados_grade_ibge_2022","na_bacia":1,"area_pct_bacia":100.0,"metodo_recorte_bacia":"ponto_representativo_grade_2022; area_pct_geometrica"},"geometry":{"type":"Polygon","coordinates":[[[-51.80684870259691,-29.56222301121412],[-51.80692684913586,-29.552884839879454],[-51.79695874599629,-29.552811470085118],[-51.79688024428975,-29.562149634775775],[-51.80684870259691,-29.56222301121412]]]}},{"type":"Feature","properties":{"id_grade":"1KME5214N8057","pop":8,"dom":2,"universo_dom":"domicilios_ocupados_grade_ibge_2022","na_bacia":1,"area_pct_bacia":100.0,"metodo_recorte_bacia":"ponto_representativo_grade_2022; area_pct_geometrica"},"geometry":{"type":"Polygon","coordinates":[[[-51.866735584030984,-29.553318072109864],[-51.86681159413513,-29.543980374195044],[-51.85684381310856,-29.543909007017213],[-51.8567674478586,-29.553246698472183],[-51.866735584030984,-29.553318072109864]]]}},{"type":"Feature","properties":{"id_grade":"1KME5215N8057","pop":8,"dom":3,"universo_dom":"domicilios_ocupados_grade_ibge_2022","na_bacia":1,"area_pct_bacia":100.0,"metodo_recorte_bacia":"ponto_representativo_grade_2022; area_pct_geometrica"},"geometry":{"type":"Polygon","coordinates":[[[-51.8567674478586,-29.553246698472183],[-51.85684381310856,-29.543909007017213],[-51.84687603752361,-29.543837307175085],[-51.84679931712843,-29.55317499213967],[-51.8567674478586,-29.553246698472183]]]}},{"type":"Feature","properties":{"id_grade":"1KME5216N8057","pop":17,"dom":5,"universo_dom":"domicilios_ocupados_grade_ibge_2022","na_bacia":1,"area_pct_bacia":100.0,"metodo_recorte_bacia":"ponto_representativo_grade_2022; area_pct_geometrica"},"geometry":{"type":"Polygon","coordinates":[[[-51.84679931712843,-29.55317499213967],[-51.84687603752361,-29.543837307175085],[-51.836908267405576,-29.54376527466893],[-51.836831191865755,-29.55310295311375],[-51.84679931712843,-29.55317499213967]]]}},{"type":"Feature","properties":{"id_grade":"1KME5217N8057","pop":20,"dom":7,"universo_dom":"domicilios_ocupados_grade_ibge_2022","na_bacia":1,"area_pct_bacia":100.0,"metodo_recorte_bacia":"ponto_representativo_grade_2022; area_pct_geometrica"},"geometry":{"type":"Polygon","coordinates":[[[-51.836831191865755,-29.55310295311375],[-51.836908267405576,-29.54376527466893],[-51.82694050277978,-29.54369290949996],[-51.8268630720959,-29.5530305813944],[-51.836831191865755,-29.55310295311375]]]}},{"type":"Feature","properties":{"id_grade":"1KME5218N8057","pop":3,"dom":1,"universo_dom":"domicilios_ocupados_grade_ibge_2022","na_bacia":1,"area_pct_bacia":100.0,"metodo_recorte_bacia":"ponto_representativo_grade_2022; area_pct_geometrica"},"geometry":{"type":"Polygon","coordinates":[[[-51.8268630720959,-29.5530305813944],[-51.82694050277978,-29.54369290949996],[-51.81697274367151,-29.543620211668582],[-51.81689495784416,-29.55295787698277],[-51.8268630720959,-29.5530305813944]]]}},{"type":"Feature","properties":{"id_grade":"1KME5219N8057","pop":62,"dom":23,"universo_dom":"domicilios_ocupados_grade_ibge_2022","na_bacia":1,"area_pct_bacia":100.0,"metodo_recorte_bacia":"ponto_representativo_grade_2022; area_pct_geometrica"},"geometry":{"type":"Polygon","coordinates":[[[-51.81689495784416,-29.55295787698277],[-51.81697274367151,-29.543620211668582],[-51.80700499010608,-29.54354718117564],[-51.80692684913586,-29.552884839879454],[-51.81689495784416,-29.55295787698277]]]}},{"type":"Feature","properties":{"id_grade":"1KME5216N8058","pop":6,"dom":2,"universo_dom":"domicilios_ocupados_grade_ibge_2022","na_bacia":1,"area_pct_bacia":100.0,"metodo_recorte_bacia":"ponto_representativo_grade_2022; area_pct_geometrica"},"geometry":{"type":"Polygon","coordinates":[[[-51.84687603752361,-29.543837307175085],[-51.84695275245186,-29.534500134467677],[-51.83698533745317,-29.534428108478483],[-51.836908267405576,-29.54376527466893],[-51.84687603752361,-29.543837307175085]]]}},{"type":"Feature","properties":{"id_grade":"1KME5217N8058","pop":110,"dom":38,"universo_dom":"domicilios_ocupados_grade_ibge_2022","na_bacia":1,"area_pct_bacia":100.0,"metodo_recorte_bacia":"ponto_representativo_grade_2022; area_pct_geometrica"},"geometry":{"type":"Polygon","coordinates":[[[-51.836908267405576,-29.54376527466893],[-51.83698533745317,-29.534428108478483],[-51.82701792794613,-29.534355749856275],[-51.82694050277978,-29.54369290949996],[-51.836908267405576,-29.54376527466893]]]}},{"type":"Feature","properties":{"id_grade":"1KME5218N8058","pop":38,"dom":14,"universo_dom":"domicilios_ocupados_grade_ibge_2022","na_bacia":1,"area_pct_bacia":100.0,"metodo_recorte_bacia":"ponto_representativo_grade_2022; area_pct_geometrica"},"geometry":{"type":"Polygon","coordinates":[[[-51.82694050277978,-29.54369290949996],[-51.82701792794613,-29.534355749856275],[-51.81705052395602,-29.534283058601652],[-51.81697274367151,-29.543620211668582],[-51.82694050277978,-29.54369290949996]]]}},{"type":"Feature","properties":{"id_grade":"1KME5219N8058","pop":190,"dom":69,"universo_dom":"domicilios_ocupados_grade_ibge_2022","na_bacia":1,"area_pct_bacia":100.0,"metodo_recorte_bacia":"ponto_representativo_grade_2022; area_pct_geometrica"},"geometry":{"type":"Polygon","coordinates":[[[-51.81697274367151,-29.543620211668582],[-51.81705052395602,-29.534283058601652],[-51.807083125508164,-29.534210034715805],[-51.80700499010608,-29.54354718117564],[-51.81697274367151,-29.543620211668582]]]}},{"type":"Feature","properties":{"id_grade":"200ME52126N80570","pop":8,"dom":3,"universo_dom":"domicilios_ocupados_grade_ibge_2022","na_bacia":1,"area_pct_bacia":100.0,"metodo_recorte_bacia":"ponto_representativo_grade_2022; area_pct_geometrica"},"geometry":{"type":"Polygon","coordinates":[[[-51.8806758809871,-29.555285038873375],[-51.88069098420152,-29.553417436565454],[-51.87869735449925,-29.553403281236395],[-51.878682236895656,-29.555270883544406],[-51.8806758809871,-29.555285038873375]]]}},{"type":"Feature","properties":{"id_grade":"200ME52128N80570","pop":6,"dom":3,"universo_dom":"domicilios_ocupados_grade_ibge_2022","na_bacia":1,"area_pct_bacia":100.0,"metodo_recorte_bacia":"ponto_representativo_grade_2022; area_pct_geometrica"},"geometry":{"type":"Polygon","coordinates":[[[-51.878682236895656,-29.555270883544406],[-51.87869735449925,-29.553403281236395],[-51.87670372569636,-29.553389113316825],[-51.87668859370359,-29.555256715624843],[-51.878682236895656,-29.555270883544406]]]}},{"type":"Feature","properties":{"id_grade":"200ME52128N80572","pop":17,"dom":6,"universo_dom":"domicilios_ocupados_grade_ibge_2022","na_bacia":1,"area_pct_bacia":100.0,"metodo_recorte_bacia":"ponto_representativo_grade_2022; area_pct_geometrica"},"geometry":{"type":"Polygon","coordinates":[[[-51.87869735449925,-29.553403281236395],[-51.87871247210285,-29.55153569961284],[-51.87671885678975,-29.551521530793995],[-51.87670372569636,-29.553389113316825],[-51.87869735449925,-29.553403281236395]]]}},{"type":"Feature","properties":{"id_grade":"200ME52128N80576","pop":2,"dom":1,"universo_dom":"domicilios_ocupados_grade_ibge_2022","na_bacia":1,"area_pct_bacia":100.0,"metodo_recorte_bacia":"ponto_representativo_grade_2022; area_pct_geometrica"},"geometry":{"type":"Polygon","coordinates":[[[-51.87872758880712,-29.549668137774287],[-51.87874270551139,-29.547800596620217],[-51.8767491189766,-29.547786428700736],[-51.8767339878832,-29.54965396985471],[-51.87872758880712,-29.549668137774287]]]}},{"type":"Feature","properties":{"id_grade":"200ME52132N80580","pop":1,"dom":1,"universo_dom":"domicilios_ocupados_grade_ibge_2022","na_bacia":1,"area_pct_bacia":100.0,"metodo_recorte_bacia":"ponto_representativo_grade_2022; area_pct_geometrica"},"geometry":{"type":"Polygon","coordinates":[[[-51.8747706779244,-29.545904727720917],[-51.874785822507654,-29.544037228834984],[-51.8727922656505,-29.544023034835146],[-51.872777106678086,-29.545890534620398],[-51.8747706779244,-29.545904727720917]]]}},{"type":"Feature","properties":{"id_grade":"200ME52164N80532","pop":5,"dom":2,"universo_dom":"domicilios_ocupados_grade_ibge_2022","na_bacia":1,"area_pct_bacia":100.0,"metodo_recorte_bacia":"ponto_representativo_grade_2022; area_pct_geometrica"},"geometry":{"type":"Polygon","coordinates":[[[-51.84250456143633,-29.590502076509583],[-51.842519938944015,-29.58863408839244],[-51.84052604394174,-29.58861967495802],[-51.84051065294427,-29.590487663075095],[-51.84250456143633,-29.590502076509583]]]}},{"type":"Feature","properties":{"id_grade":"200ME52166N80532","pop":4,"dom":2,"universo_dom":"domicilios_ocupados_grade_ibge_2022","na_bacia":1,"area_pct_bacia":100.0,"metodo_recorte_bacia":"ponto_representativo_grade_2022; area_pct_geometrica"},"geometry":{"type":"Polygon","coordinates":[[[-51.84051065294427,-29.590487663075095],[-51.84052604394174,-29.58861967495802],[-51.838532148939464,-29.58860524893305],[-51.838516743552816,-29.59047323705022],[-51.84051065294427,-29.590487663075095]]]}},{"type":"Feature","properties":{"id_grade":"200ME52166N80534","pop":6,"dom":2,"universo_dom":"domicilios_ocupados_grade_ibge_2022","na_bacia":1,"area_pct_bacia":100.0,"metodo_recorte_bacia":"ponto_representativo_grade_2022; area_pct_geometrica"},"geometry":{"type":"Polygon","coordinates":[[[-51.84052604394174,-29.58861967495802],[-51.840541434939205,-29.586751707525274],[-51.83854755522544,-29.586737282399632],[-51.838532148939464,-29.58860524893305],[-51.84052604394174,-29.58861967495802]]]}},{"type":"Feature","properties":{"id_grade":"200ME52166N80536","pop":7,"dom":2,"universo_dom":"domicilios_ocupados_grade_ibge_2022","na_bacia":1,"area_pct_bacia":100.0,"metodo_recorte_bacia":"ponto_representativo_grade_2022; area_pct_geometrica"},"geometry":{"type":"Polygon","coordinates":[[[-51.840541434939205,-29.586751707525274],[-51.840556826836064,-29.584883760776847],[-51.83856295971276,-29.58486933565127],[-51.83854755522544,-29.586737282399632],[-51.840541434939205,-29.586751707525274]]]}},{"type":"Feature","properties":{"id_grade":"200ME52168N80536","pop":4,"dom":2,"universo_dom":"domicilios_ocupados_grade_ibge_2022","na_bacia":1,"area_pct_bacia":100.0,"metodo_recorte_bacia":"ponto_representativo_grade_2022; area_pct_geometrica"},"geometry":{"type":"Polygon","coordinates":[[[-51.83854755522544,-29.586737282399632],[-51.83856295971276,-29.58486933565127],[-51.83656909438816,-29.58485489703581],[-51.83655367461233,-29.5867228428848],[-51.83854755522544,-29.586737282399632]]]}},{"type":"Feature","properties":{"id_grade":"200ME52162N80538","pop":3,"dom":2,"universo_dom":"domicilios_ocupados_grade_ibge_2022","na_bacia":1,"area_pct_bacia":100.0,"metodo_recorte_bacia":"ponto_representativo_grade_2022; area_pct_geometrica"},"geometry":{"type":"Polygon","coordinates":[[[-51.84454456018324,-29.58491257235729],[-51.84455992240248,-29.583044645394065],[-51.842566069668344,-29.58303024724808],[-51.84255069305999,-29.584898173311988],[-51.84454456018324,-29.58491257235729]]]}},{"type":"Feature","properties":{"id_grade":"200ME52166N80538","pop":6,"dom":3,"universo_dom":"domicilios_ocupados_grade_ibge_2022","na_bacia":1,"area_pct_bacia":100.0,"metodo_recorte_bacia":"ponto_representativo_grade_2022; area_pct_geometrica"},"geometry":{"type":"Polygon","coordinates":[[[-51.840556826836064,-29.584883760776847],[-51.84057221693422,-29.58301583471298],[-51.83857836509941,-29.58300140958736],[-51.83856295971276,-29.58486933565127],[-51.840556826836064,-29.584883760776847]]]}},{"type":"Feature","properties":{"id_grade":"200ME52168N80538","pop":3,"dom":1,"universo_dom":"domicilios_ocupados_grade_ibge_2022","na_bacia":1,"area_pct_bacia":100.0,"metodo_recorte_bacia":"ponto_representativo_grade_2022; area_pct_geometrica"},"geometry":{"type":"Polygon","coordinates":[[[-51.83856295971276,-29.58486933565127],[-51.83857836509941,-29.58300140958736],[-51.83658451326465,-29.582986970971856],[-51.83656909438816,-29.58485489703581],[-51.83856295971276,-29.58486933565127]]]}},{"type":"Feature","properties":{"id_grade":"200ME52166N80540","pop":2,"dom":1,"universo_dom":"domicilios_ocupados_grade_ibge_2022","na_bacia":1,"area_pct_bacia":100.0,"metodo_recorte_bacia":"ponto_representativo_grade_2022; area_pct_geometrica"},"geometry":{"type":"Polygon","coordinates":[[[-51.84057221693422,-29.58301583471298],[-51.840587607931695,-29.58114792933345],[-51.83859376958674,-29.581133504207813],[-51.83857836509941,-29.58300140958736],[-51.84057221693422,-29.58301583471298]]]}},{"type":"Feature","properties":{"id_grade":"200ME52168N80540","pop":4,"dom":3,"universo_dom":"domicilios_ocupados_grade_ibge_2022","na_bacia":1,"area_pct_bacia":100.0,"metodo_recorte_bacia":"ponto_representativo_grade_2022; area_pct_geometrica"},"geometry":{"type":"Polygon","coordinates":[[[-51.83857836509941,-29.58300140958736],[-51.83859376958674,-29.581133504207813],[-51.8365999321411,-29.581119065592315],[-51.83658451326465,-29.582986970971856],[-51.83857836509941,-29.58300140958736]]]}},{"type":"Feature","properties":{"id_grade":"200ME52162N80542","pop":2,"dom":1,"universo_dom":"domicilios_ocupados_grade_ibge_2022","na_bacia":1,"area_pct_bacia":100.0,"metodo_recorte_bacia":"ponto_representativo_grade_2022; area_pct_geometrica"},"geometry":{"type":"Polygon","coordinates":[[[-51.84457528462167,-29.581176739115136],[-51.84459064684086,-29.579308853520764],[-51.842596821985694,-29.579294455374804],[-51.84258144627671,-29.581162340969303],[-51.84457528462167,-29.581176739115136]]]}},{"type":"Feature","properties":{"id_grade":"200ME52160N80544","pop":2,"dom":1,"universo_dom":"domicilios_ocupados_grade_ibge_2022","na_bacia":1,"area_pct_bacia":100.0,"metodo_recorte_bacia":"ponto_representativo_grade_2022; area_pct_geometrica"},"geometry":{"type":"Polygon","coordinates":[[[-51.84658447079664,-29.579323238176862],[-51.846599818626714,-29.577455373266805],[-51.844606008160724,-29.577440988610675],[-51.84459064684086,-29.579308853520764],[-51.84658447079664,-29.579323238176862]]]}},{"type":"Feature","properties":{"id_grade":"200ME52162N80544","pop":4,"dom":3,"universo_dom":"domicilios_ocupados_grade_ibge_2022","na_bacia":1,"area_pct_bacia":100.0,"metodo_recorte_bacia":"ponto_representativo_grade_2022; area_pct_geometrica"},"geometry":{"type":"Polygon","coordinates":[[[-51.84459064684086,-29.579308853520764],[-51.844606008160724,-29.577440988610675],[-51.842612198594054,-29.57742659046478],[-51.842596821985694,-29.579294455374804],[-51.84459064684086,-29.579308853520764]]]}},{"type":"Feature","properties":{"id_grade":"200ME52160N80546","pop":7,"dom":3,"universo_dom":"domicilios_ocupados_grade_ibge_2022","na_bacia":1,"area_pct_bacia":100.0,"metodo_recorte_bacia":"ponto_representativo_grade_2022; area_pct_geometrica"},"geometry":{"type":"Polygon","coordinates":[[[-51.846599818626714,-29.577455373266805],[-51.84661516555741,-29.575587528141845],[-51.84462136948059,-29.575573144385057],[-51.844606008160724,-29.577440988610675],[-51.846599818626714,-29.577455373266805]]]}},{"type":"Feature","properties":{"id_grade":"200ME52160N80548","pop":5,"dom":2,"universo_dom":"domicilios_ocupados_grade_ibge_2022","na_bacia":1,"area_pct_bacia":100.0,"metodo_recorte_bacia":"ponto_representativo_grade_2022; area_pct_geometrica"},"geometry":{"type":"Polygon","coordinates":[[[-51.84661516555741,-29.575587528141845],[-51.84663051338742,-29.57371970370132],[-51.84463673080047,-29.573705319944494],[-51.84462136948059,-29.575573144385057],[-51.84661516555741,-29.575587528141845]]]}},{"type":"Feature","properties":{"id_grade":"200ME52166N80550","pop":6,"dom":2,"universo_dom":"domicilios_ocupados_grade_ibge_2022","na_bacia":1,"area_pct_bacia":100.0,"metodo_recorte_bacia":"ponto_representativo_grade_2022; area_pct_geometrica"},"geometry":{"type":"Polygon","coordinates":[[[-51.84064916832443,-29.573676511961384],[-51.84066455752327,-29.57180870910455],[-51.83867079112406,-29.571794285777646],[-51.83865538753606,-29.573662087735176],[-51.84064916832443,-29.573676511961384]]]}},{"type":"Feature","properties":{"id_grade":"200ME52176N80522","pop":10,"dom":2,"universo_dom":"domicilios_ocupados_grade_ibge_2022","na_bacia":1,"area_pct_bacia":100.0,"metodo_recorte_bacia":"ponto_representativo_grade_2022; area_pct_geometrica"},"geometry":{"type":"Polygon","coordinates":[[[-51.830463793968875,-29.59975563991081],[-51.83047925691216,-29.597887550170306],[-51.828485292662094,-29.59787305669613],[-51.82846981443038,-29.599741145537408],[-51.830463793968875,-29.59975563991081]]]}},{"type":"Feature","properties":{"id_grade":"200ME52178N80522","pop":17,"dom":7,"universo_dom":"domicilios_ocupados_grade_ibge_2022","na_bacia":1,"area_pct_bacia":100.0,"metodo_recorte_bacia":"ponto_representativo_grade_2022; area_pct_geometrica"},"geometry":{"type":"Polygon","coordinates":[[[-51.82846981443038,-29.599741145537408],[-51.828485292662094,-29.59787305669613],[-51.82649132841203,-29.597858548832942],[-51.82647583579114,-29.599726638573483],[-51.82846981443038,-29.599741145537408]]]}},{"type":"Feature","properties":{"id_grade":"200ME52176N80524","pop":5,"dom":2,"universo_dom":"domicilios_ocupados_grade_ibge_2022","na_bacia":1,"area_pct_bacia":100.0,"metodo_recorte_bacia":"ponto_representativo_grade_2022; area_pct_geometrica"},"geometry":{"type":"Polygon","coordinates":[[[-51.83047925691216,-29.597887550170306],[-51.8304947207547,-29.596019482013443],[-51.82850076999449,-29.59600498764004],[-51.828485292662094,-29.59787305669613],[-51.83047925691216,-29.597887550170306]]]}},{"type":"Feature","properties":{"id_grade":"200ME52178N80524","pop":20,"dom":10,"universo_dom":"domicilios_ocupados_grade_ibge_2022","na_bacia":1,"area_pct_bacia":100.0,"metodo_recorte_bacia":"ponto_representativo_grade_2022; area_pct_geometrica"},"geometry":{"type":"Polygon","coordinates":[[[-51.828485292662094,-29.59787305669613],[-51.82850076999449,-29.59600498764004],[-51.826506820133595,-29.595990480676107],[-51.82649132841203,-29.597858548832942],[-51.828485292662094,-29.59787305669613]]]}},{"type":"Feature","properties":{"id_grade":"200ME52176N80526","pop":18,"dom":4,"universo_dom":"domicilios_ocupados_grade_ibge_2022","na_bacia":1,"area_pct_bacia":100.0,"metodo_recorte_bacia":"ponto_representativo_grade_2022; area_pct_geometrica"},"geometry":{"type":"Polygon","coordinates":[[[-51.8304947207547,-29.596019482013443],[-51.83051018369798,-29.594151433641603],[-51.828516247326895,-29.59413694016761],[-51.82850076999449,-29.59600498764004],[-51.8304947207547,-29.596019482013443]]]}},{"type":"Feature","properties":{"id_grade":"200ME52178N80526","pop":91,"dom":36,"universo_dom":"domicilios_ocupados_grade_ibge_2022","na_bacia":1,"area_pct_bacia":100.0,"metodo_recorte_bacia":"ponto_representativo_grade_2022; area_pct_geometrica"},"geometry":{"type":"Polygon","coordinates":[[[-51.82850076999449,-29.59600498764004],[-51.828516247326895,-29.59413694016761],[-51.82652231185517,-29.59412243320362],[-51.826506820133595,-29.595990480676107],[-51.82850076999449,-29.59600498764004]]]}},{"type":"Feature","properties":{"id_grade":"200ME52176N80528","pop":12,"dom":4,"universo_dom":"domicilios_ocupados_grade_ibge_2022","na_bacia":1,"area_pct_bacia":100.0,"metodo_recorte_bacia":"ponto_representativo_grade_2022; area_pct_geometrica"},"geometry":{"type":"Polygon","coordinates":[[[-51.83051018369798,-29.594151433641603],[-51.83052564664126,-29.59228340595432],[-51.82853172465934,-29.59226891248025],[-51.828516247326895,-29.59413694016761],[-51.83051018369798,-29.594151433641603]]]}},{"type":"Feature","properties":{"id_grade":"200ME52178N80528","pop":76,"dom":27,"universo_dom":"domicilios_ocupados_grade_ibge_2022","na_bacia":1,"area_pct_bacia":100.0,"metodo_recorte_bacia":"ponto_representativo_grade_2022; area_pct_geometrica"},"geometry":{"type":"Polygon","coordinates":[[[-51.828516247326895,-29.59413694016761],[-51.82853172465934,-29.59226891248025],[-51.82653780267742,-29.5922544055164],[-51.82652231185517,-29.59412243320362],[-51.828516247326895,-29.59413694016761]]]}},{"type":"Feature","properties":{"id_grade":"200ME52176N80530","pop":11,"dom":3,"universo_dom":"domicilios_ocupados_grade_ibge_2022","na_bacia":1,"area_pct_bacia":100.0,"metodo_recorte_bacia":"ponto_representativo_grade_2022; area_pct_geometrica"},"geometry":{"type":"Polygon","coordinates":[[[-51.83052564664126,-29.59228340595432],[-51.83054110958448,-29.590415398052077],[-51.828547201991746,-29.590400905477335],[-51.82853172465934,-29.59226891248025],[-51.83052564664126,-29.59228340595432]]]}},{"type":"Feature","properties":{"id_grade":"200ME52178N80530","pop":35,"dom":18,"universo_dom":"domicilios_ocupados_grade_ibge_2022","na_bacia":1,"area_pct_bacia":100.0,"metodo_recorte_bacia":"ponto_representativo_grade_2022; area_pct_geometrica"},"geometry":{"type":"Polygon","coordinates":[[[-51.82853172465934,-29.59226891248025],[-51.828547201991746,-29.590400905477335],[-51.82655329439899,-29.59038639941275],[-51.82653780267742,-29.5922544055164],[-51.82853172465934,-29.59226891248025]]]}},{"type":"Feature","properties":{"id_grade":"200ME52176N80532","pop":7,"dom":3,"universo_dom":"domicilios_ocupados_grade_ibge_2022","na_bacia":1,"area_pct_bacia":100.0,"metodo_recorte_bacia":"ponto_representativo_grade_2022; area_pct_geometrica"},"geometry":{"type":"Polygon","coordinates":[[[-51.83054110958448,-29.590415398052077],[-51.83055657252777,-29.58854741173359],[-51.82856267842481,-29.588532919158922],[-51.828547201991746,-29.590400905477335],[-51.83054110958448,-29.590415398052077]]]}},{"type":"Feature","properties":{"id_grade":"200ME52178N80532","pop":4,"dom":2,"universo_dom":"domicilios_ocupados_grade_ibge_2022","na_bacia":1,"area_pct_bacia":100.0,"metodo_recorte_bacia":"ponto_representativo_grade_2022; area_pct_geometrica"},"geometry":{"type":"Polygon","coordinates":[[[-51.828547201991746,-29.590400905477335],[-51.82856267842481,-29.588532919158922],[-51.826568785221234,-29.588518413094228],[-51.82655329439899,-29.59038639941275],[-51.828547201991746,-29.590400905477335]]]}},{"type":"Feature","properties":{"id_grade":"200ME52172N80534","pop":7,"dom":2,"universo_dom":"domicilios_ocupados_grade_ibge_2022","na_bacia":1,"area_pct_bacia":100.0,"metodo_recorte_bacia":"ponto_representativo_grade_2022; area_pct_geometrica"},"geometry":{"type":"Polygon","coordinates":[[[-51.83454436073362,-29.588576357313027],[-51.83455979399924,-29.5867083907796],[-51.83256591428546,-29.58669392518447],[-51.832550466630664,-29.588561890818596],[-51.83454436073362,-29.588576357313027]]]}},{"type":"Feature","properties":{"id_grade":"200ME52174N80534","pop":7,"dom":2,"universo_dom":"domicilios_ocupados_grade_ibge_2022","na_bacia":1,"area_pct_bacia":100.0,"metodo_recorte_bacia":"ponto_representativo_grade_2022; area_pct_geometrica"},"geometry":{"type":"Polygon","coordinates":[[[-51.832550466630664,-29.588561890818596],[-51.83256591428546,-29.58669392518447],[-51.830572034571674,-29.586679446099545],[-51.83055657252777,-29.58854741173359],[-51.832550466630664,-29.588561890818596]]]}},{"type":"Feature","properties":{"id_grade":"200ME52176N80534","pop":55,"dom":21,"universo_dom":"domicilios_ocupados_grade_ibge_2022","na_bacia":1,"area_pct_bacia":100.0,"metodo_recorte_bacia":"ponto_representativo_grade_2022; area_pct_geometrica"},"geometry":{"type":"Polygon","coordinates":[[[-51.83055657252777,-29.58854741173359],[-51.830572034571674,-29.586679446099545],[-51.8285781548579,-29.586664953524753],[-51.82856267842481,-29.588532919158922],[-51.83055657252777,-29.58854741173359]]]}},{"type":"Feature","properties":{"id_grade":"200ME52178N80534","pop":26,"dom":9,"universo_dom":"domicilios_ocupados_grade_ibge_2022","na_bacia":1,"area_pct_bacia":100.0,"metodo_recorte_bacia":"ponto_representativo_grade_2022; area_pct_geometrica"},"geometry":{"type":"Polygon","coordinates":[[[-51.82856267842481,-29.588532919158922],[-51.8285781548579,-29.586664953524753],[-51.82658427604349,-29.586650447460155],[-51.826568785221234,-29.588518413094228],[-51.82856267842481,-29.588532919158922]]]}},{"type":"Feature","properties":{"id_grade":"200ME52172N80536","pop":7,"dom":2,"universo_dom":"domicilios_ocupados_grade_ibge_2022","na_bacia":1,"area_pct_bacia":100.0,"metodo_recorte_bacia":"ponto_representativo_grade_2022; area_pct_geometrica"},"geometry":{"type":"Polygon","coordinates":[[[-51.83455979399924,-29.5867083907796],[-51.83457522816423,-29.584840444930563],[-51.83258136194024,-29.58482597933553],[-51.83256591428546,-29.58669392518447],[-51.83455979399924,-29.5867083907796]]]}},{"type":"Feature","properties":{"id_grade":"200ME52174N80536","pop":28,"dom":8,"universo_dom":"domicilios_ocupados_grade_ibge_2022","na_bacia":1,"area_pct_bacia":100.0,"metodo_recorte_bacia":"ponto_representativo_grade_2022; area_pct_geometrica"},"geometry":{"type":"Polygon","coordinates":[[[-51.83256591428546,-29.58669392518447],[-51.83258136194024,-29.58482597933553],[-51.830587496615635,-29.584811500250492],[-51.830572034571674,-29.586679446099545],[-51.83256591428546,-29.58669392518447]]]}},{"type":"Feature","properties":{"id_grade":"200ME52178N80536","pop":74,"dom":29,"universo_dom":"domicilios_ocupados_grade_ibge_2022","na_bacia":1,"area_pct_bacia":100.0,"metodo_recorte_bacia":"ponto_representativo_grade_2022; area_pct_geometrica"},"geometry":{"type":"Polygon","coordinates":[[[-51.8285781548579,-29.586664953524753],[-51.82859363129102,-29.584797007675796],[-51.826599766865684,-29.584782502510446],[-51.82658427604349,-29.586650447460155],[-51.8285781548579,-29.586664953524753]]]}},{"type":"Feature","properties":{"id_grade":"200ME52170N80538","pop":2,"dom":1,"universo_dom":"domicilios_ocupados_grade_ibge_2022","na_bacia":1,"area_pct_bacia":100.0,"metodo_recorte_bacia":"ponto_representativo_grade_2022; area_pct_geometrica"},"geometry":{"type":"Polygon","coordinates":[[[-51.83656909438816,-29.58485489703581],[-51.83658451326465,-29.582986970971856],[-51.83459066142984,-29.582972518866594],[-51.83457522816423,-29.584840444930563],[-51.83656909438816,-29.58485489703581]]]}},{"type":"Feature","properties":{"id_grade":"200ME52172N80538","pop":34,"dom":15,"universo_dom":"domicilios_ocupados_grade_ibge_2022","na_bacia":1,"area_pct_bacia":100.0,"metodo_recorte_bacia":"ponto_representativo_grade_2022; area_pct_geometrica"},"geometry":{"type":"Polygon","coordinates":[[[-51.83457522816423,-29.584840444930563],[-51.83459066142984,-29.582972518866594],[-51.83259680959504,-29.58295805417086],[-51.83258136194024,-29.58482597933553],[-51.83457522816423,-29.584840444930563]]]}},{"type":"Feature","properties":{"id_grade":"200ME52174N80538","pop":45,"dom":16,"universo_dom":"domicilios_ocupados_grade_ibge_2022","na_bacia":1,"area_pct_bacia":100.0,"metodo_recorte_bacia":"ponto_representativo_grade_2022; area_pct_geometrica"},"geometry":{"type":"Polygon","coordinates":[[[-51.83258136194024,-29.58482597933553],[-51.83259680959504,-29.58295805417086],[-51.8306029586596,-29.582943575085896],[-51.830587496615635,-29.584811500250492],[-51.83258136194024,-29.58482597933553]]]}},{"type":"Feature","properties":{"id_grade":"200ME52178N80538","pop":68,"dom":25,"universo_dom":"domicilios_ocupados_grade_ibge_2022","na_bacia":1,"area_pct_bacia":100.0,"metodo_recorte_bacia":"ponto_representativo_grade_2022; area_pct_geometrica"},"geometry":{"type":"Polygon","coordinates":[[[-51.82859363129102,-29.584797007675796],[-51.8286091077241,-29.58292908341034],[-51.826615256788614,-29.582914578245177],[-51.826599766865684,-29.584782502510446],[-51.82859363129102,-29.584797007675796]]]}},{"type":"Feature","properties":{"id_grade":"200ME52178N80540","pop":40,"dom":16,"universo_dom":"domicilios_ocupados_grade_ibge_2022","na_bacia":1,"area_pct_bacia":100.0,"metodo_recorte_bacia":"ponto_representativo_grade_2022; area_pct_geometrica"},"geometry":{"type":"Polygon","coordinates":[[[-51.8286091077241,-29.58292908341034],[-51.82862458325786,-29.581061178930216],[-51.826630746711544,-29.581046674664314],[-51.826615256788614,-29.582914578245177],[-51.8286091077241,-29.58292908341034]]]}},{"type":"Feature","properties":{"id_grade":"200ME52174N80548","pop":2,"dom":1,"universo_dom":"domicilios_ocupados_grade_ibge_2022","na_bacia":1,"area_pct_bacia":100.0,"metodo_recorte_bacia":"ponto_representativo_grade_2022; area_pct_geometrica"},"geometry":{"type":"Polygon","coordinates":[[[-51.83265859841555,-29.575486558557746],[-51.83267404517102,-29.573618735915876],[-51.830680265281956,-29.573604258629512],[-51.83066480413737,-29.575472081271517],[-51.83265859841555,-29.575486558557746]]]}},{"type":"Feature","properties":{"id_grade":"200ME52176N80548","pop":6,"dom":2,"universo_dom":"domicilios_ocupados_grade_ibge_2022","na_bacia":1,"area_pct_bacia":100.0,"metodo_recorte_bacia":"ponto_representativo_grade_2022; area_pct_geometrica"},"geometry":{"type":"Polygon","coordinates":[[[-51.83066480413737,-29.575472081271517],[-51.830680265281956,-29.573604258629512],[-51.82868648539295,-29.573589768752747],[-51.82867100985919,-29.575457590495418],[-51.83066480413737,-29.575472081271517]]]}},{"type":"Feature","properties":{"id_grade":"200ME52178N80548","pop":6,"dom":2,"universo_dom":"domicilios_ocupados_grade_ibge_2022","na_bacia":1,"area_pct_bacia":100.0,"metodo_recorte_bacia":"ponto_representativo_grade_2022; area_pct_geometrica"},"geometry":{"type":"Polygon","coordinates":[[[-51.82867100985919,-29.575457590495418],[-51.82868648539295,-29.573589768752747],[-51.82669270550389,-29.57357526448683],[-51.826677215581014,-29.575443086229416],[-51.82867100985919,-29.575457590495418]]]}},{"type":"Feature","properties":{"id_grade":"200ME52174N80550","pop":3,"dom":1,"universo_dom":"domicilios_ocupados_grade_ibge_2022","na_bacia":1,"area_pct_bacia":100.0,"metodo_recorte_bacia":"ponto_representativo_grade_2022; area_pct_geometrica"},"geometry":{"type":"Polygon","coordinates":[[[-51.83267404517102,-29.573618735915876],[-51.83268949192649,-29.57175093395844],[-51.83069572552728,-29.57173645757149],[-51.830680265281956,-29.573604258629512],[-51.83267404517102,-29.573618735915876]]]}},{"type":"Feature","properties":{"id_grade":"200ME52176N80550","pop":8,"dom":4,"universo_dom":"domicilios_ocupados_grade_ibge_2022","na_bacia":1,"area_pct_bacia":100.0,"metodo_recorte_bacia":"ponto_representativo_grade_2022; area_pct_geometrica"},"geometry":{"type":"Polygon","coordinates":[[[-51.830680265281956,-29.573604258629512],[-51.83069572552728,-29.57173645757149],[-51.82870196002739,-29.57172196679526],[-51.82868648539295,-29.573589768752747],[-51.830680265281956,-29.573604258629512]]]}},{"type":"Feature","properties":{"id_grade":"200ME52178N80550","pop":4,"dom":1,"universo_dom":"domicilios_ocupados_grade_ibge_2022","na_bacia":1,"area_pct_bacia":100.0,"metodo_recorte_bacia":"ponto_representativo_grade_2022; area_pct_geometrica"},"geometry":{"type":"Polygon","coordinates":[[[-51.82868648539295,-29.573589768752747],[-51.82870196002739,-29.57172196679526],[-51.82670819452749,-29.571707463428595],[-51.82669270550389,-29.57357526448683],[-51.82868648539295,-29.573589768752747]]]}},{"type":"Feature","properties":{"id_grade":"200ME52180N80512","pop":18,"dom":5,"universo_dom":"domicilios_ocupados_grade_ibge_2022","na_bacia":1,"area_pct_bacia":100.0,"metodo_recorte_bacia":"ponto_representativo_grade_2022; area_pct_geometrica"},"geometry":{"type":"Polygon","coordinates":[[[-51.82639837178738,-29.60906739214641],[-51.82641386530758,-29.607199199883098],[-51.824419830011095,-29.6071846776307],[-51.82440432210177,-29.609052869893958],[-51.82639837178738,-29.60906739214641]]]}},{"type":"Feature","properties":{"id_grade":"200ME52182N80512","pop":44,"dom":14,"universo_dom":"domicilios_ocupados_grade_ibge_2022","na_bacia":1,"area_pct_bacia":100.0,"metodo_recorte_bacia":"ponto_representativo_grade_2022; area_pct_geometrica"},"geometry":{"type":"Polygon","coordinates":[[[-51.82440432210177,-29.609052869893958],[-51.824419830011095,-29.6071846776307],[-51.82242579471461,-29.607170142787893],[-51.82241027331543,-29.60903833415178],[-51.82440432210177,-29.609052869893958]]]}},{"type":"Feature","properties":{"id_grade":"200ME52184N80518","pop":2,"dom":1,"universo_dom":"domicilios_ocupados_grade_ibge_2022","na_bacia":1,"area_pct_bacia":100.0,"metodo_recorte_bacia":"ponto_representativo_grade_2022; area_pct_geometrica"},"geometry":{"type":"Polygon","coordinates":[[[-51.822456837513016,-29.603433822113143],[-51.822472358012874,-29.601565691903097],[-51.82047836588385,-29.601551144469664],[-51.82046283099481,-29.60341927378034],[-51.822456837513016,-29.603433822113143]]]}},{"type":"Feature","properties":{"id_grade":"200ME52180N80522","pop":13,"dom":5,"universo_dom":"domicilios_ocupados_grade_ibge_2022","na_bacia":1,"area_pct_bacia":100.0,"metodo_recorte_bacia":"ponto_representativo_grade_2022; area_pct_geometrica"},"geometry":{"type":"Polygon","coordinates":[[[-51.82647583579114,-29.599726638573483],[-51.82649132841203,-29.597858548832942],[-51.82449736326266,-29.597844028379182],[-51.824481857151966,-29.599712117220427],[-51.82647583579114,-29.599726638573483]]]}},{"type":"Feature","properties":{"id_grade":"200ME52184N80522","pop":41,"dom":13,"universo_dom":"domicilios_ocupados_grade_ibge_2022","na_bacia":1,"area_pct_bacia":100.0,"metodo_recorte_bacia":"ponto_representativo_grade_2022; area_pct_geometrica"},"geometry":{"type":"Polygon","coordinates":[[[-51.82248787941205,-29.599697583276726],[-51.82250339991191,-29.597829494435672],[-51.820509435661904,-29.597814947901497],[-51.820493900772874,-29.599683035843366],[-51.82248787941205,-29.599697583276726]]]}},{"type":"Feature","properties":{"id_grade":"200ME52186N80522","pop":4,"dom":3,"universo_dom":"domicilios_ocupados_grade_ibge_2022","na_bacia":1,"area_pct_bacia":100.0,"metodo_recorte_bacia":"ponto_representativo_grade_2022; area_pct_geometrica"},"geometry":{"type":"Polygon","coordinates":[[[-51.820493900772874,-29.599683035843366],[-51.820509435661904,-29.597814947901497],[-51.81851547231116,-29.59780038697826],[-51.81849992303296,-29.599668474920108],[-51.820493900772874,-29.599683035843366]]]}},{"type":"Feature","properties":{"id_grade":"200ME52182N80524","pop":1,"dom":1,"universo_dom":"domicilios_ocupados_grade_ibge_2022","na_bacia":1,"area_pct_bacia":100.0,"metodo_recorte_bacia":"ponto_representativo_grade_2022; area_pct_geometrica"},"geometry":{"type":"Polygon","coordinates":[[[-51.82449736326266,-29.597844028379182],[-51.8245128693734,-29.59597596022231],[-51.8225189195125,-29.595961427178086],[-51.82250339991191,-29.597829494435672],[-51.82449736326266,-29.597844028379182]]]}},{"type":"Feature","properties":{"id_grade":"200ME52184N80524","pop":70,"dom":30,"universo_dom":"domicilios_ocupados_grade_ibge_2022","na_bacia":1,"area_pct_bacia":100.0,"metodo_recorte_bacia":"ponto_representativo_grade_2022; area_pct_geometrica"},"geometry":{"type":"Polygon","coordinates":[[[-51.82250339991191,-29.597829494435672],[-51.8225189195125,-29.595961427178086],[-51.820524970550935,-29.59594687974466],[-51.820509435661904,-29.597814947901497],[-51.82250339991191,-29.597829494435672]]]}},{"type":"Feature","properties":{"id_grade":"200ME52186N80524","pop":17,"dom":5,"universo_dom":"domicilios_ocupados_grade_ibge_2022","na_bacia":1,"area_pct_bacia":100.0,"metodo_recorte_bacia":"ponto_representativo_grade_2022; area_pct_geometrica"},"geometry":{"type":"Polygon","coordinates":[[[-51.820509435661904,-29.597814947901497],[-51.820524970550935,-29.59594687974466],[-51.81853102068999,-29.5959323197208],[-51.81851547231116,-29.59780038697826],[-51.820509435661904,-29.597814947901497]]]}},{"type":"Feature","properties":{"id_grade":"200ME52188N80524","pop":52,"dom":20,"universo_dom":"domicilios_ocupados_grade_ibge_2022","na_bacia":1,"area_pct_bacia":100.0,"metodo_recorte_bacia":"ponto_representativo_grade_2022; area_pct_geometrica"},"geometry":{"type":"Polygon","coordinates":[[[-51.81851547231116,-29.59780038697826],[-51.81853102068999,-29.5959323197208],[-51.81653707172842,-29.595917746206965],[-51.81652150896042,-29.597785813464483],[-51.81851547231116,-29.59780038697826]]]}},{"type":"Feature","properties":{"id_grade":"200ME52180N80526","pop":59,"dom":19,"universo_dom":"domicilios_ocupados_grade_ibge_2022","na_bacia":1,"area_pct_bacia":100.0,"metodo_recorte_bacia":"ponto_representativo_grade_2022; area_pct_geometrica"},"geometry":{"type":"Polygon","coordinates":[[[-51.826506820133595,-29.595990480676107],[-51.82652231185517,-29.59412243320362],[-51.82452837548408,-29.59410791274993],[-51.8245128693734,-29.59597596022231],[-51.826506820133595,-29.595990480676107]]]}},{"type":"Feature","properties":{"id_grade":"200ME52182N80526","pop":26,"dom":8,"universo_dom":"domicilios_ocupados_grade_ibge_2022","na_bacia":1,"area_pct_bacia":100.0,"metodo_recorte_bacia":"ponto_representativo_grade_2022; area_pct_geometrica"},"geometry":{"type":"Polygon","coordinates":[[[-51.8245128693734,-29.59597596022231],[-51.82452837548408,-29.59410791274993],[-51.82253444001236,-29.59409337970569],[-51.8225189195125,-29.595961427178086],[-51.8245128693734,-29.59597596022231]]]}},{"type":"Feature","properties":{"id_grade":"200ME52184N80526","pop":81,"dom":25,"universo_dom":"domicilios_ocupados_grade_ibge_2022","na_bacia":1,"area_pct_bacia":100.0,"metodo_recorte_bacia":"ponto_representativo_grade_2022; area_pct_geometrica"},"geometry":{"type":"Polygon","coordinates":[[[-51.8225189195125,-29.595961427178086],[-51.82253444001236,-29.59409337970569],[-51.82054050454059,-29.5940788331716],[-51.820524970550935,-29.59594687974466],[-51.8225189195125,-29.595961427178086]]]}},{"type":"Feature","properties":{"id_grade":"200ME52186N80526","pop":83,"dom":33,"universo_dom":"domicilios_ocupados_grade_ibge_2022","na_bacia":1,"area_pct_bacia":100.0,"metodo_recorte_bacia":"ponto_representativo_grade_2022; area_pct_geometrica"},"geometry":{"type":"Polygon","coordinates":[[[-51.820524970550935,-29.59594687974466],[-51.82054050454059,-29.5940788331716],[-51.81854656906887,-29.594064273147637],[-51.81853102068999,-29.5959323197208],[-51.820524970550935,-29.59594687974466]]]}},{"type":"Feature","properties":{"id_grade":"200ME52188N80526","pop":69,"dom":32,"universo_dom":"domicilios_ocupados_grade_ibge_2022","na_bacia":1,"area_pct_bacia":100.0,"metodo_recorte_bacia":"ponto_representativo_grade_2022; area_pct_geometrica"},"geometry":{"type":"Polygon","coordinates":[[[-51.81853102068999,-29.5959323197208],[-51.81854656906887,-29.594064273147637],[-51.81655263449642,-29.59404969963388],[-51.81653707172842,-29.595917746206965],[-51.81853102068999,-29.5959323197208]]]}},{"type":"Feature","properties":{"id_grade":"200ME52180N80528","pop":110,"dom":43,"universo_dom":"domicilios_ocupados_grade_ibge_2022","na_bacia":1,"area_pct_bacia":100.0,"metodo_recorte_bacia":"ponto_representativo_grade_2022; area_pct_geometrica"},"geometry":{"type":"Polygon","coordinates":[[[-51.82652231185517,-29.59412243320362],[-51.82653780267742,-29.5922544055164],[-51.82454388159483,-29.592239885961938],[-51.82452837548408,-29.59410791274993],[-51.82652231185517,-29.59412243320362]]]}},{"type":"Feature","properties":{"id_grade":"200ME52182N80528","pop":39,"dom":11,"universo_dom":"domicilios_ocupados_grade_ibge_2022","na_bacia":1,"area_pct_bacia":100.0,"metodo_recorte_bacia":"ponto_representativo_grade_2022; area_pct_geometrica"},"geometry":{"type":"Polygon","coordinates":[[[-51.82452837548408,-29.59410791274993],[-51.82454388159483,-29.592239885961938],[-51.82254995961289,-29.59222535291764],[-51.82253444001236,-29.59409337970569],[-51.82452837548408,-29.59410791274993]]]}},{"type":"Feature","properties":{"id_grade":"200ME52184N80528","pop":11,"dom":5,"universo_dom":"domicilios_ocupados_grade_ibge_2022","na_bacia":1,"area_pct_bacia":100.0,"metodo_recorte_bacia":"ponto_representativo_grade_2022; area_pct_geometrica"},"geometry":{"type":"Polygon","coordinates":[[[-51.82253444001236,-29.59409337970569],[-51.82254995961289,-29.59222535291764],[-51.8205560385303,-29.592210806383505],[-51.82054050454059,-29.5940788331716],[-51.82253444001236,-29.59409337970569]]]}},{"type":"Feature","properties":{"id_grade":"200ME52186N80528","pop":22,"dom":7,"universo_dom":"domicilios_ocupados_grade_ibge_2022","na_bacia":1,"area_pct_bacia":100.0,"metodo_recorte_bacia":"ponto_representativo_grade_2022; area_pct_geometrica"},"geometry":{"type":"Polygon","coordinates":[[[-51.82054050454059,-29.5940788331716],[-51.8205560385303,-29.592210806383505],[-51.818562117447705,-29.592196247258947],[-51.81854656906887,-29.594064273147637],[-51.82054050454059,-29.5940788331716]]]}},{"type":"Feature","properties":{"id_grade":"200ME52188N80528","pop":7,"dom":3,"universo_dom":"domicilios_ocupados_grade_ibge_2022","na_bacia":1,"area_pct_bacia":100.0,"metodo_recorte_bacia":"ponto_representativo_grade_2022; area_pct_geometrica"},"geometry":{"type":"Polygon","coordinates":[[[-51.81854656906887,-29.594064273147637],[-51.818562117447705,-29.592196247258947],[-51.81656819726447,-29.59218167374515],[-51.81655263449642,-29.59404969963388],[-51.81854656906887,-29.594064273147637]]]}},{"type":"Feature","properties":{"id_grade":"200ME52180N80530","pop":63,"dom":27,"universo_dom":"domicilios_ocupados_grade_ibge_2022","na_bacia":1,"area_pct_bacia":100.0,"metodo_recorte_bacia":"ponto_representativo_grade_2022; area_pct_geometrica"},"geometry":{"type":"Polygon","coordinates":[[[-51.82653780267742,-29.5922544055164],[-51.82655329439899,-29.59038639941275],[-51.824559386806236,-29.590371879858292],[-51.82454388159483,-29.592239885961938],[-51.82653780267742,-29.5922544055164]]]}},{"type":"Feature","properties":{"id_grade":"200ME52182N80530","pop":52,"dom":23,"universo_dom":"domicilios_ocupados_grade_ibge_2022","na_bacia":1,"area_pct_bacia":100.0,"metodo_recorte_bacia":"ponto_representativo_grade_2022; area_pct_geometrica"},"geometry":{"type":"Polygon","coordinates":[[[-51.82454388159483,-29.592239885961938],[-51.824559386806236,-29.590371879858292],[-51.82256547921344,-29.590357346814123],[-51.82254995961289,-29.59222535291764],[-51.82454388159483,-29.592239885961938]]]}},{"type":"Feature","properties":{"id_grade":"200ME52184N80530","pop":43,"dom":17,"universo_dom":"domicilios_ocupados_grade_ibge_2022","na_bacia":1,"area_pct_bacia":100.0,"metodo_recorte_bacia":"ponto_representativo_grade_2022; area_pct_geometrica"},"geometry":{"type":"Polygon","coordinates":[[[-51.82254995961289,-29.59222535291764],[-51.82256547921344,-29.590357346814123],[-51.82057157252001,-29.590342800279966],[-51.8205560385303,-29.592210806383505],[-51.82254995961289,-29.59222535291764]]]}},{"type":"Feature","properties":{"id_grade":"200ME52188N80530","pop":9,"dom":3,"universo_dom":"domicilios_ocupados_grade_ibge_2022","na_bacia":1,"area_pct_bacia":100.0,"metodo_recorte_bacia":"ponto_representativo_grade_2022; area_pct_geometrica"},"geometry":{"type":"Polygon","coordinates":[[[-51.818562117447705,-29.592196247258947],[-51.81857766582658,-29.59032824115536],[-51.81658375913315,-29.590313668540905],[-51.81656819726447,-29.59218167374515],[-51.818562117447705,-29.592196247258947]]]}},{"type":"Feature","properties":{"id_grade":"200ME52180N80532","pop":89,"dom":33,"universo_dom":"domicilios_ocupados_grade_ibge_2022","na_bacia":1,"area_pct_bacia":100.0,"metodo_recorte_bacia":"ponto_representativo_grade_2022; area_pct_geometrica"},"geometry":{"type":"Polygon","coordinates":[[[-51.82655329439899,-29.59038639941275],[-51.826568785221234,-29.588518413094228],[-51.8245748920176,-29.588503893539848],[-51.824559386806236,-29.590371879858292],[-51.82655329439899,-29.59038639941275]]]}},{"type":"Feature","properties":{"id_grade":"200ME52182N80532","pop":110,"dom":43,"universo_dom":"domicilios_ocupados_grade_ibge_2022","na_bacia":1,"area_pct_bacia":100.0,"metodo_recorte_bacia":"ponto_representativo_grade_2022; area_pct_geometrica"},"geometry":{"type":"Polygon","coordinates":[[[-51.824559386806236,-29.590371879858292],[-51.8245748920176,-29.588503893539848],[-51.822580998813976,-29.58848936139486],[-51.82256547921344,-29.590357346814123],[-51.824559386806236,-29.590371879858292]]]}},{"type":"Feature","properties":{"id_grade":"200ME52184N80532","pop":116,"dom":44,"universo_dom":"domicilios_ocupados_grade_ibge_2022","na_bacia":1,"area_pct_bacia":100.0,"metodo_recorte_bacia":"ponto_representativo_grade_2022; area_pct_geometrica"},"geometry":{"type":"Polygon","coordinates":[[[-51.82256547921344,-29.590357346814123],[-51.822580998813976,-29.58848936139486],[-51.82058710650972,-29.58847481576007],[-51.82057157252001,-29.590342800279966],[-51.82256547921344,-29.590357346814123]]]}},{"type":"Feature","properties":{"id_grade":"200ME52186N80532","pop":59,"dom":18,"universo_dom":"domicilios_ocupados_grade_ibge_2022","na_bacia":1,"area_pct_bacia":100.0,"metodo_recorte_bacia":"ponto_representativo_grade_2022; area_pct_geometrica"},"geometry":{"type":"Polygon","coordinates":[[[-51.82057157252001,-29.590342800279966],[-51.82058710650972,-29.58847481576007],[-51.818593213306094,-29.58846025663546],[-51.81857766582658,-29.59032824115536],[-51.82057157252001,-29.590342800279966]]]}},{"type":"Feature","properties":{"id_grade":"200ME52188N80532","pop":18,"dom":8,"universo_dom":"domicilios_ocupados_grade_ibge_2022","na_bacia":1,"area_pct_bacia":100.0,"metodo_recorte_bacia":"ponto_representativo_grade_2022; area_pct_geometrica"},"geometry":{"type":"Polygon","coordinates":[[[-51.81857766582658,-29.59032824115536],[-51.818593213306094,-29.58846025663546],[-51.81659932100183,-29.588445684021075],[-51.81658375913315,-29.590313668540905],[-51.81857766582658,-29.59032824115536]]]}},{"type":"Feature","properties":{"id_grade":"200ME52180N80534","pop":83,"dom":29,"universo_dom":"domicilios_ocupados_grade_ibge_2022","na_bacia":1,"area_pct_bacia":100.0,"metodo_recorte_bacia":"ponto_representativo_grade_2022; area_pct_geometrica"},"geometry":{"type":"Polygon","coordinates":[[[-51.826568785221234,-29.588518413094228],[-51.82658427604349,-29.586650447460155],[-51.82459039722903,-29.586635928805073],[-51.8245748920176,-29.588503893539848],[-51.826568785221234,-29.588518413094228]]]}},{"type":"Feature","properties":{"id_grade":"200ME52182N80534","pop":76,"dom":31,"universo_dom":"domicilios_ocupados_grade_ibge_2022","na_bacia":1,"area_pct_bacia":100.0,"metodo_recorte_bacia":"ponto_representativo_grade_2022; area_pct_geometrica"},"geometry":{"type":"Polygon","coordinates":[[[-51.8245748920176,-29.588503893539848],[-51.82459039722903,-29.586635928805073],[-51.82259651841457,-29.586621396660075],[-51.822580998813976,-29.58848936139486],[-51.8245748920176,-29.588503893539848]]]}},{"type":"Feature","properties":{"id_grade":"200ME52184N80534","pop":35,"dom":14,"universo_dom":"domicilios_ocupados_grade_ibge_2022","na_bacia":1,"area_pct_bacia":100.0,"metodo_recorte_bacia":"ponto_representativo_grade_2022; area_pct_geometrica"},"geometry":{"type":"Polygon","coordinates":[[[-51.822580998813976,-29.58848936139486],[-51.82259651841457,-29.586621396660075],[-51.82060263960011,-29.586606851025284],[-51.82058710650972,-29.58847481576007],[-51.822580998813976,-29.58848936139486]]]}},{"type":"Feature","properties":{"id_grade":"200ME52186N80534","pop":17,"dom":5,"universo_dom":"domicilios_ocupados_grade_ibge_2022","na_bacia":1,"area_pct_bacia":100.0,"metodo_recorte_bacia":"ponto_representativo_grade_2022; area_pct_geometrica"},"geometry":{"type":"Polygon","coordinates":[[[-51.82058710650972,-29.58847481576007],[-51.82060263960011,-29.586606851025284],[-51.818608760785644,-29.58659229190071],[-51.818593213306094,-29.58846025663546],[-51.82058710650972,-29.58847481576007]]]}},{"type":"Feature","properties":{"id_grade":"200ME52188N80534","pop":39,"dom":14,"universo_dom":"domicilios_ocupados_grade_ibge_2022","na_bacia":1,"area_pct_bacia":100.0,"metodo_recorte_bacia":"ponto_representativo_grade_2022; area_pct_geometrica"},"geometry":{"type":"Polygon","coordinates":[[[-51.818593213306094,-29.58846025663546],[-51.818608760785644,-29.58659229190071],[-51.81661488287052,-29.58657771928622],[-51.81659932100183,-29.588445684021075],[-51.818593213306094,-29.58846025663546]]]}},{"type":"Feature","properties":{"id_grade":"200ME52182N80536","pop":6,"dom":4,"universo_dom":"domicilios_ocupados_grade_ibge_2022","na_bacia":1,"area_pct_bacia":100.0,"metodo_recorte_bacia":"ponto_representativo_grade_2022; area_pct_geometrica"},"geometry":{"type":"Polygon","coordinates":[[[-51.82459039722903,-29.586635928805073],[-51.82460590154108,-29.584767983855386],[-51.82261203711578,-29.58475345171044],[-51.82259651841457,-29.586621396660075],[-51.82459039722903,-29.586635928805073]]]}},{"type":"Feature","properties":{"id_grade":"200ME52184N80536","pop":12,"dom":3,"universo_dom":"domicilios_ocupados_grade_ibge_2022","na_bacia":1,"area_pct_bacia":100.0,"metodo_recorte_bacia":"ponto_representativo_grade_2022; area_pct_geometrica"},"geometry":{"type":"Polygon","coordinates":[[[-51.82259651841457,-29.586621396660075],[-51.82261203711578,-29.58475345171044],[-51.8206181726905,-29.584738906974923],[-51.82060263960011,-29.586606851025284],[-51.82259651841457,-29.586621396660075]]]}},{"type":"Feature","properties":{"id_grade":"200ME52188N80536","pop":15,"dom":6,"universo_dom":"domicilios_ocupados_grade_ibge_2022","na_bacia":1,"area_pct_bacia":100.0,"metodo_recorte_bacia":"ponto_representativo_grade_2022; area_pct_geometrica"},"geometry":{"type":"Polygon","coordinates":[[[-51.818608760785644,-29.58659229190071],[-51.81862430826516,-29.584724347850287],[-51.81663044473919,-29.584709776135266],[-51.81661488287052,-29.58657771928622],[-51.818608760785644,-29.58659229190071]]]}},{"type":"Feature","properties":{"id_grade":"200ME52180N80538","pop":15,"dom":5,"universo_dom":"domicilios_ocupados_grade_ibge_2022","na_bacia":1,"area_pct_bacia":100.0,"metodo_recorte_bacia":"ponto_representativo_grade_2022; area_pct_geometrica"},"geometry":{"type":"Polygon","coordinates":[[[-51.826599766865684,-29.584782502510446],[-51.826615256788614,-29.582914578245177],[-51.82462140585318,-29.582900059590035],[-51.82460590154108,-29.584767983855386],[-51.826599766865684,-29.584782502510446]]]}},{"type":"Feature","properties":{"id_grade":"200ME52182N80538","pop":2,"dom":1,"universo_dom":"domicilios_ocupados_grade_ibge_2022","na_bacia":1,"area_pct_bacia":100.0,"metodo_recorte_bacia":"ponto_representativo_grade_2022; area_pct_geometrica"},"geometry":{"type":"Polygon","coordinates":[[[-51.82460590154108,-29.584767983855386],[-51.82462140585318,-29.582900059590035],[-51.82262755581701,-29.582885528344416],[-51.82261203711578,-29.58475345171044],[-51.82460590154108,-29.584767983855386]]]}},{"type":"Feature","properties":{"id_grade":"200ME52186N80538","pop":2,"dom":1,"universo_dom":"domicilios_ocupados_grade_ibge_2022","na_bacia":1,"area_pct_bacia":100.0,"metodo_recorte_bacia":"ponto_representativo_grade_2022; area_pct_geometrica"},"geometry":{"type":"Polygon","coordinates":[[[-51.8206181726905,-29.584738906974923],[-51.820633705780835,-29.582870982709654],[-51.81863985574471,-29.58285642448434],[-51.81862430826516,-29.584724347850287],[-51.8206181726905,-29.584738906974923]]]}},{"type":"Feature","properties":{"id_grade":"200ME52184N80540","pop":1,"dom":1,"universo_dom":"domicilios_ocupados_grade_ibge_2022","na_bacia":1,"area_pct_bacia":100.0,"metodo_recorte_bacia":"ponto_representativo_grade_2022; area_pct_geometrica"},"geometry":{"type":"Polygon","coordinates":[[[-51.82262755581701,-29.582885528344416],[-51.822643074518226,-29.581017624763607],[-51.82064923797191,-29.58100308002811],[-51.820633705780835,-29.582870982709654],[-51.82262755581701,-29.582885528344416]]]}},{"type":"Feature","properties":{"id_grade":"200ME52186N80540","pop":2,"dom":1,"universo_dom":"domicilios_ocupados_grade_ibge_2022","na_bacia":1,"area_pct_bacia":100.0,"metodo_recorte_bacia":"ponto_representativo_grade_2022; area_pct_geometrica"},"geometry":{"type":"Polygon","coordinates":[[[-51.820633705780835,-29.582870982709654],[-51.82064923797191,-29.58100308002811],[-51.818655402324914,-29.580988521802716],[-51.81863985574471,-29.58285642448434],[-51.820633705780835,-29.582870982709654]]]}},{"type":"Feature","properties":{"id_grade":"200ME52192N80522","pop":7,"dom":3,"universo_dom":"domicilios_ocupados_grade_ibge_2022","na_bacia":1,"area_pct_bacia":100.0,"metodo_recorte_bacia":"ponto_representativo_grade_2022; area_pct_geometrica"},"geometry":{"type":"Polygon","coordinates":[[[-51.814511968452564,-29.599639313503467],[-51.81452754560968,-29.59777122646086],[-51.81253358225899,-29.597756625967477],[-51.81251799071265,-29.599624713010016],[-51.814511968452564,-29.599639313503467]]]}},{"type":"Feature","properties":{"id_grade":"200ME52190N80524","pop":10,"dom":2,"universo_dom":"domicilios_ocupados_grade_ibge_2022","na_bacia":1,"area_pct_bacia":100.0,"metodo_recorte_bacia":"ponto_representativo_grade_2022; area_pct_geometrica"},"geometry":{"type":"Polygon","coordinates":[[[-51.81652150896042,-29.597785813464483],[-51.81653707172842,-29.595917746206965],[-51.81454312276685,-29.595903159203395],[-51.81452754560968,-29.59777122646086],[-51.81652150896042,-29.597785813464483]]]}},{"type":"Feature","properties":{"id_grade":"200ME52192N80524","pop":7,"dom":4,"universo_dom":"domicilios_ocupados_grade_ibge_2022","na_bacia":1,"area_pct_bacia":100.0,"metodo_recorte_bacia":"ponto_representativo_grade_2022; area_pct_geometrica"},"geometry":{"type":"Polygon","coordinates":[[[-51.81452754560968,-29.59777122646086],[-51.81454312276685,-29.595903159203395],[-51.81254917380528,-29.595888558709966],[-51.81253358225899,-29.597756625967477],[-51.81452754560968,-29.59777122646086]]]}},{"type":"Feature","properties":{"id_grade":"200ME52190N80526","pop":9,"dom":4,"universo_dom":"domicilios_ocupados_grade_ibge_2022","na_bacia":1,"area_pct_bacia":100.0,"metodo_recorte_bacia":"ponto_representativo_grade_2022; area_pct_geometrica"},"geometry":{"type":"Polygon","coordinates":[[[-51.81653707172842,-29.595917746206965],[-51.81655263449642,-29.59404969963388],[-51.81455869992402,-29.594035112630333],[-51.81454312276685,-29.595903159203395],[-51.81653707172842,-29.595917746206965]]]}},{"type":"Feature","properties":{"id_grade":"200ME52194N80526","pop":10,"dom":3,"universo_dom":"domicilios_ocupados_grade_ibge_2022","na_bacia":1,"area_pct_bacia":100.0,"metodo_recorte_bacia":"ponto_representativo_grade_2022; area_pct_geometrica"},"geometry":{"type":"Polygon","coordinates":[[[-51.81254917380528,-29.595888558709966],[-51.81256476535163,-29.594020513036124],[-51.81057083077918,-29.594005899952233],[-51.81055522574303,-29.5958739456261],[-51.81254917380528,-29.595888558709966]]]}},{"type":"Feature","properties":{"id_grade":"200ME52198N80526","pop":4,"dom":1,"universo_dom":"domicilios_ocupados_grade_ibge_2022","na_bacia":1,"area_pct_bacia":100.0,"metodo_recorte_bacia":"ponto_representativo_grade_2022; area_pct_geometrica"},"geometry":{"type":"Polygon","coordinates":[[[-51.80856127678147,-29.595859319052295],[-51.80857689620677,-29.59399127337843],[-51.80658296253364,-29.593976633314938],[-51.806567328719204,-29.595844678988733],[-51.80856127678147,-29.595859319052295]]]}},{"type":"Feature","properties":{"id_grade":"200ME52190N80528","pop":1,"dom":1,"universo_dom":"domicilios_ocupados_grade_ibge_2022","na_bacia":1,"area_pct_bacia":100.0,"metodo_recorte_bacia":"ponto_representativo_grade_2022; area_pct_geometrica"},"geometry":{"type":"Polygon","coordinates":[[[-51.81655263449642,-29.59404969963388],[-51.81656819726447,-29.59218167374515],[-51.81457427618187,-29.592167087640888],[-51.81455869992402,-29.594035112630333],[-51.81655263449642,-29.59404969963388]]]}},{"type":"Feature","properties":{"id_grade":"200ME52196N80528","pop":12,"dom":5,"universo_dom":"domicilios_ocupados_grade_ibge_2022","na_bacia":1,"area_pct_bacia":100.0,"metodo_recorte_bacia":"ponto_representativo_grade_2022; area_pct_geometrica"},"geometry":{"type":"Polygon","coordinates":[[[-51.81057083077918,-29.594005899952233],[-51.81058643581532,-29.592137874962916],[-51.80859251563202,-29.592123248389154],[-51.80857689620677,-29.59399127337843],[-51.81057083077918,-29.594005899952233]]]}},{"type":"Feature","properties":{"id_grade":"200ME52198N80528","pop":1,"dom":1,"universo_dom":"domicilios_ocupados_grade_ibge_2022","na_bacia":1,"area_pct_bacia":100.0,"metodo_recorte_bacia":"ponto_representativo_grade_2022; area_pct_geometrica"},"geometry":{"type":"Polygon","coordinates":[[[-51.80857689620677,-29.59399127337843],[-51.80859251563202,-29.592123248389154],[-51.806598596348124,-29.592108609224873],[-51.80658296253364,-29.593976633314938],[-51.80857689620677,-29.59399127337843]]]}},{"type":"Feature","properties":{"id_grade":"200ME52194N80530","pop":18,"dom":8,"universo_dom":"domicilios_ocupados_grade_ibge_2022","na_bacia":1,"area_pct_bacia":100.0,"metodo_recorte_bacia":"ponto_representativo_grade_2022; area_pct_geometrica"},"geometry":{"type":"Polygon","coordinates":[[[-51.81258035599859,-29.592152488046843],[-51.81259594664555,-29.590284482842588],[-51.81060204085146,-29.59026987065795],[-51.81058643581532,-29.592137874962916],[-51.81258035599859,-29.592152488046843]]]}},{"type":"Feature","properties":{"id_grade":"200ME52190N80532","pop":8,"dom":3,"universo_dom":"domicilios_ocupados_grade_ibge_2022","na_bacia":1,"area_pct_bacia":100.0,"metodo_recorte_bacia":"ponto_representativo_grade_2022; area_pct_geometrica"},"geometry":{"type":"Polygon","coordinates":[[[-51.81658375913315,-29.590313668540905],[-51.81659932100183,-29.588445684021075],[-51.81460542869752,-29.58843109791675],[-51.814589852439724,-29.590299082436704],[-51.81658375913315,-29.590313668540905]]]}},{"type":"Feature","properties":{"id_grade":"200ME52192N80532","pop":14,"dom":5,"universo_dom":"domicilios_ocupados_grade_ibge_2022","na_bacia":1,"area_pct_bacia":100.0,"metodo_recorte_bacia":"ponto_representativo_grade_2022; area_pct_geometrica"},"geometry":{"type":"Polygon","coordinates":[[[-51.814589852439724,-29.590299082436704],[-51.81460542869752,-29.58843109791675],[-51.81261153729258,-29.588416498322704],[-51.81259594664555,-29.590284482842588],[-51.814589852439724,-29.590299082436704]]]}},{"type":"Feature","properties":{"id_grade":"200ME52194N80532","pop":3,"dom":2,"universo_dom":"domicilios_ocupados_grade_ibge_2022","na_bacia":1,"area_pct_bacia":100.0,"metodo_recorte_bacia":"ponto_representativo_grade_2022; area_pct_geometrica"},"geometry":{"type":"Polygon","coordinates":[[[-51.81259594664555,-29.590284482842588],[-51.81261153729258,-29.588416498322704],[-51.81061764498827,-29.588401886138154],[-51.81060204085146,-29.59026987065795],[-51.81259594664555,-29.590284482842588]]]}},{"type":"Feature","properties":{"id_grade":"200ME52190N80534","pop":68,"dom":26,"universo_dom":"domicilios_ocupados_grade_ibge_2022","na_bacia":1,"area_pct_bacia":100.0,"metodo_recorte_bacia":"ponto_representativo_grade_2022; area_pct_geometrica"},"geometry":{"type":"Polygon","coordinates":[[[-51.81659932100183,-29.588445684021075],[-51.81661488287052,-29.58657771928622],[-51.81462100495537,-29.58656313408134],[-51.81460542869752,-29.58843109791675],[-51.81659932100183,-29.588445684021075]]]}},{"type":"Feature","properties":{"id_grade":"200ME52192N80534","pop":35,"dom":14,"universo_dom":"domicilios_ocupados_grade_ibge_2022","na_bacia":1,"area_pct_bacia":100.0,"metodo_recorte_bacia":"ponto_representativo_grade_2022; area_pct_geometrica"},"geometry":{"type":"Polygon","coordinates":[[[-51.81460542869752,-29.58843109791675],[-51.81462100495537,-29.58656313408134],[-51.81262712704024,-29.586548535386605],[-51.81261153729258,-29.588416498322704],[-51.81460542869752,-29.58843109791675]]]}},{"type":"Feature","properties":{"id_grade":"200ME52194N80534","pop":11,"dom":4,"universo_dom":"domicilios_ocupados_grade_ibge_2022","na_bacia":1,"area_pct_bacia":100.0,"metodo_recorte_bacia":"ponto_representativo_grade_2022; area_pct_geometrica"},"geometry":{"type":"Polygon","coordinates":[[[-51.81261153729258,-29.588416498322704],[-51.81262712704024,-29.586548535386605],[-51.81063325002441,-29.586533923201966],[-51.81061764498827,-29.588401886138154],[-51.81261153729258,-29.588416498322704]]]}},{"type":"Feature","properties":{"id_grade":"200ME52198N80534","pop":2,"dom":1,"universo_dom":"domicilios_ocupados_grade_ibge_2022","na_bacia":1,"area_pct_bacia":100.0,"metodo_recorte_bacia":"ponto_representativo_grade_2022; area_pct_geometrica"},"geometry":{"type":"Polygon","coordinates":[[[-51.80862375358333,-29.588387260463694],[-51.80863937300859,-29.586519297527488],[-51.806645495093505,-29.586504658363246],[-51.80662986307766,-29.588372621299378],[-51.80862375358333,-29.588387260463694]]]}},{"type":"Feature","properties":{"id_grade":"200ME52190N80536","pop":49,"dom":18,"universo_dom":"domicilios_ocupados_grade_ibge_2022","na_bacia":1,"area_pct_bacia":100.0,"metodo_recorte_bacia":"ponto_representativo_grade_2022; area_pct_geometrica"},"geometry":{"type":"Polygon","coordinates":[[[-51.81661488287052,-29.58657771928622],[-51.81663044473919,-29.584709776135266],[-51.814636581213215,-29.584695190930315],[-51.81462100495537,-29.58656313408134],[-51.81661488287052,-29.58657771928622]]]}},{"type":"Feature","properties":{"id_grade":"200ME52190N80538","pop":6,"dom":3,"universo_dom":"domicilios_ocupados_grade_ibge_2022","na_bacia":1,"area_pct_bacia":100.0,"metodo_recorte_bacia":"ponto_representativo_grade_2022; area_pct_geometrica"},"geometry":{"type":"Polygon","coordinates":[[[-51.81663044473919,-29.584709776135266],[-51.81664600570855,-29.582841852769217],[-51.81465215657175,-29.582827267564326],[-51.814636581213215,-29.584695190930315],[-51.81663044473919,-29.584709776135266]]]}},{"type":"Feature","properties":{"id_grade":"200ME52194N80540","pop":3,"dom":1,"universo_dom":"domicilios_ocupados_grade_ibge_2022","na_bacia":1,"area_pct_bacia":100.0,"metodo_recorte_bacia":"ponto_representativo_grade_2022; area_pct_geometrica"},"geometry":{"type":"Polygon","coordinates":[[[-51.8126583074349,-29.58281266976885],[-51.81267389628323,-29.580944767087257],[-51.81068006153556,-29.58093015580204],[-51.81066445829804,-29.582798057584228],[-51.8126583074349,-29.58281266976885]]]}},{"type":"Feature","properties":{"id_grade":"200ME52198N80540","pop":1,"dom":1,"universo_dom":"domicilios_ocupados_grade_ibge_2022","na_bacia":1,"area_pct_bacia":100.0,"metodo_recorte_bacia":"ponto_representativo_grade_2022; area_pct_geometrica"},"geometry":{"type":"Polygon","coordinates":[[[-51.808670609161254,-29.582783432809183],[-51.80868622678786,-29.580915531026946],[-51.806692392939574,-29.5809008936613],[-51.80667676092372,-29.582768794544176],[-51.808670609161254,-29.582783432809183]]]}}]}