{"type":"FeatureCollection","name":"4309258","crs":{"type":"name","properties":{"name":"urn:ogc:def:crs:OGC:1.3:CRS84"}},"features":[{"type":"Feature","properties":{"id_grade":"1KME5237N8154","pop":2,"dom":1,"universo_dom":"domicilios_ocupados_grade_ibge_2022","na_bacia":1,"area_pct_bacia":100.0,"metodo_recorte_bacia":"ponto_representativo_grade_2022; area_pct_geometrica","status_borda_bacia":"total","metodo_area_bacia":"interse??o geom?trica em EPSG:5880","metodo_na_bacia":"ponto_representativo_grade_2022_within_bacia","pop_n_validos":1,"pop_n_total":1,"pop_completude":1.0,"dom_n_validos":1,"dom_n_total":1,"dom_completude":1.0},"geometry":{"type":"Polygon","coordinates":[[[-51.64560733560706,-28.64817918363401],[-51.64569093505057,-28.638889553476446],[-51.63575761351195,-28.6388112112779],[-51.63567366137846,-28.648100834640477],[-51.64560733560706,-28.64817918363401]]]}},{"type":"Feature","properties":{"id_grade":"1KME5239N8154","pop":4,"dom":2,"universo_dom":"domicilios_ocupados_grade_ibge_2022","na_bacia":1,"area_pct_bacia":100.0,"metodo_recorte_bacia":"ponto_representativo_grade_2022; area_pct_geometrica","status_borda_bacia":"total","metodo_area_bacia":"interse??o geom?trica em EPSG:5880","metodo_na_bacia":"ponto_representativo_grade_2022_within_bacia","pop_n_validos":1,"pop_n_total":1,"pop_completude":1.0,"dom_n_validos":1,"dom_n_total":1,"dom_completude":1.0},"geometry":{"type":"Polygon","coordinates":[[[-51.62573999311205,-28.648022155814562],[-51.62582429793489,-28.638732539275278],[-51.61589098834445,-28.638653537469217],[-51.61580633083288,-28.64794314715641],[-51.62573999311205,-28.648022155814562]]]}},{"type":"Feature","properties":{"id_grade":"1KME5236N8155","pop":6,"dom":3,"universo_dom":"domicilios_ocupados_grade_ibge_2022","na_bacia":1,"area_pct_bacia":100.0,"metodo_recorte_bacia":"ponto_representativo_grade_2022; area_pct_geometrica","status_borda_bacia":"total","metodo_area_bacia":"interse??o geom?trica em EPSG:5880","metodo_na_bacia":"ponto_representativo_grade_2022_within_bacia","pop_n_validos":1,"pop_n_total":1,"pop_completude":1.0,"dom_n_validos":1,"dom_n_total":1,"dom_completude":1.0},"geometry":{"type":"Polygon","coordinates":[[[-51.65562426252571,-28.63896756586997],[-51.65570750336712,-28.629678404572502],[-51.645774528557546,-28.62960039894188],[-51.64569093505057,-28.638889553476446],[-51.65562426252571,-28.63896756586997]]]}},{"type":"Feature","properties":{"id_grade":"1KME5237N8155","pop":9,"dom":2,"universo_dom":"domicilios_ocupados_grade_ibge_2022","na_bacia":1,"area_pct_bacia":100.0,"metodo_recorte_bacia":"ponto_representativo_grade_2022; area_pct_geometrica","status_borda_bacia":"total","metodo_area_bacia":"interse??o geom?trica em EPSG:5880","metodo_na_bacia":"ponto_representativo_grade_2022_within_bacia","pop_n_validos":1,"pop_n_total":1,"pop_completude":1.0,"dom_n_validos":1,"dom_n_total":1,"dom_completude":1.0},"geometry":{"type":"Polygon","coordinates":[[[-51.64569093505057,-28.638889553476446],[-51.645774528557546,-28.62960039894188],[-51.635841559683875,-28.62952206353473],[-51.63575761351195,-28.6388112112779],[-51.64569093505057,-28.638889553476446]]]}},{"type":"Feature","properties":{"id_grade":"1KME5234N8156","pop":2,"dom":1,"universo_dom":"domicilios_ocupados_grade_ibge_2022","na_bacia":1,"area_pct_bacia":100.0,"metodo_recorte_bacia":"ponto_representativo_grade_2022; area_pct_geometrica","status_borda_bacia":"total","metodo_area_bacia":"interse??o geom?trica em EPSG:5880","metodo_na_bacia":"ponto_representativo_grade_2022_within_bacia","pop_n_validos":1,"pop_n_total":1,"pop_completude":1.0,"dom_n_validos":1,"dom_n_total":1,"dom_completude":1.0},"geometry":{"type":"Polygon","coordinates":[[[-51.67557347069376,-28.62983342650215],[-51.67565600034135,-28.6205447270313],[-51.66572336637691,-28.620467387657683],[-51.66564048408753,-28.62975608042624],[-51.67557347069376,-28.62983342650215]]]}},{"type":"Feature","properties":{"id_grade":"1KME5235N8156","pop":4,"dom":1,"universo_dom":"domicilios_ocupados_grade_ibge_2022","na_bacia":1,"area_pct_bacia":100.0,"metodo_recorte_bacia":"ponto_representativo_grade_2022; area_pct_geometrica","status_borda_bacia":"total","metodo_area_bacia":"interse??o geom?trica em EPSG:5880","metodo_na_bacia":"ponto_representativo_grade_2022_within_bacia","pop_n_validos":1,"pop_n_total":1,"pop_completude":1.0,"dom_n_validos":1,"dom_n_total":1,"dom_completude":1.0},"geometry":{"type":"Polygon","coordinates":[[[-51.66564048408753,-28.62975608042624],[-51.66572336637691,-28.620467387657683],[-51.65579073829766,-28.620389718534657],[-51.65570750336712,-28.629678404572502],[-51.66564048408753,-28.62975608042624]]]}},{"type":"Feature","properties":{"id_grade":"1KME5232N8157","pop":7,"dom":3,"universo_dom":"domicilios_ocupados_grade_ibge_2022","na_bacia":1,"area_pct_bacia":100.0,"metodo_recorte_bacia":"ponto_representativo_grade_2022; area_pct_geometrica","status_borda_bacia":"total","metodo_area_bacia":"interse??o geom?trica em EPSG:5880","metodo_na_bacia":"ponto_representativo_grade_2022_within_bacia","pop_n_validos":1,"pop_n_total":1,"pop_completude":1.0,"dom_n_validos":1,"dom_n_total":1,"dom_completude":1.0},"geometry":{"type":"Polygon","coordinates":[[[-51.69552128582563,-28.62069841652817],[-51.695603104377675,-28.611410178645286],[-51.68567081133598,-28.611333505413548],[-51.68558864016593,-28.62062173665482],[-51.69552128582563,-28.62069841652817]]]}},{"type":"Feature","properties":{"id_grade":"1KME5234N8157","pop":3,"dom":1,"universo_dom":"domicilios_ocupados_grade_ibge_2022","na_bacia":1,"area_pct_bacia":100.0,"metodo_recorte_bacia":"ponto_representativo_grade_2022; area_pct_geometrica","status_borda_bacia":"total","metodo_area_bacia":"interse??o geom?trica em EPSG:5880","metodo_na_bacia":"ponto_representativo_grade_2022_within_bacia","pop_n_validos":1,"pop_n_total":1,"pop_completude":1.0,"dom_n_validos":1,"dom_n_total":1,"dom_completude":1.0},"geometry":{"type":"Polygon","coordinates":[[[-51.67565600034135,-28.6205447270313],[-51.67573852412878,-28.611256502459735],[-51.66580624278111,-28.61117916978445],[-51.66572336637691,-28.620467387657683],[-51.67565600034135,-28.6205447270313]]]}},{"type":"Feature","properties":{"id_grade":"1KME5239N8157","pop":8,"dom":2,"universo_dom":"domicilios_ocupados_grade_ibge_2022","na_bacia":1,"area_pct_bacia":100.0,"metodo_recorte_bacia":"ponto_representativo_grade_2022; area_pct_geometrica","status_borda_bacia":"total","metodo_area_bacia":"interse??o geom?trica em EPSG:5880","metodo_na_bacia":"ponto_representativo_grade_2022_within_bacia","pop_n_validos":1,"pop_n_total":1,"pop_completude":1.0,"dom_n_validos":1,"dom_n_total":1,"dom_completude":1.0},"geometry":{"type":"Polygon","coordinates":[[[-51.62599288962139,-28.62015473267667],[-51.62607717648633,-28.610866541883077],[-51.61614492481179,-28.61078756061119],[-51.61606028533326,-28.62007574456378],[-51.62599288962139,-28.62015473267667]]]}},{"type":"Feature","properties":{"id_grade":"1KME5240N8157","pop":4,"dom":2,"universo_dom":"domicilios_ocupados_grade_ibge_2022","na_bacia":1,"area_pct_bacia":100.0,"metodo_recorte_bacia":"ponto_representativo_grade_2022; area_pct_geometrica","status_borda_bacia":"total","metodo_area_bacia":"interse??o geom?trica em EPSG:5880","metodo_na_bacia":"ponto_representativo_grade_2022_within_bacia","pop_n_validos":1,"pop_n_total":1,"pop_completude":1.0,"dom_n_validos":1,"dom_n_total":1,"dom_completude":1.0},"geometry":{"type":"Polygon","coordinates":[[[-51.61606028533326,-28.62007574456378],[-51.61614492481179,-28.61078756061119],[-51.60621267914698,-28.610708249622252],[-51.60612768705548,-28.619996426705125],[-51.61606028533326,-28.62007574456378]]]}},{"type":"Feature","properties":{"id_grade":"1KME5231N8158","pop":11,"dom":4,"universo_dom":"domicilios_ocupados_grade_ibge_2022","na_bacia":1,"area_pct_bacia":100.0,"metodo_recorte_bacia":"ponto_representativo_grade_2022; area_pct_geometrica","status_borda_bacia":"total","metodo_area_bacia":"interse??o geom?trica em EPSG:5880","metodo_na_bacia":"ponto_representativo_grade_2022_within_bacia","pop_n_validos":1,"pop_n_total":1,"pop_completude":1.0,"dom_n_validos":1,"dom_n_total":1,"dom_completude":1.0},"geometry":{"type":"Polygon","coordinates":[[[-51.70553540322883,-28.61148652215388],[-51.70561686337783,-28.60219875220072],[-51.69568491712027,-28.60212241530144],[-51.695603104377675,-28.611410178645286],[-51.70553540322883,-28.61148652215388]]]}},{"type":"Feature","properties":{"id_grade":"1KME5232N8158","pop":10,"dom":2,"universo_dom":"domicilios_ocupados_grade_ibge_2022","na_bacia":1,"area_pct_bacia":100.0,"metodo_recorte_bacia":"ponto_representativo_grade_2022; area_pct_geometrica","status_borda_bacia":"total","metodo_area_bacia":"interse??o geom?trica em EPSG:5880","metodo_na_bacia":"ponto_representativo_grade_2022_within_bacia","pop_n_validos":1,"pop_n_total":1,"pop_completude":1.0,"dom_n_validos":1,"dom_n_total":1,"dom_completude":1.0},"geometry":{"type":"Polygon","coordinates":[[[-51.695603104377675,-28.611410178645286],[-51.69568491712027,-28.60212241530144],[-51.685752976671544,-28.602045748707763],[-51.68567081133598,-28.611333505413548],[-51.695603104377675,-28.611410178645286]]]}},{"type":"Feature","properties":{"id_grade":"1KME5233N8158","pop":3,"dom":2,"universo_dom":"domicilios_ocupados_grade_ibge_2022","na_bacia":1,"area_pct_bacia":100.0,"metodo_recorte_bacia":"ponto_representativo_grade_2022; area_pct_geometrica","status_borda_bacia":"total","metodo_area_bacia":"interse??o geom?trica em EPSG:5880","metodo_na_bacia":"ponto_representativo_grade_2022_within_bacia","pop_n_validos":1,"pop_n_total":1,"pop_completude":1.0,"dom_n_validos":1,"dom_n_total":1,"dom_completude":1.0},"geometry":{"type":"Polygon","coordinates":[[[-51.68567081133598,-28.611333505413548],[-51.685752976671544,-28.602045748707763],[-51.67582104205669,-28.60196875242042],[-51.67573852412878,-28.611256502459735],[-51.68567081133598,-28.611333505413548]]]}},{"type":"Feature","properties":{"id_grade":"1KME5234N8158","pop":3,"dom":1,"universo_dom":"domicilios_ocupados_grade_ibge_2022","na_bacia":1,"area_pct_bacia":100.0,"metodo_recorte_bacia":"ponto_representativo_grade_2022; area_pct_geometrica","status_borda_bacia":"total","metodo_area_bacia":"interse??o geom?trica em EPSG:5880","metodo_na_bacia":"ponto_representativo_grade_2022_within_bacia","pop_n_validos":1,"pop_n_total":1,"pop_completude":1.0,"dom_n_validos":1,"dom_n_total":1,"dom_completude":1.0},"geometry":{"type":"Polygon","coordinates":[[[-51.67573852412878,-28.611256502459735],[-51.67582104205669,-28.60196875242042],[-51.66588911330074,-28.60189142644014],[-51.66580624278111,-28.61117916978445],[-51.67573852412878,-28.611256502459735]]]}},{"type":"Feature","properties":{"id_grade":"1KME5235N8158","pop":13,"dom":4,"universo_dom":"domicilios_ocupados_grade_ibge_2022","na_bacia":1,"area_pct_bacia":100.0,"metodo_recorte_bacia":"ponto_representativo_grade_2022; area_pct_geometrica","status_borda_bacia":"total","metodo_area_bacia":"interse??o geom?trica em EPSG:5880","metodo_na_bacia":"ponto_representativo_grade_2022_within_bacia","pop_n_validos":1,"pop_n_total":1,"pop_completude":1.0,"dom_n_validos":1,"dom_n_total":1,"dom_completude":1.0},"geometry":{"type":"Polygon","coordinates":[[[-51.66580624278111,-28.61117916978445],[-51.66588911330074,-28.60189142644014],[-51.65595719042872,-28.601813770767496],[-51.65587396731799,-28.611101507388447],[-51.66580624278111,-28.61117916978445]]]}},{"type":"Feature","properties":{"id_grade":"1KME5239N8158","pop":8,"dom":4,"universo_dom":"domicilios_ocupados_grade_ibge_2022","na_bacia":1,"area_pct_bacia":100.0,"metodo_recorte_bacia":"ponto_representativo_grade_2022; area_pct_geometrica","status_borda_bacia":"total","metodo_area_bacia":"interse??o geom?trica em EPSG:5880","metodo_na_bacia":"ponto_representativo_grade_2022_within_bacia","pop_n_validos":1,"pop_n_total":1,"pop_completude":1.0,"dom_n_validos":1,"dom_n_total":1,"dom_completude":1.0},"geometry":{"type":"Polygon","coordinates":[[[-51.62607717648633,-28.610866541883077],[-51.62616145736658,-28.601578825603724],[-51.6162295582806,-28.601499851169724],[-51.61614492481179,-28.61078756061119],[-51.62607717648633,-28.610866541883077]]]}},{"type":"Feature","properties":{"id_grade":"1KME5240N8158","pop":7,"dom":3,"universo_dom":"domicilios_ocupados_grade_ibge_2022","na_bacia":1,"area_pct_bacia":100.0,"metodo_recorte_bacia":"ponto_representativo_grade_2022; area_pct_geometrica","status_borda_bacia":"total","metodo_area_bacia":"interse??o geom?trica em EPSG:5880","metodo_na_bacia":"ponto_representativo_grade_2022_within_bacia","pop_n_validos":1,"pop_n_total":1,"pop_completude":1.0,"dom_n_validos":1,"dom_n_total":1,"dom_completude":1.0},"geometry":{"type":"Polygon","coordinates":[[[-51.61614492481179,-28.61078756061119],[-51.6162295582806,-28.601499851169724],[-51.606297665203705,-28.601420547046754],[-51.60621267914698,-28.610708249622252],[-51.61614492481179,-28.61078756061119]]]}},{"type":"Feature","properties":{"id_grade":"1KME5231N8159","pop":3,"dom":1,"universo_dom":"domicilios_ocupados_grade_ibge_2022","na_bacia":1,"area_pct_bacia":100.0,"metodo_recorte_bacia":"ponto_representativo_grade_2022; area_pct_geometrica","status_borda_bacia":"total","metodo_area_bacia":"interse??o geom?trica em EPSG:5880","metodo_na_bacia":"ponto_representativo_grade_2022_within_bacia","pop_n_validos":1,"pop_n_total":1,"pop_completude":1.0,"dom_n_validos":1,"dom_n_total":1,"dom_completude":1.0},"geometry":{"type":"Polygon","coordinates":[[[-51.70561686337783,-28.60219875220072],[-51.70569831774302,-28.592911456423757],[-51.695766724054025,-28.592835126130414],[-51.69568491712027,-28.60212241530144],[-51.70561686337783,-28.60219875220072]]]}},{"type":"Feature","properties":{"id_grade":"1KME5232N8159","pop":12,"dom":2,"universo_dom":"domicilios_ocupados_grade_ibge_2022","na_bacia":1,"area_pct_bacia":100.0,"metodo_recorte_bacia":"ponto_representativo_grade_2022; area_pct_geometrica","status_borda_bacia":"total","metodo_area_bacia":"interse??o geom?trica em EPSG:5880","metodo_na_bacia":"ponto_representativo_grade_2022_within_bacia","pop_n_validos":1,"pop_n_total":1,"pop_completude":1.0,"dom_n_validos":1,"dom_n_total":1,"dom_completude":1.0},"geometry":{"type":"Polygon","coordinates":[[[-51.69568491712027,-28.60212241530144],[-51.695766724054025,-28.592835126130414],[-51.68583513617323,-28.592758466171166],[-51.685752976671544,-28.602045748707763],[-51.69568491712027,-28.60212241530144]]]}},{"type":"Feature","properties":{"id_grade":"1KME5233N8159","pop":7,"dom":3,"universo_dom":"domicilios_ocupados_grade_ibge_2022","na_bacia":1,"area_pct_bacia":100.0,"metodo_recorte_bacia":"ponto_representativo_grade_2022; area_pct_geometrica","status_borda_bacia":"total","metodo_area_bacia":"interse??o geom?trica em EPSG:5880","metodo_na_bacia":"ponto_representativo_grade_2022_within_bacia","pop_n_validos":1,"pop_n_total":1,"pop_completude":1.0,"dom_n_validos":1,"dom_n_total":1,"dom_completude":1.0},"geometry":{"type":"Polygon","coordinates":[[[-51.685752976671544,-28.602045748707763],[-51.68583513617323,-28.592758466171166],[-51.675903554125696,-28.592681476546908],[-51.67582104205669,-28.60196875242042],[-51.685752976671544,-28.602045748707763]]]}},{"type":"Feature","properties":{"id_grade":"1KME5234N8159","pop":16,"dom":5,"universo_dom":"domicilios_ocupados_grade_ibge_2022","na_bacia":1,"area_pct_bacia":100.0,"metodo_recorte_bacia":"ponto_representativo_grade_2022; area_pct_geometrica","status_borda_bacia":"total","metodo_area_bacia":"interse??o geom?trica em EPSG:5880","metodo_na_bacia":"ponto_representativo_grade_2022_within_bacia","pop_n_validos":1,"pop_n_total":1,"pop_completude":1.0,"dom_n_validos":1,"dom_n_total":1,"dom_completude":1.0},"geometry":{"type":"Polygon","coordinates":[[[-51.67582104205669,-28.60196875242042],[-51.675903554125696,-28.592681476546908],[-51.665971977936444,-28.592604157257817],[-51.66588911330074,-28.60189142644014],[-51.67582104205669,-28.60196875242042]]]}},{"type":"Feature","properties":{"id_grade":"1KME5235N8159","pop":12,"dom":5,"universo_dom":"domicilios_ocupados_grade_ibge_2022","na_bacia":1,"area_pct_bacia":100.0,"metodo_recorte_bacia":"ponto_representativo_grade_2022; area_pct_geometrica","status_borda_bacia":"total","metodo_area_bacia":"interse??o geom?trica em EPSG:5880","metodo_na_bacia":"ponto_representativo_grade_2022_within_bacia","pop_n_validos":1,"pop_n_total":1,"pop_completude":1.0,"dom_n_validos":1,"dom_n_total":1,"dom_completude":1.0},"geometry":{"type":"Polygon","coordinates":[[[-51.66588911330074,-28.60189142644014],[-51.665971977936444,-28.592604157257817],[-51.65604040763049,-28.592526508305536],[-51.65595719042872,-28.601813770767496],[-51.66588911330074,-28.60189142644014]]]}},{"type":"Feature","properties":{"id_grade":"1KME5236N8159","pop":4,"dom":1,"universo_dom":"domicilios_ocupados_grade_ibge_2022","na_bacia":1,"area_pct_bacia":100.0,"metodo_recorte_bacia":"ponto_representativo_grade_2022; area_pct_geometrica","status_borda_bacia":"total","metodo_area_bacia":"interse??o geom?trica em EPSG:5880","metodo_na_bacia":"ponto_representativo_grade_2022_within_bacia","pop_n_validos":1,"pop_n_total":1,"pop_completude":1.0,"dom_n_validos":1,"dom_n_total":1,"dom_completude":1.0},"geometry":{"type":"Polygon","coordinates":[[[-51.65595719042872,-28.601813770767496],[-51.65604040763049,-28.592526508305536],[-51.64610884323288,-28.59244852968967],[-51.64602527346567,-28.6017357854036],[-51.65595719042872,-28.601813770767496]]]}},{"type":"Feature","properties":{"id_grade":"1KME5237N8159","pop":8,"dom":3,"universo_dom":"domicilios_ocupados_grade_ibge_2022","na_bacia":1,"area_pct_bacia":100.0,"metodo_recorte_bacia":"ponto_representativo_grade_2022; area_pct_geometrica","status_borda_bacia":"total","metodo_area_bacia":"interse??o geom?trica em EPSG:5880","metodo_na_bacia":"ponto_representativo_grade_2022_within_bacia","pop_n_validos":1,"pop_n_total":1,"pop_completude":1.0,"dom_n_validos":1,"dom_n_total":1,"dom_completude":1.0},"geometry":{"type":"Polygon","coordinates":[[[-51.64602527346567,-28.6017357854036],[-51.64610884323288,-28.59244852968967],[-51.63617728476863,-28.592370221411933],[-51.63609336243661,-28.60165747034876],[-51.64602527346567,-28.6017357854036]]]}},{"type":"Feature","properties":{"id_grade":"1KME5239N8159","pop":7,"dom":3,"universo_dom":"domicilios_ocupados_grade_ibge_2022","na_bacia":1,"area_pct_bacia":100.0,"metodo_recorte_bacia":"ponto_representativo_grade_2022; area_pct_geometrica","status_borda_bacia":"total","metodo_area_bacia":"interse??o geom?trica em EPSG:5880","metodo_na_bacia":"ponto_representativo_grade_2022_within_bacia","pop_n_validos":1,"pop_n_total":1,"pop_completude":1.0,"dom_n_validos":1,"dom_n_total":1,"dom_completude":1.0},"geometry":{"type":"Polygon","coordinates":[[[-51.62616145736658,-28.601578825603724],[-51.62624573226276,-28.592291583472452],[-51.61631418574032,-28.592212615872043],[-51.6162295582806,-28.601499851169724],[-51.62616145736658,-28.601578825603724]]]}},{"type":"Feature","properties":{"id_grade":"1KME5230N8160","pop":9,"dom":3,"universo_dom":"domicilios_ocupados_grade_ibge_2022","na_bacia":1,"area_pct_bacia":100.0,"metodo_recorte_bacia":"ponto_representativo_grade_2022; area_pct_geometrica","status_borda_bacia":"total","metodo_area_bacia":"interse??o geom?trica em EPSG:5880","metodo_na_bacia":"ponto_representativo_grade_2022_within_bacia","pop_n_validos":1,"pop_n_total":1,"pop_completude":1.0,"dom_n_validos":1,"dom_n_total":1,"dom_completude":1.0},"geometry":{"type":"Polygon","coordinates":[[[-51.71562991721522,-28.592987457050587],[-51.71571101325306,-28.583700628509447],[-51.705779766325016,-28.583624634456427],[-51.70569831774302,-28.592911456423757],[-51.71562991721522,-28.592987457050587]]]}},{"type":"Feature","properties":{"id_grade":"1KME5231N8160","pop":5,"dom":2,"universo_dom":"domicilios_ocupados_grade_ibge_2022","na_bacia":1,"area_pct_bacia":100.0,"metodo_recorte_bacia":"ponto_representativo_grade_2022; area_pct_geometrica","status_borda_bacia":"total","metodo_area_bacia":"interse??o geom?trica em EPSG:5880","metodo_na_bacia":"ponto_representativo_grade_2022_within_bacia","pop_n_validos":1,"pop_n_total":1,"pop_completude":1.0,"dom_n_validos":1,"dom_n_total":1,"dom_completude":1.0},"geometry":{"type":"Polygon","coordinates":[[[-51.70569831774302,-28.592911456423757],[-51.705779766325016,-28.583624634456427],[-51.69584852517954,-28.58354831076553],[-51.695766724054025,-28.592835126130414],[-51.70569831774302,-28.592911456423757]]]}},{"type":"Feature","properties":{"id_grade":"1KME5234N8160","pop":13,"dom":5,"universo_dom":"domicilios_ocupados_grade_ibge_2022","na_bacia":1,"area_pct_bacia":100.0,"metodo_recorte_bacia":"ponto_representativo_grade_2022; area_pct_geometrica","status_borda_bacia":"total","metodo_area_bacia":"interse??o geom?trica em EPSG:5880","metodo_na_bacia":"ponto_representativo_grade_2022_within_bacia","pop_n_validos":1,"pop_n_total":1,"pop_completude":1.0,"dom_n_validos":1,"dom_n_total":1,"dom_completude":1.0},"geometry":{"type":"Polygon","coordinates":[[[-51.675903554125696,-28.592681476546908],[-51.67598606033643,-28.583394674472277],[-51.666054836688836,-28.583317361871547],[-51.665971977936444,-28.592604157257817],[-51.675903554125696,-28.592681476546908]]]}},{"type":"Feature","properties":{"id_grade":"1KME5235N8160","pop":8,"dom":3,"universo_dom":"domicilios_ocupados_grade_ibge_2022","na_bacia":1,"area_pct_bacia":100.0,"metodo_recorte_bacia":"ponto_representativo_grade_2022; area_pct_geometrica","status_borda_bacia":"total","metodo_area_bacia":"interse??o geom?trica em EPSG:5880","metodo_na_bacia":"ponto_representativo_grade_2022_within_bacia","pop_n_validos":1,"pop_n_total":1,"pop_completude":1.0,"dom_n_validos":1,"dom_n_total":1,"dom_completude":1.0},"geometry":{"type":"Polygon","coordinates":[[[-51.665971977936444,-28.592604157257817],[-51.666054836688836,-28.583317361871547],[-51.65612361892392,-28.583239719635234],[-51.65604040763049,-28.592526508305536],[-51.665971977936444,-28.592604157257817]]]}},{"type":"Feature","properties":{"id_grade":"1KME5238N8160","pop":1,"dom":1,"universo_dom":"domicilios_ocupados_grade_ibge_2022","na_bacia":1,"area_pct_bacia":100.0,"metodo_recorte_bacia":"ponto_representativo_grade_2022; area_pct_geometrica","status_borda_bacia":"total","metodo_area_bacia":"interse??o geom?trica em EPSG:5880","metodo_na_bacia":"ponto_representativo_grade_2022_within_bacia","pop_n_validos":1,"pop_n_total":1,"pop_completude":1.0,"dom_n_validos":1,"dom_n_total":1,"dom_completude":1.0},"geometry":{"type":"Polygon","coordinates":[[[-51.63617728476863,-28.592370221411933],[-51.636261201142254,-28.58308344625992],[-51.62633000117553,-28.583004815122493],[-51.62624573226276,-28.592291583472452],[-51.63617728476863,-28.592370221411933]]]}},{"type":"Feature","properties":{"id_grade":"1KME5239N8160","pop":9,"dom":4,"universo_dom":"domicilios_ocupados_grade_ibge_2022","na_bacia":1,"area_pct_bacia":100.0,"metodo_recorte_bacia":"ponto_representativo_grade_2022; area_pct_geometrica","status_borda_bacia":"total","metodo_area_bacia":"interse??o geom?trica em EPSG:5880","metodo_na_bacia":"ponto_representativo_grade_2022_within_bacia","pop_n_validos":1,"pop_n_total":1,"pop_completude":1.0,"dom_n_validos":1,"dom_n_total":1,"dom_completude":1.0},"geometry":{"type":"Polygon","coordinates":[[[-51.62624573226276,-28.592291583472452],[-51.62633000117553,-28.583004815122493],[-51.6163988071916,-28.58292585435256],[-51.61631418574032,-28.592212615872043],[-51.62624573226276,-28.592291583472452]]]}},{"type":"Feature","properties":{"id_grade":"1KME5240N8160","pop":11,"dom":4,"universo_dom":"domicilios_ocupados_grade_ibge_2022","na_bacia":1,"area_pct_bacia":100.0,"metodo_recorte_bacia":"ponto_representativo_grade_2022; area_pct_geometrica","status_borda_bacia":"total","metodo_area_bacia":"interse??o geom?trica em EPSG:5880","metodo_na_bacia":"ponto_representativo_grade_2022_within_bacia","pop_n_validos":1,"pop_n_total":1,"pop_completude":1.0,"dom_n_validos":1,"dom_n_total":1,"dom_completude":1.0},"geometry":{"type":"Polygon","coordinates":[[[-51.61631418574032,-28.592212615872043],[-51.6163988071916,-28.58292585435256],[-51.606467619215465,-28.58284656395101],[-51.606382645226326,-28.592133318611893],[-51.61631418574032,-28.592212615872043]]]}},{"type":"Feature","properties":{"id_grade":"1KME5229N8161","pop":12,"dom":5,"universo_dom":"domicilios_ocupados_grade_ibge_2022","na_bacia":1,"area_pct_bacia":100.0,"metodo_recorte_bacia":"ponto_representativo_grade_2022; area_pct_geometrica","status_borda_bacia":"total","metodo_area_bacia":"interse??o geom?trica em EPSG:5880","metodo_na_bacia":"ponto_representativo_grade_2022_within_bacia","pop_n_validos":1,"pop_n_total":1,"pop_completude":1.0,"dom_n_validos":1,"dom_n_total":1,"dom_completude":1.0},"geometry":{"type":"Polygon","coordinates":[[[-51.725642265938674,-28.583776292923424],[-51.725723003699244,-28.574489931286866],[-51.715792103533374,-28.574414273414654],[-51.71571101325306,-28.583700628509447],[-51.725642265938674,-28.583776292923424]]]}},{"type":"Feature","properties":{"id_grade":"1KME5230N8161","pop":3,"dom":1,"universo_dom":"domicilios_ocupados_grade_ibge_2022","na_bacia":1,"area_pct_bacia":100.0,"metodo_recorte_bacia":"ponto_representativo_grade_2022; area_pct_geometrica","status_borda_bacia":"total","metodo_area_bacia":"interse??o geom?trica em EPSG:5880","metodo_na_bacia":"ponto_representativo_grade_2022_within_bacia","pop_n_validos":1,"pop_n_total":1,"pop_completude":1.0,"dom_n_validos":1,"dom_n_total":1,"dom_completude":1.0},"geometry":{"type":"Polygon","coordinates":[[[-51.71571101325306,-28.583700628509447],[-51.715792103533374,-28.574414273414654],[-51.705861209124436,-28.574338285932477],[-51.705779766325016,-28.583624634456427],[-51.71571101325306,-28.583700628509447]]]}},{"type":"Feature","properties":{"id_grade":"1KME5231N8161","pop":4,"dom":2,"universo_dom":"domicilios_ocupados_grade_ibge_2022","na_bacia":1,"area_pct_bacia":100.0,"metodo_recorte_bacia":"ponto_representativo_grade_2022; area_pct_geometrica","status_borda_bacia":"total","metodo_area_bacia":"interse??o geom?trica em EPSG:5880","metodo_na_bacia":"ponto_representativo_grade_2022_within_bacia","pop_n_validos":1,"pop_n_total":1,"pop_completude":1.0,"dom_n_validos":1,"dom_n_total":1,"dom_completude":1.0},"geometry":{"type":"Polygon","coordinates":[[[-51.705779766325016,-28.583624634456427],[-51.705861209124436,-28.574338285932477],[-51.69593032049747,-28.574261968840393],[-51.69584852517954,-28.58354831076553],[-51.705779766325016,-28.583624634456427]]]}},{"type":"Feature","properties":{"id_grade":"1KME5232N8161","pop":8,"dom":2,"universo_dom":"domicilios_ocupados_grade_ibge_2022","na_bacia":1,"area_pct_bacia":100.0,"metodo_recorte_bacia":"ponto_representativo_grade_2022; area_pct_geometrica","status_borda_bacia":"total","metodo_area_bacia":"interse??o geom?trica em EPSG:5880","metodo_na_bacia":"ponto_representativo_grade_2022_within_bacia","pop_n_validos":1,"pop_n_total":1,"pop_completude":1.0,"dom_n_validos":1,"dom_n_total":1,"dom_completude":1.0},"geometry":{"type":"Polygon","coordinates":[[[-51.69584852517954,-28.58354831076553],[-51.69593032049747,-28.574261968840393],[-51.68599943767748,-28.574185322139574],[-51.685917289841676,-28.58347165743726],[-51.69584852517954,-28.58354831076553]]]}},{"type":"Feature","properties":{"id_grade":"1KME5234N8161","pop":1,"dom":1,"universo_dom":"domicilios_ocupados_grade_ibge_2022","na_bacia":1,"area_pct_bacia":100.0,"metodo_recorte_bacia":"ponto_representativo_grade_2022; area_pct_geometrica","status_borda_bacia":"total","metodo_area_bacia":"interse??o geom?trica em EPSG:5880","metodo_na_bacia":"ponto_representativo_grade_2022_within_bacia","pop_n_validos":1,"pop_n_total":1,"pop_completude":1.0,"dom_n_validos":1,"dom_n_total":1,"dom_completude":1.0},"geometry":{"type":"Polygon","coordinates":[[[-51.67598606033643,-28.583394674472277],[-51.6760685606895,-28.57410834583081],[-51.66613768955855,-28.574031039914026],[-51.666054836688836,-28.583317361871547],[-51.67598606033643,-28.583394674472277]]]}},{"type":"Feature","properties":{"id_grade":"1KME5235N8161","pop":6,"dom":3,"universo_dom":"domicilios_ocupados_grade_ibge_2022","na_bacia":1,"area_pct_bacia":100.0,"metodo_recorte_bacia":"ponto_representativo_grade_2022; area_pct_geometrica","status_borda_bacia":"total","metodo_area_bacia":"interse??o geom?trica em EPSG:5880","metodo_na_bacia":"ponto_representativo_grade_2022_within_bacia","pop_n_validos":1,"pop_n_total":1,"pop_completude":1.0,"dom_n_validos":1,"dom_n_total":1,"dom_completude":1.0},"geometry":{"type":"Polygon","coordinates":[[[-51.666054836688836,-28.583317361871547],[-51.66613768955855,-28.574031039914026],[-51.656206824309656,-28.573953404390785],[-51.65612361892392,-28.583239719635234],[-51.666054836688836,-28.583317361871547]]]}},{"type":"Feature","properties":{"id_grade":"1KME5236N8161","pop":2,"dom":1,"universo_dom":"domicilios_ocupados_grade_ibge_2022","na_bacia":1,"area_pct_bacia":100.0,"metodo_recorte_bacia":"ponto_representativo_grade_2022; area_pct_geometrica","status_borda_bacia":"total","metodo_area_bacia":"interse??o geom?trica em EPSG:5880","metodo_na_bacia":"ponto_representativo_grade_2022_within_bacia","pop_n_validos":1,"pop_n_total":1,"pop_completude":1.0,"dom_n_validos":1,"dom_n_total":1,"dom_completude":1.0},"geometry":{"type":"Polygon","coordinates":[[[-51.65612361892392,-28.583239719635234],[-51.656206824309656,-28.573953404390785],[-51.646275964967835,-28.573875439261617],[-51.64619240706673,-28.583161747764624],[-51.65612361892392,-28.583239719635234]]]}},{"type":"Feature","properties":{"id_grade":"1KME5237N8161","pop":4,"dom":2,"universo_dom":"domicilios_ocupados_grade_ibge_2022","na_bacia":1,"area_pct_bacia":100.0,"metodo_recorte_bacia":"ponto_representativo_grade_2022; area_pct_geometrica","status_borda_bacia":"total","metodo_area_bacia":"interse??o geom?trica em EPSG:5880","metodo_na_bacia":"ponto_representativo_grade_2022_within_bacia","pop_n_validos":1,"pop_n_total":1,"pop_completude":1.0,"dom_n_validos":1,"dom_n_total":1,"dom_completude":1.0},"geometry":{"type":"Polygon","coordinates":[[[-51.64619240706673,-28.583161747764624],[-51.646275964967835,-28.573875439261617],[-51.636345111558114,-28.57379714452695],[-51.636261201142254,-28.58308344625992],[-51.64619240706673,-28.583161747764624]]]}},{"type":"Feature","properties":{"id_grade":"1KME5240N8161","pop":8,"dom":2,"universo_dom":"domicilios_ocupados_grade_ibge_2022","na_bacia":1,"area_pct_bacia":100.0,"metodo_recorte_bacia":"ponto_representativo_grade_2022; area_pct_geometrica","status_borda_bacia":"total","metodo_area_bacia":"interse??o geom?trica em EPSG:5880","metodo_na_bacia":"ponto_representativo_grade_2022_within_bacia","pop_n_validos":1,"pop_n_total":1,"pop_completude":1.0,"dom_n_validos":1,"dom_n_total":1,"dom_completude":1.0},"geometry":{"type":"Polygon","coordinates":[[[-51.6163988071916,-28.58292585435256],[-51.61648342263506,-28.573639566244488],[-51.60655258717178,-28.57356028269817],[-51.606467619215465,-28.58284656395101],[-51.6163988071916,-28.58292585435256]]]}},{"type":"Feature","properties":{"id_grade":"1KME5231N8162","pop":11,"dom":5,"universo_dom":"domicilios_ocupados_grade_ibge_2022","na_bacia":1,"area_pct_bacia":100.0,"metodo_recorte_bacia":"ponto_representativo_grade_2022; area_pct_geometrica","status_borda_bacia":"total","metodo_area_bacia":"interse??o geom?trica em EPSG:5880","metodo_na_bacia":"ponto_representativo_grade_2022_within_bacia","pop_n_validos":1,"pop_n_total":1,"pop_completude":1.0,"dom_n_validos":1,"dom_n_total":1,"dom_completude":1.0},"geometry":{"type":"Polygon","coordinates":[[[-51.705861209124436,-28.574338285932477],[-51.7059426461419,-28.565052410485748],[-51.69601211000841,-28.564976099989476],[-51.69593032049747,-28.574261968840393],[-51.705861209124436,-28.574338285932477]]]}},{"type":"Feature","properties":{"id_grade":"1KME5232N8162","pop":8,"dom":2,"universo_dom":"domicilios_ocupados_grade_ibge_2022","na_bacia":1,"area_pct_bacia":100.0,"metodo_recorte_bacia":"ponto_representativo_grade_2022; area_pct_geometrica","status_borda_bacia":"total","metodo_area_bacia":"interse??o geom?trica em EPSG:5880","metodo_na_bacia":"ponto_representativo_grade_2022_within_bacia","pop_n_validos":1,"pop_n_total":1,"pop_completude":1.0,"dom_n_validos":1,"dom_n_total":1,"dom_completude":1.0},"geometry":{"type":"Polygon","coordinates":[[[-51.69593032049747,-28.574261968840393],[-51.69601211000841,-28.564976099989476],[-51.686081579681286,-28.56489945991247],[-51.68599943767748,-28.574185322139574],[-51.69593032049747,-28.574261968840393]]]}},{"type":"Feature","properties":{"id_grade":"1KME5233N8162","pop":2,"dom":1,"universo_dom":"domicilios_ocupados_grade_ibge_2022","na_bacia":1,"area_pct_bacia":100.0,"metodo_recorte_bacia":"ponto_representativo_grade_2022; area_pct_geometrica","status_borda_bacia":"total","metodo_area_bacia":"interse??o geom?trica em EPSG:5880","metodo_na_bacia":"ponto_representativo_grade_2022_within_bacia","pop_n_validos":1,"pop_n_total":1,"pop_completude":1.0,"dom_n_validos":1,"dom_n_total":1,"dom_completude":1.0},"geometry":{"type":"Polygon","coordinates":[[[-51.68599943767748,-28.574185322139574],[-51.686081579681286,-28.56489945991247],[-51.67615105518554,-28.564822490255878],[-51.6760685606895,-28.57410834583081],[-51.68599943767748,-28.574185322139574]]]}},{"type":"Feature","properties":{"id_grade":"1KME5234N8162","pop":17,"dom":7,"universo_dom":"domicilios_ocupados_grade_ibge_2022","na_bacia":1,"area_pct_bacia":100.0,"metodo_recorte_bacia":"ponto_representativo_grade_2022; area_pct_geometrica","status_borda_bacia":"total","metodo_area_bacia":"interse??o geom?trica em EPSG:5880","metodo_na_bacia":"ponto_representativo_grade_2022_within_bacia","pop_n_validos":1,"pop_n_total":1,"pop_completude":1.0,"dom_n_validos":1,"dom_n_total":1,"dom_completude":1.0},"geometry":{"type":"Polygon","coordinates":[[[-51.6760685606895,-28.57410834583081],[-51.67615105518554,-28.564822490255878],[-51.66622053654621,-28.564745191020233],[-51.66613768955855,-28.574031039914026],[-51.6760685606895,-28.57410834583081]]]}},{"type":"Feature","properties":{"id_grade":"1KME5235N8162","pop":10,"dom":3,"universo_dom":"domicilios_ocupados_grade_ibge_2022","na_bacia":1,"area_pct_bacia":100.0,"metodo_recorte_bacia":"ponto_representativo_grade_2022; area_pct_geometrica","status_borda_bacia":"total","metodo_area_bacia":"interse??o geom?trica em EPSG:5880","metodo_na_bacia":"ponto_representativo_grade_2022_within_bacia","pop_n_validos":1,"pop_n_total":1,"pop_completude":1.0,"dom_n_validos":1,"dom_n_total":1,"dom_completude":1.0},"geometry":{"type":"Polygon","coordinates":[[[-51.66613768955855,-28.574031039914026],[-51.66622053654621,-28.564745191020233],[-51.65629002378831,-28.564667562206314],[-51.656206824309656,-28.573953404390785],[-51.66613768955855,-28.574031039914026]]]}},{"type":"Feature","properties":{"id_grade":"1KME5236N8162","pop":7,"dom":4,"universo_dom":"domicilios_ocupados_grade_ibge_2022","na_bacia":1,"area_pct_bacia":100.0,"metodo_recorte_bacia":"ponto_representativo_grade_2022; area_pct_geometrica","status_borda_bacia":"total","metodo_area_bacia":"interse??o geom?trica em EPSG:5880","metodo_na_bacia":"ponto_representativo_grade_2022_within_bacia","pop_n_validos":1,"pop_n_total":1,"pop_completude":1.0,"dom_n_validos":1,"dom_n_total":1,"dom_completude":1.0},"geometry":{"type":"Polygon","coordinates":[[[-51.656206824309656,-28.573953404390785],[-51.65629002378831,-28.564667562206314],[-51.64635951693685,-28.56458960381494],[-51.646275964967835,-28.573875439261617],[-51.656206824309656,-28.573953404390785]]]}},{"type":"Feature","properties":{"id_grade":"1KME5240N8162","pop":2,"dom":1,"universo_dom":"domicilios_ocupados_grade_ibge_2022","na_bacia":1,"area_pct_bacia":100.0,"metodo_recorte_bacia":"ponto_representativo_grade_2022; area_pct_geometrica","status_borda_bacia":"total","metodo_area_bacia":"interse??o geom?trica em EPSG:5880","metodo_na_bacia":"ponto_representativo_grade_2022_within_bacia","pop_n_validos":1,"pop_n_total":1,"pop_completude":1.0,"dom_n_validos":1,"dom_n_total":1,"dom_completude":1.0},"geometry":{"type":"Polygon","coordinates":[[[-51.61648342263506,-28.573639566244488],[-51.61656803207136,-28.56435375118177],[-51.60663754909589,-28.56427447448726],[-51.60655258717178,-28.57356028269817],[-51.61648342263506,-28.573639566244488]]]}},{"type":"Feature","properties":{"id_grade":"1KME5230N8163","pop":7,"dom":3,"universo_dom":"domicilios_ocupados_grade_ibge_2022","na_bacia":1,"area_pct_bacia":100.0,"metodo_recorte_bacia":"ponto_representativo_grade_2022; area_pct_geometrica","status_borda_bacia":"total","metodo_area_bacia":"interse??o geom?trica em EPSG:5880","metodo_na_bacia":"ponto_representativo_grade_2022_within_bacia","pop_n_validos":1,"pop_n_total":1,"pop_completude":1.0,"dom_n_validos":1,"dom_n_total":1,"dom_completude":1.0},"geometry":{"type":"Polygon","coordinates":[[[-51.71587318805674,-28.565128391401103],[-51.71595426682377,-28.555842982102117],[-51.70602407737802,-28.555767007750422],[-51.7059426461419,-28.565052410485748],[-51.71587318805674,-28.565128391401103]]]}},{"type":"Feature","properties":{"id_grade":"1KME5231N8163","pop":1,"dom":1,"universo_dom":"domicilios_ocupados_grade_ibge_2022","na_bacia":1,"area_pct_bacia":100.0,"metodo_recorte_bacia":"ponto_representativo_grade_2022; area_pct_geometrica","status_borda_bacia":"total","metodo_area_bacia":"interse??o geom?trica em EPSG:5880","metodo_na_bacia":"ponto_representativo_grade_2022_within_bacia","pop_n_validos":1,"pop_n_total":1,"pop_completude":1.0,"dom_n_validos":1,"dom_n_total":1,"dom_completude":1.0},"geometry":{"type":"Polygon","coordinates":[[[-51.7059426461419,-28.565052410485748],[-51.70602407737802,-28.555767007750422],[-51.696093893712984,-28.555690703845983],[-51.69601211000841,-28.564976099989476],[-51.7059426461419,-28.565052410485748]]]}},{"type":"Feature","properties":{"id_grade":"1KME5232N8163","pop":25,"dom":8,"universo_dom":"domicilios_ocupados_grade_ibge_2022","na_bacia":1,"area_pct_bacia":100.0,"metodo_recorte_bacia":"ponto_representativo_grade_2022; area_pct_geometrica","status_borda_bacia":"total","metodo_area_bacia":"interse??o geom?trica em EPSG:5880","metodo_na_bacia":"ponto_representativo_grade_2022_within_bacia","pop_n_validos":1,"pop_n_total":1,"pop_completude":1.0,"dom_n_validos":1,"dom_n_total":1,"dom_completude":1.0},"geometry":{"type":"Polygon","coordinates":[[[-51.69601211000841,-28.564976099989476],[-51.696093893712984,-28.555690703845983],[-51.6861637158537,-28.555614070389574],[-51.686081579681286,-28.56489945991247],[-51.69601211000841,-28.564976099989476]]]}},{"type":"Feature","properties":{"id_grade":"1KME5233N8163","pop":14,"dom":5,"universo_dom":"domicilios_ocupados_grade_ibge_2022","na_bacia":1,"area_pct_bacia":100.0,"metodo_recorte_bacia":"ponto_representativo_grade_2022; area_pct_geometrica","status_borda_bacia":"total","metodo_area_bacia":"interse??o geom?trica em EPSG:5880","metodo_na_bacia":"ponto_representativo_grade_2022_within_bacia","pop_n_validos":1,"pop_n_total":1,"pop_completude":1.0,"dom_n_validos":1,"dom_n_total":1,"dom_completude":1.0},"geometry":{"type":"Polygon","coordinates":[[[-51.686081579681286,-28.56489945991247],[-51.6861637158537,-28.555614070389574],[-51.676233543825184,-28.555537107381934],[-51.67615105518554,-28.564822490255878],[-51.686081579681286,-28.56489945991247]]]}},{"type":"Feature","properties":{"id_grade":"1KME5234N8163","pop":4,"dom":2,"universo_dom":"domicilios_ocupados_grade_ibge_2022","na_bacia":1,"area_pct_bacia":100.0,"metodo_recorte_bacia":"ponto_representativo_grade_2022; area_pct_geometrica","status_borda_bacia":"total","metodo_area_bacia":"interse??o geom?trica em EPSG:5880","metodo_na_bacia":"ponto_representativo_grade_2022_within_bacia","pop_n_validos":1,"pop_n_total":1,"pop_completude":1.0,"dom_n_validos":1,"dom_n_total":1,"dom_completude":1.0},"geometry":{"type":"Polygon","coordinates":[[[-51.67615105518554,-28.564822490255878],[-51.676233543825184,-28.555537107381934],[-51.66630337765245,-28.55545981482365],[-51.66622053654621,-28.564745191020233],[-51.67615105518554,-28.564822490255878]]]}},{"type":"Feature","properties":{"id_grade":"1KME5235N8163","pop":11,"dom":3,"universo_dom":"domicilios_ocupados_grade_ibge_2022","na_bacia":1,"area_pct_bacia":100.0,"metodo_recorte_bacia":"ponto_representativo_grade_2022; area_pct_geometrica","status_borda_bacia":"total","metodo_area_bacia":"interse??o geom?trica em EPSG:5880","metodo_na_bacia":"ponto_representativo_grade_2022_within_bacia","pop_n_validos":1,"pop_n_total":1,"pop_completude":1.0,"dom_n_validos":1,"dom_n_total":1,"dom_completude":1.0},"geometry":{"type":"Polygon","coordinates":[[[-51.66622053654621,-28.564745191020233],[-51.66630337765245,-28.55545981482365],[-51.65637321736052,-28.555382192715516],[-51.65629002378831,-28.564667562206314],[-51.66622053654621,-28.564745191020233]]]}},{"type":"Feature","properties":{"id_grade":"1KME5236N8163","pop":7,"dom":2,"universo_dom":"domicilios_ocupados_grade_ibge_2022","na_bacia":1,"area_pct_bacia":100.0,"metodo_recorte_bacia":"ponto_representativo_grade_2022; area_pct_geometrica","status_borda_bacia":"total","metodo_area_bacia":"interse??o geom?trica em EPSG:5880","metodo_na_bacia":"ponto_representativo_grade_2022_within_bacia","pop_n_validos":1,"pop_n_total":1,"pop_completude":1.0,"dom_n_validos":1,"dom_n_total":1,"dom_completude":1.0},"geometry":{"type":"Polygon","coordinates":[[[-51.65629002378831,-28.564667562206314],[-51.65637321736052,-28.555382192715516],[-51.6464430629744,-28.55530424105827],[-51.64635951693685,-28.56458960381494],[-51.65629002378831,-28.564667562206314]]]}},{"type":"Feature","properties":{"id_grade":"1KME5237N8163","pop":3,"dom":2,"universo_dom":"domicilios_ocupados_grade_ibge_2022","na_bacia":1,"area_pct_bacia":100.0,"metodo_recorte_bacia":"ponto_representativo_grade_2022; area_pct_geometrica","status_borda_bacia":"total","metodo_area_bacia":"interse??o geom?trica em EPSG:5880","metodo_na_bacia":"ponto_representativo_grade_2022_within_bacia","pop_n_validos":1,"pop_n_total":1,"pop_completude":1.0,"dom_n_validos":1,"dom_n_total":1,"dom_completude":1.0},"geometry":{"type":"Polygon","coordinates":[[[-51.64635951693685,-28.56458960381494],[-51.6464430629744,-28.55530424105827],[-51.636512914519116,-28.555225959852514],[-51.63642901601686,-28.564511315846374],[-51.64635951693685,-28.56458960381494]]]}},{"type":"Feature","properties":{"id_grade":"1KME5229N8164","pop":14,"dom":7,"universo_dom":"domicilios_ocupados_grade_ibge_2022","na_bacia":1,"area_pct_bacia":100.0,"metodo_recorte_bacia":"ponto_representativo_grade_2022; area_pct_geometrica","status_borda_bacia":"total","metodo_area_bacia":"interse??o geom?trica em EPSG:5880","metodo_na_bacia":"ponto_representativo_grade_2022_within_bacia","pop_n_validos":1,"pop_n_total":1,"pop_completude":1.0,"dom_n_validos":1,"dom_n_total":1,"dom_completude":1.0},"geometry":{"type":"Polygon","coordinates":[[[-51.72588446202525,-28.55591862690059],[-51.72596518259191,-28.54663368341887],[-51.71603533983511,-28.546558045152118],[-51.71595426682377,-28.555842982102117],[-51.72588446202525,-28.55591862690059]]]}},{"type":"Feature","properties":{"id_grade":"1KME5230N8164","pop":12,"dom":5,"universo_dom":"domicilios_ocupados_grade_ibge_2022","na_bacia":1,"area_pct_bacia":100.0,"metodo_recorte_bacia":"ponto_representativo_grade_2022; area_pct_geometrica","status_borda_bacia":"total","metodo_area_bacia":"interse??o geom?trica em EPSG:5880","metodo_na_bacia":"ponto_representativo_grade_2022_within_bacia","pop_n_validos":1,"pop_n_total":1,"pop_completude":1.0,"dom_n_validos":1,"dom_n_total":1,"dom_completude":1.0},"geometry":{"type":"Polygon","coordinates":[[[-51.71595426682377,-28.555842982102117],[-51.71603533983511,-28.546558045152118],[-51.70610550283341,-28.546482077360498],[-51.70602407737802,-28.555767007750422],[-51.71595426682377,-28.555842982102117]]]}},{"type":"Feature","properties":{"id_grade":"1KME5237N8164","pop":9,"dom":3,"universo_dom":"domicilios_ocupados_grade_ibge_2022","na_bacia":1,"area_pct_bacia":100.0,"metodo_recorte_bacia":"ponto_representativo_grade_2022; area_pct_geometrica","status_borda_bacia":"total","metodo_area_bacia":"interse??o geom?trica em EPSG:5880","metodo_na_bacia":"ponto_representativo_grade_2022_within_bacia","pop_n_validos":1,"pop_n_total":1,"pop_completude":1.0,"dom_n_validos":1,"dom_n_total":1,"dom_completude":1.0},"geometry":{"type":"Polygon","coordinates":[[[-51.6464430629744,-28.55530424105827],[-51.64652660308111,-28.54601935062626],[-51.636596807065516,-28.5459410761798],[-51.636512914519116,-28.555225959852514],[-51.6464430629744,-28.55530424105827]]]}},{"type":"Feature","properties":{"id_grade":"1KME5238N8164","pop":6,"dom":2,"universo_dom":"domicilios_ocupados_grade_ibge_2022","na_bacia":1,"area_pct_bacia":100.0,"metodo_recorte_bacia":"ponto_representativo_grade_2022; area_pct_geometrica","status_borda_bacia":"total","metodo_area_bacia":"interse??o geom?trica em EPSG:5880","metodo_na_bacia":"ponto_representativo_grade_2022_within_bacia","pop_n_validos":1,"pop_n_total":1,"pop_completude":1.0,"dom_n_validos":1,"dom_n_total":1,"dom_completude":1.0},"geometry":{"type":"Polygon","coordinates":[[[-51.636512914519116,-28.555225959852514],[-51.636596807065516,-28.5459410761798],[-51.62666701700515,-28.54586247221382],[-51.62658277201968,-28.55514734909899],[-51.636512914519116,-28.555225959852514]]]}},{"type":"Feature","properties":{"id_grade":"1KME5227N8165","pop":11,"dom":5,"universo_dom":"domicilios_ocupados_grade_ibge_2022","na_bacia":1,"area_pct_bacia":100.0,"metodo_recorte_bacia":"ponto_representativo_grade_2022; area_pct_geometrica","status_borda_bacia":"total","metodo_area_bacia":"interse??o geom?trica em EPSG:5880","metodo_na_bacia":"ponto_representativo_grade_2022_within_bacia","pop_n_validos":1,"pop_n_total":1,"pop_completude":1.0,"dom_n_validos":1,"dom_n_total":1,"dom_completude":1.0},"geometry":{"type":"Polygon","coordinates":[[[-51.74582488527074,-28.54678397137448],[-51.745904895266186,-28.537499486908594],[-51.73597539349511,-28.537424514165327],[-51.73589503107879,-28.54670899216001],[-51.74582488527074,-28.54678397137448]]]}},{"type":"Feature","properties":{"id_grade":"1KME5228N8165","pop":8,"dom":4,"universo_dom":"domicilios_ocupados_grade_ibge_2022","na_bacia":1,"area_pct_bacia":100.0,"metodo_recorte_bacia":"ponto_representativo_grade_2022; area_pct_geometrica","status_borda_bacia":"total","metodo_area_bacia":"interse??o geom?trica em EPSG:5880","metodo_na_bacia":"ponto_representativo_grade_2022_within_bacia","pop_n_validos":1,"pop_n_total":1,"pop_completude":1.0,"dom_n_validos":1,"dom_n_total":1,"dom_completude":1.0},"geometry":{"type":"Polygon","coordinates":[[[-51.73589503107879,-28.54670899216001],[-51.73597539349511,-28.537424514165327],[-51.726045897428484,-28.53734921192428],[-51.72596518259191,-28.54663368341887],[-51.73589503107879,-28.54670899216001]]]}},{"type":"Feature","properties":{"id_grade":"1KME5229N8165","pop":2,"dom":1,"universo_dom":"domicilios_ocupados_grade_ibge_2022","na_bacia":1,"area_pct_bacia":100.0,"metodo_recorte_bacia":"ponto_representativo_grade_2022; area_pct_geometrica","status_borda_bacia":"total","metodo_area_bacia":"interse??o geom?trica em EPSG:5880","metodo_na_bacia":"ponto_representativo_grade_2022_within_bacia","pop_n_validos":1,"pop_n_total":1,"pop_completude":1.0,"dom_n_validos":1,"dom_n_total":1,"dom_completude":1.0},"geometry":{"type":"Polygon","coordinates":[[[-51.72596518259191,-28.54663368341887],[-51.726045897428484,-28.53734921192428],[-51.71611640709134,-28.53727358018591],[-51.71603533983511,-28.546558045152118],[-51.72596518259191,-28.54663368341887]]]}},{"type":"Feature","properties":{"id_grade":"1KME5230N8165","pop":3,"dom":2,"universo_dom":"domicilios_ocupados_grade_ibge_2022","na_bacia":1,"area_pct_bacia":100.0,"metodo_recorte_bacia":"ponto_representativo_grade_2022; area_pct_geometrica","status_borda_bacia":"total","metodo_area_bacia":"interse??o geom?trica em EPSG:5880","metodo_na_bacia":"ponto_representativo_grade_2022_within_bacia","pop_n_validos":1,"pop_n_total":1,"pop_completude":1.0,"dom_n_validos":1,"dom_n_total":1,"dom_completude":1.0},"geometry":{"type":"Polygon","coordinates":[[[-51.71603533983511,-28.546558045152118],[-51.71611640709134,-28.53727358018591],[-51.70618692250868,-28.537197618950984],[-51.70610550283341,-28.546482077360498],[-51.71603533983511,-28.546558045152118]]]}},{"type":"Feature","properties":{"id_grade":"1KME5237N8165","pop":6,"dom":2,"universo_dom":"domicilios_ocupados_grade_ibge_2022","na_bacia":1,"area_pct_bacia":100.0,"metodo_recorte_bacia":"ponto_representativo_grade_2022; area_pct_geometrica","status_borda_bacia":"total","metodo_area_bacia":"interse??o geom?trica em EPSG:5880","metodo_na_bacia":"ponto_representativo_grade_2022_within_bacia","pop_n_validos":1,"pop_n_total":1,"pop_completude":1.0,"dom_n_validos":1,"dom_n_total":1,"dom_completude":1.0},"geometry":{"type":"Polygon","coordinates":[[[-51.64652660308111,-28.54601935062626],[-51.64661013725761,-28.536734932153347],[-51.6366806936567,-28.536656664462182],[-51.636596807065516,-28.5459410761798],[-51.64652660308111,-28.54601935062626]]]}},{"type":"Feature","properties":{"id_grade":"1KME5239N8165","pop":4,"dom":1,"universo_dom":"domicilios_ocupados_grade_ibge_2022","na_bacia":1,"area_pct_bacia":100.0,"metodo_recorte_bacia":"ponto_representativo_grade_2022; area_pct_geometrica","status_borda_bacia":"total","metodo_area_bacia":"interse??o geom?trica em EPSG:5880","metodo_na_bacia":"ponto_representativo_grade_2022_within_bacia","pop_n_validos":1,"pop_n_total":1,"pop_completude":1.0,"dom_n_validos":1,"dom_n_total":1,"dom_completude":1.0},"geometry":{"type":"Polygon","coordinates":[[[-51.62666701700515,-28.54586247221382],[-51.62675125601037,-28.536578067280537],[-51.61682182434365,-28.53649914060838],[-51.61673723292501,-28.54578353872932],[-51.62666701700515,-28.54586247221382]]]}},{"type":"Feature","properties":{"id_grade":"1KME5228N8166","pop":14,"dom":5,"universo_dom":"domicilios_ocupados_grade_ibge_2022","na_bacia":1,"area_pct_bacia":100.0,"metodo_recorte_bacia":"ponto_representativo_grade_2022; area_pct_geometrica","status_borda_bacia":"total","metodo_area_bacia":"interse??o geom?trica em EPSG:5880","metodo_na_bacia":"ponto_representativo_grade_2022_within_bacia","pop_n_validos":1,"pop_n_total":1,"pop_completude":1.0,"dom_n_validos":1,"dom_n_total":1,"dom_completude":1.0},"geometry":{"type":"Polygon","coordinates":[[[-51.73597539349511,-28.537424514165327],[-51.73605575020696,-28.52814050779606],[-51.726126606535594,-28.52806521205134],[-51.726045897428484,-28.53734921192428],[-51.73597539349511,-28.537424514165327]]]}},{"type":"Feature","properties":{"id_grade":"1KME5229N8166","pop":9,"dom":2,"universo_dom":"domicilios_ocupados_grade_ibge_2022","na_bacia":1,"area_pct_bacia":100.0,"metodo_recorte_bacia":"ponto_representativo_grade_2022; area_pct_geometrica","status_borda_bacia":"total","metodo_area_bacia":"interse??o geom?trica em EPSG:5880","metodo_na_bacia":"ponto_representativo_grade_2022_within_bacia","pop_n_validos":1,"pop_n_total":1,"pop_completude":1.0,"dom_n_validos":1,"dom_n_total":1,"dom_completude":1.0},"geometry":{"type":"Polygon","coordinates":[[[-51.726045897428484,-28.53734921192428],[-51.726126606535594,-28.52806521205134],[-51.71619746859309,-28.527989586837585],[-51.71611640709134,-28.53727358018591],[-51.726045897428484,-28.53734921192428]]]}},{"type":"Feature","properties":{"id_grade":"1KME5234N8166","pop":17,"dom":7,"universo_dom":"domicilios_ocupados_grade_ibge_2022","na_bacia":1,"area_pct_bacia":100.0,"metodo_recorte_bacia":"ponto_representativo_grade_2022; area_pct_geometrica","status_borda_bacia":"total","metodo_area_bacia":"interse??o geom?trica em EPSG:5880","metodo_na_bacia":"ponto_representativo_grade_2022_within_bacia","pop_n_validos":1,"pop_n_total":1,"pop_completude":1.0,"dom_n_validos":1,"dom_n_total":1,"dom_completude":1.0},"geometry":{"type":"Polygon","coordinates":[[[-51.67639850353773,-28.536967758273985],[-51.67648097461189,-28.52768379130909],[-51.666551865688845,-28.52760651876193],[-51.66646904222314,-28.536890479059696],[-51.67639850353773,-28.536967758273985]]]}},{"type":"Feature","properties":{"id_grade":"1KME5236N8166","pop":9,"dom":4,"universo_dom":"domicilios_ocupados_grade_ibge_2022","na_bacia":1,"area_pct_bacia":100.0,"metodo_recorte_bacia":"ponto_representativo_grade_2022; area_pct_geometrica","status_borda_bacia":"total","metodo_area_bacia":"interse??o geom?trica em EPSG:5880","metodo_na_bacia":"ponto_representativo_grade_2022_within_bacia","pop_n_validos":1,"pop_n_total":1,"pop_completude":1.0,"dom_n_validos":1,"dom_n_total":1,"dom_completude":1.0},"geometry":{"type":"Polygon","coordinates":[[[-51.6565395867881,-28.536812870352776],[-51.65662276264473,-28.527528916750015],[-51.64669366550454,-28.52745098527413],[-51.64661013725761,-28.536734932153347],[-51.6565395867881,-28.536812870352776]]]}},{"type":"Feature","properties":{"id_grade":"1KME5239N8166","pop":9,"dom":4,"universo_dom":"domicilios_ocupados_grade_ibge_2022","na_bacia":1,"area_pct_bacia":100.0,"metodo_recorte_bacia":"ponto_representativo_grade_2022; area_pct_geometrica","status_borda_bacia":"total","metodo_area_bacia":"interse??o geom?trica em EPSG:5880","metodo_na_bacia":"ponto_representativo_grade_2022_within_bacia","pop_n_validos":1,"pop_n_total":1,"pop_completude":1.0,"dom_n_validos":1,"dom_n_total":1,"dom_completude":1.0},"geometry":{"type":"Polygon","coordinates":[[[-51.62675125601037,-28.536578067280537],[-51.626835489036004,-28.527294133933626],[-51.616906409757675,-28.527215214070345],[-51.61682182434365,-28.53649914060838],[-51.62675125601037,-28.536578067280537]]]}},{"type":"Feature","properties":{"id_grade":"1KME5232N8167","pop":10,"dom":4,"universo_dom":"domicilios_ocupados_grade_ibge_2022","na_bacia":1,"area_pct_bacia":100.0,"metodo_recorte_bacia":"ponto_representativo_grade_2022; area_pct_geometrica","status_borda_bacia":"total","metodo_area_bacia":"interse??o geom?trica em EPSG:5880","metodo_na_bacia":"ponto_representativo_grade_2022_within_bacia","pop_n_validos":1,"pop_n_total":1,"pop_completude":1.0,"dom_n_validos":1,"dom_n_total":1,"dom_completude":1.0},"geometry":{"type":"Polygon","coordinates":[[[-51.696339209994704,-28.52783734800694],[-51.69642097048,-28.51855383903969],[-51.68649220224193,-28.518477232030335],[-51.68641008938884,-28.527760734391016],[-51.696339209994704,-28.52783734800694]]]}},{"type":"Feature","properties":{"id_grade":"1KME5234N8167","pop":18,"dom":8,"universo_dom":"domicilios_ocupados_grade_ibge_2022","na_bacia":1,"area_pct_bacia":100.0,"metodo_recorte_bacia":"ponto_representativo_grade_2022; area_pct_geometrica","status_borda_bacia":"total","metodo_area_bacia":"interse??o geom?trica em EPSG:5880","metodo_na_bacia":"ponto_representativo_grade_2022_within_bacia","pop_n_validos":1,"pop_n_total":1,"pop_completude":1.0,"dom_n_validos":1,"dom_n_total":1,"dom_completude":1.0},"geometry":{"type":"Polygon","coordinates":[[[-51.67648097461189,-28.52768379130909],[-51.67656343983214,-28.518400295583174],[-51.66663468327564,-28.51832302969946],[-51.666551865688845,-28.52760651876193],[-51.67648097461189,-28.52768379130909]]]}},{"type":"Feature","properties":{"id_grade":"1KME5238N8167","pop":2,"dom":1,"universo_dom":"domicilios_ocupados_grade_ibge_2022","na_bacia":1,"area_pct_bacia":100.0,"metodo_recorte_bacia":"ponto_representativo_grade_2022; area_pct_geometrica","status_borda_bacia":"total","metodo_area_bacia":"interse??o geom?trica em EPSG:5880","metodo_na_bacia":"ponto_representativo_grade_2022_within_bacia","pop_n_validos":1,"pop_n_total":1,"pop_completude":1.0,"dom_n_validos":1,"dom_n_total":1,"dom_completude":1.0},"geometry":{"type":"Polygon","coordinates":[[[-51.6367645742933,-28.527372724335063],[-51.63684844897595,-28.518089255432905],[-51.626919716082675,-28.51801067180829],[-51.626835489036004,-28.527294133933626],[-51.6367645742933,-28.527372724335063]]]}},{"type":"Feature","properties":{"id_grade":"200ME52314N81642","pop":2,"dom":1,"universo_dom":"domicilios_ocupados_grade_ibge_2022","na_bacia":1,"area_pct_bacia":100.0,"metodo_recorte_bacia":"ponto_representativo_grade_2022; area_pct_geometrica","status_borda_bacia":"total","metodo_area_bacia":"interse??o geom?trica em EPSG:5880","metodo_na_bacia":"ponto_representativo_grade_2022_within_bacia","pop_n_validos":1,"pop_n_total":1,"pop_completude":1.0,"dom_n_validos":1,"dom_n_total":1,"dom_completude":1.0},"geometry":{"type":"Polygon","coordinates":[[[-51.702052002897574,-28.55573652572006],[-51.70206831659948,-28.55387950213719],[-51.700082294262415,-28.55386424154152],[-51.70006596617133,-28.555721265124163],[-51.702052002897574,-28.55573652572006]]]}},{"type":"Feature","properties":{"id_grade":"200ME52310N81652","pop":2,"dom":1,"universo_dom":"domicilios_ocupados_grade_ibge_2022","na_bacia":1,"area_pct_bacia":100.0,"metodo_recorte_bacia":"ponto_representativo_grade_2022; area_pct_geometrica","status_borda_bacia":"total","metodo_area_bacia":"interse??o geom?trica em EPSG:5880","metodo_na_bacia":"ponto_representativo_grade_2022_within_bacia","pop_n_validos":1,"pop_n_total":1,"pop_completude":1.0,"dom_n_validos":1,"dom_n_total":1,"dom_completude":1.0},"geometry":{"type":"Polygon","coordinates":[[[-51.70610550276672,-28.546482077385956],[-51.70612178679096,-28.544625148231926],[-51.70413583460106,-28.544609915515114],[-51.70411953618759,-28.546466844669116],[-51.70610550276672,-28.546482077385956]]]}},{"type":"Feature","properties":{"id_grade":"200ME52312N81652","pop":2,"dom":1,"universo_dom":"domicilios_ocupados_grade_ibge_2022","na_bacia":1,"area_pct_bacia":100.0,"metodo_recorte_bacia":"ponto_representativo_grade_2022; area_pct_geometrica","status_borda_bacia":"total","metodo_area_bacia":"interse??o geom?trica em EPSG:5880","metodo_na_bacia":"ponto_representativo_grade_2022_within_bacia","pop_n_validos":1,"pop_n_total":1,"pop_completude":1.0,"dom_n_validos":1,"dom_n_total":1,"dom_completude":1.0},"geometry":{"type":"Polygon","coordinates":[[[-51.70411953618759,-28.546466844669116],[-51.70413583460106,-28.544609915515114],[-51.702149882411106,-28.54459466930852],[-51.70213356960851,-28.546451597563117],[-51.70411953618759,-28.546466844669116]]]}},{"type":"Feature","properties":{"id_grade":"200ME52314N81652","pop":2,"dom":1,"universo_dom":"domicilios_ocupados_grade_ibge_2022","na_bacia":1,"area_pct_bacia":100.0,"metodo_recorte_bacia":"ponto_representativo_grade_2022; area_pct_geometrica","status_borda_bacia":"total","metodo_area_bacia":"interse??o geom?trica em EPSG:5880","metodo_na_bacia":"ponto_representativo_grade_2022_within_bacia","pop_n_validos":1,"pop_n_total":1,"pop_completude":1.0,"dom_n_validos":1,"dom_n_total":1,"dom_completude":1.0},"geometry":{"type":"Polygon","coordinates":[[[-51.70213356960851,-28.546451597563117],[-51.702149882411106,-28.54459466930852],[-51.70016393022115,-28.544579409611973],[-51.700147603029386,-28.546436338766014],[-51.70213356960851,-28.546451597563117]]]}},{"type":"Feature","properties":{"id_grade":"200ME52312N81654","pop":2,"dom":1,"universo_dom":"domicilios_ocupados_grade_ibge_2022","na_bacia":1,"area_pct_bacia":100.0,"metodo_recorte_bacia":"ponto_representativo_grade_2022; area_pct_geometrica","status_borda_bacia":"total","metodo_area_bacia":"interse??o geom?trica em EPSG:5880","metodo_na_bacia":"ponto_representativo_grade_2022_within_bacia","pop_n_validos":1,"pop_n_total":1,"pop_completude":1.0,"dom_n_validos":1,"dom_n_total":1,"dom_completude":1.0},"geometry":{"type":"Polygon","coordinates":[[[-51.70413583460106,-28.544609915515114],[-51.704152133014475,-28.542753005246865],[-51.70216619431438,-28.542737759040286],[-51.702149882411106,-28.54459466930852],[-51.70413583460106,-28.544609915515114]]]}},{"type":"Feature","properties":{"id_grade":"200ME52316N81654","pop":9,"dom":3,"universo_dom":"domicilios_ocupados_grade_ibge_2022","na_bacia":1,"area_pct_bacia":100.0,"metodo_recorte_bacia":"ponto_representativo_grade_2022; area_pct_geometrica","status_borda_bacia":"total","metodo_area_bacia":"interse??o geom?trica em EPSG:5880","metodo_na_bacia":"ponto_representativo_grade_2022_within_bacia","pop_n_validos":1,"pop_n_total":1,"pop_completude":1.0,"dom_n_validos":1,"dom_n_total":1,"dom_completude":1.0},"geometry":{"type":"Polygon","coordinates":[[[-51.70016393022115,-28.544579409611973],[-51.70018025651359,-28.5427225002431],[-51.6981943187128,-28.542707227956143],[-51.6981779780312,-28.544564137325054],[-51.70016393022115,-28.544579409611973]]]}},{"type":"Feature","properties":{"id_grade":"200ME52318N81654","pop":14,"dom":4,"universo_dom":"domicilios_ocupados_grade_ibge_2022","na_bacia":1,"area_pct_bacia":100.0,"metodo_recorte_bacia":"ponto_representativo_grade_2022; area_pct_geometrica","status_borda_bacia":"total","metodo_area_bacia":"interse??o geom?trica em EPSG:5880","metodo_na_bacia":"ponto_representativo_grade_2022_within_bacia","pop_n_validos":1,"pop_n_total":1,"pop_completude":1.0,"dom_n_validos":1,"dom_n_total":1,"dom_completude":1.0},"geometry":{"type":"Polygon","coordinates":[[[-51.6981779780312,-28.544564137325054],[-51.6981943187128,-28.542707227956143],[-51.696208380912026,-28.542691943078697],[-51.69619202674062,-28.544548851548253],[-51.6981779780312,-28.544564137325054]]]}},{"type":"Feature","properties":{"id_grade":"200ME52316N81656","pop":48,"dom":14,"universo_dom":"domicilios_ocupados_grade_ibge_2022","na_bacia":1,"area_pct_bacia":100.0,"metodo_recorte_bacia":"ponto_representativo_grade_2022; area_pct_geometrica","status_borda_bacia":"total","metodo_area_bacia":"interse??o geom?trica em EPSG:5880","metodo_na_bacia":"ponto_representativo_grade_2022_within_bacia","pop_n_validos":1,"pop_n_total":1,"pop_completude":1.0,"dom_n_validos":1,"dom_n_total":1,"dom_completude":1.0},"geometry":{"type":"Polygon","coordinates":[[[-51.70018025651359,-28.5427225002431],[-51.70019658280603,-28.540865608860706],[-51.69821065939436,-28.540850337473035],[-51.6981943187128,-28.542707227956143],[-51.70018025651359,-28.5427225002431]]]}},{"type":"Feature","properties":{"id_grade":"200ME52318N81656","pop":5,"dom":2,"universo_dom":"domicilios_ocupados_grade_ibge_2022","na_bacia":1,"area_pct_bacia":100.0,"metodo_recorte_bacia":"ponto_representativo_grade_2022; area_pct_geometrica","status_borda_bacia":"total","metodo_area_bacia":"interse??o geom?trica em EPSG:5880","metodo_na_bacia":"ponto_representativo_grade_2022_within_bacia","pop_n_validos":1,"pop_n_total":1,"pop_completude":1.0,"dom_n_validos":1,"dom_n_total":1,"dom_completude":1.0},"geometry":{"type":"Polygon","coordinates":[[[-51.6981943187128,-28.542707227956143],[-51.69821065939436,-28.540850337473035],[-51.69622473598275,-28.540835052595646],[-51.696208380912026,-28.542691943078697],[-51.6981943187128,-28.542707227956143]]]}},{"type":"Feature","properties":{"id_grade":"200ME52312N81664","pop":6,"dom":2,"universo_dom":"domicilios_ocupados_grade_ibge_2022","na_bacia":1,"area_pct_bacia":100.0,"metodo_recorte_bacia":"ponto_representativo_grade_2022; area_pct_geometrica","status_borda_bacia":"total","metodo_area_bacia":"interse??o geom?trica em EPSG:5880","metodo_na_bacia":"ponto_representativo_grade_2022_within_bacia","pop_n_validos":1,"pop_n_total":1,"pop_completude":1.0,"dom_n_validos":1,"dom_n_total":1,"dom_completude":1.0},"geometry":{"type":"Polygon","coordinates":[[[-51.70421732397028,-28.535325552132473],[-51.70423362058506,-28.533468736293102],[-51.702247752931385,-28.533453491885066],[-51.70223144192744,-28.535310307724536],[-51.70421732397028,-28.535325552132473]]]}},{"type":"Feature","properties":{"id_grade":"200ME52312N81666","pop":2,"dom":1,"universo_dom":"domicilios_ocupados_grade_ibge_2022","na_bacia":1,"area_pct_bacia":100.0,"metodo_recorte_bacia":"ponto_representativo_grade_2022; area_pct_geometrica","status_borda_bacia":"total","metodo_area_bacia":"interse??o geom?trica em EPSG:5880","metodo_na_bacia":"ponto_representativo_grade_2022_within_bacia","pop_n_validos":1,"pop_n_total":1,"pop_completude":1.0,"dom_n_validos":1,"dom_n_total":1,"dom_completude":1.0},"geometry":{"type":"Polygon","coordinates":[[[-51.70423362058506,-28.533468736293102],[-51.70424991719988,-28.531611939339495],[-51.70226406393538,-28.53159669493143],[-51.702247752931385,-28.533453491885066],[-51.70423362058506,-28.533468736293102]]]}},{"type":"Feature","properties":{"id_grade":"200ME52322N81642","pop":9,"dom":2,"universo_dom":"domicilios_ocupados_grade_ibge_2022","na_bacia":1,"area_pct_bacia":100.0,"metodo_recorte_bacia":"ponto_representativo_grade_2022; area_pct_geometrica","status_borda_bacia":"total","metodo_area_bacia":"interse??o geom?trica em EPSG:5880","metodo_na_bacia":"ponto_representativo_grade_2022_within_bacia","pop_n_validos":1,"pop_n_total":1,"pop_completude":1.0,"dom_n_validos":1,"dom_n_total":1,"dom_completude":1.0},"geometry":{"type":"Polygon","coordinates":[[[-51.69410785779138,-28.555675403297165],[-51.694124228150535,-28.553818381513],[-51.69213820581348,-28.55380306785724],[-51.69212182196446,-28.555660089641375],[-51.69410785779138,-28.555675403297165]]]}},{"type":"Feature","properties":{"id_grade":"200ME52328N81642","pop":2,"dom":1,"universo_dom":"domicilios_ocupados_grade_ibge_2022","na_bacia":1,"area_pct_bacia":100.0,"metodo_recorte_bacia":"ponto_representativo_grade_2022; area_pct_geometrica","status_borda_bacia":"total","metodo_area_bacia":"interse??o geom?trica em EPSG:5880","metodo_na_bacia":"ponto_representativo_grade_2022_within_bacia","pop_n_validos":1,"pop_n_total":1,"pop_completude":1.0,"dom_n_validos":1,"dom_n_total":1,"dom_completude":1.0},"geometry":{"type":"Polygon","coordinates":[[[-51.68814975121001,-28.55562942365898],[-51.68816616383737,-28.55377240187483],[-51.68618014239962,-28.55375704954818],[-51.686163716282465,-28.555614070432977],[-51.68814975121001,-28.55562942365898]]]}},{"type":"Feature","properties":{"id_grade":"200ME52326N81644","pop":2,"dom":1,"universo_dom":"domicilios_ocupados_grade_ibge_2022","na_bacia":1,"area_pct_bacia":100.0,"metodo_recorte_bacia":"ponto_representativo_grade_2022; area_pct_geometrica","status_borda_bacia":"total","metodo_area_bacia":"interse??o geom?trica em EPSG:5880","metodo_na_bacia":"ponto_representativo_grade_2022_within_bacia","pop_n_validos":1,"pop_n_total":1,"pop_completude":1.0,"dom_n_validos":1,"dom_n_total":1,"dom_completude":1.0},"geometry":{"type":"Polygon","coordinates":[[[-51.69015218437579,-28.553787741610964],[-51.69016858261397,-28.55193073871267],[-51.68818257556535,-28.55191539897643],[-51.68816616383737,-28.55377240187483],[-51.69015218437579,-28.553787741610964]]]}},{"type":"Feature","properties":{"id_grade":"200ME52328N81644","pop":2,"dom":1,"universo_dom":"domicilios_ocupados_grade_ibge_2022","na_bacia":1,"area_pct_bacia":100.0,"metodo_recorte_bacia":"ponto_representativo_grade_2022; area_pct_geometrica","status_borda_bacia":"total","metodo_area_bacia":"interse??o geom?trica em EPSG:5880","metodo_na_bacia":"ponto_representativo_grade_2022_within_bacia","pop_n_validos":1,"pop_n_total":1,"pop_completude":1.0,"dom_n_validos":1,"dom_n_total":1,"dom_completude":1.0},"geometry":{"type":"Polygon","coordinates":[[[-51.68816616383737,-28.55377240187483],[-51.68818257556535,-28.55191539897643],[-51.68619656851677,-28.551900046649834],[-51.68618014239962,-28.55375704954818],[-51.68816616383737,-28.55377240187483]]]}},{"type":"Feature","properties":{"id_grade":"200ME52326N81646","pop":11,"dom":4,"universo_dom":"domicilios_ocupados_grade_ibge_2022","na_bacia":1,"area_pct_bacia":100.0,"metodo_recorte_bacia":"ponto_representativo_grade_2022; area_pct_geometrica","status_borda_bacia":"total","metodo_area_bacia":"interse??o geom?trica em EPSG:5880","metodo_na_bacia":"ponto_representativo_grade_2022_within_bacia","pop_n_validos":1,"pop_n_total":1,"pop_completude":1.0,"dom_n_validos":1,"dom_n_total":1,"dom_completude":1.0},"geometry":{"type":"Polygon","coordinates":[[[-51.69016858261397,-28.55193073871267],[-51.69018498085217,-28.55007375469997],[-51.68819898729339,-28.55005841586312],[-51.68818257556535,-28.55191539897643],[-51.69016858261397,-28.55193073871267]]]}},{"type":"Feature","properties":{"id_grade":"200ME52328N81646","pop":2,"dom":1,"universo_dom":"domicilios_ocupados_grade_ibge_2022","na_bacia":1,"area_pct_bacia":100.0,"metodo_recorte_bacia":"ponto_representativo_grade_2022; area_pct_geometrica","status_borda_bacia":"total","metodo_area_bacia":"interse??o geom?trica em EPSG:5880","metodo_na_bacia":"ponto_representativo_grade_2022_within_bacia","pop_n_validos":1,"pop_n_total":1,"pop_completude":1.0,"dom_n_validos":1,"dom_n_total":1,"dom_completude":1.0},"geometry":{"type":"Polygon","coordinates":[[[-51.68818257556535,-28.55191539897643],[-51.68819898729339,-28.55005841586312],[-51.686212994633934,-28.550043063536542],[-51.68619656851677,-28.551900046649834],[-51.68818257556535,-28.55191539897643]]]}},{"type":"Feature","properties":{"id_grade":"200ME52326N81648","pop":9,"dom":4,"universo_dom":"domicilios_ocupados_grade_ibge_2022","na_bacia":1,"area_pct_bacia":100.0,"metodo_recorte_bacia":"ponto_representativo_grade_2022; area_pct_geometrica","status_borda_bacia":"total","metodo_area_bacia":"interse??o geom?trica em EPSG:5880","metodo_na_bacia":"ponto_representativo_grade_2022_within_bacia","pop_n_validos":1,"pop_n_total":1,"pop_completude":1.0,"dom_n_validos":1,"dom_n_total":1,"dom_completude":1.0},"geometry":{"type":"Polygon","coordinates":[[[-51.69018498085217,-28.55007375469997],[-51.69020137819103,-28.54821678957313],[-51.68821539902143,-28.54820145073638],[-51.68819898729339,-28.55005841586312],[-51.69018498085217,-28.55007375469997]]]}},{"type":"Feature","properties":{"id_grade":"200ME52322N81650","pop":6,"dom":3,"universo_dom":"domicilios_ocupados_grade_ibge_2022","na_bacia":1,"area_pct_bacia":100.0,"metodo_recorte_bacia":"ponto_representativo_grade_2022; area_pct_geometrica","status_borda_bacia":"total","metodo_area_bacia":"interse??o geom?trica em EPSG:5880","metodo_na_bacia":"ponto_representativo_grade_2022_within_bacia","pop_n_validos":1,"pop_n_total":1,"pop_completude":1.0,"dom_n_validos":1,"dom_n_total":1,"dom_completude":1.0},"geometry":{"type":"Polygon","coordinates":[[[-51.694173336530234,-28.548247427676547],[-51.69418970599008,-28.5463904814355],[-51.69220374031033,-28.546375168678992],[-51.69218735736064,-28.548232114920104],[-51.694173336530234,-28.548247427676547]]]}},{"type":"Feature","properties":{"id_grade":"200ME52324N81650","pop":9,"dom":4,"universo_dom":"domicilios_ocupados_grade_ibge_2022","na_bacia":1,"area_pct_bacia":100.0,"metodo_recorte_bacia":"ponto_representativo_grade_2022; area_pct_geometrica","status_borda_bacia":"total","metodo_area_bacia":"interse??o geom?trica em EPSG:5880","metodo_na_bacia":"ponto_representativo_grade_2022_within_bacia","pop_n_validos":1,"pop_n_total":1,"pop_completude":1.0,"dom_n_validos":1,"dom_n_total":1,"dom_completude":1.0},"geometry":{"type":"Polygon","coordinates":[[[-51.69218735736064,-28.548232114920104],[-51.69220374031033,-28.546375168678992],[-51.6902177755299,-28.546359843332077],[-51.69020137819103,-28.54821678957313],[-51.69218735736064,-28.548232114920104]]]}},{"type":"Feature","properties":{"id_grade":"200ME52326N81650","pop":27,"dom":10,"universo_dom":"domicilios_ocupados_grade_ibge_2022","na_bacia":1,"area_pct_bacia":100.0,"metodo_recorte_bacia":"ponto_representativo_grade_2022; area_pct_geometrica","status_borda_bacia":"total","metodo_area_bacia":"interse??o geom?trica em EPSG:5880","metodo_na_bacia":"ponto_representativo_grade_2022_within_bacia","pop_n_validos":1,"pop_n_total":1,"pop_completude":1.0,"dom_n_validos":1,"dom_n_total":1,"dom_completude":1.0},"geometry":{"type":"Polygon","coordinates":[[[-51.69020137819103,-28.54821678957313],[-51.6902177755299,-28.546359843332077],[-51.688231810749414,-28.546344504495238],[-51.68821539902143,-28.54820145073638],[-51.69020137819103,-28.54821678957313]]]}},{"type":"Feature","properties":{"id_grade":"200ME52322N81652","pop":40,"dom":18,"universo_dom":"domicilios_ocupados_grade_ibge_2022","na_bacia":1,"area_pct_bacia":100.0,"metodo_recorte_bacia":"ponto_representativo_grade_2022; area_pct_geometrica","status_borda_bacia":"total","metodo_area_bacia":"interse??o geom?trica em EPSG:5880","metodo_na_bacia":"ponto_representativo_grade_2022_within_bacia","pop_n_validos":1,"pop_n_total":1,"pop_completude":1.0,"dom_n_validos":1,"dom_n_total":1,"dom_completude":1.0},"geometry":{"type":"Polygon","coordinates":[[[-51.69418970599008,-28.5463904814355],[-51.69420607544998,-28.54453355318088],[-51.69222012415935,-28.54451824132368],[-51.69220374031033,-28.546375168678992],[-51.69418970599008,-28.5463904814355]]]}},{"type":"Feature","properties":{"id_grade":"200ME52324N81652","pop":16,"dom":6,"universo_dom":"domicilios_ocupados_grade_ibge_2022","na_bacia":1,"area_pct_bacia":100.0,"metodo_recorte_bacia":"ponto_representativo_grade_2022; area_pct_geometrica","status_borda_bacia":"total","metodo_area_bacia":"interse??o geom?trica em EPSG:5880","metodo_na_bacia":"ponto_representativo_grade_2022_within_bacia","pop_n_validos":1,"pop_n_total":1,"pop_completude":1.0,"dom_n_validos":1,"dom_n_total":1,"dom_completude":1.0},"geometry":{"type":"Polygon","coordinates":[[[-51.69220374031033,-28.546375168678992],[-51.69222012415935,-28.54451824132368],[-51.69023417286871,-28.544502915976736],[-51.6902177755299,-28.546359843332077],[-51.69220374031033,-28.546375168678992]]]}},{"type":"Feature","properties":{"id_grade":"200ME52326N81652","pop":48,"dom":20,"universo_dom":"domicilios_ocupados_grade_ibge_2022","na_bacia":1,"area_pct_bacia":100.0,"metodo_recorte_bacia":"ponto_representativo_grade_2022; area_pct_geometrica","status_borda_bacia":"total","metodo_area_bacia":"interse??o geom?trica em EPSG:5880","metodo_na_bacia":"ponto_representativo_grade_2022_within_bacia","pop_n_validos":1,"pop_n_total":1,"pop_completude":1.0,"dom_n_validos":1,"dom_n_total":1,"dom_completude":1.0},"geometry":{"type":"Polygon","coordinates":[[[-51.6902177755299,-28.546359843332077],[-51.69023417286871,-28.544502915976736],[-51.688248222477455,-28.54448757803926],[-51.688231810749414,-28.546344504495238],[-51.6902177755299,-28.546359843332077]]]}},{"type":"Feature","properties":{"id_grade":"200ME52322N81654","pop":15,"dom":7,"universo_dom":"domicilios_ocupados_grade_ibge_2022","na_bacia":1,"area_pct_bacia":100.0,"metodo_recorte_bacia":"ponto_representativo_grade_2022; area_pct_geometrica","status_borda_bacia":"total","metodo_area_bacia":"interse??o geom?trica em EPSG:5880","metodo_na_bacia":"ponto_representativo_grade_2022_within_bacia","pop_n_validos":1,"pop_n_total":1,"pop_completude":1.0,"dom_n_validos":1,"dom_n_total":1,"dom_completude":1.0},"geometry":{"type":"Polygon","coordinates":[[[-51.69420607544998,-28.54453355318088],[-51.69422244401057,-28.54267664381199],[-51.6922365071091,-28.54266133285422],[-51.69222012415935,-28.54451824132368],[-51.69420607544998,-28.54453355318088]]]}},{"type":"Feature","properties":{"id_grade":"200ME52324N81654","pop":52,"dom":24,"universo_dom":"domicilios_ocupados_grade_ibge_2022","na_bacia":1,"area_pct_bacia":100.0,"metodo_recorte_bacia":"ponto_representativo_grade_2022; area_pct_geometrica","status_borda_bacia":"total","metodo_area_bacia":"interse??o geom?trica em EPSG:5880","metodo_na_bacia":"ponto_representativo_grade_2022_within_bacia","pop_n_validos":1,"pop_n_total":1,"pop_completude":1.0,"dom_n_validos":1,"dom_n_total":1,"dom_completude":1.0},"geometry":{"type":"Polygon","coordinates":[[[-51.69222012415935,-28.54451824132368],[-51.6922365071091,-28.54266133285422],[-51.69025057020758,-28.542646007507123],[-51.69023417286871,-28.544502915976736],[-51.69222012415935,-28.54451824132368]]]}},{"type":"Feature","properties":{"id_grade":"200ME52326N81654","pop":35,"dom":18,"universo_dom":"domicilios_ocupados_grade_ibge_2022","na_bacia":1,"area_pct_bacia":100.0,"metodo_recorte_bacia":"ponto_representativo_grade_2022; area_pct_geometrica","status_borda_bacia":"total","metodo_area_bacia":"interse??o geom?trica em EPSG:5880","metodo_na_bacia":"ponto_representativo_grade_2022_within_bacia","pop_n_validos":1,"pop_n_total":1,"pop_completude":1.0,"dom_n_validos":1,"dom_n_total":1,"dom_completude":1.0},"geometry":{"type":"Polygon","coordinates":[[[-51.69023417286871,-28.544502915976736],[-51.69025057020758,-28.542646007507123],[-51.68826463330612,-28.542630669569725],[-51.688248222477455,-28.54448757803926],[-51.69023417286871,-28.544502915976736]]]}},{"type":"Feature","properties":{"id_grade":"200ME52328N81654","pop":13,"dom":5,"universo_dom":"domicilios_ocupados_grade_ibge_2022","na_bacia":1,"area_pct_bacia":100.0,"metodo_recorte_bacia":"ponto_representativo_grade_2022; area_pct_geometrica","status_borda_bacia":"total","metodo_area_bacia":"interse??o geom?trica em EPSG:5880","metodo_na_bacia":"ponto_representativo_grade_2022_within_bacia","pop_n_validos":1,"pop_n_total":1,"pop_completude":1.0,"dom_n_validos":1,"dom_n_total":1,"dom_completude":1.0},"geometry":{"type":"Polygon","coordinates":[[[-51.688248222477455,-28.54448757803926],[-51.68826463330612,-28.542630669569725],[-51.686278696404656,-28.542615318142392],[-51.68626227118682,-28.54447222661184],[-51.688248222477455,-28.54448757803926]]]}},{"type":"Feature","properties":{"id_grade":"200ME52322N81656","pop":5,"dom":2,"universo_dom":"domicilios_ocupados_grade_ibge_2022","na_bacia":1,"area_pct_bacia":100.0,"metodo_recorte_bacia":"ponto_representativo_grade_2022; area_pct_geometrica","status_borda_bacia":"total","metodo_area_bacia":"interse??o geom?trica em EPSG:5880","metodo_na_bacia":"ponto_representativo_grade_2022_within_bacia","pop_n_validos":1,"pop_n_total":1,"pop_completude":1.0,"dom_n_validos":1,"dom_n_total":1,"dom_completude":1.0},"geometry":{"type":"Polygon","coordinates":[[[-51.69422244401057,-28.54267664381199],[-51.694238812571086,-28.540819754228238],[-51.692252889159484,-28.540804442371044],[-51.6922365071091,-28.54266133285422],[-51.69422244401057,-28.54267664381199]]]}},{"type":"Feature","properties":{"id_grade":"200ME52324N81656","pop":52,"dom":23,"universo_dom":"domicilios_ocupados_grade_ibge_2022","na_bacia":1,"area_pct_bacia":100.0,"metodo_recorte_bacia":"ponto_representativo_grade_2022; area_pct_geometrica","status_borda_bacia":"total","metodo_area_bacia":"interse??o geom?trica em EPSG:5880","metodo_na_bacia":"ponto_representativo_grade_2022_within_bacia","pop_n_validos":1,"pop_n_total":1,"pop_completude":1.0,"dom_n_validos":1,"dom_n_total":1,"dom_completude":1.0},"geometry":{"type":"Polygon","coordinates":[[[-51.6922365071091,-28.54266133285422],[-51.692252889159484,-28.540804442371044],[-51.69026696664713,-28.540789117923406],[-51.69025057020758,-28.542646007507123],[-51.6922365071091,-28.54266133285422]]]}},{"type":"Feature","properties":{"id_grade":"200ME52326N81656","pop":67,"dom":25,"universo_dom":"domicilios_ocupados_grade_ibge_2022","na_bacia":1,"area_pct_bacia":100.0,"metodo_recorte_bacia":"ponto_representativo_grade_2022; area_pct_geometrica","status_borda_bacia":"total","metodo_area_bacia":"interse??o geom?trica em EPSG:5880","metodo_na_bacia":"ponto_representativo_grade_2022_within_bacia","pop_n_validos":1,"pop_n_total":1,"pop_completude":1.0,"dom_n_validos":1,"dom_n_total":1,"dom_completude":1.0},"geometry":{"type":"Polygon","coordinates":[[[-51.69025057020758,-28.542646007507123],[-51.69026696664713,-28.540789117923406],[-51.68828104413484,-28.540773779985873],[-51.68826463330612,-28.542630669569725],[-51.69025057020758,-28.542646007507123]]]}},{"type":"Feature","properties":{"id_grade":"200ME52322N81658","pop":52,"dom":22,"universo_dom":"domicilios_ocupados_grade_ibge_2022","na_bacia":1,"area_pct_bacia":100.0,"metodo_recorte_bacia":"ponto_representativo_grade_2022; area_pct_geometrica","status_borda_bacia":"total","metodo_area_bacia":"interse??o geom?trica em EPSG:5880","metodo_na_bacia":"ponto_representativo_grade_2022_within_bacia","pop_n_validos":1,"pop_n_total":1,"pop_completude":1.0,"dom_n_validos":1,"dom_n_total":1,"dom_completude":1.0},"geometry":{"type":"Polygon","coordinates":[[[-51.694238812571086,-28.540819754228238],[-51.694255180232346,-28.53896288263087],[-51.69226927210917,-28.53894757167307],[-51.692252889159484,-28.540804442371044],[-51.694238812571086,-28.540819754228238]]]}},{"type":"Feature","properties":{"id_grade":"200ME52324N81658","pop":27,"dom":9,"universo_dom":"domicilios_ocupados_grade_ibge_2022","na_bacia":1,"area_pct_bacia":100.0,"metodo_recorte_bacia":"ponto_representativo_grade_2022; area_pct_geometrica","status_borda_bacia":"total","metodo_area_bacia":"interse??o geom?trica em EPSG:5880","metodo_na_bacia":"ponto_representativo_grade_2022_within_bacia","pop_n_validos":1,"pop_n_total":1,"pop_completude":1.0,"dom_n_validos":1,"dom_n_total":1,"dom_completude":1.0},"geometry":{"type":"Polygon","coordinates":[[[-51.692252889159484,-28.540804442371044],[-51.69226927210917,-28.53894757167307],[-51.69028336308668,-28.538932247225382],[-51.69026696664713,-28.540789117923406],[-51.692252889159484,-28.540804442371044]]]}},{"type":"Feature","properties":{"id_grade":"200ME52326N81658","pop":43,"dom":20,"universo_dom":"domicilios_ocupados_grade_ibge_2022","na_bacia":1,"area_pct_bacia":100.0,"metodo_recorte_bacia":"ponto_representativo_grade_2022; area_pct_geometrica","status_borda_bacia":"total","metodo_area_bacia":"interse??o geom?trica em EPSG:5880","metodo_na_bacia":"ponto_representativo_grade_2022_within_bacia","pop_n_validos":1,"pop_n_total":1,"pop_completude":1.0,"dom_n_validos":1,"dom_n_total":1,"dom_completude":1.0},"geometry":{"type":"Polygon","coordinates":[[[-51.69026696664713,-28.540789117923406],[-51.69028336308668,-28.538932247225382],[-51.68829745406419,-28.538916910187186],[-51.68828104413484,-28.540773779985873],[-51.69026696664713,-28.540789117923406]]]}},{"type":"Feature","properties":{"id_grade":"200ME52320N81660","pop":3,"dom":1,"universo_dom":"domicilios_ocupados_grade_ibge_2022","na_bacia":1,"area_pct_bacia":100.0,"metodo_recorte_bacia":"ponto_representativo_grade_2022; area_pct_geometrica","status_borda_bacia":"total","metodo_area_bacia":"interse??o geom?trica em EPSG:5880","metodo_na_bacia":"ponto_representativo_grade_2022_within_bacia","pop_n_validos":1,"pop_n_total":1,"pop_completude":1.0,"dom_n_validos":1,"dom_n_total":1,"dom_completude":1.0},"geometry":{"type":"Polygon","coordinates":[[[-51.69624109015416,-28.538978180998217],[-51.69625744342625,-28.537121328286567],[-51.694271548792926,-28.537106030818652],[-51.694255180232346,-28.53896288263087],[-51.69624109015416,-28.538978180998217]]]}},{"type":"Feature","properties":{"id_grade":"200ME52322N81660","pop":9,"dom":4,"universo_dom":"domicilios_ocupados_grade_ibge_2022","na_bacia":1,"area_pct_bacia":100.0,"metodo_recorte_bacia":"ponto_representativo_grade_2022; area_pct_geometrica","status_borda_bacia":"total","metodo_area_bacia":"interse??o geom?trica em EPSG:5880","metodo_na_bacia":"ponto_representativo_grade_2022_within_bacia","pop_n_validos":1,"pop_n_total":1,"pop_completude":1.0,"dom_n_validos":1,"dom_n_total":1,"dom_completude":1.0},"geometry":{"type":"Polygon","coordinates":[[[-51.694255180232346,-28.53896288263087],[-51.694271548792926,-28.537106030818652],[-51.69228565415955,-28.537090719860785],[-51.69226927210917,-28.53894757167307],[-51.694255180232346,-28.53896288263087]]]}},{"type":"Feature","properties":{"id_grade":"200ME52324N81660","pop":44,"dom":16,"universo_dom":"domicilios_ocupados_grade_ibge_2022","na_bacia":1,"area_pct_bacia":100.0,"metodo_recorte_bacia":"ponto_representativo_grade_2022; area_pct_geometrica","status_borda_bacia":"total","metodo_area_bacia":"interse??o geom?trica em EPSG:5880","metodo_na_bacia":"ponto_representativo_grade_2022_within_bacia","pop_n_validos":1,"pop_n_total":1,"pop_completude":1.0,"dom_n_validos":1,"dom_n_total":1,"dom_completude":1.0},"geometry":{"type":"Polygon","coordinates":[[[-51.69226927210917,-28.53894757167307],[-51.69228565415955,-28.537090719860785],[-51.69029975952622,-28.53707539541309],[-51.69028336308668,-28.538932247225382],[-51.69226927210917,-28.53894757167307]]]}},{"type":"Feature","properties":{"id_grade":"200ME52326N81660","pop":36,"dom":15,"universo_dom":"domicilios_ocupados_grade_ibge_2022","na_bacia":1,"area_pct_bacia":100.0,"metodo_recorte_bacia":"ponto_representativo_grade_2022; area_pct_geometrica","status_borda_bacia":"total","metodo_area_bacia":"interse??o geom?trica em EPSG:5880","metodo_na_bacia":"ponto_representativo_grade_2022_within_bacia","pop_n_validos":1,"pop_n_total":1,"pop_completude":1.0,"dom_n_validos":1,"dom_n_total":1,"dom_completude":1.0},"geometry":{"type":"Polygon","coordinates":[[[-51.69028336308668,-28.538932247225382],[-51.69029975952622,-28.53707539541309],[-51.688313864892905,-28.537060058374898],[-51.68829745406419,-28.538916910187186],[-51.69028336308668,-28.538932247225382]]]}},{"type":"Feature","properties":{"id_grade":"200ME52324N81662","pop":1,"dom":1,"universo_dom":"domicilios_ocupados_grade_ibge_2022","na_bacia":1,"area_pct_bacia":100.0,"metodo_recorte_bacia":"ponto_representativo_grade_2022; area_pct_geometrica","status_borda_bacia":"total","metodo_area_bacia":"interse??o geom?trica em EPSG:5880","metodo_na_bacia":"ponto_representativo_grade_2022_within_bacia","pop_n_validos":1,"pop_n_total":1,"pop_completude":1.0,"dom_n_validos":1,"dom_n_total":1,"dom_completude":1.0},"geometry":{"type":"Polygon","coordinates":[[[-51.69228565415955,-28.537090719860785],[-51.692302035310654,-28.53523388603492],[-51.690316155066455,-28.535218562486666],[-51.69029975952622,-28.53707539541309],[-51.69228565415955,-28.537090719860785]]]}},{"type":"Feature","properties":{"id_grade":"200ME52326N81662","pop":40,"dom":16,"universo_dom":"domicilios_ocupados_grade_ibge_2022","na_bacia":1,"area_pct_bacia":100.0,"metodo_recorte_bacia":"ponto_representativo_grade_2022; area_pct_geometrica","status_borda_bacia":"total","metodo_area_bacia":"interse??o geom?trica em EPSG:5880","metodo_na_bacia":"ponto_representativo_grade_2022_within_bacia","pop_n_validos":1,"pop_n_total":1,"pop_completude":1.0,"dom_n_validos":1,"dom_n_total":1,"dom_completude":1.0},"geometry":{"type":"Polygon","coordinates":[[[-51.69029975952622,-28.53707539541309],[-51.690316155066455,-28.535218562486666],[-51.6883302748223,-28.535203225448466],[-51.688313864892905,-28.537060058374898],[-51.69029975952622,-28.53707539541309]]]}},{"type":"Feature","properties":{"id_grade":"200ME52328N81662","pop":1,"dom":1,"universo_dom":"domicilios_ocupados_grade_ibge_2022","na_bacia":1,"area_pct_bacia":100.0,"metodo_recorte_bacia":"ponto_representativo_grade_2022; area_pct_geometrica","status_borda_bacia":"total","metodo_area_bacia":"interse??o geom?trica em EPSG:5880","metodo_na_bacia":"ponto_representativo_grade_2022_within_bacia","pop_n_validos":1,"pop_n_total":1,"pop_completude":1.0,"dom_n_validos":1,"dom_n_total":1,"dom_completude":1.0},"geometry":{"type":"Polygon","coordinates":[[[-51.688313864892905,-28.537060058374898],[-51.6883302748223,-28.535203225448466],[-51.6863443945781,-28.535187875819762],[-51.68632797025958,-28.537044707846906],[-51.688313864892905,-28.537060058374898]]]}},{"type":"Feature","properties":{"id_grade":"200ME52326N81664","pop":1,"dom":1,"universo_dom":"domicilios_ocupados_grade_ibge_2022","na_bacia":1,"area_pct_bacia":100.0,"metodo_recorte_bacia":"ponto_representativo_grade_2022; area_pct_geometrica","status_borda_bacia":"total","metodo_area_bacia":"interse??o geom?trica em EPSG:5880","metodo_na_bacia":"ponto_representativo_grade_2022_within_bacia","pop_n_validos":1,"pop_n_total":1,"pop_completude":1.0,"dom_n_validos":1,"dom_n_total":1,"dom_completude":1.0},"geometry":{"type":"Polygon","coordinates":[[[-51.690316155066455,-28.535218562486666],[-51.69033255060668,-28.53336174844588],[-51.68834668475165,-28.53334641140775],[-51.6883302748223,-28.535203225448466],[-51.690316155066455,-28.535218562486666]]]}},{"type":"Feature","properties":{"id_grade":"200ME52328N81664","pop":2,"dom":1,"universo_dom":"domicilios_ocupados_grade_ibge_2022","na_bacia":1,"area_pct_bacia":100.0,"metodo_recorte_bacia":"ponto_representativo_grade_2022; area_pct_geometrica","status_borda_bacia":"total","metodo_area_bacia":"interse??o geom?trica em EPSG:5880","metodo_na_bacia":"ponto_representativo_grade_2022_within_bacia","pop_n_validos":1,"pop_n_total":1,"pop_completude":1.0,"dom_n_validos":1,"dom_n_total":1,"dom_completude":1.0},"geometry":{"type":"Polygon","coordinates":[[[-51.6883302748223,-28.535203225448466],[-51.68834668475165,-28.53334641140775],[-51.686360818896624,-28.533331061779013],[-51.6863443945781,-28.535187875819762],[-51.6883302748223,-28.535203225448466]]]}},{"type":"Feature","properties":{"id_grade":"200ME52338N81642","pop":1,"dom":1,"universo_dom":"domicilios_ocupados_grade_ibge_2022","na_bacia":1,"area_pct_bacia":100.0,"metodo_recorte_bacia":"ponto_representativo_grade_2022; area_pct_geometrica","status_borda_bacia":"total","metodo_area_bacia":"interse??o geom?trica em EPSG:5880","metodo_na_bacia":"ponto_representativo_grade_2022_within_bacia","pop_n_validos":1,"pop_n_total":1,"pop_completude":1.0,"dom_n_validos":1,"dom_n_total":1,"dom_completude":1.0},"geometry":{"type":"Polygon","coordinates":[[[-51.678219577471516,-28.55555252622807],[-51.67823606024593,-28.553695506242516],[-51.676250040606874,-28.55368008736617],[-51.676233543443225,-28.555537107351594],[-51.678219577471516,-28.55555252622807]]]}},{"type":"Feature","properties":{"id_grade":"200ME52338N81650","pop":9,"dom":3,"universo_dom":"domicilios_ocupados_grade_ibge_2022","na_bacia":1,"area_pct_bacia":100.0,"metodo_recorte_bacia":"ponto_representativo_grade_2022; area_pct_geometrica","status_borda_bacia":"total","metodo_area_bacia":"interse??o geom?trica em EPSG:5880","metodo_na_bacia":"ponto_representativo_grade_2022_within_bacia","pop_n_validos":1,"pop_n_total":1,"pop_completude":1.0,"dom_n_validos":1,"dom_n_total":1,"dom_completude":1.0},"geometry":{"type":"Polygon","coordinates":[[[-51.67828550767001,-28.548124558701364],[-51.67830199044449,-28.54626761425898],[-51.67631602656331,-28.546252197181072],[-51.67629953029904,-28.54810914162357],[-51.67828550767001,-28.548124558701364]]]}},{"type":"Feature","properties":{"id_grade":"200ME52330N81652","pop":7,"dom":3,"universo_dom":"domicilios_ocupados_grade_ibge_2022","na_bacia":1,"area_pct_bacia":100.0,"metodo_recorte_bacia":"ponto_representativo_grade_2022; area_pct_geometrica","status_borda_bacia":"total","metodo_area_bacia":"interse??o geom?trica em EPSG:5880","metodo_na_bacia":"ponto_representativo_grade_2022_within_bacia","pop_n_validos":1,"pop_n_total":1,"pop_completude":1.0,"dom_n_validos":1,"dom_n_total":1,"dom_completude":1.0},"geometry":{"type":"Polygon","coordinates":[[[-51.68624584596898,-28.54632915306789],[-51.68626227118682,-28.54447222661184],[-51.684276321694824,-28.544456861694712],[-51.68425988208787,-28.546313788150755],[-51.68624584596898,-28.54632915306789]]]}},{"type":"Feature","properties":{"id_grade":"200ME52332N81652","pop":2,"dom":1,"universo_dom":"domicilios_ocupados_grade_ibge_2022","na_bacia":1,"area_pct_bacia":100.0,"metodo_recorte_bacia":"ponto_representativo_grade_2022; area_pct_geometrica","status_borda_bacia":"total","metodo_area_bacia":"interse??o geom?trica em EPSG:5880","metodo_na_bacia":"ponto_representativo_grade_2022_within_bacia","pop_n_validos":1,"pop_n_total":1,"pop_completude":1.0,"dom_n_validos":1,"dom_n_total":1,"dom_completude":1.0},"geometry":{"type":"Polygon","coordinates":[[[-51.68425988208787,-28.546313788150755],[-51.684276321694824,-28.544456861694712],[-51.682290371303566,-28.544441484187022],[-51.682273917307384,-28.546298410643036],[-51.68425988208787,-28.546313788150755]]]}},{"type":"Feature","properties":{"id_grade":"200ME52334N81652","pop":5,"dom":2,"universo_dom":"domicilios_ocupados_grade_ibge_2022","na_bacia":1,"area_pct_bacia":100.0,"metodo_recorte_bacia":"ponto_representativo_grade_2022; area_pct_geometrica","status_borda_bacia":"total","metodo_area_bacia":"interse??o geom?trica em EPSG:5880","metodo_na_bacia":"ponto_representativo_grade_2022_within_bacia","pop_n_validos":1,"pop_n_total":1,"pop_completude":1.0,"dom_n_validos":1,"dom_n_total":1,"dom_completude":1.0},"geometry":{"type":"Polygon","coordinates":[[[-51.682273917307384,-28.546298410643036],[-51.682290371303566,-28.544441484187022],[-51.68030442181158,-28.544426093189628],[-51.68028795342627,-28.54628301874629],[-51.682273917307384,-28.546298410643036]]]}},{"type":"Feature","properties":{"id_grade":"200ME52336N81652","pop":4,"dom":3,"universo_dom":"domicilios_ocupados_grade_ibge_2022","na_bacia":1,"area_pct_bacia":100.0,"metodo_recorte_bacia":"ponto_representativo_grade_2022; area_pct_geometrica","status_borda_bacia":"total","metodo_area_bacia":"interse??o geom?trica em EPSG:5880","metodo_na_bacia":"ponto_representativo_grade_2022_within_bacia","pop_n_validos":1,"pop_n_total":1,"pop_completude":1.0,"dom_n_validos":1,"dom_n_total":1,"dom_completude":1.0},"geometry":{"type":"Polygon","coordinates":[[[-51.68028795342627,-28.54628301874629],[-51.68030442181158,-28.544426093189628],[-51.678318471420255,-28.544410688702275],[-51.67830199044449,-28.54626761425898],[-51.68028795342627,-28.54628301874629]]]}},{"type":"Feature","properties":{"id_grade":"200ME52338N81652","pop":6,"dom":2,"universo_dom":"domicilios_ocupados_grade_ibge_2022","na_bacia":1,"area_pct_bacia":100.0,"metodo_recorte_bacia":"ponto_representativo_grade_2022; area_pct_geometrica","status_borda_bacia":"total","metodo_area_bacia":"interse??o geom?trica em EPSG:5880","metodo_na_bacia":"ponto_representativo_grade_2022_within_bacia","pop_n_validos":1,"pop_n_total":1,"pop_completude":1.0,"dom_n_validos":1,"dom_n_total":1,"dom_completude":1.0},"geometry":{"type":"Polygon","coordinates":[[[-51.67830199044449,-28.54626761425898],[-51.678318471420255,-28.544410688702275],[-51.676332522827636,-28.544395271624413],[-51.67631602656331,-28.546252197181072],[-51.67830199044449,-28.54626761425898]]]}},{"type":"Feature","properties":{"id_grade":"200ME52332N81654","pop":2,"dom":1,"universo_dom":"domicilios_ocupados_grade_ibge_2022","na_bacia":1,"area_pct_bacia":100.0,"metodo_recorte_bacia":"ponto_representativo_grade_2022; area_pct_geometrica","status_borda_bacia":"total","metodo_area_bacia":"interse??o geom?trica em EPSG:5880","metodo_na_bacia":"ponto_representativo_grade_2022_within_bacia","pop_n_validos":1,"pop_n_total":1,"pop_completude":1.0,"dom_n_validos":1,"dom_n_total":1,"dom_completude":1.0},"geometry":{"type":"Polygon","coordinates":[[[-51.684276321694824,-28.544456861694712],[-51.68429276040251,-28.542599954124498],[-51.68230682440037,-28.542584576616875],[-51.682290371303566,-28.544441484187022],[-51.684276321694824,-28.544456861694712]]]}},{"type":"Feature","properties":{"id_grade":"200ME52332N81658","pop":3,"dom":1,"universo_dom":"domicilios_ocupados_grade_ibge_2022","na_bacia":1,"area_pct_bacia":100.0,"metodo_recorte_bacia":"ponto_representativo_grade_2022; area_pct_geometrica","status_borda_bacia":"total","metodo_area_bacia":"interse??o geom?trica em EPSG:5880","metodo_na_bacia":"ponto_representativo_grade_2022_within_bacia","pop_n_validos":1,"pop_n_total":1,"pop_completude":1.0,"dom_n_validos":1,"dom_n_total":1,"dom_completude":1.0},"geometry":{"type":"Polygon","coordinates":[[[-51.6843091991102,-28.540743065440118],[-51.68432563871721,-28.538886195641336],[-51.68233973059404,-28.5388708181337],[-51.68232327749723,-28.54072768793244],[-51.6843091991102,-28.540743065440118]]]}},{"type":"Feature","properties":{"id_grade":"200ME52334N81658","pop":7,"dom":1,"universo_dom":"domicilios_ocupados_grade_ibge_2022","na_bacia":1,"area_pct_bacia":100.0,"metodo_recorte_bacia":"ponto_representativo_grade_2022; area_pct_geometrica","status_borda_bacia":"total","metodo_area_bacia":"interse??o geom?trica em EPSG:5880","metodo_na_bacia":"ponto_representativo_grade_2022_within_bacia","pop_n_validos":1,"pop_n_total":1,"pop_completude":1.0,"dom_n_validos":1,"dom_n_total":1,"dom_completude":1.0},"geometry":{"type":"Polygon","coordinates":[[[-51.68232327749723,-28.54072768793244],[-51.68233973059404,-28.5388708181337],[-51.68035382337019,-28.538855428035497],[-51.680337355884205,-28.540712297834215],[-51.68232327749723,-28.54072768793244]]]}},{"type":"Feature","properties":{"id_grade":"200ME52332N81660","pop":3,"dom":2,"universo_dom":"domicilios_ocupados_grade_ibge_2022","na_bacia":1,"area_pct_bacia":100.0,"metodo_recorte_bacia":"ponto_representativo_grade_2022; area_pct_geometrica","status_borda_bacia":"total","metodo_area_bacia":"interse??o geom?trica em EPSG:5880","metodo_na_bacia":"ponto_representativo_grade_2022_within_bacia","pop_n_validos":1,"pop_n_total":1,"pop_completude":1.0,"dom_n_validos":1,"dom_n_total":1,"dom_completude":1.0},"geometry":{"type":"Polygon","coordinates":[[[-51.68432563871721,-28.538886195641336],[-51.68434207652558,-28.537029344728385],[-51.68235618279158,-28.537013967220727],[-51.68233973059404,-28.5388708181337],[-51.68432563871721,-28.538886195641336]]]}},{"type":"Feature","properties":{"id_grade":"200ME52332N81662","pop":2,"dom":1,"universo_dom":"domicilios_ocupados_grade_ibge_2022","na_bacia":1,"area_pct_bacia":100.0,"metodo_recorte_bacia":"ponto_representativo_grade_2022; area_pct_geometrica","status_borda_bacia":"total","metodo_area_bacia":"interse??o geom?trica em EPSG:5880","metodo_na_bacia":"ponto_representativo_grade_2022_within_bacia","pop_n_validos":1,"pop_n_total":1,"pop_completude":1.0,"dom_n_validos":1,"dom_n_total":1,"dom_completude":1.0},"geometry":{"type":"Polygon","coordinates":[[[-51.68434207652558,-28.537029344728385],[-51.68435851523328,-28.53517251180192],[-51.68237263588839,-28.53515713609292],[-51.68235618279158,-28.537013967220727],[-51.68434207652558,-28.537029344728385]]]}},{"type":"Feature","properties":{"id_grade":"200ME52338N81664","pop":3,"dom":1,"universo_dom":"domicilios_ocupados_grade_ibge_2022","na_bacia":1,"area_pct_bacia":100.0,"metodo_recorte_bacia":"ponto_representativo_grade_2022; area_pct_geometrica","status_borda_bacia":"total","metodo_area_bacia":"interse??o geom?trica em EPSG:5880","metodo_na_bacia":"ponto_representativo_grade_2022_within_bacia","pop_n_validos":1,"pop_n_total":1,"pop_completude":1.0,"dom_n_validos":1,"dom_n_total":1,"dom_completude":1.0},"geometry":{"type":"Polygon","coordinates":[[[-51.67840087719867,-28.535126343306114],[-51.67841735727518,-28.53326953106396],[-51.676431492319466,-28.533254114885434],[-51.67641499785383,-28.535110927127526],[-51.67840087719867,-28.535126343306114]]]}},{"type":"Feature","properties":{"id_grade":"200ME52330N81666","pop":7,"dom":2,"universo_dom":"domicilios_ocupados_grade_ibge_2022","na_bacia":1,"area_pct_bacia":100.0,"metodo_recorte_bacia":"ponto_representativo_grade_2022; area_pct_geometrica","status_borda_bacia":"total","metodo_area_bacia":"interse??o geom?trica em EPSG:5880","metodo_na_bacia":"ponto_representativo_grade_2022_within_bacia","pop_n_validos":1,"pop_n_total":1,"pop_completude":1.0,"dom_n_validos":1,"dom_n_total":1,"dom_completude":1.0},"geometry":{"type":"Polygon","coordinates":[[[-51.686360818896624,-28.533331061779013],[-51.686377242315814,-28.53147426752339],[-51.684391390849946,-28.531458904404897],[-51.68437495304158,-28.533315698660594],[-51.686360818896624,-28.533331061779013]]]}}]}
