{"type":"FeatureCollection","name":"4310579","crs":{"type":"name","properties":{"name":"urn:ogc:def:crs:OGC:1.3:CRS84"}},"features":[{"type":"Feature","properties":{"id_grade":"1KME5176N8135","pop":14,"dom":7,"universo_dom":"domicilios_ocupados_grade_ibge_2022","na_bacia":1,"area_pct_bacia":100.0,"metodo_recorte_bacia":"ponto_representativo_grade_2022; area_pct_geometrica"},"geometry":{"type":"Polygon","coordinates":[[[-52.25039130426279,-28.828935446992755],[-52.25045347237931,-28.819636345913334],[-52.24051312850594,-28.819578026602247],[-52.240450607189345,-28.828877122579843],[-52.25039130426279,-28.828935446992755]]]}},{"type":"Feature","properties":{"id_grade":"1KME5176N8136","pop":10,"dom":3,"universo_dom":"domicilios_ocupados_grade_ibge_2022","na_bacia":1,"area_pct_bacia":100.0,"metodo_recorte_bacia":"ponto_representativo_grade_2022; area_pct_geometrica"},"geometry":{"type":"Polygon","coordinates":[[[-52.25045347237931,-28.819636345913334],[-52.25051563607806,-28.81033772766269],[-52.24057564537966,-28.81027941345032],[-52.24051312850594,-28.819578026602247],[-52.25045347237931,-28.819636345913334]]]}},{"type":"Feature","properties":{"id_grade":"1KME5177N8136","pop":2,"dom":1,"universo_dom":"domicilios_ocupados_grade_ibge_2022","na_bacia":1,"area_pct_bacia":100.0,"metodo_recorte_bacia":"ponto_representativo_grade_2022; area_pct_geometrica"},"geometry":{"type":"Polygon","coordinates":[[[-52.24051312850594,-28.819578026602247],[-52.24057564537966,-28.81027941345032],[-52.23063565912364,-28.810220768878228],[-52.230572789075424,-28.819519376902054],[-52.24051312850594,-28.819578026602247]]]}},{"type":"Feature","properties":{"id_grade":"1KME5180N8136","pop":20,"dom":6,"universo_dom":"domicilios_ocupados_grade_ibge_2022","na_bacia":1,"area_pct_bacia":100.0,"metodo_recorte_bacia":"ponto_representativo_grade_2022; area_pct_geometrica"},"geometry":{"type":"Polygon","coordinates":[[[-52.210692123643405,-28.81940108633779],[-52.210755700039186,-28.810102488656533],[-52.20081572726093,-28.81004285300803],[-52.200751797692085,-28.81934144547479],[-52.210692123643405,-28.81940108633779]]]}},{"type":"Feature","properties":{"id_grade":"1KME5181N8136","pop":24,"dom":10,"universo_dom":"domicilios_ocupados_grade_ibge_2022","na_bacia":1,"area_pct_bacia":100.0,"metodo_recorte_bacia":"ponto_representativo_grade_2022; area_pct_geometrica"},"geometry":{"type":"Polygon","coordinates":[[[-52.200751797692085,-28.81934144547479],[-52.20081572726093,-28.81004285300803],[-52.190875759025445,-28.80998288700188],[-52.19081147628402,-28.819281474225328],[-52.200751797692085,-28.81934144547479]]]}},{"type":"Feature","properties":{"id_grade":"1KME5182N8136","pop":38,"dom":17,"universo_dom":"domicilios_ocupados_grade_ibge_2022","na_bacia":1,"area_pct_bacia":100.0,"metodo_recorte_bacia":"ponto_representativo_grade_2022; area_pct_geometrica"},"geometry":{"type":"Polygon","coordinates":[[[-52.19081147628402,-28.819281474225328],[-52.190875759025445,-28.80998288700188],[-52.180935795357826,-28.809922590638678],[-52.180871159444315,-28.819221172589497],[-52.19081147628402,-28.819281474225328]]]}},{"type":"Feature","properties":{"id_grade":"1KME5183N8136","pop":15,"dom":7,"universo_dom":"domicilios_ocupados_grade_ibge_2022","na_bacia":1,"area_pct_bacia":100.0,"metodo_recorte_bacia":"ponto_representativo_grade_2022; area_pct_geometrica"},"geometry":{"type":"Polygon","coordinates":[[[-52.180871159444315,-28.819221172589497],[-52.180935795357826,-28.809922590638678],[-52.170995836283176,-28.80986196391883],[-52.170930847198065,-28.819160540568497],[-52.180871159444315,-28.819221172589497]]]}},{"type":"Feature","properties":{"id_grade":"1KME5169N8137","pop":4,"dom":3,"universo_dom":"domicilios_ocupados_grade_ibge_2022","na_bacia":1,"area_pct_bacia":100.0,"metodo_recorte_bacia":"ponto_representativo_grade_2022; area_pct_geometrica"},"geometry":{"type":"Polygon","coordinates":[[[-52.32009569324608,-28.810736677025545],[-52.32015538046535,-28.801438506365827],[-52.31021571252593,-28.80138250958238],[-52.31015567215355,-28.810680675347758],[-52.32009569324608,-28.810736677025545]]]}},{"type":"Feature","properties":{"id_grade":"1KME5171N8137","pop":2,"dom":1,"universo_dom":"domicilios_ocupados_grade_ibge_2022","na_bacia":1,"area_pct_bacia":100.0,"metodo_recorte_bacia":"ponto_representativo_grade_2022; area_pct_geometrica"},"geometry":{"type":"Polygon","coordinates":[[[-52.30021565532774,-28.81062434330621],[-52.300276048852794,-28.801326182463857],[-52.29033638947102,-28.801269525011584],[-52.290275642793766,-28.810567680901574],[-52.30021565532774,-28.81062434330621]]]}},{"type":"Feature","properties":{"id_grade":"1KME5173N8137","pop":3,"dom":3,"universo_dom":"domicilios_ocupados_grade_ibge_2022","na_bacia":1,"area_pct_bacia":100.0,"metodo_recorte_bacia":"ponto_representativo_grade_2022; area_pct_geometrica"},"geometry":{"type":"Polygon","coordinates":[[[-52.280335634576716,-28.810510688134407],[-52.28039673440572,-28.80121253722522],[-52.27045708368197,-28.80115521910562],[-52.270395630701685,-28.81045336500525],[-52.280335634576716,-28.810510688134407]]]}},{"type":"Feature","properties":{"id_grade":"1KME5176N8137","pop":6,"dom":2,"universo_dom":"domicilios_ocupados_grade_ibge_2022","na_bacia":1,"area_pct_bacia":100.0,"metodo_recorte_bacia":"ponto_representativo_grade_2022; area_pct_geometrica"},"geometry":{"type":"Polygon","coordinates":[[[-52.25051563607806,-28.81033772766269],[-52.250577795359504,-28.80103959186943],[-52.24063815781098,-28.80098128275366],[-52.24057564537966,-28.81027941345032],[-52.25051563607806,-28.81033772766269]]]}},{"type":"Feature","properties":{"id_grade":"1KME5177N8137","pop":5,"dom":1,"universo_dom":"domicilios_ocupados_grade_ibge_2022","na_bacia":1,"area_pct_bacia":100.0,"metodo_recorte_bacia":"ponto_representativo_grade_2022; area_pct_geometrica"},"geometry":{"type":"Polygon","coordinates":[[[-52.24057564537966,-28.81027941345032],[-52.24063815781098,-28.80098128275366],[-52.230698524704366,-28.80092264330687],[-52.23063565912364,-28.810220768878228],[-52.24057564537966,-28.81027941345032]]]}},{"type":"Feature","properties":{"id_grade":"1KME5178N8137","pop":4,"dom":1,"universo_dom":"domicilios_ocupados_grade_ibge_2022","na_bacia":1,"area_pct_bacia":100.0,"metodo_recorte_bacia":"ponto_representativo_grade_2022; area_pct_geometrica"},"geometry":{"type":"Polygon","coordinates":[[[-52.23063565912364,-28.810220768878228],[-52.230698524704366,-28.80092264330687],[-52.22075889606478,-28.800863673529427],[-52.22069567733512,-28.81016179394678],[-52.23063565912364,-28.810220768878228]]]}},{"type":"Feature","properties":{"id_grade":"1KME5179N8137","pop":5,"dom":2,"universo_dom":"domicilios_ocupados_grade_ibge_2022","na_bacia":1,"area_pct_bacia":100.0,"metodo_recorte_bacia":"ponto_representativo_grade_2022; area_pct_geometrica"},"geometry":{"type":"Polygon","coordinates":[[[-52.22069567733512,-28.81016179394678],[-52.22075889606478,-28.800863673529427],[-52.21081927191729,-28.800804373421972],[-52.210755700039186,-28.810102488656533],[-52.22069567733512,-28.81016179394678]]]}},{"type":"Feature","properties":{"id_grade":"1KME5180N8137","pop":37,"dom":13,"universo_dom":"domicilios_ocupados_grade_ibge_2022","na_bacia":1,"area_pct_bacia":100.0,"metodo_recorte_bacia":"ponto_representativo_grade_2022; area_pct_geometrica"},"geometry":{"type":"Polygon","coordinates":[[[-52.210755700039186,-28.810102488656533],[-52.21081927191729,-28.800804373421972],[-52.200879652287,-28.800744742985312],[-52.20081572726093,-28.81004285300803],[-52.210755700039186,-28.810102488656533]]]}},{"type":"Feature","properties":{"id_grade":"1KME5182N8137","pop":23,"dom":8,"universo_dom":"domicilios_ocupados_grade_ibge_2022","na_bacia":1,"area_pct_bacia":100.0,"metodo_recorte_bacia":"ponto_representativo_grade_2022; area_pct_geometrica"},"geometry":{"type":"Polygon","coordinates":[[[-52.190875759025445,-28.80998288700188],[-52.190940037199006,-28.800684782219992],[-52.18100042667838,-28.80062449112597],[-52.180935795357826,-28.809922590638678],[-52.190875759025445,-28.80998288700188]]]}},{"type":"Feature","properties":{"id_grade":"1KME5183N8137","pop":10,"dom":5,"universo_dom":"domicilios_ocupados_grade_ibge_2022","na_bacia":1,"area_pct_bacia":100.0,"metodo_recorte_bacia":"ponto_representativo_grade_2022; area_pct_geometrica"},"geometry":{"type":"Polygon","coordinates":[[[-52.180935795357826,-28.809922590638678],[-52.18100042667838,-28.80062449112597],[-52.17106082075023,-28.800563869704607],[-52.170995836283176,-28.80986196391883],[-52.180935795357826,-28.809922590638678]]]}},{"type":"Feature","properties":{"id_grade":"1KME5184N8137","pop":6,"dom":2,"universo_dom":"domicilios_ocupados_grade_ibge_2022","na_bacia":1,"area_pct_bacia":100.0,"metodo_recorte_bacia":"ponto_representativo_grade_2022; area_pct_geometrica"},"geometry":{"type":"Polygon","coordinates":[[[-52.170995836283176,-28.80986196391883],[-52.17106082075023,-28.800563869704607],[-52.16112121943964,-28.80050291795597],[-52.16105588182658,-28.809801006842765],[-52.170995836283176,-28.80986196391883]]]}},{"type":"Feature","properties":{"id_grade":"1KME5186N8137","pop":3,"dom":1,"universo_dom":"domicilios_ocupados_grade_ibge_2022","na_bacia":1,"area_pct_bacia":100.0,"metodo_recorte_bacia":"ponto_representativo_grade_2022; area_pct_geometrica"},"geometry":{"type":"Polygon","coordinates":[[[-52.15111593201312,-28.80973971941147],[-52.151181622771716,-28.800441635880876],[-52.14124203077153,-28.800380023479462],[-52.141175986867914,-28.809678101625263],[-52.15111593201312,-28.80973971941147]]]}},{"type":"Feature","properties":{"id_grade":"1KME5188N8137","pop":11,"dom":5,"universo_dom":"domicilios_ocupados_grade_ibge_2022","na_bacia":1,"area_pct_bacia":100.0,"metodo_recorte_bacia":"ponto_representativo_grade_2022; area_pct_geometrica"},"geometry":{"type":"Polygon","coordinates":[[[-52.13123604641604,-28.809616153484896],[-52.13130244346418,-28.800318080752774],[-52.121362860874754,-28.800255807701117],[-52.1212961106826,-28.80955387499069],[-52.13123604641604,-28.809616153484896]]]}},{"type":"Feature","properties":{"id_grade":"1KME5189N8137","pop":2,"dom":2,"universo_dom":"domicilios_ocupados_grade_ibge_2022","na_bacia":1,"area_pct_bacia":100.0,"metodo_recorte_bacia":"ponto_representativo_grade_2022; area_pct_geometrica"},"geometry":{"type":"Polygon","coordinates":[[[-52.1212961106826,-28.80955387499069],[-52.121362860874754,-28.800255807701117],[-52.11142328302835,-28.800193204325375],[-52.111356179692685,-28.809491266143223],[-52.1212961106826,-28.80955387499069]]]}},{"type":"Feature","properties":{"id_grade":"1KME5190N8137","pop":19,"dom":7,"universo_dom":"domicilios_ocupados_grade_ibge_2022","na_bacia":1,"area_pct_bacia":100.0,"metodo_recorte_bacia":"ponto_representativo_grade_2022; area_pct_geometrica"},"geometry":{"type":"Polygon","coordinates":[[[-52.111356179692685,-28.809491266143223],[-52.11142328302835,-28.800193204325375],[-52.10148370995005,-28.800130270625843],[-52.10141625347138,-28.809428326943227],[-52.111356179692685,-28.809491266143223]]]}},{"type":"Feature","properties":{"id_grade":"1KME5191N8137","pop":19,"dom":7,"universo_dom":"domicilios_ocupados_grade_ibge_2022","na_bacia":1,"area_pct_bacia":100.0,"metodo_recorte_bacia":"ponto_representativo_grade_2022; area_pct_geometrica"},"geometry":{"type":"Polygon","coordinates":[[[-52.10141625347138,-28.809428326943227],[-52.10148370995005,-28.800130270625843],[-52.091544141664954,-28.80006700660315],[-52.09147633204378,-28.80936505739147],[-52.10141625347138,-28.809428326943227]]]}},{"type":"Feature","properties":{"id_grade":"1KME5192N8137","pop":14,"dom":6,"universo_dom":"domicilios_ocupados_grade_ibge_2022","na_bacia":1,"area_pct_bacia":100.0,"metodo_recorte_bacia":"ponto_representativo_grade_2022; area_pct_geometrica"},"geometry":{"type":"Polygon","coordinates":[[[-52.09147633204378,-28.80936505739147],[-52.091544141664954,-28.80006700660315],[-52.08160457819814,-28.80000341225803],[-52.081536415435,-28.80930145748814],[-52.09147633204378,-28.80936505739147]]]}},{"type":"Feature","properties":{"id_grade":"1KME5193N8137","pop":6,"dom":2,"universo_dom":"domicilios_ocupados_grade_ibge_2022","na_bacia":1,"area_pct_bacia":100.0,"metodo_recorte_bacia":"ponto_representativo_grade_2022; area_pct_geometrica"},"geometry":{"type":"Polygon","coordinates":[[[-52.081536415435,-28.80930145748814],[-52.08160457819814,-28.80000341225803],[-52.071665019574716,-28.799939487590873],[-52.0715965036701,-28.809237527234213],[-52.081536415435,-28.80930145748814]]]}},{"type":"Feature","properties":{"id_grade":"1KME5194N8137","pop":5,"dom":2,"universo_dom":"domicilios_ocupados_grade_ibge_2022","na_bacia":1,"area_pct_bacia":100.0,"metodo_recorte_bacia":"ponto_representativo_grade_2022; area_pct_geometrica"},"geometry":{"type":"Polygon","coordinates":[[[-52.0715965036701,-28.809237527234213],[-52.071665019574716,-28.799939487590873],[-52.061725465819755,-28.79987523260241],[-52.0616565967742,-28.80917326662999],[-52.0715965036701,-28.809237527234213]]]}},{"type":"Feature","properties":{"id_grade":"1KME5173N8138","pop":15,"dom":5,"universo_dom":"domicilios_ocupados_grade_ibge_2022","na_bacia":1,"area_pct_bacia":100.0,"metodo_recorte_bacia":"ponto_representativo_grade_2022; area_pct_geometrica"},"geometry":{"type":"Polygon","coordinates":[[[-52.28039673440572,-28.80121253722522],[-52.280457829893166,-28.791914868410814],[-52.270518532295604,-28.791857555298716],[-52.27045708368197,-28.80115521910562],[-52.28039673440572,-28.80121253722522]]]}},{"type":"Feature","properties":{"id_grade":"1KME5174N8138","pop":8,"dom":2,"universo_dom":"domicilios_ocupados_grade_ibge_2022","na_bacia":1,"area_pct_bacia":100.0,"metodo_recorte_bacia":"ponto_representativo_grade_2022; area_pct_geometrica"},"geometry":{"type":"Polygon","coordinates":[[[-52.27045708368197,-28.80115521910562],[-52.270518532295604,-28.791857555298716],[-52.26057923906423,-28.791799911882556],[-52.26051743732487,-28.80109757065362],[-52.27045708368197,-28.80115521910562]]]}},{"type":"Feature","properties":{"id_grade":"1KME5175N8138","pop":6,"dom":2,"universo_dom":"domicilios_ocupados_grade_ibge_2022","na_bacia":1,"area_pct_bacia":100.0,"metodo_recorte_bacia":"ponto_representativo_grade_2022; area_pct_geometrica"},"geometry":{"type":"Polygon","coordinates":[[[-52.26051743732487,-28.80109757065362],[-52.26057923906423,-28.791799911882556],[-52.25063995022413,-28.791741938163238],[-52.250577795359504,-28.80103959186943],[-52.26051743732487,-28.80109757065362]]]}},{"type":"Feature","properties":{"id_grade":"1KME5176N8138","pop":2,"dom":1,"universo_dom":"domicilios_ocupados_grade_ibge_2022","na_bacia":1,"area_pct_bacia":100.0,"metodo_recorte_bacia":"ponto_representativo_grade_2022; area_pct_geometrica"},"geometry":{"type":"Polygon","coordinates":[[[-52.250577795359504,-28.80103959186943],[-52.25063995022413,-28.791741938163238],[-52.240700665800375,-28.791683634140934],[-52.24063815781098,-28.80098128275366],[-52.250577795359504,-28.80103959186943]]]}},{"type":"Feature","properties":{"id_grade":"1KME5177N8138","pop":10,"dom":3,"universo_dom":"domicilios_ocupados_grade_ibge_2022","na_bacia":1,"area_pct_bacia":100.0,"metodo_recorte_bacia":"ponto_representativo_grade_2022; area_pct_geometrica"},"geometry":{"type":"Polygon","coordinates":[[[-52.24063815781098,-28.80098128275366],[-52.240700665800375,-28.791683634140934],[-52.230761385818084,-28.79162499981678],[-52.230698524704366,-28.80092264330687],[-52.24063815781098,-28.80098128275366]]]}},{"type":"Feature","properties":{"id_grade":"1KME5178N8138","pop":33,"dom":10,"universo_dom":"domicilios_ocupados_grade_ibge_2022","na_bacia":1,"area_pct_bacia":100.0,"metodo_recorte_bacia":"ponto_representativo_grade_2022; area_pct_geometrica"},"geometry":{"type":"Polygon","coordinates":[[[-52.230698524704366,-28.80092264330687],[-52.230761385818084,-28.79162499981678],[-52.22082211030233,-28.791566035190687],[-52.22075889606478,-28.800863673529427],[-52.230698524704366,-28.80092264330687]]]}},{"type":"Feature","properties":{"id_grade":"1KME5179N8138","pop":25,"dom":9,"universo_dom":"domicilios_ocupados_grade_ibge_2022","na_bacia":1,"area_pct_bacia":100.0,"metodo_recorte_bacia":"ponto_representativo_grade_2022; area_pct_geometrica"},"geometry":{"type":"Polygon","coordinates":[[[-52.22075889606478,-28.800863673529427],[-52.22082211030233,-28.791566035190687],[-52.2108828392782,-28.791506740263806],[-52.21081927191729,-28.800804373421972],[-52.22075889606478,-28.800863673529427]]]}},{"type":"Feature","properties":{"id_grade":"1KME5181N8138","pop":15,"dom":6,"universo_dom":"domicilios_ocupados_grade_ibge_2022","na_bacia":1,"area_pct_bacia":100.0,"metodo_recorte_bacia":"ponto_representativo_grade_2022; area_pct_geometrica"},"geometry":{"type":"Polygon","coordinates":[[[-52.200879652287,-28.800744742985312],[-52.20094357277078,-28.79144711503614],[-52.19100431080518,-28.791387159508528],[-52.190940037199006,-28.800684782219992],[-52.200879652287,-28.800744742985312]]]}},{"type":"Feature","properties":{"id_grade":"1KME5184N8138","pop":29,"dom":10,"universo_dom":"domicilios_ocupados_grade_ibge_2022","na_bacia":1,"area_pct_bacia":100.0,"metodo_recorte_bacia":"ponto_representativo_grade_2022; area_pct_geometrica"},"geometry":{"type":"Polygon","coordinates":[[[-52.17106082075023,-28.800563869704607],[-52.171125800599725,-28.791266257555584],[-52.161186552410065,-28.791205311131353],[-52.16112121943964,-28.80050291795597],[-52.17106082075023,-28.800563869704607]]]}},{"type":"Feature","properties":{"id_grade":"1KME5185N8138","pop":9,"dom":3,"universo_dom":"domicilios_ocupados_grade_ibge_2022","na_bacia":1,"area_pct_bacia":100.0,"metodo_recorte_bacia":"ponto_representativo_grade_2022; area_pct_geometrica"},"geometry":{"type":"Polygon","coordinates":[[[-52.16112121943964,-28.80050291795597],[-52.161186552410065,-28.791205311131353],[-52.151247308862565,-28.791144034409367],[-52.151181622771716,-28.800441635880876],[-52.16112121943964,-28.80050291795597]]]}},{"type":"Feature","properties":{"id_grade":"1KME5186N8138","pop":13,"dom":4,"universo_dom":"domicilios_ocupados_grade_ibge_2022","na_bacia":1,"area_pct_bacia":100.0,"metodo_recorte_bacia":"ponto_representativo_grade_2022; area_pct_geometrica"},"geometry":{"type":"Polygon","coordinates":[[[-52.151181622771716,-28.800441635880876],[-52.151247308862565,-28.791144034409367],[-52.1413080699823,-28.791082427390215],[-52.14124203077153,-28.800380023479462],[-52.151181622771716,-28.800441635880876]]]}},{"type":"Feature","properties":{"id_grade":"1KME5187N8138","pop":15,"dom":5,"universo_dom":"domicilios_ocupados_grade_ibge_2022","na_bacia":1,"area_pct_bacia":100.0,"metodo_recorte_bacia":"ponto_representativo_grade_2022; area_pct_geometrica"},"geometry":{"type":"Polygon","coordinates":[[[-52.14124203077153,-28.800380023479462],[-52.1413080699823,-28.791082427390215],[-52.1313688357944,-28.791020490074335],[-52.13130244346418,-28.800318080752774],[-52.14124203077153,-28.800380023479462]]]}},{"type":"Feature","properties":{"id_grade":"1KME5188N8138","pop":11,"dom":3,"universo_dom":"domicilios_ocupados_grade_ibge_2022","na_bacia":1,"area_pct_bacia":100.0,"metodo_recorte_bacia":"ponto_representativo_grade_2022; area_pct_geometrica"},"geometry":{"type":"Polygon","coordinates":[[[-52.13130244346418,-28.800318080752774],[-52.1313688357944,-28.791020490074335],[-52.12142960632389,-28.790958222462663],[-52.121362860874754,-28.800255807701117],[-52.13130244346418,-28.800318080752774]]]}},{"type":"Feature","properties":{"id_grade":"1KME5189N8138","pop":11,"dom":4,"universo_dom":"domicilios_ocupados_grade_ibge_2022","na_bacia":1,"area_pct_bacia":100.0,"metodo_recorte_bacia":"ponto_representativo_grade_2022; area_pct_geometrica"},"geometry":{"type":"Polygon","coordinates":[[[-52.121362860874754,-28.800255807701117],[-52.12142960632389,-28.790958222462663],[-52.11149038159591,-28.7908956245554],[-52.11142328302835,-28.800193204325375],[-52.121362860874754,-28.800255807701117]]]}},{"type":"Feature","properties":{"id_grade":"1KME5192N8138","pop":7,"dom":3,"universo_dom":"domicilios_ocupados_grade_ibge_2022","na_bacia":1,"area_pct_bacia":100.0,"metodo_recorte_bacia":"ponto_representativo_grade_2022; area_pct_geometrica"},"geometry":{"type":"Polygon","coordinates":[[[-52.091544141664954,-28.80006700660315],[-52.09161194646783,-28.790769437856984],[-52.08167273611791,-28.79070584906693],[-52.08160457819814,-28.80000341225803],[-52.091544141664954,-28.80006700660315]]]}},{"type":"Feature","properties":{"id_grade":"1KME5173N8139","pop":2,"dom":1,"universo_dom":"domicilios_ocupados_grade_ibge_2022","na_bacia":1,"area_pct_bacia":100.0,"metodo_recorte_bacia":"ponto_representativo_grade_2022; area_pct_geometrica"},"geometry":{"type":"Polygon","coordinates":[[[-52.280457829893166,-28.791914868410814],[-52.28051892103952,-28.782617681320765],[-52.27057997654306,-28.782560373213382],[-52.270518532295604,-28.791857555298716],[-52.280457829893166,-28.791914868410814]]]}},{"type":"Feature","properties":{"id_grade":"1KME5174N8139","pop":4,"dom":1,"universo_dom":"domicilios_ocupados_grade_ibge_2022","na_bacia":1,"area_pct_bacia":100.0,"metodo_recorte_bacia":"ponto_representativo_grade_2022; area_pct_geometrica"},"geometry":{"type":"Polygon","coordinates":[[[-52.270518532295604,-28.791857555298716],[-52.27057997654306,-28.782560373213382],[-52.260641036412316,-28.78250273483061],[-52.26057923906423,-28.791799911882556],[-52.270518532295604,-28.791857555298716]]]}},{"type":"Feature","properties":{"id_grade":"1KME5175N8139","pop":3,"dom":1,"universo_dom":"domicilios_ocupados_grade_ibge_2022","na_bacia":1,"area_pct_bacia":100.0,"metodo_recorte_bacia":"ponto_representativo_grade_2022; area_pct_geometrica"},"geometry":{"type":"Polygon","coordinates":[[[-52.26057923906423,-28.791799911882556],[-52.260641036412316,-28.78250273483061],[-52.250702100672385,-28.78244476617344],[-52.25063995022413,-28.791741938163238],[-52.26057923906423,-28.791799911882556]]]}},{"type":"Feature","properties":{"id_grade":"1KME5176N8139","pop":2,"dom":1,"universo_dom":"domicilios_ocupados_grade_ibge_2022","na_bacia":1,"area_pct_bacia":100.0,"metodo_recorte_bacia":"ponto_representativo_grade_2022; area_pct_geometrica"},"geometry":{"type":"Polygon","coordinates":[[[-52.25063995022413,-28.791741938163238],[-52.250702100672385,-28.78244476617344],[-52.24076316934834,-28.782386467242176],[-52.240700665800375,-28.791683634140934],[-52.25063995022413,-28.791741938163238]]]}},{"type":"Feature","properties":{"id_grade":"1KME5178N8139","pop":10,"dom":3,"universo_dom":"domicilios_ocupados_grade_ibge_2022","na_bacia":1,"area_pct_bacia":100.0,"metodo_recorte_bacia":"ponto_representativo_grade_2022; area_pct_geometrica"},"geometry":{"type":"Polygon","coordinates":[[[-52.230761385818084,-28.79162499981678],[-52.23082424246525,-28.78232783803772],[-52.22088532004825,-28.782268878560437],[-52.22082211030233,-28.791566035190687],[-52.230761385818084,-28.79162499981678]]]}},{"type":"Feature","properties":{"id_grade":"1KME5180N8139","pop":1,"dom":1,"universo_dom":"domicilios_ocupados_grade_ibge_2022","na_bacia":1,"area_pct_bacia":100.0,"metodo_recorte_bacia":"ponto_representativo_grade_2022; area_pct_geometrica"},"geometry":{"type":"Polygon","coordinates":[[[-52.2108828392782,-28.791506740263806],[-52.21094640212239,-28.782209588810883],[-52.20100748871276,-28.782149968789387],[-52.20094357277078,-28.79144711503614],[-52.2108828392782,-28.791506740263806]]]}},{"type":"Feature","properties":{"id_grade":"1KME5181N8139","pop":44,"dom":14,"universo_dom":"domicilios_ocupados_grade_ibge_2022","na_bacia":1,"area_pct_bacia":100.0,"metodo_recorte_bacia":"ponto_representativo_grade_2022; area_pct_geometrica"},"geometry":{"type":"Polygon","coordinates":[[[-52.20094357277078,-28.79144711503614],[-52.20100748871276,-28.782149968789387],[-52.19106857984446,-28.78209001849695],[-52.19100431080518,-28.791387159508528],[-52.20094357277078,-28.79144711503614]]]}},{"type":"Feature","properties":{"id_grade":"1KME5182N8139","pop":12,"dom":3,"universo_dom":"domicilios_ocupados_grade_ibge_2022","na_bacia":1,"area_pct_bacia":100.0,"metodo_recorte_bacia":"ponto_representativo_grade_2022; area_pct_geometrica"},"geometry":{"type":"Polygon","coordinates":[[[-52.19100431080518,-28.791387159508528],[-52.19106857984446,-28.78209001849695],[-52.18112967554256,-28.782029737934014],[-52.181065053406456,-28.79132687368136],[-52.19100431080518,-28.791387159508528]]]}},{"type":"Feature","properties":{"id_grade":"1KME5185N8139","pop":2,"dom":1,"universo_dom":"domicilios_ocupados_grade_ibge_2022","na_bacia":1,"area_pct_bacia":100.0,"metodo_recorte_bacia":"ponto_representativo_grade_2022; area_pct_geometrica"},"geometry":{"type":"Polygon","coordinates":[[[-52.161186552410065,-28.791205311131353],[-52.16125188073833,-28.78190818599828],[-52.151312990286165,-28.78184691462657],[-52.151247308862565,-28.791144034409367],[-52.161186552410065,-28.791205311131353]]]}},{"type":"Feature","properties":{"id_grade":"1KME5186N8139","pop":9,"dom":4,"universo_dom":"domicilios_ocupados_grade_ibge_2022","na_bacia":1,"area_pct_bacia":100.0,"metodo_recorte_bacia":"ponto_representativo_grade_2022; area_pct_geometrica"},"geometry":{"type":"Polygon","coordinates":[[[-52.151247308862565,-28.791144034409367],[-52.151312990286165,-28.78184691462657],[-52.14137410450075,-28.781785312986955],[-52.1413080699823,-28.791082427390215],[-52.151247308862565,-28.791144034409367]]]}},{"type":"Feature","properties":{"id_grade":"1KME5187N8139","pop":6,"dom":3,"universo_dom":"domicilios_ocupados_grade_ibge_2022","na_bacia":1,"area_pct_bacia":100.0,"metodo_recorte_bacia":"ponto_representativo_grade_2022; area_pct_geometrica"},"geometry":{"type":"Polygon","coordinates":[[[-52.1413080699823,-28.791082427390215],[-52.14137410450075,-28.781785312986955],[-52.13143522340717,-28.78172338107908],[-52.1313688357944,-28.791020490074335],[-52.1413080699823,-28.791082427390215]]]}},{"type":"Feature","properties":{"id_grade":"1KME5188N8139","pop":16,"dom":6,"universo_dom":"domicilios_ocupados_grade_ibge_2022","na_bacia":1,"area_pct_bacia":100.0,"metodo_recorte_bacia":"ponto_representativo_grade_2022; area_pct_geometrica"},"geometry":{"type":"Polygon","coordinates":[[[-52.1313688357944,-28.791020490074335],[-52.13143522340717,-28.78172338107908],[-52.12149634703052,-28.781661118904157],[-52.12142960632389,-28.790958222462663],[-52.1313688357944,-28.791020490074335]]]}},{"type":"Feature","properties":{"id_grade":"1KME5189N8139","pop":7,"dom":3,"universo_dom":"domicilios_ocupados_grade_ibge_2022","na_bacia":1,"area_pct_bacia":100.0,"metodo_recorte_bacia":"ponto_representativo_grade_2022; area_pct_geometrica"},"geometry":{"type":"Polygon","coordinates":[[[-52.12142960632389,-28.790958222462663],[-52.12149634703052,-28.781661118904157],[-52.11155747539587,-28.7815985264628],[-52.11149038159591,-28.7908956245554],[-52.12142960632389,-28.790958222462663]]]}},{"type":"Feature","properties":{"id_grade":"1KME5190N8139","pop":20,"dom":5,"universo_dom":"domicilios_ocupados_grade_ibge_2022","na_bacia":1,"area_pct_bacia":100.0,"metodo_recorte_bacia":"ponto_representativo_grade_2022; area_pct_geometrica"},"geometry":{"type":"Polygon","coordinates":[[[-52.11149038159591,-28.7908956245554],[-52.11155747539587,-28.7815985264628],[-52.101618608528305,-28.78153560375526],[-52.10155116163553,-28.79083269635335],[-52.11149038159591,-28.7908956245554]]]}},{"type":"Feature","properties":{"id_grade":"1KME5191N8139","pop":4,"dom":2,"universo_dom":"domicilios_ocupados_grade_ibge_2022","na_bacia":1,"area_pct_bacia":100.0,"metodo_recorte_bacia":"ponto_representativo_grade_2022; area_pct_geometrica"},"geometry":{"type":"Polygon","coordinates":[[[-52.10155116163553,-28.79083269635335],[-52.101618608528305,-28.78153560375526],[-52.091679746452925,-28.7814723507823],[-52.09161194646783,-28.790769437856984],[-52.10155116163553,-28.79083269635335]]]}},{"type":"Feature","properties":{"id_grade":"1KME5192N8139","pop":14,"dom":6,"universo_dom":"domicilios_ocupados_grade_ibge_2022","na_bacia":1,"area_pct_bacia":100.0,"metodo_recorte_bacia":"ponto_representativo_grade_2022; area_pct_geometrica"},"geometry":{"type":"Polygon","coordinates":[[[-52.09161194646783,-28.790769437856984],[-52.091679746452925,-28.7814723507823],[-52.08174088919481,-28.781408767544495],[-52.08167273611791,-28.79070584906693],[-52.09161194646783,-28.790769437856984]]]}},{"type":"Feature","properties":{"id_grade":"1KME5193N8139","pop":15,"dom":4,"universo_dom":"domicilios_ocupados_grade_ibge_2022","na_bacia":1,"area_pct_bacia":100.0,"metodo_recorte_bacia":"ponto_representativo_grade_2022; area_pct_geometrica"},"geometry":{"type":"Polygon","coordinates":[[[-52.08167273611791,-28.79070584906693],[-52.08174088919481,-28.781408767544495],[-52.07180203677904,-28.78134485404225],[-52.07173353061086,-28.790641929983913],[-52.08167273611791,-28.79070584906693]]]}},{"type":"Feature","properties":{"id_grade":"1KME5175N8140","pop":4,"dom":2,"universo_dom":"domicilios_ocupados_grade_ibge_2022","na_bacia":1,"area_pct_bacia":100.0,"metodo_recorte_bacia":"ponto_representativo_grade_2022; area_pct_geometrica"},"geometry":{"type":"Polygon","coordinates":[[[-52.260641036412316,-28.78250273483061],[-52.2607028293696,-28.77320603912691],[-52.25076424670475,-28.77314807552924],[-52.250702100672385,-28.78244476617344],[-52.260641036412316,-28.78250273483061]]]}},{"type":"Feature","properties":{"id_grade":"1KME5176N8140","pop":5,"dom":2,"universo_dom":"domicilios_ocupados_grade_ibge_2022","na_bacia":1,"area_pct_bacia":100.0,"metodo_recorte_bacia":"ponto_representativo_grade_2022; area_pct_geometrica"},"geometry":{"type":"Polygon","coordinates":[[[-52.250702100672385,-28.78244476617344],[-52.25076424670475,-28.77314807552924],[-52.24082566845531,-28.773089781686462],[-52.24076316934834,-28.782386467242176],[-52.250702100672385,-28.78244476617344]]]}},{"type":"Feature","properties":{"id_grade":"1KME5178N8140","pop":5,"dom":2,"universo_dom":"domicilios_ocupados_grade_ibge_2022","na_bacia":1,"area_pct_bacia":100.0,"metodo_recorte_bacia":"ponto_representativo_grade_2022; area_pct_geometrica"},"geometry":{"type":"Polygon","coordinates":[[[-52.23082424246525,-28.78232783803772],[-52.23088709464637,-28.773031157599146],[-52.22094852530302,-28.772972203267628],[-52.22088532004825,-28.782268878560437],[-52.23082424246525,-28.78232783803772]]]}},{"type":"Feature","properties":{"id_grade":"1KME5179N8140","pop":8,"dom":4,"universo_dom":"domicilios_ocupados_grade_ibge_2022","na_bacia":1,"area_pct_bacia":100.0,"metodo_recorte_bacia":"ponto_representativo_grade_2022; area_pct_geometrica"},"geometry":{"type":"Polygon","coordinates":[[[-52.22088532004825,-28.782268878560437],[-52.22094852530302,-28.772972203267628],[-52.211009960450355,-28.772912918692988],[-52.21094640212239,-28.782209588810883],[-52.22088532004825,-28.782268878560437]]]}},{"type":"Feature","properties":{"id_grade":"1KME5180N8140","pop":8,"dom":2,"universo_dom":"domicilios_ocupados_grade_ibge_2022","na_bacia":1,"area_pct_bacia":100.0,"metodo_recorte_bacia":"ponto_representativo_grade_2022; area_pct_geometrica"},"geometry":{"type":"Polygon","coordinates":[[[-52.21094640212239,-28.782209588810883],[-52.211009960450355,-28.772912918692988],[-52.20107140011342,-28.772853303875262],[-52.20100748871276,-28.782149968789387],[-52.21094640212239,-28.782209588810883]]]}},{"type":"Feature","properties":{"id_grade":"1KME5181N8140","pop":6,"dom":3,"universo_dom":"domicilios_ocupados_grade_ibge_2022","na_bacia":1,"area_pct_bacia":100.0,"metodo_recorte_bacia":"ponto_representativo_grade_2022; area_pct_geometrica"},"geometry":{"type":"Polygon","coordinates":[[[-52.20100748871276,-28.782149968789387],[-52.20107140011342,-28.772853303875262],[-52.19113284431733,-28.772793358815342],[-52.19106857984446,-28.78209001849695],[-52.20100748871276,-28.782149968789387]]]}},{"type":"Feature","properties":{"id_grade":"1KME5182N8140","pop":6,"dom":4,"universo_dom":"domicilios_ocupados_grade_ibge_2022","na_bacia":1,"area_pct_bacia":100.0,"metodo_recorte_bacia":"ponto_representativo_grade_2022; area_pct_geometrica"},"geometry":{"type":"Polygon","coordinates":[[[-52.19106857984446,-28.78209001849695],[-52.19113284431733,-28.772793358815342],[-52.18119429308717,-28.772733083513188],[-52.18112967554256,-28.782029737934014],[-52.19106857984446,-28.78209001849695]]]}},{"type":"Feature","properties":{"id_grade":"1KME5185N8140","pop":8,"dom":3,"universo_dom":"domicilios_ocupados_grade_ibge_2022","na_bacia":1,"area_pct_bacia":100.0,"metodo_recorte_bacia":"ponto_representativo_grade_2022; area_pct_geometrica"},"geometry":{"type":"Polygon","coordinates":[[[-52.16125188073833,-28.78190818599828],[-52.16131720442492,-28.772611542186304],[-52.15137866704301,-28.772550276162264],[-52.151312990286165,-28.78184691462657],[-52.16125188073833,-28.78190818599828]]]}},{"type":"Feature","properties":{"id_grade":"1KME5186N8140","pop":2,"dom":1,"universo_dom":"domicilios_ocupados_grade_ibge_2022","na_bacia":1,"area_pct_bacia":100.0,"metodo_recorte_bacia":"ponto_representativo_grade_2022; area_pct_geometrica"},"geometry":{"type":"Polygon","coordinates":[[[-52.151312990286165,-28.78184691462657],[-52.15137866704301,-28.772550276162264],[-52.141440134327354,-28.77248867989897],[-52.14137410450075,-28.781785312986955],[-52.151312990286165,-28.78184691462657]]]}},{"type":"Feature","properties":{"id_grade":"1KME5187N8140","pop":5,"dom":2,"universo_dom":"domicilios_ocupados_grade_ibge_2022","na_bacia":1,"area_pct_bacia":100.0,"metodo_recorte_bacia":"ponto_representativo_grade_2022; area_pct_geometrica"},"geometry":{"type":"Polygon","coordinates":[[[-52.14137410450075,-28.781785312986955],[-52.141440134327354,-28.77248867989897],[-52.13150160630303,-28.772426753396577],[-52.13143522340717,-28.78172338107908],[-52.14137410450075,-28.781785312986955]]]}},{"type":"Feature","properties":{"id_grade":"1KME5190N8140","pop":6,"dom":3,"universo_dom":"domicilios_ocupados_grade_ibge_2022","na_bacia":1,"area_pct_bacia":100.0,"metodo_recorte_bacia":"ponto_representativo_grade_2022; area_pct_geometrica"},"geometry":{"type":"Polygon","coordinates":[[[-52.11155747539587,-28.7815985264628],[-52.11162456442873,-28.772301909677065],[-52.10168605062892,-28.772238992461197],[-52.101618608528305,-28.78153560375526],[-52.11155747539587,-28.7815985264628]]]}},{"type":"Feature","properties":{"id_grade":"1KME5191N8140","pop":3,"dom":1,"universo_dom":"domicilios_ocupados_grade_ibge_2022","na_bacia":1,"area_pct_bacia":100.0,"metodo_recorte_bacia":"ponto_representativo_grade_2022; area_pct_geometrica"},"geometry":{"type":"Polygon","coordinates":[[[-52.101618608528305,-28.78153560375526],[-52.10168605062892,-28.772238992461197],[-52.09174754162077,-28.772175745008653],[-52.091679746452925,-28.7814723507823],[-52.101618608528305,-28.78153560375526]]]}},{"type":"Feature","properties":{"id_grade":"1KME5192N8140","pop":4,"dom":1,"universo_dom":"domicilios_ocupados_grade_ibge_2022","na_bacia":1,"area_pct_bacia":100.0,"metodo_recorte_bacia":"ponto_representativo_grade_2022; area_pct_geometrica"},"geometry":{"type":"Polygon","coordinates":[[[-52.091679746452925,-28.7814723507823],[-52.09174754162077,-28.772175745008653],[-52.081809037429366,-28.772112167320092],[-52.08174088919481,-28.781408767544495],[-52.091679746452925,-28.7814723507823]]]}},{"type":"Feature","properties":{"id_grade":"1KME5174N8141","pop":7,"dom":3,"universo_dom":"domicilios_ocupados_grade_ibge_2022","na_bacia":1,"area_pct_bacia":100.0,"metodo_recorte_bacia":"ponto_representativo_grade_2022; area_pct_geometrica"},"geometry":{"type":"Polygon","coordinates":[[[-52.270641416424795,-28.773263672478773],[-52.27070285194128,-28.763967452725634],[-52.26076461793655,-28.76390982440148],[-52.2607028293696,-28.77320603912691],[-52.270641416424795,-28.773263672478773]]]}},{"type":"Feature","properties":{"id_grade":"1KME5177N8141","pop":4,"dom":1,"universo_dom":"domicilios_ocupados_grade_ibge_2022","na_bacia":1,"area_pct_bacia":100.0,"metodo_recorte_bacia":"ponto_representativo_grade_2022; area_pct_geometrica"},"geometry":{"type":"Polygon","coordinates":[[[-52.24082566845531,-28.773089781686462],[-52.24088816312178,-28.763793577103897],[-52.230949942361896,-28.763734958130932],[-52.23088709464637,-28.773031157599146],[-52.24082566845531,-28.773089781686462]]]}},{"type":"Feature","properties":{"id_grade":"1KME5178N8141","pop":5,"dom":3,"universo_dom":"domicilios_ocupados_grade_ibge_2022","na_bacia":1,"area_pct_bacia":100.0,"metodo_recorte_bacia":"ponto_representativo_grade_2022; area_pct_geometrica"},"geometry":{"type":"Polygon","coordinates":[[[-52.23088709464637,-28.773031157599146],[-52.230949942361896,-28.763734958130932],[-52.221011726067125,-28.76367600894265],[-52.22094852530302,-28.772972203267628],[-52.23088709464637,-28.773031157599146]]]}},{"type":"Feature","properties":{"id_grade":"1KME5179N8141","pop":4,"dom":2,"universo_dom":"domicilios_ocupados_grade_ibge_2022","na_bacia":1,"area_pct_bacia":100.0,"metodo_recorte_bacia":"ponto_representativo_grade_2022; area_pct_geometrica"},"geometry":{"type":"Polygon","coordinates":[[[-52.22094852530302,-28.772972203267628],[-52.221011726067125,-28.76367600894265],[-52.211073514262544,-28.76361672953996],[-52.211009960450355,-28.772912918692988],[-52.22094852530302,-28.772972203267628]]]}},{"type":"Feature","properties":{"id_grade":"1KME5183N8141","pop":25,"dom":10,"universo_dom":"domicilios_ocupados_grade_ibge_2022","na_bacia":1,"area_pct_bacia":100.0,"metodo_recorte_bacia":"ponto_representativo_grade_2022; area_pct_geometrica"},"geometry":{"type":"Polygon","coordinates":[[[-52.18119429308717,-28.772733083513188],[-52.18125890604077,-28.763436910049087],[-52.17132071244775,-28.7633763097934],[-52.171255746448,-28.772672477970197],[-52.18119429308717,-28.772733083513188]]]}},{"type":"Feature","properties":{"id_grade":"1KME5185N8141","pop":16,"dom":5,"universo_dom":"domicilios_ocupados_grade_ibge_2022","na_bacia":1,"area_pct_bacia":100.0,"metodo_recorte_bacia":"ponto_representativo_grade_2022; area_pct_geometrica"},"geometry":{"type":"Polygon","coordinates":[[[-52.16131720442492,-28.772611542186304],[-52.161382523470344,-28.76331537932562],[-52.151444339133604,-28.763254118646294],[-52.15137866704301,-28.772550276162264],[-52.16131720442492,-28.772611542186304]]]}},{"type":"Feature","properties":{"id_grade":"1KME5186N8141","pop":4,"dom":2,"universo_dom":"domicilios_ocupados_grade_ibge_2022","na_bacia":1,"area_pct_bacia":100.0,"metodo_recorte_bacia":"ponto_representativo_grade_2022; area_pct_geometrica"},"geometry":{"type":"Polygon","coordinates":[[[-52.15137866704301,-28.772550276162264],[-52.151444339133604,-28.763254118646294],[-52.14150615946262,-28.76319252775632],[-52.141440134327354,-28.77248867989897],[-52.15137866704301,-28.772550276162264]]]}},{"type":"Feature","properties":{"id_grade":"1KME5188N8141","pop":21,"dom":6,"universo_dom":"domicilios_ocupados_grade_ibge_2022","na_bacia":1,"area_pct_bacia":100.0,"metodo_recorte_bacia":"ponto_representativo_grade_2022; area_pct_geometrica"},"geometry":{"type":"Polygon","coordinates":[[[-52.13150160630303,-28.772426753396577],[-52.13156798448248,-28.76313060665624],[-52.12162981421825,-28.763068355346725],[-52.12156308299514,-28.77236449665563],[-52.13150160630303,-28.772426753396577]]]}},{"type":"Feature","properties":{"id_grade":"1KME5189N8141","pop":17,"dom":7,"universo_dom":"domicilios_ocupados_grade_ibge_2022","na_bacia":1,"area_pct_bacia":100.0,"metodo_recorte_bacia":"ponto_representativo_grade_2022; area_pct_geometrica"},"geometry":{"type":"Polygon","coordinates":[[[-52.12156308299514,-28.77236449665563],[-52.12162981421825,-28.763068355346725],[-52.11169164869502,-28.763005773827807],[-52.11162456442873,-28.772301909677065],[-52.12156308299514,-28.77236449665563]]]}},{"type":"Feature","properties":{"id_grade":"1KME5190N8141","pop":53,"dom":18,"universo_dom":"domicilios_ocupados_grade_ibge_2022","na_bacia":1,"area_pct_bacia":100.0,"metodo_recorte_bacia":"ponto_representativo_grade_2022; area_pct_geometrica"},"geometry":{"type":"Polygon","coordinates":[[[-52.11162456442873,-28.772301909677065],[-52.11169164869502,-28.763005773827807],[-52.101753487937856,-28.76294286210094],[-52.10168605062892,-28.772238992461197],[-52.11162456442873,-28.772301909677065]]]}},{"type":"Feature","properties":{"id_grade":"1KME5191N8141","pop":16,"dom":5,"universo_dom":"domicilios_ocupados_grade_ibge_2022","na_bacia":1,"area_pct_bacia":100.0,"metodo_recorte_bacia":"ponto_representativo_grade_2022; area_pct_geometrica"},"geometry":{"type":"Polygon","coordinates":[[[-52.10168605062892,-28.772238992461197],[-52.101753487937856,-28.76294286210094],[-52.09181533197186,-28.762879620165997],[-52.09174754162077,-28.772175745008653],[-52.10168605062892,-28.772238992461197]]]}},{"type":"Feature","properties":{"id_grade":"1KME5192N8141","pop":5,"dom":1,"universo_dom":"domicilios_ocupados_grade_ibge_2022","na_bacia":1,"area_pct_bacia":100.0,"metodo_recorte_bacia":"ponto_representativo_grade_2022; area_pct_geometrica"},"geometry":{"type":"Polygon","coordinates":[[[-52.09174754162077,-28.772175745008653],[-52.09181533197186,-28.762879620165997],[-52.08187718082209,-28.762816048023762],[-52.081809037429366,-28.772112167320092],[-52.09174754162077,-28.772175745008653]]]}},{"type":"Feature","properties":{"id_grade":"1KME5193N8141","pop":17,"dom":6,"universo_dom":"domicilios_ocupados_grade_ibge_2022","na_bacia":1,"area_pct_bacia":100.0,"metodo_recorte_bacia":"ponto_representativo_grade_2022; area_pct_geometrica"},"geometry":{"type":"Polygon","coordinates":[[[-52.081809037429366,-28.772112167320092],[-52.08187718082209,-28.762816048023762],[-52.07193903451364,-28.76275214567484],[-52.0718705380798,-28.77204825939602],[-52.081809037429366,-28.772112167320092]]]}},{"type":"Feature","properties":{"id_grade":"1KME5171N8142","pop":16,"dom":5,"universo_dom":"domicilios_ocupados_grade_ibge_2022","na_bacia":1,"area_pct_bacia":100.0,"metodo_recorte_bacia":"ponto_representativo_grade_2022; area_pct_geometrica"},"geometry":{"type":"Polygon","coordinates":[[[-52.30051758004386,-28.764138356391108],[-52.30057795211662,-28.75484260234521],[-52.29064005811955,-28.75478596961403],[-52.29057933302001,-28.76408171872072],[-52.30051758004386,-28.764138356391108]]]}},{"type":"Feature","properties":{"id_grade":"1KME5172N8142","pop":2,"dom":1,"universo_dom":"domicilios_ocupados_grade_ibge_2022","na_bacia":1,"area_pct_bacia":100.0,"metodo_recorte_bacia":"ponto_representativo_grade_2022; area_pct_geometrica"},"geometry":{"type":"Polygon","coordinates":[[[-52.29057933302001,-28.76408171872072],[-52.29064005811955,-28.75478596961403],[-52.28070216843664,-28.754729006693193],[-52.280641090310795,-28.76402475083217],[-52.29057933302001,-28.76408171872072]]]}},{"type":"Feature","properties":{"id_grade":"1KME5174N8142","pop":8,"dom":2,"universo_dom":"domicilios_ocupados_grade_ibge_2022","na_bacia":1,"area_pct_bacia":100.0,"metodo_recorte_bacia":"ponto_representativo_grade_2022; area_pct_geometrica"},"geometry":{"type":"Polygon","coordinates":[[[-52.27070285194128,-28.763967452725634],[-52.27076428309298,-28.75467171358322],[-52.26082640211363,-28.75461409028458],[-52.26076461793655,-28.76390982440148],[-52.27070285194128,-28.763967452725634]]]}},{"type":"Feature","properties":{"id_grade":"1KME5176N8142","pop":3,"dom":1,"universo_dom":"domicilios_ocupados_grade_ibge_2022","na_bacia":1,"area_pct_bacia":100.0,"metodo_recorte_bacia":"ponto_representativo_grade_2022; area_pct_geometrica"},"geometry":{"type":"Polygon","coordinates":[[[-52.25082638832169,-28.763851865860826],[-52.25088852552369,-28.754556136798016],[-52.24095065334822,-28.75449785312388],[-52.24088816312178,-28.763793577103897],[-52.25082638832169,-28.763851865860826]]]}},{"type":"Feature","properties":{"id_grade":"1KME5179N8142","pop":3,"dom":1,"universo_dom":"domicilios_ocupados_grade_ibge_2022","na_bacia":1,"area_pct_bacia":100.0,"metodo_recorte_bacia":"ponto_representativo_grade_2022; area_pct_geometrica"},"geometry":{"type":"Polygon","coordinates":[[[-52.221011726067125,-28.76367600894265],[-52.22107492234104,-28.754380295215196],[-52.21113706355948,-28.75432102098171],[-52.211073514262544,-28.76361672953996],[-52.221011726067125,-28.76367600894265]]]}},{"type":"Feature","properties":{"id_grade":"1KME5180N8142","pop":3,"dom":2,"universo_dom":"domicilios_ocupados_grade_ibge_2022","na_bacia":1,"area_pct_bacia":100.0,"metodo_recorte_bacia":"ponto_representativo_grade_2022; area_pct_geometrica"},"geometry":{"type":"Polygon","coordinates":[[[-52.211073514262544,-28.76361672953996],[-52.21113706355948,-28.75432102098171],[-52.20119920929271,-28.754261416562905],[-52.201135306973235,-28.763557119923068],[-52.211073514262544,-28.76361672953996]]]}},{"type":"Feature","properties":{"id_grade":"1KME5182N8142","pop":30,"dom":10,"universo_dom":"domicilios_ocupados_grade_ibge_2022","na_bacia":1,"area_pct_bacia":100.0,"metodo_recorte_bacia":"ponto_representativo_grade_2022; area_pct_geometrica"},"geometry":{"type":"Polygon","coordinates":[[[-52.19119710422429,-28.76349718009246],[-52.19126135956581,-28.75420148195934],[-52.18132351440385,-28.754141217171636],[-52.18125890604077,-28.763436910049087],[-52.19119710422429,-28.76349718009246]]]}},{"type":"Feature","properties":{"id_grade":"1KME5185N8142","pop":3,"dom":1,"universo_dom":"domicilios_ocupados_grade_ibge_2022","na_bacia":1,"area_pct_bacia":100.0,"metodo_recorte_bacia":"ponto_representativo_grade_2022; area_pct_geometrica"},"geometry":{"type":"Polygon","coordinates":[[[-52.161382523470344,-28.76331537932562],[-52.161447837875095,-28.754019697045464],[-52.151510006558446,-28.753958441708296],[-52.151444339133604,-28.763254118646294],[-52.161382523470344,-28.76331537932562]]]}},{"type":"Feature","properties":{"id_grade":"1KME5186N8142","pop":32,"dom":11,"universo_dom":"domicilios_ocupados_grade_ibge_2022","na_bacia":1,"area_pct_bacia":100.0,"metodo_recorte_bacia":"ponto_representativo_grade_2022; area_pct_geometrica"},"geometry":{"type":"Polygon","coordinates":[[[-52.151444339133604,-28.763254118646294],[-52.151510006558446,-28.753958441708296],[-52.141572179907065,-28.753896856189034],[-52.14150615946262,-28.76319252775632],[-52.151444339133604,-28.763254118646294]]]}},{"type":"Feature","properties":{"id_grade":"1KME5187N8142","pop":15,"dom":4,"universo_dom":"domicilios_ocupados_grade_ibge_2022","na_bacia":1,"area_pct_bacia":100.0,"metodo_recorte_bacia":"ponto_representativo_grade_2022; area_pct_geometrica"},"geometry":{"type":"Polygon","coordinates":[[[-52.14150615946262,-28.76319252775632],[-52.141572179907065,-28.753896856189034],[-52.13163435794601,-28.75383494048869],[-52.13156798448248,-28.76313060665624],[-52.14150615946262,-28.76319252775632]]]}},{"type":"Feature","properties":{"id_grade":"1KME5189N8142","pop":11,"dom":4,"universo_dom":"domicilios_ocupados_grade_ibge_2022","na_bacia":1,"area_pct_bacia":100.0,"metodo_recorte_bacia":"ponto_representativo_grade_2022; area_pct_geometrica"},"geometry":{"type":"Polygon","coordinates":[[[-52.12162981421825,-28.763068355346725],[-52.12169654070037,-28.753772694607363],[-52.11175872819522,-28.753710118545627],[-52.11169164869502,-28.763005773827807],[-52.12162981421825,-28.763068355346725]]]}},{"type":"Feature","properties":{"id_grade":"1KME5190N8142","pop":3,"dom":1,"universo_dom":"domicilios_ocupados_grade_ibge_2022","na_bacia":1,"area_pct_bacia":100.0,"metodo_recorte_bacia":"ponto_representativo_grade_2022; area_pct_geometrica"},"geometry":{"type":"Polygon","coordinates":[[[-52.11169164869502,-28.763005773827807],[-52.11175872819522,-28.753710118545627],[-52.10182092045564,-28.75364721230448],[-52.101753487937856,-28.76294286210094],[-52.11169164869502,-28.763005773827807]]]}},{"type":"Feature","properties":{"id_grade":"1KME5192N8142","pop":10,"dom":3,"universo_dom":"domicilios_ocupados_grade_ibge_2022","na_bacia":1,"area_pct_bacia":100.0,"metodo_recorte_bacia":"ponto_representativo_grade_2022; area_pct_geometrica"},"geometry":{"type":"Polygon","coordinates":[[[-52.09181533197186,-28.762879620165997],[-52.091883117506704,-28.75358397588434],[-52.0819453193735,-28.75352040928538],[-52.08187718082209,-28.762816048023762],[-52.09181533197186,-28.762879620165997]]]}},{"type":"Feature","properties":{"id_grade":"1KME5171N8143","pop":6,"dom":2,"universo_dom":"domicilios_ocupados_grade_ibge_2022","na_bacia":1,"area_pct_bacia":100.0,"metodo_recorte_bacia":"ponto_representativo_grade_2022; area_pct_geometrica"},"geometry":{"type":"Polygon","coordinates":[[[-52.30057795211662,-28.75484260234521],[-52.3006383199003,-28.745547328548213],[-52.29070077890493,-28.74549070075334],[-52.29064005811955,-28.75478596961403],[-52.30057795211662,-28.75484260234521]]]}},{"type":"Feature","properties":{"id_grade":"1KME5172N8143","pop":9,"dom":3,"universo_dom":"domicilios_ocupados_grade_ibge_2022","na_bacia":1,"area_pct_bacia":100.0,"metodo_recorte_bacia":"ponto_representativo_grade_2022; area_pct_geometrica"},"geometry":{"type":"Polygon","coordinates":[[[-52.29064005811955,-28.75478596961403],[-52.29070077890493,-28.74549070075334],[-52.28076324222325,-28.745433742797772],[-52.28070216843664,-28.754729006693193],[-52.29064005811955,-28.75478596961403]]]}},{"type":"Feature","properties":{"id_grade":"1KME5173N8143","pop":3,"dom":1,"universo_dom":"domicilios_ocupados_grade_ibge_2022","na_bacia":1,"area_pct_bacia":100.0,"metodo_recorte_bacia":"ponto_representativo_grade_2022; area_pct_geometrica"},"geometry":{"type":"Polygon","coordinates":[[[-52.28070216843664,-28.754729006693193],[-52.28076324222325,-28.745433742797772],[-52.27082570988035,-28.745376454682102],[-52.27076428309298,-28.75467171358322],[-52.28070216843664,-28.754729006693193]]]}},{"type":"Feature","properties":{"id_grade":"1KME5174N8143","pop":2,"dom":2,"universo_dom":"domicilios_ocupados_grade_ibge_2022","na_bacia":1,"area_pct_bacia":100.0,"metodo_recorte_bacia":"ponto_representativo_grade_2022; area_pct_geometrica"},"geometry":{"type":"Polygon","coordinates":[[[-52.27076428309298,-28.75467171358322],[-52.27082570988035,-28.745376454682102],[-52.260888181901315,-28.74531883640599],[-52.26082640211363,-28.75461409028458],[-52.27076428309298,-28.75467171358322]]]}},{"type":"Feature","properties":{"id_grade":"1KME5175N8143","pop":5,"dom":2,"universo_dom":"domicilios_ocupados_grade_ibge_2022","na_bacia":1,"area_pct_bacia":100.0,"metodo_recorte_bacia":"ponto_representativo_grade_2022; area_pct_geometrica"},"geometry":{"type":"Polygon","coordinates":[[[-52.26082640211363,-28.75461409028458],[-52.260888181901315,-28.74531883640599],[-52.25095065831121,-28.745260887971018],[-52.25088852552369,-28.754556136798016],[-52.26082640211363,-28.75461409028458]]]}},{"type":"Feature","properties":{"id_grade":"1KME5180N8143","pop":11,"dom":4,"universo_dom":"domicilios_ocupados_grade_ibge_2022","na_bacia":1,"area_pct_bacia":100.0,"metodo_recorte_bacia":"ponto_representativo_grade_2022; area_pct_geometrica"},"geometry":{"type":"Polygon","coordinates":[[[-52.21113706355948,-28.75432102098171],[-52.21120060834161,-28.74502579264846],[-52.20126310707231,-28.744966193424883],[-52.20119920929271,-28.754261416562905],[-52.21113706355948,-28.75432102098171]]]}},{"type":"Feature","properties":{"id_grade":"1KME5181N8143","pop":15,"dom":6,"universo_dom":"domicilios_ocupados_grade_ibge_2022","na_bacia":1,"area_pct_bacia":100.0,"metodo_recorte_bacia":"ponto_representativo_grade_2022; area_pct_geometrica"},"geometry":{"type":"Polygon","coordinates":[[[-52.20119920929271,-28.754261416562905],[-52.20126310707231,-28.744966193424883],[-52.19132561034238,-28.74490626404555],[-52.19126135956581,-28.75420148195934],[-52.20119920929271,-28.754261416562905]]]}},{"type":"Feature","properties":{"id_grade":"1KME5182N8143","pop":44,"dom":15,"universo_dom":"domicilios_ocupados_grade_ibge_2022","na_bacia":1,"area_pct_bacia":100.0,"metodo_recorte_bacia":"ponto_representativo_grade_2022; area_pct_geometrica"},"geometry":{"type":"Polygon","coordinates":[[[-52.19126135956581,-28.75420148195934],[-52.19132561034238,-28.74490626404555],[-52.18138811817691,-28.744846004510727],[-52.18132351440385,-28.754141217171636],[-52.19126135956581,-28.75420148195934]]]}},{"type":"Feature","properties":{"id_grade":"1KME5187N8143","pop":6,"dom":2,"universo_dom":"domicilios_ocupados_grade_ibge_2022","na_bacia":1,"area_pct_bacia":100.0,"metodo_recorte_bacia":"ponto_representativo_grade_2022; area_pct_geometrica"},"geometry":{"type":"Polygon","coordinates":[[[-52.141572179907065,-28.753896856189034],[-52.14163819566116,-28.744601664827425],[-52.13170072669413,-28.744539754523554],[-52.13163435794601,-28.75383494048869],[-52.141572179907065,-28.753896856189034]]]}},{"type":"Feature","properties":{"id_grade":"1KME5188N8143","pop":2,"dom":1,"universo_dom":"domicilios_ocupados_grade_ibge_2022","na_bacia":1,"area_pct_bacia":100.0,"metodo_recorte_bacia":"ponto_representativo_grade_2022; area_pct_geometrica"},"geometry":{"type":"Polygon","coordinates":[[[-52.13163435794601,-28.75383494048869],[-52.13170072669413,-28.744539754523554],[-52.121763262442,-28.7444775140677],[-52.12169654070037,-28.753772694607363],[-52.13163435794601,-28.75383494048869]]]}},{"type":"Feature","properties":{"id_grade":"1KME5189N8143","pop":6,"dom":3,"universo_dom":"domicilios_ocupados_grade_ibge_2022","na_bacia":1,"area_pct_bacia":100.0,"metodo_recorte_bacia":"ponto_representativo_grade_2022; area_pct_geometrica"},"geometry":{"type":"Polygon","coordinates":[[[-52.12169654070037,-28.753772694607363],[-52.121763262442,-28.7444775140677],[-52.111825802929864,-28.744414943460306],[-52.11175872819522,-28.753710118545627],[-52.12169654070037,-28.753772694607363]]]}},{"type":"Feature","properties":{"id_grade":"1KME5190N8143","pop":3,"dom":1,"universo_dom":"domicilios_ocupados_grade_ibge_2022","na_bacia":1,"area_pct_bacia":100.0,"metodo_recorte_bacia":"ponto_representativo_grade_2022; area_pct_geometrica"},"geometry":{"type":"Polygon","coordinates":[[[-52.11175872819522,-28.753710118545627],[-52.111825802929864,-28.744414943460306],[-52.10188834818278,-28.74435204270205],[-52.10182092045564,-28.75364721230448],[-52.11175872819522,-28.753710118545627]]]}},{"type":"Feature","properties":{"id_grade":"1KME5191N8143","pop":4,"dom":1,"universo_dom":"domicilios_ocupados_grade_ibge_2022","na_bacia":1,"area_pct_bacia":100.0,"metodo_recorte_bacia":"ponto_representativo_grade_2022; area_pct_geometrica"},"geometry":{"type":"Polygon","coordinates":[[[-52.10182092045564,-28.75364721230448],[-52.10188834818278,-28.74435204270205],[-52.09195089822584,-28.74428881179349],[-52.091883117506704,-28.75358397588434],[-52.10182092045564,-28.75364721230448]]]}},{"type":"Feature","properties":{"id_grade":"1KME5192N8143","pop":3,"dom":1,"universo_dom":"domicilios_ocupados_grade_ibge_2022","na_bacia":1,"area_pct_bacia":100.0,"metodo_recorte_bacia":"ponto_representativo_grade_2022; area_pct_geometrica"},"geometry":{"type":"Polygon","coordinates":[[[-52.091883117506704,-28.75358397588434],[-52.09195089822584,-28.74428881179349],[-52.0820134530841,-28.744225250735074],[-52.0819453193735,-28.75352040928538],[-52.091883117506704,-28.75358397588434]]]}},{"type":"Feature","properties":{"id_grade":"1KME5172N8144","pop":7,"dom":3,"universo_dom":"domicilios_ocupados_grade_ibge_2022","na_bacia":1,"area_pct_bacia":100.0,"metodo_recorte_bacia":"ponto_representativo_grade_2022; area_pct_geometrica"},"geometry":{"type":"Polygon","coordinates":[[[-52.29070077890493,-28.74549070075334],[-52.29076149537659,-28.73619591176969],[-52.28082431167107,-28.736138958776806],[-52.28076324222325,-28.745433742797772],[-52.29070077890493,-28.74549070075334]]]}},{"type":"Feature","properties":{"id_grade":"1KME5173N8144","pop":5,"dom":1,"universo_dom":"domicilios_ocupados_grade_ibge_2022","na_bacia":1,"area_pct_bacia":100.0,"metodo_recorte_bacia":"ponto_representativo_grade_2022; area_pct_geometrica"},"geometry":{"type":"Polygon","coordinates":[[[-52.28076324222325,-28.745433742797772],[-52.28082431167107,-28.736138958776806],[-52.270887132303876,-28.736081675652088],[-52.27082570988035,-28.745376454682102],[-52.28076324222325,-28.745433742797772]]]}},{"type":"Feature","properties":{"id_grade":"1KME5174N8144","pop":3,"dom":2,"universo_dom":"domicilios_ocupados_grade_ibge_2022","na_bacia":1,"area_pct_bacia":100.0,"metodo_recorte_bacia":"ponto_representativo_grade_2022; area_pct_geometrica"},"geometry":{"type":"Polygon","coordinates":[[[-52.27082570988035,-28.745376454682102],[-52.270887132303876,-28.736081675652088],[-52.26094995730006,-28.736024062396368],[-52.260888181901315,-28.74531883640599],[-52.27082570988035,-28.745376454682102]]]}},{"type":"Feature","properties":{"id_grade":"1KME5175N8144","pop":4,"dom":1,"universo_dom":"domicilios_ocupados_grade_ibge_2022","na_bacia":1,"area_pct_bacia":100.0,"metodo_recorte_bacia":"ponto_representativo_grade_2022; area_pct_geometrica"},"geometry":{"type":"Polygon","coordinates":[[[-52.260888181901315,-28.74531883640599],[-52.26094995730006,-28.736024062396368],[-52.25101278668472,-28.73596611901011],[-52.25095065831121,-28.745260887971018],[-52.260888181901315,-28.74531883640599]]]}},{"type":"Feature","properties":{"id_grade":"1KME5174N8145","pop":14,"dom":4,"universo_dom":"domicilios_ocupados_grade_ibge_2022","na_bacia":1,"area_pct_bacia":100.0,"metodo_recorte_bacia":"ponto_representativo_grade_2022; area_pct_geometrica"},"geometry":{"type":"Polygon","coordinates":[[[-52.270887132303876,-28.736081675652088],[-52.270948550364004,-28.726787376124157],[-52.26101172831034,-28.726729767886113],[-52.26094995730006,-28.736024062396368],[-52.270887132303876,-28.736081675652088]]]}},{"type":"Feature","properties":{"id_grade":"1KME5173N8146","pop":13,"dom":4,"universo_dom":"domicilios_ocupados_grade_ibge_2022","na_bacia":1,"area_pct_bacia":100.0,"metodo_recorte_bacia":"ponto_representativo_grade_2022; area_pct_geometrica"},"geometry":{"type":"Polygon","coordinates":[[[-52.28088537678058,-28.726844654260034],[-52.28094643755223,-28.717550828878764],[-52.27100996406121,-28.717493555729],[-52.270948550364004,-28.726787376124157],[-52.28088537678058,-28.726844654260034]]]}},{"type":"Feature","properties":{"id_grade":"1KME5174N8146","pop":5,"dom":2,"universo_dom":"domicilios_ocupados_grade_ibge_2022","na_bacia":1,"area_pct_bacia":100.0,"metodo_recorte_bacia":"ponto_representativo_grade_2022; area_pct_geometrica"},"geometry":{"type":"Polygon","coordinates":[[[-52.270948550364004,-28.726787376124157],[-52.27100996406121,-28.717493555729],[-52.26107349493264,-28.717435952505582],[-52.26101172831034,-28.726729767886113],[-52.270948550364004,-28.726787376124157]]]}},{"type":"Feature","properties":{"id_grade":"1KME5174N8147","pop":5,"dom":1,"universo_dom":"domicilios_ocupados_grade_ibge_2022","na_bacia":1,"area_pct_bacia":100.0,"metodo_recorte_bacia":"ponto_representativo_grade_2022; area_pct_geometrica"},"geometry":{"type":"Polygon","coordinates":[[[-52.27100996406121,-28.717493555729],[-52.27107137339595,-28.708200214097456],[-52.261135257167396,-28.70814261588637],[-52.26107349493264,-28.717435952505582],[-52.27100996406121,-28.717493555729]]]}},{"type":"Feature","properties":{"id_grade":"1KME5175N8147","pop":13,"dom":5,"universo_dom":"domicilios_ocupados_grade_ibge_2022","na_bacia":1,"area_pct_bacia":100.0,"metodo_recorte_bacia":"ponto_representativo_grade_2022; area_pct_geometrica"},"geometry":{"type":"Polygon","coordinates":[[[-52.26107349493264,-28.717435952505582],[-52.261135257167396,-28.70814261588637],[-52.25119914532591,-28.70808468763065],[-52.25113703019161,-28.717378019208923],[-52.26107349493264,-28.717435952505582]]]}},{"type":"Feature","properties":{"id_grade":"1KME5173N8148","pop":5,"dom":3,"universo_dom":"domicilios_ocupados_grade_ibge_2022","na_bacia":1,"area_pct_bacia":100.0,"metodo_recorte_bacia":"ponto_representativo_grade_2022; area_pct_geometrica"},"geometry":{"type":"Polygon","coordinates":[[[-52.281007493986486,-28.708257482263782],[-52.28106854608382,-28.69896461404624],[-52.27113277836869,-28.69890735086074],[-52.27107137339595,-28.708200214097456],[-52.281007493986486,-28.708257482263782]]]}},{"type":"Feature","properties":{"id_grade":"1KME5175N8148","pop":14,"dom":4,"universo_dom":"domicilios_ocupados_grade_ibge_2022","na_bacia":1,"area_pct_bacia":100.0,"metodo_recorte_bacia":"ponto_representativo_grade_2022; area_pct_geometrica"},"geometry":{"type":"Polygon","coordinates":[[[-52.261135257167396,-28.70814261588637],[-52.26119701501509,-28.698849757659033],[-52.25126125604809,-28.698791834441643],[-52.25119914532591,-28.70808468763065],[-52.261135257167396,-28.70814261588637]]]}},{"type":"Feature","properties":{"id_grade":"1KME5176N8148","pop":22,"dom":8,"universo_dom":"domicilios_ocupados_grade_ibge_2022","na_bacia":1,"area_pct_bacia":100.0,"metodo_recorte_bacia":"ponto_representativo_grade_2022; area_pct_geometrica"},"geometry":{"type":"Polygon","coordinates":[[[-52.25119914532591,-28.70808468763065],[-52.25126125604809,-28.698791834441643],[-52.241325501492746,-28.698733581209066],[-52.24126303789655,-28.708026429331195],[-52.25119914532591,-28.70808468763065]]]}},{"type":"Feature","properties":{"id_grade":"1KME5175N8149","pop":2,"dom":1,"universo_dom":"domicilios_ocupados_grade_ibge_2022","na_bacia":1,"area_pct_bacia":100.0,"metodo_recorte_bacia":"ponto_representativo_grade_2022; area_pct_geometrica"},"geometry":{"type":"Polygon","coordinates":[[[-52.26119701501509,-28.698849757659033],[-52.261258768476196,-28.68955737745542],[-52.25132336235862,-28.689499459273446],[-52.25126125604809,-28.698791834441643],[-52.26119701501509,-28.698849757659033]]]}},{"type":"Feature","properties":{"id_grade":"200ME51832N81398","pop":6,"dom":2,"universo_dom":"domicilios_ocupados_grade_ibge_2022","na_bacia":1,"area_pct_bacia":100.0,"metodo_recorte_bacia":"ponto_representativo_grade_2022; area_pct_geometrica"},"geometry":{"type":"Polygon","coordinates":[[[-52.17911601888915,-28.785736438385896],[-52.1791289574354,-28.783877030700353],[-52.177141162534554,-28.783864921329],[-52.177128210498495,-28.78572432901451],[-52.17911601888915,-28.785736438385896]]]}},{"type":"Feature","properties":{"id_grade":"200ME51836N81398","pop":12,"dom":4,"universo_dom":"domicilios_ocupados_grade_ibge_2022","na_bacia":1,"area_pct_bacia":100.0,"metodo_recorte_bacia":"ponto_representativo_grade_2022; area_pct_geometrica"},"geometry":{"type":"Polygon","coordinates":[[[-52.17514040210784,-28.7857122061533],[-52.175153368533074,-28.783852799367136],[-52.173165574531595,-28.78384066391545],[-52.17315259371719,-28.785700070701584],[-52.17514040210784,-28.7857122061533]]]}},{"type":"Feature","properties":{"id_grade":"200ME51838N81398","pop":54,"dom":19,"universo_dom":"domicilios_ocupados_grade_ibge_2022","na_bacia":1,"area_pct_bacia":100.0,"metodo_recorte_bacia":"ponto_representativo_grade_2022; area_pct_geometrica"},"geometry":{"type":"Polygon","coordinates":[[[-52.17315259371719,-28.785700070701584],[-52.173165574531595,-28.78384066391545],[-52.171177781429435,-28.78382851497395],[-52.171164786225866,-28.785687921760157],[-52.17315259371719,-28.785700070701584]]]}},{"type":"Feature","properties":{"id_grade":"200ME51832N81400","pop":3,"dom":1,"universo_dom":"domicilios_ocupados_grade_ibge_2022","na_bacia":1,"area_pct_bacia":100.0,"metodo_recorte_bacia":"ponto_representativo_grade_2022; area_pct_geometrica"},"geometry":{"type":"Polygon","coordinates":[[[-52.1791289574354,-28.783877030700353],[-52.179141895082346,-28.782017641900598],[-52.177154115469996,-28.78200553342856],[-52.177141162534554,-28.783864921329],[-52.1791289574354,-28.783877030700353]]]}},{"type":"Feature","properties":{"id_grade":"200ME51834N81400","pop":24,"dom":10,"universo_dom":"domicilios_ocupados_grade_ibge_2022","na_bacia":1,"area_pct_bacia":100.0,"metodo_recorte_bacia":"ponto_representativo_grade_2022; area_pct_geometrica"},"geometry":{"type":"Polygon","coordinates":[[[-52.177141162534554,-28.783864921329],[-52.177154115469996,-28.78200553342856],[-52.175166334958355,-28.781993411466726],[-52.175153368533074,-28.783852799367136],[-52.177141162534554,-28.783864921329]]]}},{"type":"Feature","properties":{"id_grade":"200ME51836N81400","pop":37,"dom":15,"universo_dom":"domicilios_ocupados_grade_ibge_2022","na_bacia":1,"area_pct_bacia":100.0,"metodo_recorte_bacia":"ponto_representativo_grade_2022; area_pct_geometrica"},"geometry":{"type":"Polygon","coordinates":[[[-52.175153368533074,-28.783852799367136],[-52.175166334958355,-28.781993411466726],[-52.173178555346,-28.781981276014964],[-52.173165574531595,-28.78384066391545],[-52.175153368533074,-28.783852799367136]]]}},{"type":"Feature","properties":{"id_grade":"200ME51838N81400","pop":39,"dom":17,"universo_dom":"domicilios_ocupados_grade_ibge_2022","na_bacia":1,"area_pct_bacia":100.0,"metodo_recorte_bacia":"ponto_representativo_grade_2022; area_pct_geometrica"},"geometry":{"type":"Polygon","coordinates":[[[-52.173165574531595,-28.78384066391545],[-52.173178555346,-28.781981276014964],[-52.171190775733685,-28.781969127073587],[-52.171177781429435,-28.78382851497395],[-52.173165574531595,-28.78384066391545]]]}},{"type":"Feature","properties":{"id_grade":"200ME51834N81402","pop":2,"dom":1,"universo_dom":"domicilios_ocupados_grade_ibge_2022","na_bacia":1,"area_pct_bacia":100.0,"metodo_recorte_bacia":"ponto_representativo_grade_2022; area_pct_geometrica"},"geometry":{"type":"Polygon","coordinates":[[[-52.177154115469996,-28.78200553342856],[-52.177167067506105,-28.78014616441384],[-52.175179301383594,-28.78013404245207],[-52.175166334958355,-28.781993411466726],[-52.177154115469996,-28.78200553342856]]]}},{"type":"Feature","properties":{"id_grade":"200ME51836N81402","pop":25,"dom":8,"universo_dom":"domicilios_ocupados_grade_ibge_2022","na_bacia":1,"area_pct_bacia":100.0,"metodo_recorte_bacia":"ponto_representativo_grade_2022; area_pct_geometrica"},"geometry":{"type":"Polygon","coordinates":[[[-52.175166334958355,-28.781993411466726],[-52.175179301383594,-28.78013404245207],[-52.1731915361604,-28.7801219070004],[-52.173178555346,-28.781981276014964],[-52.175166334958355,-28.781993411466726]]]}},{"type":"Feature","properties":{"id_grade":"200ME51838N81402","pop":51,"dom":22,"universo_dom":"domicilios_ocupados_grade_ibge_2022","na_bacia":1,"area_pct_bacia":100.0,"metodo_recorte_bacia":"ponto_representativo_grade_2022; area_pct_geometrica"},"geometry":{"type":"Polygon","coordinates":[[[-52.173178555346,-28.781981276014964],[-52.1731915361604,-28.7801219070004],[-52.17120377003789,-28.78010975895819],[-52.171190775733685,-28.781969127073587],[-52.173178555346,-28.781981276014964]]]}},{"type":"Feature","properties":{"id_grade":"200ME51834N81404","pop":43,"dom":18,"universo_dom":"domicilios_ocupados_grade_ibge_2022","na_bacia":1,"area_pct_bacia":100.0,"metodo_recorte_bacia":"ponto_representativo_grade_2022; area_pct_geometrica"},"geometry":{"type":"Polygon","coordinates":[[[-52.177167067506105,-28.78014616441384],[-52.17718001954223,-28.778286814285103],[-52.17519226780888,-28.778274693222436],[-52.175179301383594,-28.78013404245207],[-52.177167067506105,-28.78014616441384]]]}},{"type":"Feature","properties":{"id_grade":"200ME51836N81404","pop":1,"dom":1,"universo_dom":"domicilios_ocupados_grade_ibge_2022","na_bacia":1,"area_pct_bacia":100.0,"metodo_recorte_bacia":"ponto_representativo_grade_2022; area_pct_geometrica"},"geometry":{"type":"Polygon","coordinates":[[[-52.175179301383594,-28.78013404245207],[-52.17519226780888,-28.778274693222436],[-52.17320451607554,-28.77826255777077],[-52.1731915361604,-28.7801219070004],[-52.175179301383594,-28.78013404245207]]]}},{"type":"Feature","properties":{"id_grade":"200ME51838N81404","pop":63,"dom":22,"universo_dom":"domicilios_ocupados_grade_ibge_2022","na_bacia":1,"area_pct_bacia":100.0,"metodo_recorte_bacia":"ponto_representativo_grade_2022; area_pct_geometrica"},"geometry":{"type":"Polygon","coordinates":[[[-52.1731915361604,-28.7801219070004],[-52.17320451607554,-28.77826255777077],[-52.17121676434214,-28.778250409728592],[-52.17120377003789,-28.78010975895819],[-52.1731915361604,-28.7801219070004]]]}},{"type":"Feature","properties":{"id_grade":"200ME51838N81406","pop":32,"dom":13,"universo_dom":"domicilios_ocupados_grade_ibge_2022","na_bacia":1,"area_pct_bacia":100.0,"metodo_recorte_bacia":"ponto_representativo_grade_2022; area_pct_geometrica"},"geometry":{"type":"Polygon","coordinates":[[[-52.17320451607554,-28.77826255777077],[-52.17321749599063,-28.776403227426965],[-52.171229758646405,-28.77639108028404],[-52.17121676434214,-28.778250409728592],[-52.17320451607554,-28.77826255777077]]]}},{"type":"Feature","properties":{"id_grade":"200ME51832N81408","pop":4,"dom":1,"universo_dom":"domicilios_ocupados_grade_ibge_2022","na_bacia":1,"area_pct_bacia":100.0,"metodo_recorte_bacia":"ponto_representativo_grade_2022; area_pct_geometrica"},"geometry":{"type":"Polygon","coordinates":[[[-52.17918070892256,-28.776439592413233],[-52.1791936465695,-28.774580280955146],[-52.17720592271513,-28.774568172483168],[-52.17719297067902,-28.776427483941163],[-52.17918070892256,-28.776439592413233]]]}},{"type":"Feature","properties":{"id_grade":"200ME51834N81408","pop":15,"dom":5,"universo_dom":"domicilios_ocupados_grade_ibge_2022","na_bacia":1,"area_pct_bacia":100.0,"metodo_recorte_bacia":"ponto_representativo_grade_2022; area_pct_geometrica"},"geometry":{"type":"Polygon","coordinates":[[[-52.17719297067902,-28.776427483941163],[-52.17720592271513,-28.774568172483168],[-52.17521819886077,-28.774556051420532],[-52.17520523333479,-28.776415362878556],[-52.17719297067902,-28.776427483941163]]]}},{"type":"Feature","properties":{"id_grade":"200ME51836N81408","pop":15,"dom":7,"universo_dom":"domicilios_ocupados_grade_ibge_2022","na_bacia":1,"area_pct_bacia":100.0,"metodo_recorte_bacia":"ponto_representativo_grade_2022; area_pct_geometrica"},"geometry":{"type":"Polygon","coordinates":[[[-52.17520523333479,-28.776415362878556],[-52.17521819886077,-28.774556051420532],[-52.17323047590571,-28.77454391686823],[-52.17321749599063,-28.776403227426965],[-52.17520523333479,-28.776415362878556]]]}},{"type":"Feature","properties":{"id_grade":"200ME51838N81408","pop":14,"dom":9,"universo_dom":"domicilios_ocupados_grade_ibge_2022","na_bacia":1,"area_pct_bacia":100.0,"metodo_recorte_bacia":"ponto_representativo_grade_2022; area_pct_geometrica"},"geometry":{"type":"Polygon","coordinates":[[[-52.17321749599063,-28.776403227426965],[-52.17323047590571,-28.77454391686823],[-52.17124275295066,-28.774531769725293],[-52.171229758646405,-28.77639108028404],[-52.17321749599063,-28.776403227426965]]]}},{"type":"Feature","properties":{"id_grade":"200ME51832N81410","pop":2,"dom":1,"universo_dom":"domicilios_ocupados_grade_ibge_2022","na_bacia":1,"area_pct_bacia":100.0,"metodo_recorte_bacia":"ponto_representativo_grade_2022; area_pct_geometrica"},"geometry":{"type":"Polygon","coordinates":[[[-52.1791936465695,-28.774580280955146],[-52.179206583317125,-28.772720988382808],[-52.177218873851935,-28.772708880810153],[-52.17720592271513,-28.774568172483168],[-52.1791936465695,-28.774580280955146]]]}},{"type":"Feature","properties":{"id_grade":"200ME51836N81410","pop":8,"dom":3,"universo_dom":"domicilios_ocupados_grade_ibge_2022","na_bacia":1,"area_pct_bacia":100.0,"metodo_recorte_bacia":"ponto_representativo_grade_2022; area_pct_geometrica"},"geometry":{"type":"Polygon","coordinates":[[[-52.17521819886077,-28.774556051420532],[-52.17523116438667,-28.772696759747628],[-52.173243455820796,-28.77268462519528],[-52.17323047590571,-28.77454391686823],[-52.17521819886077,-28.774556051420532]]]}},{"type":"Feature","properties":{"id_grade":"200ME51840N81396","pop":2,"dom":1,"universo_dom":"domicilios_ocupados_grade_ibge_2022","na_bacia":1,"area_pct_bacia":100.0,"metodo_recorte_bacia":"ponto_representativo_grade_2022; area_pct_geometrica"},"geometry":{"type":"Polygon","coordinates":[[[-52.17115179102228,-28.787547347432056],[-52.171164786225866,-28.785687921760157],[-52.16917697873453,-28.785675759328843],[-52.16916396914183,-28.787535185000703],[-52.17115179102228,-28.787547347432056]]]}},{"type":"Feature","properties":{"id_grade":"200ME51846N81398","pop":1,"dom":1,"universo_dom":"domicilios_ocupados_grade_ibge_2022","na_bacia":1,"area_pct_bacia":100.0,"metodo_recorte_bacia":"ponto_representativo_grade_2022; area_pct_geometrica"},"geometry":{"type":"Polygon","coordinates":[[[-52.16520136375192,-28.78565139489603],[-52.16521440122358,-28.783791989008968],[-52.16322660812143,-28.78377978700747],[-52.16321355715991,-28.785639192894354],[-52.16520136375192,-28.78565139489603]]]}},{"type":"Feature","properties":{"id_grade":"200ME51840N81400","pop":14,"dom":7,"universo_dom":"domicilios_ocupados_grade_ibge_2022","na_bacia":1,"area_pct_bacia":100.0,"metodo_recorte_bacia":"ponto_representativo_grade_2022; area_pct_geometrica"},"geometry":{"type":"Polygon","coordinates":[[[-52.171177781429435,-28.78382851497395],[-52.171190775733685,-28.781969127073587],[-52.16920299612133,-28.781956965541532],[-52.169189987427956,-28.78381635254262],[-52.171177781429435,-28.78382851497395]]]}},{"type":"Feature","properties":{"id_grade":"200ME51840N81402","pop":52,"dom":23,"universo_dom":"domicilios_ocupados_grade_ibge_2022","na_bacia":1,"area_pct_bacia":100.0,"metodo_recorte_bacia":"ponto_representativo_grade_2022; area_pct_geometrica"},"geometry":{"type":"Polygon","coordinates":[[[-52.171190775733685,-28.781969127073587],[-52.17120377003789,-28.78010975895819],[-52.16921600481475,-28.78009759742623],[-52.16920299612133,-28.781956965541532],[-52.171190775733685,-28.781969127073587]]]}},{"type":"Feature","properties":{"id_grade":"200ME51840N81404","pop":22,"dom":10,"universo_dom":"domicilios_ocupados_grade_ibge_2022","na_bacia":1,"area_pct_bacia":100.0,"metodo_recorte_bacia":"ponto_representativo_grade_2022; area_pct_geometrica"},"geometry":{"type":"Polygon","coordinates":[[[-52.17120377003789,-28.78010975895819],[-52.17121676434214,-28.778250409728592],[-52.16922901350813,-28.778238248196487],[-52.16921600481475,-28.78009759742623],[-52.17120377003789,-28.78010975895819]]]}},{"type":"Feature","properties":{"id_grade":"200ME51842N81404","pop":7,"dom":2,"universo_dom":"domicilios_ocupados_grade_ibge_2022","na_bacia":1,"area_pct_bacia":100.0,"metodo_recorte_bacia":"ponto_representativo_grade_2022; area_pct_geometrica"},"geometry":{"type":"Polygon","coordinates":[[[-52.16921600481475,-28.78009759742623],[-52.16922901350813,-28.778238248196487],[-52.16724126267411,-28.77822607407403],[-52.167228239591566,-28.780085422404305],[-52.16921600481475,-28.78009759742623]]]}},{"type":"Feature","properties":{"id_grade":"200ME51844N81404","pop":5,"dom":2,"universo_dom":"domicilios_ocupados_grade_ibge_2022","na_bacia":1,"area_pct_bacia":100.0,"metodo_recorte_bacia":"ponto_representativo_grade_2022; area_pct_geometrica"},"geometry":{"type":"Polygon","coordinates":[[[-52.167228239591566,-28.780085422404305],[-52.16724126267411,-28.77822607407403],[-52.165253511840035,-28.77821388556227],[-52.165240475267694,-28.780073234791903],[-52.167228239591566,-28.780085422404305]]]}},{"type":"Feature","properties":{"id_grade":"200ME51840N81406","pop":8,"dom":5,"universo_dom":"domicilios_ocupados_grade_ibge_2022","na_bacia":1,"area_pct_bacia":100.0,"metodo_recorte_bacia":"ponto_representativo_grade_2022; area_pct_geometrica"},"geometry":{"type":"Polygon","coordinates":[[[-52.17121676434214,-28.778250409728592],[-52.171229758646405,-28.77639108028404],[-52.169242021302175,-28.776378918752105],[-52.16922901350813,-28.778238248196487],[-52.17121676434214,-28.778250409728592]]]}},{"type":"Feature","properties":{"id_grade":"200ME51846N81406","pop":6,"dom":2,"universo_dom":"domicilios_ocupados_grade_ibge_2022","na_bacia":1,"area_pct_bacia":100.0,"metodo_recorte_bacia":"ponto_representativo_grade_2022; area_pct_geometrica"},"geometry":{"type":"Polygon","coordinates":[[[-52.165253511840035,-28.77821388556227],[-52.165266548412426,-28.776354557017125],[-52.16327881196754,-28.776342355914938],[-52.163265761006016,-28.778201685359416],[-52.165253511840035,-28.77821388556227]]]}},{"type":"Feature","properties":{"id_grade":"200ME51840N81408","pop":24,"dom":8,"universo_dom":"domicilios_ocupados_grade_ibge_2022","na_bacia":1,"area_pct_bacia":100.0,"metodo_recorte_bacia":"ponto_representativo_grade_2022; area_pct_geometrica"},"geometry":{"type":"Polygon","coordinates":[[[-52.171229758646405,-28.77639108028404],[-52.17124275295066,-28.774531769725293],[-52.16925502999561,-28.77451960819339],[-52.169242021302175,-28.776378918752105],[-52.171229758646405,-28.77639108028404]]]}}]}