{"type":"FeatureCollection","name":"4312351","crs":{"type":"name","properties":{"name":"urn:ogc:def:crs:OGC:1.3:CRS84"}},"features":[{"type":"Feature","properties":{"id_grade":"1KME5192N8148","pop":4,"dom":3,"universo_dom":"domicilios_ocupados_grade_ibge_2022","na_bacia":1,"area_pct_bacia":100.0,"metodo_recorte_bacia":"ponto_representativo_grade_2022; area_pct_geometrica","status_borda_bacia":"total","metodo_area_bacia":"interse??o geom?trica em EPSG:5880","metodo_na_bacia":"ponto_representativo_grade_2022_within_bacia","pop_n_validos":1,"pop_n_total":1,"pop_completude":1.0,"dom_n_validos":1,"dom_n_total":1,"dom_completude":1.0},"geometry":{"type":"Polygon","coordinates":[[[-52.09222197295539,-28.707112949951583],[-52.09228972960361,-28.697820181275976],[-52.08235404904319,-28.697756647876346],[-52.08228593952885,-28.707049411026397],[-52.09222197295539,-28.707112949951583]]]}},{"type":"Feature","properties":{"id_grade":"1KME5193N8148","pop":17,"dom":5,"universo_dom":"domicilios_ocupados_grade_ibge_2022","na_bacia":1,"area_pct_bacia":100.0,"metodo_recorte_bacia":"ponto_representativo_grade_2022; area_pct_geometrica","status_borda_bacia":"total","metodo_area_bacia":"interse??o geom?trica em EPSG:5880","metodo_na_bacia":"ponto_representativo_grade_2022_within_bacia","pop_n_validos":1,"pop_n_total":1,"pop_completude":1.0,"dom_n_validos":1,"dom_n_total":1,"dom_completude":1.0},"geometry":{"type":"Polygon","coordinates":[[[-52.08228593952885,-28.707049411026397],[-52.08235404904319,-28.697756647876346],[-52.07241837332049,-28.697692784471528],[-52.07234991094053,-28.706985542066743],[-52.08228593952885,-28.707049411026397]]]}},{"type":"Feature","properties":{"id_grade":"1KME5194N8148","pop":15,"dom":5,"universo_dom":"domicilios_ocupados_grade_ibge_2022","na_bacia":1,"area_pct_bacia":100.0,"metodo_recorte_bacia":"ponto_representativo_grade_2022; area_pct_geometrica","status_borda_bacia":"total","metodo_area_bacia":"interse??o geom?trica em EPSG:5880","metodo_na_bacia":"ponto_representativo_grade_2022_within_bacia","pop_n_validos":1,"pop_n_total":1,"pop_completude":1.0,"dom_n_validos":1,"dom_n_total":1,"dom_completude":1.0},"geometry":{"type":"Polygon","coordinates":[[[-52.07234991094053,-28.706985542066743],[-52.07241837332049,-28.697692784471528],[-52.06248270246055,-28.697628591061196],[-52.06241388721549,-28.706921343073173],[-52.07234991094053,-28.706985542066743]]]}},{"type":"Feature","properties":{"id_grade":"1KME5195N8148","pop":13,"dom":4,"universo_dom":"domicilios_ocupados_grade_ibge_2022","na_bacia":1,"area_pct_bacia":100.0,"metodo_recorte_bacia":"ponto_representativo_grade_2022; area_pct_geometrica","status_borda_bacia":"total","metodo_area_bacia":"interse??o geom?trica em EPSG:5880","metodo_na_bacia":"ponto_representativo_grade_2022_within_bacia","pop_n_validos":1,"pop_n_total":1,"pop_completude":1.0,"dom_n_validos":1,"dom_n_total":1,"dom_completude":1.0},"geometry":{"type":"Polygon","coordinates":[[[-52.06241388721549,-28.706921343073173],[-52.06248270246055,-28.697628591061196],[-52.052547036488434,-28.697564067646685],[-52.0524778683788,-28.706856814046652],[-52.06241388721549,-28.706921343073173]]]}},{"type":"Feature","properties":{"id_grade":"1KME5196N8148","pop":19,"dom":7,"universo_dom":"domicilios_ocupados_grade_ibge_2022","na_bacia":1,"area_pct_bacia":100.0,"metodo_recorte_bacia":"ponto_representativo_grade_2022; area_pct_geometrica","status_borda_bacia":"total","metodo_area_bacia":"interse??o geom?trica em EPSG:5880","metodo_na_bacia":"ponto_representativo_grade_2022_within_bacia","pop_n_validos":1,"pop_n_total":1,"pop_completude":1.0,"dom_n_validos":1,"dom_n_total":1,"dom_completude":1.0},"geometry":{"type":"Polygon","coordinates":[[[-52.0524778683788,-28.706856814046652],[-52.052547036488434,-28.697564067646685],[-52.04261137542921,-28.697499214228046],[-52.04254185445553,-28.706791954987832],[-52.0524778683788,-28.706856814046652]]]}},{"type":"Feature","properties":{"id_grade":"1KME5197N8148","pop":13,"dom":4,"universo_dom":"domicilios_ocupados_grade_ibge_2022","na_bacia":1,"area_pct_bacia":100.0,"metodo_recorte_bacia":"ponto_representativo_grade_2022; area_pct_geometrica","status_borda_bacia":"total","metodo_area_bacia":"interse??o geom?trica em EPSG:5880","metodo_na_bacia":"ponto_representativo_grade_2022_within_bacia","pop_n_validos":1,"pop_n_total":1,"pop_completude":1.0,"dom_n_validos":1,"dom_n_total":1,"dom_completude":1.0},"geometry":{"type":"Polygon","coordinates":[[[-52.04254185445553,-28.706791954987832],[-52.04261137542921,-28.697499214228046],[-52.032675719307946,-28.69743403080679],[-52.032605845470734,-28.70672676589682],[-52.04254185445553,-28.706791954987832]]]}},{"type":"Feature","properties":{"id_grade":"1KME5198N8148","pop":14,"dom":4,"universo_dom":"domicilios_ocupados_grade_ibge_2022","na_bacia":1,"area_pct_bacia":100.0,"metodo_recorte_bacia":"ponto_representativo_grade_2022; area_pct_geometrica","status_borda_bacia":"total","metodo_area_bacia":"interse??o geom?trica em EPSG:5880","metodo_na_bacia":"ponto_representativo_grade_2022_within_bacia","pop_n_validos":1,"pop_n_total":1,"pop_completude":1.0,"dom_n_validos":1,"dom_n_total":1,"dom_completude":1.0},"geometry":{"type":"Polygon","coordinates":[[[-52.032605845470734,-28.70672676589682],[-52.032675719307946,-28.69743403080679],[-52.02274006814968,-28.697368517382607],[-52.02266984144948,-28.706661246774587],[-52.032605845470734,-28.70672676589682]]]}},{"type":"Feature","properties":{"id_grade":"1KME5200N8148","pop":7,"dom":4,"universo_dom":"domicilios_ocupados_grade_ibge_2022","na_bacia":1,"area_pct_bacia":100.0,"metodo_recorte_bacia":"ponto_representativo_grade_2022; area_pct_geometrica","status_borda_bacia":"total","metodo_area_bacia":"interse??o geom?trica em EPSG:5880","metodo_na_bacia":"ponto_representativo_grade_2022_within_bacia","pop_n_validos":1,"pop_n_total":1,"pop_completude":1.0,"dom_n_validos":1,"dom_n_total":1,"dom_completude":1.0},"geometry":{"type":"Polygon","coordinates":[[[-52.012733842416814,-28.706595397621818],[-52.012804421979496,-28.69730267395668],[-52.00286878082244,-28.697236500529392],[-52.002797848397826,-28.706529218439222],[-52.012733842416814,-28.706595397621818]]]}},{"type":"Feature","properties":{"id_grade":"1KME5201N8148","pop":15,"dom":5,"universo_dom":"domicilios_ocupados_grade_ibge_2022","na_bacia":1,"area_pct_bacia":100.0,"metodo_recorte_bacia":"ponto_representativo_grade_2022; area_pct_geometrica","status_borda_bacia":"total","metodo_area_bacia":"interse??o geom?trica em EPSG:5880","metodo_na_bacia":"ponto_representativo_grade_2022_within_bacia","pop_n_validos":1,"pop_n_total":1,"pop_completude":1.0,"dom_n_validos":1,"dom_n_total":1,"dom_completude":1.0},"geometry":{"type":"Polygon","coordinates":[[[-52.002797848397826,-28.706529218439222],[-52.00286878082244,-28.697236500529392],[-51.99293314470358,-28.69716999710107],[-51.99286185941757,-28.706462709226948],[-52.002797848397826,-28.706529218439222]]]}},{"type":"Feature","properties":{"id_grade":"1KME5202N8148","pop":7,"dom":2,"universo_dom":"domicilios_ocupados_grade_ibge_2022","na_bacia":1,"area_pct_bacia":100.0,"metodo_recorte_bacia":"ponto_representativo_grade_2022; area_pct_geometrica","status_borda_bacia":"total","metodo_area_bacia":"interse??o geom?trica em EPSG:5880","metodo_na_bacia":"ponto_representativo_grade_2022_within_bacia","pop_n_validos":1,"pop_n_total":1,"pop_completude":1.0,"dom_n_validos":1,"dom_n_total":1,"dom_completude":1.0},"geometry":{"type":"Polygon","coordinates":[[[-51.99286185941757,-28.706462709226948],[-51.99293314470358,-28.69716999710107],[-51.982997513647966,-28.697103163672868],[-51.9829258755011,-28.706395869985723],[-51.99286185941757,-28.706462709226948]]]}},{"type":"Feature","properties":{"id_grade":"1KME5193N8149","pop":8,"dom":2,"universo_dom":"domicilios_ocupados_grade_ibge_2022","na_bacia":1,"area_pct_bacia":100.0,"metodo_recorte_bacia":"ponto_representativo_grade_2022; area_pct_geometrica","status_borda_bacia":"total","metodo_area_bacia":"interse??o geom?trica em EPSG:5880","metodo_na_bacia":"ponto_representativo_grade_2022_within_bacia","pop_n_validos":1,"pop_n_total":1,"pop_completude":1.0,"dom_n_validos":1,"dom_n_total":1,"dom_completude":1.0},"geometry":{"type":"Polygon","coordinates":[[[-52.08235404904319,-28.697756647876346],[-52.082422153719826,-28.688464362699825],[-52.072486830837676,-28.688400504846665],[-52.07241837332049,-28.697692784471528],[-52.08235404904319,-28.697756647876346]]]}},{"type":"Feature","properties":{"id_grade":"1KME5194N8149","pop":3,"dom":1,"universo_dom":"domicilios_ocupados_grade_ibge_2022","na_bacia":1,"area_pct_bacia":100.0,"metodo_recorte_bacia":"ponto_representativo_grade_2022; area_pct_geometrica","status_borda_bacia":"total","metodo_area_bacia":"interse??o geom?trica em EPSG:5880","metodo_na_bacia":"ponto_representativo_grade_2022_within_bacia","pop_n_validos":1,"pop_n_total":1,"pop_completude":1.0,"dom_n_validos":1,"dom_n_total":1,"dom_completude":1.0},"geometry":{"type":"Polygon","coordinates":[[[-52.07241837332049,-28.697692784471528],[-52.072486830837676,-28.688400504846665],[-52.06255151281778,-28.688336317016674],[-52.06248270246055,-28.697628591061196],[-52.07241837332049,-28.697692784471528]]]}},{"type":"Feature","properties":{"id_grade":"1KME5197N8149","pop":3,"dom":1,"universo_dom":"domicilios_ocupados_grade_ibge_2022","na_bacia":1,"area_pct_bacia":100.0,"metodo_recorte_bacia":"ponto_representativo_grade_2022; area_pct_geometrica","status_borda_bacia":"total","metodo_area_bacia":"interse??o geom?trica em EPSG:5880","metodo_na_bacia":"ponto_representativo_grade_2022_within_bacia","pop_n_validos":1,"pop_n_total":1,"pop_completude":1.0,"dom_n_validos":1,"dom_n_total":1,"dom_completude":1.0},"geometry":{"type":"Polygon","coordinates":[[[-52.04261137542921,-28.697499214228046],[-52.042680891464954,-28.688206951430505],[-52.03274558818216,-28.68814177367549],[-52.032675719307946,-28.69743403080679],[-52.04261137542921,-28.697499214228046]]]}},{"type":"Feature","properties":{"id_grade":"1KME5198N8149","pop":3,"dom":1,"universo_dom":"domicilios_ocupados_grade_ibge_2022","na_bacia":1,"area_pct_bacia":100.0,"metodo_recorte_bacia":"ponto_representativo_grade_2022; area_pct_geometrica","status_borda_bacia":"total","metodo_area_bacia":"interse??o geom?trica em EPSG:5880","metodo_na_bacia":"ponto_representativo_grade_2022_within_bacia","pop_n_validos":1,"pop_n_total":1,"pop_completude":1.0,"dom_n_validos":1,"dom_n_total":1,"dom_completude":1.0},"geometry":{"type":"Polygon","coordinates":[[[-52.032675719307946,-28.69743403080679],[-52.03274558818216,-28.68814177367549],[-52.02281028986183,-28.688076265946407],[-52.02274006814968,-28.697368517382607],[-52.032675719307946,-28.69743403080679]]]}},{"type":"Feature","properties":{"id_grade":"1KME5199N8149","pop":11,"dom":3,"universo_dom":"domicilios_ocupados_grade_ibge_2022","na_bacia":1,"area_pct_bacia":100.0,"metodo_recorte_bacia":"ponto_representativo_grade_2022; area_pct_geometrica","status_borda_bacia":"total","metodo_area_bacia":"interse??o geom?trica em EPSG:5880","metodo_na_bacia":"ponto_representativo_grade_2022_within_bacia","pop_n_validos":1,"pop_n_total":1,"pop_completude":1.0,"dom_n_validos":1,"dom_n_total":1,"dom_completude":1.0},"geometry":{"type":"Polygon","coordinates":[[[-52.02274006814968,-28.697368517382607],[-52.02281028986183,-28.688076265946407],[-52.01287499652904,-28.68801042824402],[-52.012804421979496,-28.69730267395668],[-52.02274006814968,-28.697368517382607]]]}},{"type":"Feature","properties":{"id_grade":"1KME5201N8149","pop":5,"dom":1,"universo_dom":"domicilios_ocupados_grade_ibge_2022","na_bacia":1,"area_pct_bacia":100.0,"metodo_recorte_bacia":"ponto_representativo_grade_2022; area_pct_geometrica","status_borda_bacia":"total","metodo_area_bacia":"interse??o geom?trica em EPSG:5880","metodo_na_bacia":"ponto_representativo_grade_2022_within_bacia","pop_n_validos":1,"pop_n_total":1,"pop_completude":1.0,"dom_n_validos":1,"dom_n_total":1,"dom_completude":1.0},"geometry":{"type":"Polygon","coordinates":[[[-52.00286878082244,-28.697236500529392],[-52.002939708208864,-28.687944260568706],[-51.99300442492633,-28.687877762921666],[-51.99293314470358,-28.69716999710107],[-52.00286878082244,-28.697236500529392]]]}},{"type":"Feature","properties":{"id_grade":"1KME5202N8149","pop":24,"dom":8,"universo_dom":"domicilios_ocupados_grade_ibge_2022","na_bacia":1,"area_pct_bacia":100.0,"metodo_recorte_bacia":"ponto_representativo_grade_2022; area_pct_geometrica","status_borda_bacia":"total","metodo_area_bacia":"interse??o geom?trica em EPSG:5880","metodo_na_bacia":"ponto_representativo_grade_2022_within_bacia","pop_n_validos":1,"pop_n_total":1,"pop_completude":1.0,"dom_n_validos":1,"dom_n_total":1,"dom_completude":1.0},"geometry":{"type":"Polygon","coordinates":[[[-51.99293314470358,-28.69716999710107],[-51.99300442492633,-28.687877762921666],[-51.98306914670652,-28.68781093530305],[-51.982997513647966,-28.697103163672868],[-51.99293314470358,-28.69716999710107]]]}},{"type":"Feature","properties":{"id_grade":"1KME5193N8150","pop":10,"dom":2,"universo_dom":"domicilios_ocupados_grade_ibge_2022","na_bacia":1,"area_pct_bacia":100.0,"metodo_recorte_bacia":"ponto_representativo_grade_2022; area_pct_geometrica","status_borda_bacia":"total","metodo_area_bacia":"interse??o geom?trica em EPSG:5880","metodo_na_bacia":"ponto_representativo_grade_2022_within_bacia","pop_n_validos":1,"pop_n_total":1,"pop_completude":1.0,"dom_n_validos":1,"dom_n_total":1,"dom_completude":1.0},"geometry":{"type":"Polygon","coordinates":[[[-52.082422153719826,-28.688464362699825],[-52.08249025355927,-28.679172555128517],[-52.07255528349262,-28.679108702823413],[-52.072486830837676,-28.688400504846665],[-52.082422153719826,-28.688464362699825]]]}},{"type":"Feature","properties":{"id_grade":"1KME5194N8150","pop":3,"dom":1,"universo_dom":"domicilios_ocupados_grade_ibge_2022","na_bacia":1,"area_pct_bacia":100.0,"metodo_recorte_bacia":"ponto_representativo_grade_2022; area_pct_geometrica","status_borda_bacia":"total","metodo_area_bacia":"interse??o geom?trica em EPSG:5880","metodo_na_bacia":"ponto_representativo_grade_2022_within_bacia","pop_n_validos":1,"pop_n_total":1,"pop_completude":1.0,"dom_n_validos":1,"dom_n_total":1,"dom_completude":1.0},"geometry":{"type":"Polygon","coordinates":[[[-52.072486830837676,-28.688400504846665],[-52.07255528349262,-28.679108702823413],[-52.06262031828769,-28.679044520571196],[-52.06255151281778,-28.688336317016674],[-52.072486830837676,-28.688400504846665]]]}},{"type":"Feature","properties":{"id_grade":"1KME5195N8150","pop":8,"dom":2,"universo_dom":"domicilios_ocupados_grade_ibge_2022","na_bacia":1,"area_pct_bacia":100.0,"metodo_recorte_bacia":"ponto_representativo_grade_2022; area_pct_geometrica","status_borda_bacia":"total","metodo_area_bacia":"interse??o geom?trica em EPSG:5880","metodo_na_bacia":"ponto_representativo_grade_2022_within_bacia","pop_n_validos":1,"pop_n_total":1,"pop_completude":1.0,"dom_n_validos":1,"dom_n_total":1,"dom_completude":1.0},"geometry":{"type":"Polygon","coordinates":[[[-52.06255151281778,-28.688336317016674],[-52.06262031828769,-28.679044520571196],[-52.05268535796956,-28.678980008371706],[-52.05261619968518,-28.688271799211115],[-52.06255151281778,-28.688336317016674]]]}},{"type":"Feature","properties":{"id_grade":"1KME5196N8150","pop":7,"dom":2,"universo_dom":"domicilios_ocupados_grade_ibge_2022","na_bacia":1,"area_pct_bacia":100.0,"metodo_recorte_bacia":"ponto_representativo_grade_2022; area_pct_geometrica","status_borda_bacia":"total","metodo_area_bacia":"interse??o geom?trica em EPSG:5880","metodo_na_bacia":"ponto_representativo_grade_2022_within_bacia","pop_n_validos":1,"pop_n_total":1,"pop_completude":1.0,"dom_n_validos":1,"dom_n_total":1,"dom_completude":1.0},"geometry":{"type":"Polygon","coordinates":[[[-52.05261619968518,-28.688271799211115],[-52.05268535796956,-28.678980008371706],[-52.042750402563264,-28.67891516622579],[-52.042680891464954,-28.688206951430505],[-52.05261619968518,-28.688271799211115]]]}},{"type":"Feature","properties":{"id_grade":"1KME5198N8150","pop":5,"dom":3,"universo_dom":"domicilios_ocupados_grade_ibge_2022","na_bacia":1,"area_pct_bacia":100.0,"metodo_recorte_bacia":"ponto_representativo_grade_2022; area_pct_geometrica","status_borda_bacia":"total","metodo_area_bacia":"interse??o geom?trica em EPSG:5880","metodo_na_bacia":"ponto_representativo_grade_2022_within_bacia","pop_n_validos":1,"pop_n_total":1,"pop_completude":1.0,"dom_n_validos":1,"dom_n_total":1,"dom_completude":1.0},"geometry":{"type":"Polygon","coordinates":[[[-52.03274558818216,-28.68814177367549],[-52.03281545209387,-28.678849994134115],[-52.02288050658643,-28.678784492096938],[-52.02281028986183,-28.688076265946407],[-52.03274558818216,-28.68814177367549]]]}},{"type":"Feature","properties":{"id_grade":"1KME5199N8150","pop":8,"dom":3,"universo_dom":"domicilios_ocupados_grade_ibge_2022","na_bacia":1,"area_pct_bacia":100.0,"metodo_recorte_bacia":"ponto_representativo_grade_2022; area_pct_geometrica","status_borda_bacia":"total","metodo_area_bacia":"interse??o geom?trica em EPSG:5880","metodo_na_bacia":"ponto_representativo_grade_2022_within_bacia","pop_n_validos":1,"pop_n_total":1,"pop_completude":1.0,"dom_n_validos":1,"dom_n_total":1,"dom_completude":1.0},"geometry":{"type":"Polygon","coordinates":[[[-52.02281028986183,-28.688076265946407],[-52.02288050658643,-28.678784492096938],[-52.012945566065994,-28.678718660115337],[-52.01287499652904,-28.68801042824402],[-52.02281028986183,-28.688076265946407]]]}},{"type":"Feature","properties":{"id_grade":"1KME5200N8150","pop":16,"dom":4,"universo_dom":"domicilios_ocupados_grade_ibge_2022","na_bacia":1,"area_pct_bacia":100.0,"metodo_recorte_bacia":"ponto_representativo_grade_2022; area_pct_geometrica","status_borda_bacia":"total","metodo_area_bacia":"interse??o geom?trica em EPSG:5880","metodo_na_bacia":"ponto_representativo_grade_2022_within_bacia","pop_n_validos":1,"pop_n_total":1,"pop_completude":1.0,"dom_n_validos":1,"dom_n_total":1,"dom_completude":1.0},"geometry":{"type":"Polygon","coordinates":[[[-52.01287499652904,-28.68801042824402],[-52.012945566065994,-28.678718660115337],[-52.003010630557625,-28.678652498189475],[-52.002939708208864,-28.687944260568706],[-52.01287499652904,-28.68801042824402]]]}},{"type":"Feature","properties":{"id_grade":"1KME5201N8150","pop":22,"dom":6,"universo_dom":"domicilios_ocupados_grade_ibge_2022","na_bacia":1,"area_pct_bacia":100.0,"metodo_recorte_bacia":"ponto_representativo_grade_2022; area_pct_geometrica","status_borda_bacia":"total","metodo_area_bacia":"interse??o geom?trica em EPSG:5880","metodo_na_bacia":"ponto_representativo_grade_2022_within_bacia","pop_n_validos":1,"pop_n_total":1,"pop_completude":1.0,"dom_n_validos":1,"dom_n_total":1,"dom_completude":1.0},"geometry":{"type":"Polygon","coordinates":[[[-52.002939708208864,-28.687944260568706],[-52.003010630557625,-28.678652498189475],[-51.99307570008637,-28.67858600632035],[-51.99300442492633,-28.687877762921666],[-52.002939708208864,-28.687944260568706]]]}},{"type":"Feature","properties":{"id_grade":"1KME5194N8151","pop":3,"dom":1,"universo_dom":"domicilios_ocupados_grade_ibge_2022","na_bacia":1,"area_pct_bacia":100.0,"metodo_recorte_bacia":"ponto_representativo_grade_2022; area_pct_geometrica","status_borda_bacia":"total","metodo_area_bacia":"interse??o geom?trica em EPSG:5880","metodo_na_bacia":"ponto_representativo_grade_2022_within_bacia","pop_n_validos":1,"pop_n_total":1,"pop_completude":1.0,"dom_n_validos":1,"dom_n_total":1,"dom_completude":1.0},"geometry":{"type":"Polygon","coordinates":[[[-52.07255528349262,-28.679108702823413],[-52.07262373128583,-28.669817378034544],[-52.06268911887083,-28.669753201356446],[-52.06262031828769,-28.679044520571196],[-52.07255528349262,-28.679108702823413]]]}},{"type":"Feature","properties":{"id_grade":"1KME5197N8151","pop":6,"dom":3,"universo_dom":"domicilios_ocupados_grade_ibge_2022","na_bacia":1,"area_pct_bacia":100.0,"metodo_recorte_bacia":"ponto_representativo_grade_2022; area_pct_geometrica","status_borda_bacia":"total","metodo_area_bacia":"interse??o geom?trica em EPSG:5880","metodo_na_bacia":"ponto_representativo_grade_2022_within_bacia","pop_n_validos":1,"pop_n_total":1,"pop_completude":1.0,"dom_n_validos":1,"dom_n_total":1,"dom_completude":1.0},"geometry":{"type":"Polygon","coordinates":[[[-52.042750402563264,-28.67891516622579],[-52.04281990872468,-28.66962385824583],[-52.032885311043636,-28.669558691814267],[-52.03281545209387,-28.678849994134115],[-52.042750402563264,-28.67891516622579]]]}},{"type":"Feature","properties":{"id_grade":"1KME5198N8151","pop":6,"dom":2,"universo_dom":"domicilios_ocupados_grade_ibge_2022","na_bacia":1,"area_pct_bacia":100.0,"metodo_recorte_bacia":"ponto_representativo_grade_2022; area_pct_geometrica","status_borda_bacia":"total","metodo_area_bacia":"interse??o geom?trica em EPSG:5880","metodo_na_bacia":"ponto_representativo_grade_2022_within_bacia","pop_n_validos":1,"pop_n_total":1,"pop_completude":1.0,"dom_n_validos":1,"dom_n_total":1,"dom_completude":1.0},"geometry":{"type":"Polygon","coordinates":[[[-52.03281545209387,-28.678849994134115],[-52.032885311043636,-28.669558691814267],[-52.022950718324026,-28.669493195466366],[-52.02288050658643,-28.678784492096938],[-52.03281545209387,-28.678849994134115]]]}},{"type":"Feature","properties":{"id_grade":"1KME5191N8152","pop":19,"dom":6,"universo_dom":"domicilios_ocupados_grade_ibge_2022","na_bacia":1,"area_pct_bacia":100.0,"metodo_recorte_bacia":"ponto_representativo_grade_2022; area_pct_geometrica","status_borda_bacia":"total","metodo_area_bacia":"interse??o geom?trica em EPSG:5880","metodo_na_bacia":"ponto_representativo_grade_2022_within_bacia","pop_n_validos":1,"pop_n_total":1,"pop_completude":1.0,"dom_n_validos":1,"dom_n_total":1,"dom_completude":1.0},"geometry":{"type":"Polygon","coordinates":[[[-52.102427597597895,-28.67000792855169],[-52.10249498223219,-28.660717064085354],[-52.092560708075126,-28.66065388265188],[-52.092492970674414,-28.669944741632705],[-52.102427597597895,-28.67000792855169]]]}},{"type":"Feature","properties":{"id_grade":"1KME5192N8152","pop":6,"dom":1,"universo_dom":"domicilios_ocupados_grade_ibge_2022","na_bacia":1,"area_pct_bacia":100.0,"metodo_recorte_bacia":"ponto_representativo_grade_2022; area_pct_geometrica","status_borda_bacia":"total","metodo_area_bacia":"interse??o geom?trica em EPSG:5880","metodo_na_bacia":"ponto_representativo_grade_2022_within_bacia","pop_n_validos":1,"pop_n_total":1,"pop_completude":1.0,"dom_n_validos":1,"dom_n_total":1,"dom_completude":1.0},"geometry":{"type":"Polygon","coordinates":[[[-52.092492970674414,-28.669944741632705],[-52.092560708075126,-28.66065388265188],[-52.08262643872866,-28.66059037132684],[-52.082558348562046,-28.669881224793276],[-52.092492970674414,-28.669944741632705]]]}},{"type":"Feature","properties":{"id_grade":"1KME5193N8152","pop":7,"dom":4,"universo_dom":"domicilios_ocupados_grade_ibge_2022","na_bacia":1,"area_pct_bacia":100.0,"metodo_recorte_bacia":"ponto_representativo_grade_2022; area_pct_geometrica","status_borda_bacia":"total","metodo_area_bacia":"interse??o geom?trica em EPSG:5880","metodo_na_bacia":"ponto_representativo_grade_2022_within_bacia","pop_n_validos":1,"pop_n_total":1,"pop_completude":1.0,"dom_n_validos":1,"dom_n_total":1,"dom_completude":1.0},"geometry":{"type":"Polygon","coordinates":[[[-52.082558348562046,-28.669881224793276],[-52.08262643872866,-28.66059037132684],[-52.07269217421783,-28.660526530110936],[-52.07262373128583,-28.669817378034544],[-52.082558348562046,-28.669881224793276]]]}},{"type":"Feature","properties":{"id_grade":"1KME5194N8152","pop":16,"dom":5,"universo_dom":"domicilios_ocupados_grade_ibge_2022","na_bacia":1,"area_pct_bacia":100.0,"metodo_recorte_bacia":"ponto_representativo_grade_2022; area_pct_geometrica","status_borda_bacia":"total","metodo_area_bacia":"interse??o geom?trica em EPSG:5880","metodo_na_bacia":"ponto_representativo_grade_2022_within_bacia","pop_n_validos":1,"pop_n_total":1,"pop_completude":1.0,"dom_n_validos":1,"dom_n_total":1,"dom_completude":1.0},"geometry":{"type":"Polygon","coordinates":[[[-52.07262373128583,-28.669817378034544],[-52.07269217421783,-28.660526530110936],[-52.0627579145677,-28.66046235900418],[-52.06268911887083,-28.669753201356446],[-52.07262373128583,-28.669817378034544]]]}},{"type":"Feature","properties":{"id_grade":"1KME5195N8152","pop":13,"dom":4,"universo_dom":"domicilios_ocupados_grade_ibge_2022","na_bacia":1,"area_pct_bacia":100.0,"metodo_recorte_bacia":"ponto_representativo_grade_2022; area_pct_geometrica","status_borda_bacia":"total","metodo_area_bacia":"interse??o geom?trica em EPSG:5880","metodo_na_bacia":"ponto_representativo_grade_2022_within_bacia","pop_n_validos":1,"pop_n_total":1,"pop_completude":1.0,"dom_n_validos":1,"dom_n_total":1,"dom_completude":1.0},"geometry":{"type":"Polygon","coordinates":[[[-52.06268911887083,-28.669753201356446],[-52.0627579145677,-28.66046235900418],[-52.05282365980331,-28.660397858008114],[-52.052754511342094,-28.66968869476005],[-52.06268911887083,-28.669753201356446]]]}},{"type":"Feature","properties":{"id_grade":"1KME5196N8152","pop":7,"dom":2,"universo_dom":"domicilios_ocupados_grade_ibge_2022","na_bacia":1,"area_pct_bacia":100.0,"metodo_recorte_bacia":"ponto_representativo_grade_2022; area_pct_geometrica","status_borda_bacia":"total","metodo_area_bacia":"interse??o geom?trica em EPSG:5880","metodo_na_bacia":"ponto_representativo_grade_2022_within_bacia","pop_n_validos":1,"pop_n_total":1,"pop_completude":1.0,"dom_n_validos":1,"dom_n_total":1,"dom_completude":1.0},"geometry":{"type":"Polygon","coordinates":[[[-52.052754511342094,-28.66968869476005],[-52.05282365980331,-28.660397858008114],[-52.04288940994972,-28.6603330271225],[-52.04281990872468,-28.66962385824583],[-52.052754511342094,-28.66968869476005]]]}},{"type":"Feature","properties":{"id_grade":"1KME5197N8152","pop":6,"dom":3,"universo_dom":"domicilios_ocupados_grade_ibge_2022","na_bacia":1,"area_pct_bacia":100.0,"metodo_recorte_bacia":"ponto_representativo_grade_2022; area_pct_geometrica","status_borda_bacia":"total","metodo_area_bacia":"interse??o geom?trica em EPSG:5880","metodo_na_bacia":"ponto_representativo_grade_2022_within_bacia","pop_n_validos":1,"pop_n_total":1,"pop_completude":1.0,"dom_n_validos":1,"dom_n_total":1,"dom_completude":1.0},"geometry":{"type":"Polygon","coordinates":[[[-52.04281990872468,-28.66962385824583],[-52.04288940994972,-28.6603330271225],[-52.032955165031986,-28.660267866348786],[-52.032885311043636,-28.669558691814267],[-52.04281990872468,-28.66962385824583]]]}},{"type":"Feature","properties":{"id_grade":"1KME5198N8152","pop":8,"dom":2,"universo_dom":"domicilios_ocupados_grade_ibge_2022","na_bacia":1,"area_pct_bacia":100.0,"metodo_recorte_bacia":"ponto_representativo_grade_2022; area_pct_geometrica","status_borda_bacia":"total","metodo_area_bacia":"interse??o geom?trica em EPSG:5880","metodo_na_bacia":"ponto_representativo_grade_2022_within_bacia","pop_n_validos":1,"pop_n_total":1,"pop_completude":1.0,"dom_n_validos":1,"dom_n_total":1,"dom_completude":1.0},"geometry":{"type":"Polygon","coordinates":[[[-52.032885311043636,-28.669558691814267],[-52.032955165031986,-28.660267866348786],[-52.02302092507514,-28.66020237568662],[-52.022950718324026,-28.669493195466366],[-52.032885311043636,-28.669558691814267]]]}},{"type":"Feature","properties":{"id_grade":"1KME5199N8152","pop":9,"dom":3,"universo_dom":"domicilios_ocupados_grade_ibge_2022","na_bacia":1,"area_pct_bacia":100.0,"metodo_recorte_bacia":"ponto_representativo_grade_2022; area_pct_geometrica","status_borda_bacia":"total","metodo_area_bacia":"interse??o geom?trica em EPSG:5880","metodo_na_bacia":"ponto_representativo_grade_2022_within_bacia","pop_n_validos":1,"pop_n_total":1,"pop_completude":1.0,"dom_n_validos":1,"dom_n_total":1,"dom_completude":1.0},"geometry":{"type":"Polygon","coordinates":[[[-52.022950718324026,-28.669493195466366],[-52.02302092507514,-28.66020237568662],[-52.01308669010424,-28.66013655513714],[-52.013016130590884,-28.669427369202168],[-52.022950718324026,-28.669493195466366]]]}},{"type":"Feature","properties":{"id_grade":"1KME5200N8152","pop":18,"dom":5,"universo_dom":"domicilios_ocupados_grade_ibge_2022","na_bacia":1,"area_pct_bacia":100.0,"metodo_recorte_bacia":"ponto_representativo_grade_2022; area_pct_geometrica","status_borda_bacia":"total","metodo_area_bacia":"interse??o geom?trica em EPSG:5880","metodo_na_bacia":"ponto_representativo_grade_2022_within_bacia","pop_n_validos":1,"pop_n_total":1,"pop_completude":1.0,"dom_n_validos":1,"dom_n_total":1,"dom_completude":1.0},"geometry":{"type":"Polygon","coordinates":[[[-52.013016130590884,-28.669427369202168],[-52.01308669010424,-28.66013655513714],[-52.003152460144335,-28.660070404700942],[-52.00308154786927,-28.669361213022963],[-52.013016130590884,-28.669427369202168]]]}},{"type":"Feature","properties":{"id_grade":"1KME5191N8153","pop":16,"dom":4,"universo_dom":"domicilios_ocupados_grade_ibge_2022","na_bacia":1,"area_pct_bacia":100.0,"metodo_recorte_bacia":"ponto_representativo_grade_2022; area_pct_geometrica","status_borda_bacia":"total","metodo_area_bacia":"interse??o geom?trica em EPSG:5880","metodo_na_bacia":"ponto_representativo_grade_2022_within_bacia","pop_n_validos":1,"pop_n_total":1,"pop_completude":1.0,"dom_n_validos":1,"dom_n_total":1,"dom_completude":1.0},"geometry":{"type":"Polygon","coordinates":[[[-52.10249498223219,-28.660717064085354],[-52.10256236208094,-28.65142667612524],[-52.09262844066524,-28.6513635001748],[-52.092560708075126,-28.66065388265188],[-52.10249498223219,-28.660717064085354]]]}},{"type":"Feature","properties":{"id_grade":"1KME5192N8153","pop":19,"dom":7,"universo_dom":"domicilios_ocupados_grade_ibge_2022","na_bacia":1,"area_pct_bacia":100.0,"metodo_recorte_bacia":"ponto_representativo_grade_2022; area_pct_geometrica","status_borda_bacia":"total","metodo_area_bacia":"interse??o geom?trica em EPSG:5880","metodo_na_bacia":"ponto_representativo_grade_2022_within_bacia","pop_n_validos":1,"pop_n_total":1,"pop_completude":1.0,"dom_n_validos":1,"dom_n_total":1,"dom_completude":1.0},"geometry":{"type":"Polygon","coordinates":[[[-52.092560708075126,-28.66065388265188],[-52.09262844066524,-28.6513635001748],[-52.08269452405962,-28.65129999436094],[-52.08262643872866,-28.66059037132684],[-52.092560708075126,-28.66065388265188]]]}},{"type":"Feature","properties":{"id_grade":"1KME5195N8153","pop":6,"dom":2,"universo_dom":"domicilios_ocupados_grade_ibge_2022","na_bacia":1,"area_pct_bacia":100.0,"metodo_recorte_bacia":"ponto_representativo_grade_2022; area_pct_geometrica","status_borda_bacia":"total","metodo_area_bacia":"interse??o geom?trica em EPSG:5880","metodo_na_bacia":"ponto_representativo_grade_2022_within_bacia","pop_n_validos":1,"pop_n_total":1,"pop_completude":1.0,"dom_n_validos":1,"dom_n_total":1,"dom_completude":1.0},"geometry":{"type":"Polygon","coordinates":[[[-52.0627579145677,-28.66046235900418],[-52.06282670537882,-28.65117199314702],[-52.052892803353735,-28.651107497747926],[-52.05282365980331,-28.660397858008114],[-52.0627579145677,-28.66046235900418]]]}},{"type":"Feature","properties":{"id_grade":"1KME5197N8153","pop":7,"dom":3,"universo_dom":"domicilios_ocupados_grade_ibge_2022","na_bacia":1,"area_pct_bacia":100.0,"metodo_recorte_bacia":"ponto_representativo_grade_2022; area_pct_geometrica","status_borda_bacia":"total","metodo_area_bacia":"interse??o geom?trica em EPSG:5880","metodo_na_bacia":"ponto_representativo_grade_2022_within_bacia","pop_n_validos":1,"pop_n_total":1,"pop_completude":1.0,"dom_n_validos":1,"dom_n_total":1,"dom_completude":1.0},"geometry":{"type":"Polygon","coordinates":[[[-52.04288940994972,-28.6603330271225],[-52.04295890623892,-28.651042672488337],[-52.033025014059426,-28.650977517368727],[-52.032955165031986,-28.660267866348786],[-52.04288940994972,-28.6603330271225]]]}},{"type":"Feature","properties":{"id_grade":"1KME5198N8153","pop":8,"dom":2,"universo_dom":"domicilios_ocupados_grade_ibge_2022","na_bacia":1,"area_pct_bacia":100.0,"metodo_recorte_bacia":"ponto_representativo_grade_2022; area_pct_geometrica","status_borda_bacia":"total","metodo_area_bacia":"interse??o geom?trica em EPSG:5880","metodo_na_bacia":"ponto_representativo_grade_2022_within_bacia","pop_n_validos":1,"pop_n_total":1,"pop_completude":1.0,"dom_n_validos":1,"dom_n_total":1,"dom_completude":1.0},"geometry":{"type":"Polygon","coordinates":[[[-52.032955165031986,-28.660267866348786],[-52.033025014059426,-28.650977517368727],[-52.023091126840306,-28.650912032389577],[-52.02302092507514,-28.66020237568662],[-52.032955165031986,-28.660267866348786]]]}},{"type":"Feature","properties":{"id_grade":"1KME5199N8153","pop":4,"dom":1,"universo_dom":"domicilios_ocupados_grade_ibge_2022","na_bacia":1,"area_pct_bacia":100.0,"metodo_recorte_bacia":"ponto_representativo_grade_2022; area_pct_geometrica","status_borda_bacia":"total","metodo_area_bacia":"interse??o geom?trica em EPSG:5880","metodo_na_bacia":"ponto_representativo_grade_2022_within_bacia","pop_n_validos":1,"pop_n_total":1,"pop_completude":1.0,"dom_n_validos":1,"dom_n_total":1,"dom_completude":1.0},"geometry":{"type":"Polygon","coordinates":[[[-52.02302092507514,-28.66020237568662],[-52.023091126840306,-28.650912032389577],[-52.013157244606596,-28.650846217551788],[-52.01308669010424,-28.66013655513714],[-52.02302092507514,-28.66020237568662]]]}},{"type":"Feature","properties":{"id_grade":"1KME5191N8154","pop":2,"dom":1,"universo_dom":"domicilios_ocupados_grade_ibge_2022","na_bacia":1,"area_pct_bacia":100.0,"metodo_recorte_bacia":"ponto_representativo_grade_2022; area_pct_geometrica","status_borda_bacia":"total","metodo_area_bacia":"interse??o geom?trica em EPSG:5880","metodo_na_bacia":"ponto_representativo_grade_2022_within_bacia","pop_n_validos":1,"pop_n_total":1,"pop_completude":1.0,"dom_n_validos":1,"dom_n_total":1,"dom_completude":1.0},"geometry":{"type":"Polygon","coordinates":[[[-52.10256236208094,-28.65142667612524],[-52.10262973714465,-28.642136764304112],[-52.09269616844527,-28.642073593833185],[-52.09262844066524,-28.6513635001748],[-52.10256236208094,-28.65142667612524]]]}},{"type":"Feature","properties":{"id_grade":"1KME5192N8154","pop":20,"dom":7,"universo_dom":"domicilios_ocupados_grade_ibge_2022","na_bacia":1,"area_pct_bacia":100.0,"metodo_recorte_bacia":"ponto_representativo_grade_2022; area_pct_geometrica","status_borda_bacia":"total","metodo_area_bacia":"interse??o geom?trica em EPSG:5880","metodo_na_bacia":"ponto_representativo_grade_2022_within_bacia","pop_n_validos":1,"pop_n_total":1,"pop_completude":1.0,"dom_n_validos":1,"dom_n_total":1,"dom_completude":1.0},"geometry":{"type":"Polygon","coordinates":[[[-52.09262844066524,-28.6513635001748],[-52.09269616844527,-28.642073593833185],[-52.082762604555455,-28.642010093528267],[-52.08269452405962,-28.65129999436094],[-52.09262844066524,-28.6513635001748]]]}},{"type":"Feature","properties":{"id_grade":"1KME5195N8154","pop":8,"dom":3,"universo_dom":"domicilios_ocupados_grade_ibge_2022","na_bacia":1,"area_pct_bacia":100.0,"metodo_recorte_bacia":"ponto_representativo_grade_2022; area_pct_geometrica","status_borda_bacia":"total","metodo_area_bacia":"interse??o geom?trica em EPSG:5880","metodo_na_bacia":"ponto_representativo_grade_2022_within_bacia","pop_n_validos":1,"pop_n_total":1,"pop_completude":1.0,"dom_n_validos":1,"dom_n_total":1,"dom_completude":1.0},"geometry":{"type":"Polygon","coordinates":[[[-52.06282670537882,-28.65117199314702],[-52.062895491304715,-28.641882103416844],[-52.052961941993885,-28.641817613612172],[-52.052892803353735,-28.651107497747926],[-52.06282670537882,-28.65117199314702]]]}},{"type":"Feature","properties":{"id_grade":"1KME5196N8154","pop":7,"dom":3,"universo_dom":"domicilios_ocupados_grade_ibge_2022","na_bacia":1,"area_pct_bacia":100.0,"metodo_recorte_bacia":"ponto_representativo_grade_2022; area_pct_geometrica","status_borda_bacia":"total","metodo_area_bacia":"interse??o geom?trica em EPSG:5880","metodo_na_bacia":"ponto_representativo_grade_2022_within_bacia","pop_n_validos":1,"pop_n_total":1,"pop_completude":1.0,"dom_n_validos":1,"dom_n_total":1,"dom_completude":1.0},"geometry":{"type":"Polygon","coordinates":[[[-52.052892803353735,-28.651107497747926],[-52.052961941993885,-28.641817613612172],[-52.0430283975928,-28.64175279397522],[-52.04295890623892,-28.651042672488337],[-52.052892803353735,-28.651107497747926]]]}},{"type":"Feature","properties":{"id_grade":"1KME5199N8154","pop":17,"dom":7,"universo_dom":"domicilios_ocupados_grade_ibge_2022","na_bacia":1,"area_pct_bacia":100.0,"metodo_recorte_bacia":"ponto_representativo_grade_2022; area_pct_geometrica","status_borda_bacia":"total","metodo_area_bacia":"interse??o geom?trica em EPSG:5880","metodo_na_bacia":"ponto_representativo_grade_2022_within_bacia","pop_n_validos":1,"pop_n_total":1,"pop_completude":1.0,"dom_n_validos":1,"dom_n_total":1,"dom_completude":1.0},"geometry":{"type":"Polygon","coordinates":[[[-52.023091126840306,-28.650912032389577],[-52.02316132362006,-28.641622165207874],[-52.0132277940985,-28.64155635607883],[-52.013157244606596,-28.650846217551788],[-52.023091126840306,-28.650912032389577]]]}},{"type":"Feature","properties":{"id_grade":"1KME5200N8154","pop":6,"dom":1,"universo_dom":"domicilios_ocupados_grade_ibge_2022","na_bacia":1,"area_pct_bacia":100.0,"metodo_recorte_bacia":"ponto_representativo_grade_2022; area_pct_geometrica","status_borda_bacia":"total","metodo_area_bacia":"interse??o geom?trica em EPSG:5880","metodo_na_bacia":"ponto_representativo_grade_2022_within_bacia","pop_n_validos":1,"pop_n_total":1,"pop_completude":1.0,"dom_n_validos":1,"dom_n_total":1,"dom_completude":1.0},"geometry":{"type":"Polygon","coordinates":[[[-52.013157244606596,-28.650846217551788],[-52.0132277940985,-28.64155635607883],[-52.00329426958686,-28.641490217120044],[-52.00322336738335,-28.650780072855888],[-52.013157244606596,-28.650846217551788]]]}},{"type":"Feature","properties":{"id_grade":"1KME5191N8155","pop":5,"dom":1,"universo_dom":"domicilios_ocupados_grade_ibge_2022","na_bacia":1,"area_pct_bacia":100.0,"metodo_recorte_bacia":"ponto_representativo_grade_2022; area_pct_geometrica","status_borda_bacia":"total","metodo_area_bacia":"interse??o geom?trica em EPSG:5880","metodo_na_bacia":"ponto_representativo_grade_2022_within_bacia","pop_n_validos":1,"pop_n_total":1,"pop_completude":1.0,"dom_n_validos":1,"dom_n_total":1,"dom_completude":1.0},"geometry":{"type":"Polygon","coordinates":[[[-52.10262973714465,-28.642136764304112],[-52.10269710742384,-28.6328473282541],[-52.09276389141573,-28.63278416326021],[-52.09269616844527,-28.642073593833185],[-52.10262973714465,-28.642136764304112]]]}},{"type":"Feature","properties":{"id_grade":"1KME5192N8155","pop":4,"dom":2,"universo_dom":"domicilios_ocupados_grade_ibge_2022","na_bacia":1,"area_pct_bacia":100.0,"metodo_recorte_bacia":"ponto_representativo_grade_2022; area_pct_geometrica","status_borda_bacia":"total","metodo_area_bacia":"interse??o geom?trica em EPSG:5880","metodo_na_bacia":"ponto_representativo_grade_2022_within_bacia","pop_n_validos":1,"pop_n_total":1,"pop_completude":1.0,"dom_n_validos":1,"dom_n_total":1,"dom_completude":1.0},"geometry":{"type":"Polygon","coordinates":[[[-52.09269616844527,-28.642073593833185],[-52.09276389141573,-28.63278416326021],[-52.08283068021668,-28.632720668460518],[-52.082762604555455,-28.642010093528267],[-52.09269616844527,-28.642073593833185]]]}},{"type":"Feature","properties":{"id_grade":"1KME5193N8155","pop":8,"dom":3,"universo_dom":"domicilios_ocupados_grade_ibge_2022","na_bacia":1,"area_pct_bacia":100.0,"metodo_recorte_bacia":"ponto_representativo_grade_2022; area_pct_geometrica","status_borda_bacia":"total","metodo_area_bacia":"interse??o geom?trica em EPSG:5880","metodo_na_bacia":"ponto_representativo_grade_2022_within_bacia","pop_n_validos":1,"pop_n_total":1,"pop_completude":1.0,"dom_n_validos":1,"dom_n_total":1,"dom_completude":1.0},"geometry":{"type":"Polygon","coordinates":[[[-52.082762604555455,-28.642010093528267],[-52.08283068021668,-28.632720668460518],[-52.072897473851725,-28.63265684385552],[-52.07282904550026,-28.64194626338888],[-52.082762604555455,-28.642010093528267]]]}},{"type":"Feature","properties":{"id_grade":"1KME5194N8155","pop":7,"dom":1,"universo_dom":"domicilios_ocupados_grade_ibge_2022","na_bacia":1,"area_pct_bacia":100.0,"metodo_recorte_bacia":"ponto_representativo_grade_2022; area_pct_geometrica","status_borda_bacia":"total","metodo_area_bacia":"interse??o geom?trica em EPSG:5880","metodo_na_bacia":"ponto_representativo_grade_2022_within_bacia","pop_n_validos":1,"pop_n_total":1,"pop_completude":1.0,"dom_n_validos":1,"dom_n_total":1,"dom_completude":1.0},"geometry":{"type":"Polygon","coordinates":[[[-52.07282904550026,-28.64194626338888],[-52.072897473851725,-28.63265684385552],[-52.06296427234591,-28.632592689446323],[-52.062895491304715,-28.641882103416844],[-52.07282904550026,-28.64194626338888]]]}},{"type":"Feature","properties":{"id_grade":"1KME5192N8156","pop":14,"dom":5,"universo_dom":"domicilios_ocupados_grade_ibge_2022","na_bacia":1,"area_pct_bacia":100.0,"metodo_recorte_bacia":"ponto_representativo_grade_2022; area_pct_geometrica","status_borda_bacia":"total","metodo_area_bacia":"interse??o geom?trica em EPSG:5880","metodo_na_bacia":"ponto_representativo_grade_2022_within_bacia","pop_n_validos":1,"pop_n_total":1,"pop_completude":1.0,"dom_n_validos":1,"dom_n_total":1,"dom_completude":1.0},"geometry":{"type":"Polygon","coordinates":[[[-52.09276389141573,-28.63278416326021],[-52.09283160957713,-28.623495208088162],[-52.0828987510438,-28.623431718791146],[-52.08283068021668,-28.632720668460518],[-52.09276389141573,-28.63278416326021]]]}},{"type":"Feature","properties":{"id_grade":"1KME5193N8156","pop":5,"dom":2,"universo_dom":"domicilios_ocupados_grade_ibge_2022","na_bacia":1,"area_pct_bacia":100.0,"metodo_recorte_bacia":"ponto_representativo_grade_2022; area_pct_geometrica","status_borda_bacia":"total","metodo_area_bacia":"interse??o geom?trica em EPSG:5880","metodo_na_bacia":"ponto_representativo_grade_2022_within_bacia","pop_n_validos":1,"pop_n_total":1,"pop_completude":1.0,"dom_n_validos":1,"dom_n_total":1,"dom_completude":1.0},"geometry":{"type":"Polygon","coordinates":[[[-52.08283068021668,-28.632720668460518],[-52.0828987510438,-28.623431718791146],[-52.07296589734404,-28.623367899717355],[-52.072897473851725,-28.63265684385552],[-52.08283068021668,-28.632720668460518]]]}},{"type":"Feature","properties":{"id_grade":"1KME5194N8156","pop":29,"dom":8,"universo_dom":"domicilios_ocupados_grade_ibge_2022","na_bacia":1,"area_pct_bacia":100.0,"metodo_recorte_bacia":"ponto_representativo_grade_2022; area_pct_geometrica","status_borda_bacia":"total","metodo_area_bacia":"interse??o geom?trica em EPSG:5880","metodo_na_bacia":"ponto_representativo_grade_2022_within_bacia","pop_n_validos":1,"pop_n_total":1,"pop_completude":1.0,"dom_n_validos":1,"dom_n_total":1,"dom_completude":1.0},"geometry":{"type":"Polygon","coordinates":[[[-52.072897473851725,-28.63265684385552],[-52.07296589734404,-28.623367899717355],[-52.063033048502916,-28.623303750867855],[-52.06296427234591,-28.632592689446323],[-52.072897473851725,-28.63265684385552]]]}},{"type":"Feature","properties":{"id_grade":"1KME5195N8156","pop":31,"dom":10,"universo_dom":"domicilios_ocupados_grade_ibge_2022","na_bacia":1,"area_pct_bacia":100.0,"metodo_recorte_bacia":"ponto_representativo_grade_2022; area_pct_geometrica","status_borda_bacia":"total","metodo_area_bacia":"interse??o geom?trica em EPSG:5880","metodo_na_bacia":"ponto_representativo_grade_2022_within_bacia","pop_n_validos":1,"pop_n_total":1,"pop_completude":1.0,"dom_n_validos":1,"dom_n_total":1,"dom_completude":1.0},"geometry":{"type":"Polygon","coordinates":[[[-52.06296427234591,-28.632592689446323],[-52.063033048502916,-28.623303750867855],[-52.05310020454545,-28.62323927224265],[-52.05303107572428,-28.632528205232685],[-52.06296427234591,-28.632592689446323]]]}},{"type":"Feature","properties":{"id_grade":"1KME5192N8157","pop":10,"dom":3,"universo_dom":"domicilios_ocupados_grade_ibge_2022","na_bacia":1,"area_pct_bacia":100.0,"metodo_recorte_bacia":"ponto_representativo_grade_2022; area_pct_geometrica","status_borda_bacia":"total","metodo_area_bacia":"interse??o geom?trica em EPSG:5880","metodo_na_bacia":"ponto_representativo_grade_2022_within_bacia","pop_n_validos":1,"pop_n_total":1,"pop_completude":1.0,"dom_n_validos":1,"dom_n_total":1,"dom_completude":1.0},"geometry":{"type":"Polygon","coordinates":[[[-52.09283160957713,-28.623495208088162],[-52.09289932292999,-28.614206727950027],[-52.08296681703733,-28.614143244152928],[-52.0828987510438,-28.623431718791146],[-52.09283160957713,-28.623495208088162]]]}},{"type":"Feature","properties":{"id_grade":"1KME5193N8157","pop":14,"dom":6,"universo_dom":"domicilios_ocupados_grade_ibge_2022","na_bacia":1,"area_pct_bacia":100.0,"metodo_recorte_bacia":"ponto_representativo_grade_2022; area_pct_geometrica","status_borda_bacia":"total","metodo_area_bacia":"interse??o geom?trica em EPSG:5880","metodo_na_bacia":"ponto_representativo_grade_2022_within_bacia","pop_n_validos":1,"pop_n_total":1,"pop_completude":1.0,"dom_n_validos":1,"dom_n_total":1,"dom_completude":1.0},"geometry":{"type":"Polygon","coordinates":[[[-52.0828987510438,-28.623431718791146],[-52.08296681703733,-28.614143244152928],[-52.07303431597774,-28.614079430607305],[-52.07296589734404,-28.623367899717355],[-52.0828987510438,-28.623431718791146]]]}},{"type":"Feature","properties":{"id_grade":"1KME5194N8157","pop":28,"dom":7,"universo_dom":"domicilios_ocupados_grade_ibge_2022","na_bacia":1,"area_pct_bacia":100.0,"metodo_recorte_bacia":"ponto_representativo_grade_2022; area_pct_geometrica","status_borda_bacia":"total","metodo_area_bacia":"interse??o geom?trica em EPSG:5880","metodo_na_bacia":"ponto_representativo_grade_2022_within_bacia","pop_n_validos":1,"pop_n_total":1,"pop_completude":1.0,"dom_n_validos":1,"dom_n_total":1,"dom_completude":1.0},"geometry":{"type":"Polygon","coordinates":[[[-52.07296589734404,-28.623367899717355],[-52.07303431597774,-28.614079430607305],[-52.06310181977625,-28.614015287314608],[-52.063033048502916,-28.623303750867855],[-52.07296589734404,-28.623367899717355]]]}},{"type":"Feature","properties":{"id_grade":"1KME5195N8157","pop":8,"dom":3,"universo_dom":"domicilios_ocupados_grade_ibge_2022","na_bacia":1,"area_pct_bacia":100.0,"metodo_recorte_bacia":"ponto_representativo_grade_2022; area_pct_geometrica","status_borda_bacia":"total","metodo_area_bacia":"interse??o geom?trica em EPSG:5880","metodo_na_bacia":"ponto_representativo_grade_2022_within_bacia","pop_n_validos":1,"pop_n_total":1,"pop_completude":1.0,"dom_n_validos":1,"dom_n_total":1,"dom_completude":1.0},"geometry":{"type":"Polygon","coordinates":[[[-52.063033048502916,-28.623303750867855],[-52.06310181977625,-28.614015287314608],[-52.05316932845792,-28.613950814274883],[-52.05310020454545,-28.62323927224265],[-52.063033048502916,-28.623303750867855]]]}},{"type":"Feature","properties":{"id_grade":"200ME51930N81532","pop":1,"dom":1,"universo_dom":"domicilios_ocupados_grade_ibge_2022","na_bacia":1,"area_pct_bacia":100.0,"metodo_recorte_bacia":"ponto_representativo_grade_2022; area_pct_geometrica","status_borda_bacia":"total","metodo_area_bacia":"interse??o geom?trica em EPSG:5880","metodo_na_bacia":"ponto_representativo_grade_2022_within_bacia","pop_n_validos":1,"pop_n_total":1,"pop_completude":1.0,"dom_n_validos":1,"dom_n_total":1,"dom_completude":1.0},"geometry":{"type":"Polygon","coordinates":[[[-52.082626439058856,-28.660590371648365],[-52.08264005659328,-28.658732258087174],[-52.080653216772475,-28.658719516492376],[-52.08063958574826,-28.66057762915413],[-52.082626439058856,-28.660590371648365]]]}},{"type":"Feature","properties":{"id_grade":"200ME51934N81532","pop":26,"dom":11,"universo_dom":"domicilios_ocupados_grade_ibge_2022","na_bacia":1,"area_pct_bacia":100.0,"metodo_recorte_bacia":"ponto_representativo_grade_2022; area_pct_geometrica","status_borda_bacia":"total","metodo_area_bacia":"interse??o geom?trica em EPSG:5880","metodo_na_bacia":"ponto_representativo_grade_2022_within_bacia","pop_n_validos":1,"pop_n_total":1,"pop_completude":1.0,"dom_n_validos":1,"dom_n_total":1,"dom_completude":1.0},"geometry":{"type":"Polygon","coordinates":[[[-52.078652732437604,-28.660564874069525],[-52.078666377850986,-28.658706761407903],[-52.07667953892951,-28.658693993732772],[-52.076665879127006,-28.66055210639452],[-52.078652732437604,-28.660564874069525]]]}},{"type":"Feature","properties":{"id_grade":"200ME51930N81534","pop":6,"dom":1,"universo_dom":"domicilios_ocupados_grade_ibge_2022","na_bacia":1,"area_pct_bacia":100.0,"metodo_recorte_bacia":"ponto_representativo_grade_2022; area_pct_geometrica","status_borda_bacia":"total","metodo_area_bacia":"interse??o geom?trica em EPSG:5880","metodo_na_bacia":"ponto_representativo_grade_2022_within_bacia","pop_n_validos":1,"pop_n_total":1,"pop_completude":1.0,"dom_n_validos":1,"dom_n_total":1,"dom_completude":1.0},"geometry":{"type":"Polygon","coordinates":[[[-52.08264005659328,-28.658732258087174],[-52.082653673228386,-28.656874163411885],[-52.08066684869607,-28.65686142181708],[-52.080653216772475,-28.658719516492376],[-52.08264005659328,-28.658732258087174]]]}},{"type":"Feature","properties":{"id_grade":"200ME51934N81534","pop":26,"dom":11,"universo_dom":"domicilios_ocupados_grade_ibge_2022","na_bacia":1,"area_pct_bacia":100.0,"metodo_recorte_bacia":"ponto_representativo_grade_2022; area_pct_geometrica","status_borda_bacia":"total","metodo_area_bacia":"interse??o geom?trica em EPSG:5880","metodo_na_bacia":"ponto_representativo_grade_2022_within_bacia","pop_n_validos":1,"pop_n_total":1,"pop_completude":1.0,"dom_n_validos":1,"dom_n_total":1,"dom_completude":1.0},"geometry":{"type":"Polygon","coordinates":[[[-52.078666377850986,-28.658706761407903],[-52.07868002326444,-28.656848667631813],[-52.07669319873207,-28.656835899956818],[-52.07667953892951,-28.658693993732772],[-52.078666377850986,-28.658706761407903]]]}},{"type":"Feature","properties":{"id_grade":"200ME51936N81534","pop":6,"dom":2,"universo_dom":"domicilios_ocupados_grade_ibge_2022","na_bacia":1,"area_pct_bacia":100.0,"metodo_recorte_bacia":"ponto_representativo_grade_2022; area_pct_geometrica","status_borda_bacia":"total","metodo_area_bacia":"interse??o geom?trica em EPSG:5880","metodo_na_bacia":"ponto_representativo_grade_2022_within_bacia","pop_n_validos":1,"pop_n_total":1,"pop_completude":1.0,"dom_n_validos":1,"dom_n_total":1,"dom_completude":1.0},"geometry":{"type":"Polygon","coordinates":[[[-52.07667953892951,-28.658693993732772],[-52.07669319873207,-28.656835899956818],[-52.074706374199764,-28.65682311879186],[-52.074692700907406,-28.65868121256785],[-52.07667953892951,-28.658693993732772]]]}},{"type":"Feature","properties":{"id_grade":"200ME51932N81536","pop":25,"dom":9,"universo_dom":"domicilios_ocupados_grade_ibge_2022","na_bacia":1,"area_pct_bacia":100.0,"metodo_recorte_bacia":"ponto_representativo_grade_2022; area_pct_geometrica","status_borda_bacia":"total","metodo_area_bacia":"interse??o geom?trica em EPSG:5880","metodo_na_bacia":"ponto_representativo_grade_2022_within_bacia","pop_n_validos":1,"pop_n_total":1,"pop_completude":1.0,"dom_n_validos":1,"dom_n_total":1,"dom_completude":1.0},"geometry":{"type":"Polygon","coordinates":[[[-52.08066684869607,-28.65686142181708],[-52.08068047972034,-28.65500334692691],[-52.07869366867783,-28.654990592741626],[-52.07868002326444,-28.656848667631813],[-52.08066684869607,-28.65686142181708]]]}},{"type":"Feature","properties":{"id_grade":"200ME51934N81536","pop":42,"dom":15,"universo_dom":"domicilios_ocupados_grade_ibge_2022","na_bacia":1,"area_pct_bacia":100.0,"metodo_recorte_bacia":"ponto_representativo_grade_2022; area_pct_geometrica","status_borda_bacia":"total","metodo_area_bacia":"interse??o geom?trica em EPSG:5880","metodo_na_bacia":"ponto_representativo_grade_2022_within_bacia","pop_n_validos":1,"pop_n_total":1,"pop_completude":1.0,"dom_n_validos":1,"dom_n_total":1,"dom_completude":1.0},"geometry":{"type":"Polygon","coordinates":[[[-52.07868002326444,-28.656848667631813],[-52.07869366867783,-28.654990592741626],[-52.076706858534635,-28.65497782506651],[-52.07669319873207,-28.656835899956818],[-52.07868002326444,-28.656848667631813]]]}},{"type":"Feature","properties":{"id_grade":"200ME51936N81536","pop":17,"dom":7,"universo_dom":"domicilios_ocupados_grade_ibge_2022","na_bacia":1,"area_pct_bacia":100.0,"metodo_recorte_bacia":"ponto_representativo_grade_2022; area_pct_geometrica","status_borda_bacia":"total","metodo_area_bacia":"interse??o geom?trica em EPSG:5880","metodo_na_bacia":"ponto_representativo_grade_2022_within_bacia","pop_n_validos":1,"pop_n_total":1,"pop_completude":1.0,"dom_n_validos":1,"dom_n_total":1,"dom_completude":1.0},"geometry":{"type":"Polygon","coordinates":[[[-52.07669319873207,-28.656835899956818],[-52.076706858534635,-28.65497782506651],[-52.07472004749218,-28.654965043901687],[-52.074706374199764,-28.65682311879186],[-52.07669319873207,-28.656835899956818]]]}},{"type":"Feature","properties":{"id_grade":"200ME51932N81538","pop":24,"dom":10,"universo_dom":"domicilios_ocupados_grade_ibge_2022","na_bacia":1,"area_pct_bacia":100.0,"metodo_recorte_bacia":"ponto_representativo_grade_2022; area_pct_geometrica","status_borda_bacia":"total","metodo_area_bacia":"interse??o geom?trica em EPSG:5880","metodo_na_bacia":"ponto_representativo_grade_2022_within_bacia","pop_n_validos":1,"pop_n_total":1,"pop_completude":1.0,"dom_n_validos":1,"dom_n_total":1,"dom_completude":1.0},"geometry":{"type":"Polygon","coordinates":[[[-52.08068047972034,-28.65500334692691],[-52.08069411074456,-28.65314529092239],[-52.07870731409122,-28.65313253673713],[-52.07869366867783,-28.654990592741626],[-52.08068047972034,-28.65500334692691]]]}},{"type":"Feature","properties":{"id_grade":"200ME51934N81538","pop":95,"dom":34,"universo_dom":"domicilios_ocupados_grade_ibge_2022","na_bacia":1,"area_pct_bacia":100.0,"metodo_recorte_bacia":"ponto_representativo_grade_2022; area_pct_geometrica","status_borda_bacia":"total","metodo_area_bacia":"interse??o geom?trica em EPSG:5880","metodo_na_bacia":"ponto_representativo_grade_2022_within_bacia","pop_n_validos":1,"pop_n_total":1,"pop_completude":1.0,"dom_n_validos":1,"dom_n_total":1,"dom_completude":1.0},"geometry":{"type":"Polygon","coordinates":[[[-52.07869366867783,-28.654990592741626],[-52.07870731409122,-28.65313253673713],[-52.07672051743788,-28.65311976906211],[-52.076706858534635,-28.65497782506651],[-52.07869366867783,-28.654990592741626]]]}},{"type":"Feature","properties":{"id_grade":"200ME51936N81538","pop":37,"dom":18,"universo_dom":"domicilios_ocupados_grade_ibge_2022","na_bacia":1,"area_pct_bacia":100.0,"metodo_recorte_bacia":"ponto_representativo_grade_2022; area_pct_geometrica","status_borda_bacia":"total","metodo_area_bacia":"interse??o geom?trica em EPSG:5880","metodo_na_bacia":"ponto_representativo_grade_2022_within_bacia","pop_n_validos":1,"pop_n_total":1,"pop_completude":1.0,"dom_n_validos":1,"dom_n_total":1,"dom_completude":1.0},"geometry":{"type":"Polygon","coordinates":[[[-52.076706858534635,-28.65497782506651],[-52.07672051743788,-28.65311976906211],[-52.074733720784536,-28.653106988796413],[-52.07472004749218,-28.654965043901687],[-52.076706858534635,-28.65497782506651]]]}},{"type":"Feature","properties":{"id_grade":"200ME51938N81538","pop":7,"dom":3,"universo_dom":"domicilios_ocupados_grade_ibge_2022","na_bacia":1,"area_pct_bacia":100.0,"metodo_recorte_bacia":"ponto_representativo_grade_2022; area_pct_geometrica","status_borda_bacia":"total","metodo_area_bacia":"interse??o geom?trica em EPSG:5880","metodo_na_bacia":"ponto_representativo_grade_2022_within_bacia","pop_n_validos":1,"pop_n_total":1,"pop_completude":1.0,"dom_n_validos":1,"dom_n_total":1,"dom_completude":1.0},"geometry":{"type":"Polygon","coordinates":[[[-52.07472004749218,-28.654965043901687],[-52.074733720784536,-28.653106988796413],[-52.072746925030515,-28.65309419504104],[-52.072733237348984,-28.654952250146174],[-52.07472004749218,-28.654965043901687]]]}},{"type":"Feature","properties":{"id_grade":"200ME51932N81540","pop":5,"dom":2,"universo_dom":"domicilios_ocupados_grade_ibge_2022","na_bacia":1,"area_pct_bacia":100.0,"metodo_recorte_bacia":"ponto_representativo_grade_2022; area_pct_geometrica","status_borda_bacia":"total","metodo_area_bacia":"interse??o geom?trica em EPSG:5880","metodo_na_bacia":"ponto_representativo_grade_2022_within_bacia","pop_n_validos":1,"pop_n_total":1,"pop_completude":1.0,"dom_n_validos":1,"dom_n_total":1,"dom_completude":1.0},"geometry":{"type":"Polygon","coordinates":[[[-52.08069411074456,-28.65314529092239],[-52.080707740869514,-28.65128725380372],[-52.07872095860529,-28.651274499618392],[-52.07870731409122,-28.65313253673713],[-52.08069411074456,-28.65314529092239]]]}},{"type":"Feature","properties":{"id_grade":"200ME51934N81540","pop":25,"dom":9,"universo_dom":"domicilios_ocupados_grade_ibge_2022","na_bacia":1,"area_pct_bacia":100.0,"metodo_recorte_bacia":"ponto_representativo_grade_2022; area_pct_geometrica","status_borda_bacia":"total","metodo_area_bacia":"interse??o geom?trica em EPSG:5880","metodo_na_bacia":"ponto_representativo_grade_2022_within_bacia","pop_n_validos":1,"pop_n_total":1,"pop_completude":1.0,"dom_n_validos":1,"dom_n_total":1,"dom_completude":1.0},"geometry":{"type":"Polygon","coordinates":[[[-52.07870731409122,-28.65313253673713],[-52.07872095860529,-28.651274499618392],[-52.07673417634112,-28.651261732842563],[-52.07672051743788,-28.65311976906211],[-52.07870731409122,-28.65313253673713]]]}},{"type":"Feature","properties":{"id_grade":"200ME51936N81540","pop":68,"dom":25,"universo_dom":"domicilios_ocupados_grade_ibge_2022","na_bacia":1,"area_pct_bacia":100.0,"metodo_recorte_bacia":"ponto_representativo_grade_2022; area_pct_geometrica","status_borda_bacia":"total","metodo_area_bacia":"interse??o geom?trica em EPSG:5880","metodo_na_bacia":"ponto_representativo_grade_2022_within_bacia","pop_n_validos":1,"pop_n_total":1,"pop_completude":1.0,"dom_n_validos":1,"dom_n_total":1,"dom_completude":1.0},"geometry":{"type":"Polygon","coordinates":[[[-52.07672051743788,-28.65311976906211],[-52.07673417634112,-28.651261732842563],[-52.07474739407695,-28.65124895257706],[-52.074733720784536,-28.653106988796413],[-52.07672051743788,-28.65311976906211]]]}},{"type":"Feature","properties":{"id_grade":"200ME51938N81540","pop":39,"dom":16,"universo_dom":"domicilios_ocupados_grade_ibge_2022","na_bacia":1,"area_pct_bacia":100.0,"metodo_recorte_bacia":"ponto_representativo_grade_2022; area_pct_geometrica","status_borda_bacia":"total","metodo_area_bacia":"interse??o geom?trica em EPSG:5880","metodo_na_bacia":"ponto_representativo_grade_2022_within_bacia","pop_n_validos":1,"pop_n_total":1,"pop_completude":1.0,"dom_n_validos":1,"dom_n_total":1,"dom_completude":1.0},"geometry":{"type":"Polygon","coordinates":[[[-52.074733720784536,-28.653106988796413],[-52.07474739407695,-28.65124895257706],[-52.07276061271205,-28.651236158821558],[-52.072746925030515,-28.65309419504104],[-52.074733720784536,-28.653106988796413]]]}},{"type":"Feature","properties":{"id_grade":"200ME51932N81542","pop":15,"dom":5,"universo_dom":"domicilios_ocupados_grade_ibge_2022","na_bacia":1,"area_pct_bacia":100.0,"metodo_recorte_bacia":"ponto_representativo_grade_2022; area_pct_geometrica","status_borda_bacia":"total","metodo_area_bacia":"interse??o geom?trica em EPSG:5880","metodo_na_bacia":"ponto_representativo_grade_2022_within_bacia","pop_n_validos":1,"pop_n_total":1,"pop_completude":1.0,"dom_n_validos":1,"dom_n_total":1,"dom_completude":1.0},"geometry":{"type":"Polygon","coordinates":[[[-52.080707740869514,-28.65128725380372],[-52.08072137189373,-28.649429235570725],[-52.078734603119415,-28.649416482284806],[-52.07872095860529,-28.651274499618392],[-52.080707740869514,-28.65128725380372]]]}},{"type":"Feature","properties":{"id_grade":"200ME51934N81542","pop":80,"dom":29,"universo_dom":"domicilios_ocupados_grade_ibge_2022","na_bacia":1,"area_pct_bacia":100.0,"metodo_recorte_bacia":"ponto_representativo_grade_2022; area_pct_geometrica","status_borda_bacia":"total","metodo_area_bacia":"interse??o geom?trica em EPSG:5880","metodo_na_bacia":"ponto_representativo_grade_2022_within_bacia","pop_n_validos":1,"pop_n_total":1,"pop_completude":1.0,"dom_n_validos":1,"dom_n_total":1,"dom_completude":1.0},"geometry":{"type":"Polygon","coordinates":[[[-52.07872095860529,-28.651274499618392],[-52.078734603119415,-28.649416482284806],[-52.07674783524436,-28.649403714609708],[-52.07673417634112,-28.651261732842563],[-52.07872095860529,-28.651274499618392]]]}},{"type":"Feature","properties":{"id_grade":"200ME51936N81542","pop":73,"dom":33,"universo_dom":"domicilios_ocupados_grade_ibge_2022","na_bacia":1,"area_pct_bacia":100.0,"metodo_recorte_bacia":"ponto_representativo_grade_2022; area_pct_geometrica","status_borda_bacia":"total","metodo_area_bacia":"interse??o geom?trica em EPSG:5880","metodo_na_bacia":"ponto_representativo_grade_2022_within_bacia","pop_n_validos":1,"pop_n_total":1,"pop_completude":1.0,"dom_n_validos":1,"dom_n_total":1,"dom_completude":1.0},"geometry":{"type":"Polygon","coordinates":[[[-52.07673417634112,-28.651261732842563],[-52.07674783524436,-28.649403714609708],[-52.074761067369316,-28.64939093524341],[-52.07474739407695,-28.65124895257706],[-52.07673417634112,-28.651261732842563]]]}},{"type":"Feature","properties":{"id_grade":"200ME51938N81542","pop":11,"dom":3,"universo_dom":"domicilios_ocupados_grade_ibge_2022","na_bacia":1,"area_pct_bacia":100.0,"metodo_recorte_bacia":"ponto_representativo_grade_2022; area_pct_geometrica","status_borda_bacia":"total","metodo_area_bacia":"interse??o geom?trica em EPSG:5880","metodo_na_bacia":"ponto_representativo_grade_2022_within_bacia","pop_n_validos":1,"pop_n_total":1,"pop_completude":1.0,"dom_n_validos":1,"dom_n_total":1,"dom_completude":1.0},"geometry":{"type":"Polygon","coordinates":[[[-52.07474739407695,-28.65124895257706],[-52.074761067369316,-28.64939093524341],[-52.07277429949432,-28.649378141487983],[-52.07276061271205,-28.651236158821558],[-52.07474739407695,-28.65124895257706]]]}},{"type":"Feature","properties":{"id_grade":"200ME51932N81544","pop":6,"dom":3,"universo_dom":"domicilios_ocupados_grade_ibge_2022","na_bacia":1,"area_pct_bacia":100.0,"metodo_recorte_bacia":"ponto_representativo_grade_2022; area_pct_geometrica","status_borda_bacia":"total","metodo_area_bacia":"interse??o geom?trica em EPSG:5880","metodo_na_bacia":"ponto_representativo_grade_2022_within_bacia","pop_n_validos":1,"pop_n_total":1,"pop_completude":1.0,"dom_n_validos":1,"dom_n_total":1,"dom_completude":1.0},"geometry":{"type":"Polygon","coordinates":[[[-52.08072137189373,-28.649429235570725],[-52.080735002018685,-28.647571236223538],[-52.078748247633484,-28.647558482937626],[-52.078734603119415,-28.649416482284806],[-52.08072137189373,-28.649429235570725]]]}},{"type":"Feature","properties":{"id_grade":"200ME51934N81544","pop":46,"dom":20,"universo_dom":"domicilios_ocupados_grade_ibge_2022","na_bacia":1,"area_pct_bacia":100.0,"metodo_recorte_bacia":"ponto_representativo_grade_2022; area_pct_geometrica","status_borda_bacia":"total","metodo_area_bacia":"interse??o geom?trica em EPSG:5880","metodo_na_bacia":"ponto_representativo_grade_2022_within_bacia","pop_n_validos":1,"pop_n_total":1,"pop_completude":1.0,"dom_n_validos":1,"dom_n_total":1,"dom_completude":1.0},"geometry":{"type":"Polygon","coordinates":[[[-52.078734603119415,-28.649416482284806],[-52.078748247633484,-28.647558482937626],[-52.0767614941476,-28.6475457161618],[-52.07674783524436,-28.649403714609708],[-52.078734603119415,-28.649416482284806]]]}},{"type":"Feature","properties":{"id_grade":"200ME51936N81544","pop":127,"dom":42,"universo_dom":"domicilios_ocupados_grade_ibge_2022","na_bacia":1,"area_pct_bacia":100.0,"metodo_recorte_bacia":"ponto_representativo_grade_2022; area_pct_geometrica","status_borda_bacia":"total","metodo_area_bacia":"interse??o geom?trica em EPSG:5880","metodo_na_bacia":"ponto_representativo_grade_2022_within_bacia","pop_n_validos":1,"pop_n_total":1,"pop_completude":1.0,"dom_n_validos":1,"dom_n_total":1,"dom_completude":1.0},"geometry":{"type":"Polygon","coordinates":[[[-52.07674783524436,-28.649403714609708],[-52.0767614941476,-28.6475457161618],[-52.074774739762404,-28.647532936795557],[-52.074761067369316,-28.64939093524341],[-52.07674783524436,-28.649403714609708]]]}},{"type":"Feature","properties":{"id_grade":"200ME51938N81544","pop":6,"dom":3,"universo_dom":"domicilios_ocupados_grade_ibge_2022","na_bacia":1,"area_pct_bacia":100.0,"metodo_recorte_bacia":"ponto_representativo_grade_2022; area_pct_geometrica","status_borda_bacia":"total","metodo_area_bacia":"interse??o geom?trica em EPSG:5880","metodo_na_bacia":"ponto_representativo_grade_2022_within_bacia","pop_n_validos":1,"pop_n_total":1,"pop_completude":1.0,"dom_n_validos":1,"dom_n_total":1,"dom_completude":1.0},"geometry":{"type":"Polygon","coordinates":[[[-52.074761067369316,-28.64939093524341],[-52.074774739762404,-28.647532936795557],[-52.072787986276516,-28.64752014304012],[-52.07277429949432,-28.649378141487983],[-52.074761067369316,-28.64939093524341]]]}},{"type":"Feature","properties":{"id_grade":"200ME51932N81546","pop":1,"dom":1,"universo_dom":"domicilios_ocupados_grade_ibge_2022","na_bacia":1,"area_pct_bacia":100.0,"metodo_recorte_bacia":"ponto_representativo_grade_2022; area_pct_geometrica","status_borda_bacia":"total","metodo_area_bacia":"interse??o geom?trica em EPSG:5880","metodo_na_bacia":"ponto_representativo_grade_2022_within_bacia","pop_n_validos":1,"pop_n_total":1,"pop_completude":1.0,"dom_n_validos":1,"dom_n_total":1,"dom_completude":1.0},"geometry":{"type":"Polygon","coordinates":[[[-52.080735002018685,-28.647571236223538],[-52.08074863214364,-28.64571325666139],[-52.07876189214755,-28.64570050337552],[-52.078748247633484,-28.647558482937626],[-52.080735002018685,-28.647571236223538]]]}},{"type":"Feature","properties":{"id_grade":"200ME51934N81546","pop":2,"dom":1,"universo_dom":"domicilios_ocupados_grade_ibge_2022","na_bacia":1,"area_pct_bacia":100.0,"metodo_recorte_bacia":"ponto_representativo_grade_2022; area_pct_geometrica","status_borda_bacia":"total","metodo_area_bacia":"interse??o geom?trica em EPSG:5880","metodo_na_bacia":"ponto_representativo_grade_2022_within_bacia","pop_n_validos":1,"pop_n_total":1,"pop_completude":1.0,"dom_n_validos":1,"dom_n_total":1,"dom_completude":1.0},"geometry":{"type":"Polygon","coordinates":[[[-52.078748247633484,-28.647558482937626],[-52.07876189214755,-28.64570050337552],[-52.07677515215153,-28.645687736599694],[-52.0767614941476,-28.6475457161618],[-52.078748247633484,-28.647558482937626]]]}},{"type":"Feature","properties":{"id_grade":"200ME51930N81550","pop":5,"dom":2,"universo_dom":"domicilios_ocupados_grade_ibge_2022","na_bacia":1,"area_pct_bacia":100.0,"metodo_recorte_bacia":"ponto_representativo_grade_2022; area_pct_geometrica","status_borda_bacia":"total","metodo_area_bacia":"interse??o geom?trica em EPSG:5880","metodo_na_bacia":"ponto_representativo_grade_2022_within_bacia","pop_n_validos":1,"pop_n_total":1,"pop_completude":1.0,"dom_n_validos":1,"dom_n_total":1,"dom_completude":1.0},"geometry":{"type":"Polygon","coordinates":[[[-52.082748988774775,-28.643868035781185],[-52.08276260451054,-28.64201009309137],[-52.0807758923935,-28.641997354194523],[-52.080762262268536,-28.643855295985073],[-52.082748988774775,-28.643868035781185]]]}},{"type":"Feature","properties":{"id_grade":"200ME51946N81536","pop":4,"dom":1,"universo_dom":"domicilios_ocupados_grade_ibge_2022","na_bacia":1,"area_pct_bacia":100.0,"metodo_recorte_bacia":"ponto_representativo_grade_2022; area_pct_geometrica","status_borda_bacia":"total","metodo_area_bacia":"interse??o geom?trica em EPSG:5880","metodo_na_bacia":"ponto_representativo_grade_2022_within_bacia","pop_n_validos":1,"pop_n_total":1,"pop_completude":1.0,"dom_n_validos":1,"dom_n_total":1,"dom_completude":1.0},"geometry":{"type":"Polygon","coordinates":[[[-52.06675907786911,-28.656771862831086],[-52.06677280781878,-28.654913788840247],[-52.06478599857491,-28.654900942024735],[-52.06477225513544,-28.65675901601576],[-52.06675907786911,-28.656771862831086]]]}},{"type":"Feature","properties":{"id_grade":"200ME51940N81538","pop":8,"dom":3,"universo_dom":"domicilios_ocupados_grade_ibge_2022","na_bacia":1,"area_pct_bacia":100.0,"metodo_recorte_bacia":"ponto_representativo_grade_2022; area_pct_geometrica","status_borda_bacia":"total","metodo_area_bacia":"interse??o geom?trica em EPSG:5880","metodo_na_bacia":"ponto_representativo_grade_2022_within_bacia","pop_n_validos":1,"pop_n_total":1,"pop_completude":1.0,"dom_n_validos":1,"dom_n_total":1,"dom_completude":1.0},"geometry":{"type":"Polygon","coordinates":[[[-52.072733237348984,-28.654952250146174],[-52.072746925030515,-28.65309419504104],[-52.07076012927649,-28.653081387795794],[-52.07074642720579,-28.65493944290085],[-52.072733237348984,-28.654952250146174]]]}},{"type":"Feature","properties":{"id_grade":"200ME51944N81538","pop":5,"dom":1,"universo_dom":"domicilios_ocupados_grade_ibge_2022","na_bacia":1,"area_pct_bacia":100.0,"metodo_recorte_bacia":"ponto_representativo_grade_2022; area_pct_geometrica","status_borda_bacia":"total","metodo_area_bacia":"interse??o geom?trica em EPSG:5880","metodo_na_bacia":"ponto_representativo_grade_2022_within_bacia","pop_n_validos":1,"pop_n_total":1,"pop_completude":1.0,"dom_n_validos":1,"dom_n_total":1,"dom_completude":1.0},"geometry":{"type":"Polygon","coordinates":[[[-52.06875961796197,-28.654926622165842],[-52.06877333352248,-28.653068567960037],[-52.06678653776846,-28.653055734634385],[-52.06677280781878,-28.654913788840247],[-52.06875961796197,-28.654926622165842]]]}},{"type":"Feature","properties":{"id_grade":"200ME51948N81538","pop":6,"dom":1,"universo_dom":"domicilios_ocupados_grade_ibge_2022","na_bacia":1,"area_pct_bacia":100.0,"metodo_recorte_bacia":"ponto_representativo_grade_2022; area_pct_geometrica","status_borda_bacia":"total","metodo_area_bacia":"interse??o geom?trica em EPSG:5880","metodo_na_bacia":"ponto_representativo_grade_2022_within_bacia","pop_n_validos":1,"pop_n_total":1,"pop_completude":1.0,"dom_n_validos":1,"dom_n_total":1,"dom_completude":1.0},"geometry":{"type":"Polygon","coordinates":[[[-52.06478599857491,-28.654900942024735],[-52.06479974291375,-28.653042887818952],[-52.06281294715972,-28.653030028412946],[-52.06279918933108,-28.654888082618854],[-52.06478599857491,-28.654900942024735]]]}},{"type":"Feature","properties":{"id_grade":"200ME51942N81540","pop":7,"dom":2,"universo_dom":"domicilios_ocupados_grade_ibge_2022","na_bacia":1,"area_pct_bacia":100.0,"metodo_recorte_bacia":"ponto_representativo_grade_2022; area_pct_geometrica","status_borda_bacia":"total","metodo_area_bacia":"interse??o geom?trica em EPSG:5880","metodo_na_bacia":"ponto_representativo_grade_2022_within_bacia","pop_n_validos":1,"pop_n_total":1,"pop_completude":1.0,"dom_n_validos":1,"dom_n_total":1,"dom_completude":1.0},"geometry":{"type":"Polygon","coordinates":[[[-52.07076012927649,-28.653081387795794],[-52.07077383044787,-28.651223351576384],[-52.068787049083035,-28.65121053174069],[-52.06877333352248,-28.653068567960037],[-52.07076012927649,-28.653081387795794]]]}},{"type":"Feature","properties":{"id_grade":"200ME51944N81540","pop":7,"dom":3,"universo_dom":"domicilios_ocupados_grade_ibge_2022","na_bacia":1,"area_pct_bacia":100.0,"metodo_recorte_bacia":"ponto_representativo_grade_2022; area_pct_geometrica","status_borda_bacia":"total","metodo_area_bacia":"interse??o geom?trica em EPSG:5880","metodo_na_bacia":"ponto_representativo_grade_2022_within_bacia","pop_n_validos":1,"pop_n_total":1,"pop_completude":1.0,"dom_n_validos":1,"dom_n_total":1,"dom_completude":1.0},"geometry":{"type":"Polygon","coordinates":[[[-52.06877333352248,-28.653068567960037],[-52.068787049083035,-28.65121053174069],[-52.06680026771812,-28.651197699314334],[-52.06678653776846,-28.653055734634385],[-52.06877333352248,-28.653068567960037]]]}}]}
