{"type":"FeatureCollection","name":"4313359","crs":{"type":"name","properties":{"name":"urn:ogc:def:crs:OGC:1.3:CRS84"}},"features":[{"type":"Feature","properties":{"id_grade":"1KME5258N8109","pop":3,"dom":1,"universo_dom":"domicilios_ocupados_grade_ibge_2022","na_bacia":1,"area_pct_bacia":100.0,"metodo_recorte_bacia":"ponto_representativo_grade_2022; area_pct_geometrica"},"geometry":{"type":"Polygon","coordinates":[[[-51.43289950160327,-29.06498943679874],[-51.43299079892047,-29.055678172659764],[-51.42304171257953,-29.055592568068462],[-51.422950061456696,-29.06490382463505],[-51.43289950160327,-29.06498943679874]]]}},{"type":"Feature","properties":{"id_grade":"1KME5264N8109","pop":7,"dom":2,"universo_dom":"domicilios_ocupados_grade_ibge_2022","na_bacia":1,"area_pct_bacia":100.0,"metodo_recorte_bacia":"ponto_representativo_grade_2022; area_pct_geometrica"},"geometry":{"type":"Polygon","coordinates":[[[-51.37320295901667,-29.06447079706016],[-51.373296379157196,-29.055159578794928],[-51.36334733230532,-29.055071987682275],[-51.363253558363375,-29.064383198199657],[-51.37320295901667,-29.06447079706016]]]}},{"type":"Feature","properties":{"id_grade":"1KME5257N8110","pop":5,"dom":2,"universo_dom":"domicilios_ocupados_grade_ibge_2022","na_bacia":1,"area_pct_bacia":100.0,"metodo_recorte_bacia":"ponto_representativo_grade_2022; area_pct_geometrica"},"geometry":{"type":"Polygon","coordinates":[[[-51.442939891754854,-29.05576344616112],[-51.44303082879744,-29.046452666751588],[-51.43308208974422,-29.046367400789276],[-51.43299079892047,-29.055678172659764],[-51.442939891754854,-29.05576344616112]]]}},{"type":"Feature","properties":{"id_grade":"1KME5258N8110","pop":46,"dom":14,"universo_dom":"domicilios_ocupados_grade_ibge_2022","na_bacia":1,"area_pct_bacia":100.0,"metodo_recorte_bacia":"ponto_representativo_grade_2022; area_pct_geometrica"},"geometry":{"type":"Polygon","coordinates":[[[-51.43299079892047,-29.055678172659764],[-51.43308208974422,-29.046367400789276],[-51.42313335718376,-29.04628180376688],[-51.42304171257953,-29.055592568068462],[-51.43299079892047,-29.055678172659764]]]}},{"type":"Feature","properties":{"id_grade":"1KME5259N8110","pop":5,"dom":1,"universo_dom":"domicilios_ocupados_grade_ibge_2022","na_bacia":1,"area_pct_bacia":100.0,"metodo_recorte_bacia":"ponto_representativo_grade_2022; area_pct_geometrica"},"geometry":{"type":"Polygon","coordinates":[[[-51.42304171257953,-29.055592568068462],[-51.42313335718376,-29.04628180376688],[-51.413184631141206,-29.046195875684326],[-51.413092632757206,-29.055506632388703],[-51.42304171257953,-29.055592568068462]]]}},{"type":"Feature","properties":{"id_grade":"1KME5261N8110","pop":11,"dom":3,"universo_dom":"domicilios_ocupados_grade_ibge_2022","na_bacia":1,"area_pct_bacia":100.0,"metodo_recorte_bacia":"ponto_representativo_grade_2022; area_pct_geometrica"},"geometry":{"type":"Polygon","coordinates":[[[-51.40314355947865,-29.055420365620478],[-51.40323591164174,-29.046109616543003],[-51.39328719871049,-29.0460230263437],[-51.39319449276902,-29.05533376776492],[-51.40314355947865,-29.055420365620478]]]}},{"type":"Feature","properties":{"id_grade":"1KME5262N8110","pop":37,"dom":11,"universo_dom":"domicilios_ocupados_grade_ibge_2022","na_bacia":1,"area_pct_bacia":100.0,"metodo_recorte_bacia":"ponto_representativo_grade_2022; area_pct_geometrica"},"geometry":{"type":"Polygon","coordinates":[[[-51.39319449276902,-29.05533376776492],[-51.39328719871049,-29.0460230263437],[-51.38333849237264,-29.04593610508721],[-51.38324543265348,-29.055246838822658],[-51.39319449276902,-29.05533376776492]]]}},{"type":"Feature","properties":{"id_grade":"1KME5263N8110","pop":43,"dom":13,"universo_dom":"domicilios_ocupados_grade_ibge_2022","na_bacia":1,"area_pct_bacia":100.0,"metodo_recorte_bacia":"ponto_representativo_grade_2022; area_pct_geometrica"},"geometry":{"type":"Polygon","coordinates":[[[-51.38324543265348,-29.055246838822658],[-51.38333849237264,-29.04593610508721],[-51.373389792653306,-29.04584885277418],[-51.373296379157196,-29.055159578794928],[-51.38324543265348,-29.055246838822658]]]}},{"type":"Feature","properties":{"id_grade":"1KME5264N8110","pop":2,"dom":1,"universo_dom":"domicilios_ocupados_grade_ibge_2022","na_bacia":1,"area_pct_bacia":100.0,"metodo_recorte_bacia":"ponto_representativo_grade_2022; area_pct_geometrica"},"geometry":{"type":"Polygon","coordinates":[[[-51.373296379157196,-29.055159578794928],[-51.373389792653306,-29.04584885277418],[-51.36344109957769,-29.045761269405457],[-51.36334733230532,-29.055071987682275],[-51.373296379157196,-29.055159578794928]]]}},{"type":"Feature","properties":{"id_grade":"1KME5257N8111","pop":1,"dom":1,"universo_dom":"domicilios_ocupados_grade_ibge_2022","na_bacia":1,"area_pct_bacia":100.0,"metodo_recorte_bacia":"ponto_representativo_grade_2022; area_pct_geometrica"},"geometry":{"type":"Polygon","coordinates":[[[-51.44303082879744,-29.046452666751588],[-51.44312175937242,-29.037142379238464],[-51.43317337407521,-29.037057120811635],[-51.43308208974422,-29.046367400789276],[-51.44303082879744,-29.046452666751588]]]}},{"type":"Feature","properties":{"id_grade":"1KME5258N8111","pop":9,"dom":3,"universo_dom":"domicilios_ocupados_grade_ibge_2022","na_bacia":1,"area_pct_bacia":100.0,"metodo_recorte_bacia":"ponto_representativo_grade_2022; area_pct_geometrica"},"geometry":{"type":"Polygon","coordinates":[[[-51.43308208974422,-29.046367400789276],[-51.43317337407521,-29.037057120811635],[-51.42322499527007,-29.036971531353483],[-51.42313335718376,-29.04628180376688],[-51.43308208974422,-29.046367400789276]]]}},{"type":"Feature","properties":{"id_grade":"1KME5259N8111","pop":16,"dom":6,"universo_dom":"domicilios_ocupados_grade_ibge_2022","na_bacia":1,"area_pct_bacia":100.0,"metodo_recorte_bacia":"ponto_representativo_grade_2022; area_pct_geometrica"},"geometry":{"type":"Polygon","coordinates":[[[-51.42313335718376,-29.04628180376688],[-51.42322499527007,-29.036971531353483],[-51.41327662298214,-29.036885610864918],[-51.413184631141206,-29.046195875684326],[-51.42313335718376,-29.04628180376688]]]}},{"type":"Feature","properties":{"id_grade":"1KME5260N8111","pop":30,"dom":10,"universo_dom":"domicilios_ocupados_grade_ibge_2022","na_bacia":1,"area_pct_bacia":100.0,"metodo_recorte_bacia":"ponto_representativo_grade_2022; area_pct_geometrica"},"geometry":{"type":"Polygon","coordinates":[[[-51.413184631141206,-29.046195875684326],[-51.41327662298214,-29.036885610864918],[-51.40332825723659,-29.03679935934646],[-51.40323591164174,-29.046109616543003],[-51.413184631141206,-29.046195875684326]]]}},{"type":"Feature","properties":{"id_grade":"1KME5261N8111","pop":15,"dom":5,"universo_dom":"domicilios_ocupados_grade_ibge_2022","na_bacia":1,"area_pct_bacia":100.0,"metodo_recorte_bacia":"ponto_representativo_grade_2022; area_pct_geometrica"},"geometry":{"type":"Polygon","coordinates":[[[-51.40323591164174,-29.046109616543003],[-51.40332825723659,-29.03679935934646],[-51.39337989805857,-29.036712776799465],[-51.39328719871049,-29.0460230263437],[-51.40323591164174,-29.046109616543003]]]}},{"type":"Feature","properties":{"id_grade":"1KME5263N8111","pop":8,"dom":3,"universo_dom":"domicilios_ocupados_grade_ibge_2022","na_bacia":1,"area_pct_bacia":100.0,"metodo_recorte_bacia":"ponto_representativo_grade_2022; area_pct_geometrica"},"geometry":{"type":"Polygon","coordinates":[[[-51.38333849237264,-29.04593610508721],[-51.38343154547323,-29.036625863224156],[-51.37348319950572,-29.036538618621638],[-51.373389792653306,-29.04584885277418],[-51.38333849237264,-29.04593610508721]]]}},{"type":"Feature","properties":{"id_grade":"1KME5264N8111","pop":4,"dom":1,"universo_dom":"domicilios_ocupados_grade_ibge_2022","na_bacia":1,"area_pct_bacia":100.0,"metodo_recorte_bacia":"ponto_representativo_grade_2022; area_pct_geometrica"},"geometry":{"type":"Polygon","coordinates":[[[-51.373389792653306,-29.04584885277418],[-51.37348319950572,-29.036538618621638],[-51.363534860181204,-29.036451042992983],[-51.36344109957769,-29.045761269405457],[-51.373389792653306,-29.04584885277418]]]}},{"type":"Feature","properties":{"id_grade":"1KME5258N8112","pop":18,"dom":5,"universo_dom":"domicilios_ocupados_grade_ibge_2022","na_bacia":1,"area_pct_bacia":100.0,"metodo_recorte_bacia":"ponto_representativo_grade_2022; area_pct_geometrica"},"geometry":{"type":"Polygon","coordinates":[[[-51.43317337407521,-29.037057120811635],[-51.43326465191413,-29.02774733235091],[-51.42331662683916,-29.02766175045324],[-51.42322499527007,-29.036971531353483],[-51.43317337407521,-29.037057120811635]]]}},{"type":"Feature","properties":{"id_grade":"1KME5259N8112","pop":51,"dom":17,"universo_dom":"domicilios_ocupados_grade_ibge_2022","na_bacia":1,"area_pct_bacia":100.0,"metodo_recorte_bacia":"ponto_representativo_grade_2022; area_pct_geometrica"},"geometry":{"type":"Polygon","coordinates":[[[-51.42322499527007,-29.036971531353483],[-51.42331662683916,-29.02766175045324],[-51.4133686082807,-29.027575837554252],[-51.41327662298214,-29.036885610864918],[-51.42322499527007,-29.036971531353483]]]}},{"type":"Feature","properties":{"id_grade":"1KME5260N8112","pop":51,"dom":19,"universo_dom":"domicilios_ocupados_grade_ibge_2022","na_bacia":1,"area_pct_bacia":100.0,"metodo_recorte_bacia":"ponto_representativo_grade_2022; area_pct_geometrica"},"geometry":{"type":"Polygon","coordinates":[[[-51.41327662298214,-29.036885610864918],[-51.4133686082807,-29.027575837554252],[-51.40342059626392,-29.02748959365507],[-51.40332825723659,-29.03679935934646],[-51.41327662298214,-29.036885610864918]]]}},{"type":"Feature","properties":{"id_grade":"1KME5261N8112","pop":19,"dom":7,"universo_dom":"domicilios_ocupados_grade_ibge_2022","na_bacia":1,"area_pct_bacia":100.0,"metodo_recorte_bacia":"ponto_representativo_grade_2022; area_pct_geometrica"},"geometry":{"type":"Polygon","coordinates":[[[-51.40332825723659,-29.03679935934646],[-51.40342059626392,-29.02748959365507],[-51.393472590813964,-29.027403018755827],[-51.39337989805857,-29.036712776799465],[-51.40332825723659,-29.03679935934646]]]}},{"type":"Feature","properties":{"id_grade":"1KME5262N8112","pop":16,"dom":5,"universo_dom":"domicilios_ocupados_grade_ibge_2022","na_bacia":1,"area_pct_bacia":100.0,"metodo_recorte_bacia":"ponto_representativo_grade_2022; area_pct_geometrica"},"geometry":{"type":"Polygon","coordinates":[[[-51.39337989805857,-29.036712776799465],[-51.393472590813964,-29.027403018755827],[-51.38352459195599,-29.027316112857854],[-51.38343154547323,-29.036625863224156],[-51.39337989805857,-29.036712776799465]]]}},{"type":"Feature","properties":{"id_grade":"1KME5263N8112","pop":46,"dom":15,"universo_dom":"domicilios_ocupados_grade_ibge_2022","na_bacia":1,"area_pct_bacia":100.0,"metodo_recorte_bacia":"ponto_representativo_grade_2022; area_pct_geometrica"},"geometry":{"type":"Polygon","coordinates":[[[-51.38343154547323,-29.036625863224156],[-51.38352459195599,-29.027316112857854],[-51.37357659971514,-29.0272288759621],[-51.37348319950572,-29.036538618621638],[-51.38343154547323,-29.036625863224156]]]}},{"type":"Feature","properties":{"id_grade":"1KME5264N8112","pop":20,"dom":6,"universo_dom":"domicilios_ocupados_grade_ibge_2022","na_bacia":1,"area_pct_bacia":100.0,"metodo_recorte_bacia":"ponto_representativo_grade_2022; area_pct_geometrica"},"geometry":{"type":"Polygon","coordinates":[[[-51.37348319950572,-29.036538618621638],[-51.37357659971514,-29.0272288759621],[-51.363628614116585,-29.027141308069105],[-51.363534860181204,-29.036451042992983],[-51.37348319950572,-29.036538618621638]]]}},{"type":"Feature","properties":{"id_grade":"1KME5265N8112","pop":1,"dom":1,"universo_dom":"domicilios_ocupados_grade_ibge_2022","na_bacia":1,"area_pct_bacia":100.0,"metodo_recorte_bacia":"ponto_representativo_grade_2022; area_pct_geometrica"},"geometry":{"type":"Polygon","coordinates":[[[-51.363534860181204,-29.036451042992983],[-51.363628614116585,-29.027141308069105],[-51.353680635185455,-29.0270534091795],[-51.35358652752484,-29.03636313633865],[-51.363534860181204,-29.036451042992983]]]}},{"type":"Feature","properties":{"id_grade":"1KME5256N8113","pop":21,"dom":5,"universo_dom":"domicilios_ocupados_grade_ibge_2022","na_bacia":1,"area_pct_bacia":100.0,"metodo_recorte_bacia":"ponto_representativo_grade_2022; area_pct_geometrica"},"geometry":{"type":"Polygon","coordinates":[[[-51.453160721513065,-29.027917503138895],[-51.45325128544852,-29.0186081907939],[-51.44330360112234,-29.018523278399297],[-51.44321268348049,-29.02783258324624],[-51.453160721513065,-29.027917503138895]]]}},{"type":"Feature","properties":{"id_grade":"1KME5257N8113","pop":40,"dom":11,"universo_dom":"domicilios_ocupados_grade_ibge_2022","na_bacia":1,"area_pct_bacia":100.0,"metodo_recorte_bacia":"ponto_representativo_grade_2022; area_pct_geometrica"},"geometry":{"type":"Polygon","coordinates":[[[-51.44321268348049,-29.02783258324624],[-51.44330360112234,-29.018523278399297],[-51.433355923261686,-29.018438035031153],[-51.43326465191413,-29.02774733235091],[-51.44321268348049,-29.02783258324624]]]}},{"type":"Feature","properties":{"id_grade":"1KME5258N8113","pop":20,"dom":7,"universo_dom":"domicilios_ocupados_grade_ibge_2022","na_bacia":1,"area_pct_bacia":100.0,"metodo_recorte_bacia":"ponto_representativo_grade_2022; area_pct_geometrica"},"geometry":{"type":"Polygon","coordinates":[[[-51.43326465191413,-29.02774733235091],[-51.433355923261686,-29.018438035031153],[-51.42340825189172,-29.018352460690114],[-51.42331662683916,-29.02766175045324],[-51.43326465191413,-29.02774733235091]]]}},{"type":"Feature","properties":{"id_grade":"1KME5259N8113","pop":5,"dom":2,"universo_dom":"domicilios_ocupados_grade_ibge_2022","na_bacia":1,"area_pct_bacia":100.0,"metodo_recorte_bacia":"ponto_representativo_grade_2022; area_pct_geometrica"},"geometry":{"type":"Polygon","coordinates":[[[-51.42331662683916,-29.02766175045324],[-51.42340825189172,-29.018352460690114],[-51.41346058703758,-29.018266555376933],[-51.4133686082807,-29.027575837554252],[-51.42331662683916,-29.02766175045324]]]}},{"type":"Feature","properties":{"id_grade":"1KME5260N8113","pop":3,"dom":1,"universo_dom":"domicilios_ocupados_grade_ibge_2022","na_bacia":1,"area_pct_bacia":100.0,"metodo_recorte_bacia":"ponto_representativo_grade_2022; area_pct_geometrica"},"geometry":{"type":"Polygon","coordinates":[[[-51.4133686082807,-29.027575837554252],[-51.41346058703758,-29.018266555376933],[-51.40351292872441,-29.01818031909251],[-51.40342059626392,-29.02748959365507],[-51.4133686082807,-29.027575837554252]]]}},{"type":"Feature","properties":{"id_grade":"1KME5261N8113","pop":5,"dom":2,"universo_dom":"domicilios_ocupados_grade_ibge_2022","na_bacia":1,"area_pct_bacia":100.0,"metodo_recorte_bacia":"ponto_representativo_grade_2022; area_pct_geometrica"},"geometry":{"type":"Polygon","coordinates":[[[-51.40342059626392,-29.02748959365507],[-51.40351292872441,-29.01818031909251],[-51.39356527697738,-29.018093751837554],[-51.393472590813964,-29.027403018755827],[-51.40342059626392,-29.02748959365507]]]}},{"type":"Feature","properties":{"id_grade":"1KME5262N8113","pop":19,"dom":5,"universo_dom":"domicilios_ocupados_grade_ibge_2022","na_bacia":1,"area_pct_bacia":100.0,"metodo_recorte_bacia":"ponto_representativo_grade_2022; area_pct_geometrica"},"geometry":{"type":"Polygon","coordinates":[[[-51.393472590813964,-29.027403018755827],[-51.39356527697738,-29.018093751837554],[-51.38361763182162,-29.018006853612963],[-51.38352459195599,-29.027316112857854],[-51.393472590813964,-29.027403018755827]]]}},{"type":"Feature","properties":{"id_grade":"1KME5263N8113","pop":18,"dom":6,"universo_dom":"domicilios_ocupados_grade_ibge_2022","na_bacia":1,"area_pct_bacia":100.0,"metodo_recorte_bacia":"ponto_representativo_grade_2022; area_pct_geometrica"},"geometry":{"type":"Polygon","coordinates":[[[-51.38352459195599,-29.027316112857854],[-51.38361763182162,-29.018006853612963],[-51.373669993282284,-29.017919624419534],[-51.37357659971514,-29.0272288759621],[-51.38352459195599,-29.027316112857854]]]}},{"type":"Feature","properties":{"id_grade":"1KME5264N8113","pop":21,"dom":8,"universo_dom":"domicilios_ocupados_grade_ibge_2022","na_bacia":1,"area_pct_bacia":100.0,"metodo_recorte_bacia":"ponto_representativo_grade_2022; area_pct_geometrica"},"geometry":{"type":"Polygon","coordinates":[[[-51.37357659971514,-29.0272288759621],[-51.373669993282284,-29.017919624419534],[-51.363722361384525,-29.01783206425797],[-51.363628614116585,-29.027141308069105],[-51.37357659971514,-29.0272288759621]]]}},{"type":"Feature","properties":{"id_grade":"1KME5257N8114","pop":24,"dom":8,"universo_dom":"domicilios_ocupados_grade_ibge_2022","na_bacia":1,"area_pct_bacia":100.0,"metodo_recorte_bacia":"ponto_representativo_grade_2022; area_pct_geometrica"},"geometry":{"type":"Polygon","coordinates":[[[-51.44330360112234,-29.018523278399297],[-51.44339451229866,-29.009214464322298],[-51.43344718811857,-29.009129228477516],[-51.433355923261686,-29.018438035031153],[-51.44330360112234,-29.018523278399297]]]}},{"type":"Feature","properties":{"id_grade":"1KME5258N8114","pop":19,"dom":7,"universo_dom":"domicilios_ocupados_grade_ibge_2022","na_bacia":1,"area_pct_bacia":100.0,"metodo_recorte_bacia":"ponto_representativo_grade_2022; area_pct_geometrica"},"geometry":{"type":"Polygon","coordinates":[[[-51.433355923261686,-29.018438035031153],[-51.43344718811857,-29.009129228477516],[-51.42349987042846,-29.00904366168891],[-51.42340825189172,-29.018352460690114],[-51.433355923261686,-29.018438035031153]]]}},{"type":"Feature","properties":{"id_grade":"1KME5259N8114","pop":41,"dom":16,"universo_dom":"domicilios_ocupados_grade_ibge_2022","na_bacia":1,"area_pct_bacia":100.0,"metodo_recorte_bacia":"ponto_representativo_grade_2022; area_pct_geometrica"},"geometry":{"type":"Polygon","coordinates":[[[-51.42340825189172,-29.018352460690114],[-51.42349987042846,-29.00904366168891],[-51.41355255925348,-29.008957763957486],[-51.41346058703758,-29.018266555376933],[-51.42340825189172,-29.018352460690114]]]}},{"type":"Feature","properties":{"id_grade":"1KME5260N8114","pop":41,"dom":12,"universo_dom":"domicilios_ocupados_grade_ibge_2022","na_bacia":1,"area_pct_bacia":100.0,"metodo_recorte_bacia":"ponto_representativo_grade_2022; area_pct_geometrica"},"geometry":{"type":"Polygon","coordinates":[[[-51.41346058703758,-29.018266555376933],[-51.41355255925348,-29.008957763957486],[-51.40360525461878,-29.00887153528406],[-51.40351292872441,-29.01818031909251],[-51.41346058703758,-29.018266555376933]]]}},{"type":"Feature","properties":{"id_grade":"1KME5261N8114","pop":29,"dom":11,"universo_dom":"domicilios_ocupados_grade_ibge_2022","na_bacia":1,"area_pct_bacia":100.0,"metodo_recorte_bacia":"ponto_representativo_grade_2022; area_pct_geometrica"},"geometry":{"type":"Polygon","coordinates":[[[-51.40351292872441,-29.01818031909251],[-51.40360525461878,-29.00887153528406],[-51.39365795654952,-29.00878497566903],[-51.39356527697738,-29.018093751837554],[-51.40351292872441,-29.01818031909251]]]}},{"type":"Feature","properties":{"id_grade":"1KME5262N8114","pop":6,"dom":1,"universo_dom":"domicilios_ocupados_grade_ibge_2022","na_bacia":1,"area_pct_bacia":100.0,"metodo_recorte_bacia":"ponto_representativo_grade_2022; area_pct_geometrica"},"geometry":{"type":"Polygon","coordinates":[[[-51.39356527697738,-29.018093751837554],[-51.39365795654952,-29.00878497566903],[-51.38371066507082,-29.008698085113874],[-51.38361763182162,-29.018006853612963],[-51.39356527697738,-29.018093751837554]]]}},{"type":"Feature","properties":{"id_grade":"1KME5258N8115","pop":9,"dom":2,"universo_dom":"domicilios_ocupados_grade_ibge_2022","na_bacia":1,"area_pct_bacia":100.0,"metodo_recorte_bacia":"ponto_representativo_grade_2022; area_pct_geometrica"},"geometry":{"type":"Polygon","coordinates":[[[-51.43344718811857,-29.009129228477516],[-51.43353844648545,-28.999820912314526],[-51.42359148245005,-28.9997353530747],[-51.42349987042846,-29.00904366168891],[-51.43344718811857,-29.009129228477516]]]}},{"type":"Feature","properties":{"id_grade":"1KME5259N8115","pop":8,"dom":2,"universo_dom":"domicilios_ocupados_grade_ibge_2022","na_bacia":1,"area_pct_bacia":100.0,"metodo_recorte_bacia":"ponto_representativo_grade_2022; area_pct_geometrica"},"geometry":{"type":"Polygon","coordinates":[[[-51.42349987042846,-29.00904366168891],[-51.42359148245005,-28.9997353530747],[-51.413644524929104,-28.999649462920765],[-51.41355255925348,-29.008957763957486],[-51.42349987042846,-29.00904366168891]]]}},{"type":"Feature","properties":{"id_grade":"1KME5262N8115","pop":2,"dom":1,"universo_dom":"domicilios_ocupados_grade_ibge_2022","na_bacia":1,"area_pct_bacia":100.0,"metodo_recorte_bacia":"ponto_representativo_grade_2022; area_pct_geometrica"},"geometry":{"type":"Polygon","coordinates":[[[-51.39365795654952,-29.00878497566903],[-51.39375062953109,-28.999476689875152],[-51.383803691704315,-28.99938980698516],[-51.38371066507082,-29.008698085113874],[-51.39365795654952,-29.00878497566903]]]}},{"type":"Feature","properties":{"id_grade":"1KME5256N8116","pop":9,"dom":2,"universo_dom":"domicilios_ocupados_grade_ibge_2022","na_bacia":1,"area_pct_bacia":100.0,"metodo_recorte_bacia":"ponto_representativo_grade_2022; area_pct_geometrica"},"geometry":{"type":"Polygon","coordinates":[[[-51.45343239399897,-28.999991038049973],[-51.45352293861534,-28.990683196901106],[-51.44357631525746,-28.990598306977343],[-51.44348541701013,-28.999906140639947],[-51.45343239399897,-28.999991038049973]]]}},{"type":"Feature","properties":{"id_grade":"1KME5257N8116","pop":31,"dom":11,"universo_dom":"domicilios_ocupados_grade_ibge_2022","na_bacia":1,"area_pct_bacia":100.0,"metodo_recorte_bacia":"ponto_representativo_grade_2022; area_pct_geometrica"},"geometry":{"type":"Polygon","coordinates":[[[-51.44348541701013,-28.999906140639947],[-51.44357631525746,-28.990598306977343],[-51.433629698363035,-28.990513086167322],[-51.43353844648545,-28.999820912314526],[-51.44348541701013,-28.999906140639947]]]}},{"type":"Feature","properties":{"id_grade":"1KME5258N8116","pop":43,"dom":12,"universo_dom":"domicilios_ocupados_grade_ibge_2022","na_bacia":1,"area_pct_bacia":100.0,"metodo_recorte_bacia":"ponto_representativo_grade_2022; area_pct_geometrica"},"geometry":{"type":"Polygon","coordinates":[[[-51.43353844648545,-28.999820912314526],[-51.433629698363035,-28.990513086167322],[-51.423683087957215,-28.990427534471877],[-51.42359148245005,-28.9997353530747],[-51.43353844648545,-28.999820912314526]]]}},{"type":"Feature","properties":{"id_grade":"1KME5262N8116","pop":19,"dom":5,"universo_dom":"domicilios_ocupados_grade_ibge_2022","na_bacia":1,"area_pct_bacia":100.0,"metodo_recorte_bacia":"ponto_representativo_grade_2022; area_pct_geometrica"},"geometry":{"type":"Polygon","coordinates":[[[-51.39375062953109,-28.999476689875152],[-51.393843295922785,-28.990168894081368],[-51.38389671172279,-28.99008201885227],[-51.383803691704315,-28.99938980698516],[-51.39375062953109,-28.999476689875152]]]}},{"type":"Feature","properties":{"id_grade":"1KME5256N8117","pop":19,"dom":7,"universo_dom":"domicilios_ocupados_grade_ibge_2022","na_bacia":1,"area_pct_bacia":100.0,"metodo_recorte_bacia":"ponto_representativo_grade_2022; area_pct_geometrica"},"geometry":{"type":"Polygon","coordinates":[[[-51.45352293861534,-28.990683196901106],[-51.4536134767934,-28.981375845401068],[-51.44366720704132,-28.98129096295967],[-51.44357631525746,-28.990598306977343],[-51.45352293861534,-28.990683196901106]]]}},{"type":"Feature","properties":{"id_grade":"1KME5257N8117","pop":4,"dom":1,"universo_dom":"domicilios_ocupados_grade_ibge_2022","na_bacia":1,"area_pct_bacia":100.0,"metodo_recorte_bacia":"ponto_representativo_grade_2022; area_pct_geometrica"},"geometry":{"type":"Polygon","coordinates":[[[-51.44357631525746,-28.990598306977343],[-51.44366720704132,-28.98129096295967],[-51.43372094375202,-28.981205749660973],[-51.433629698363035,-28.990513086167322],[-51.44357631525746,-28.990598306977343]]]}},{"type":"Feature","properties":{"id_grade":"1KME5258N8117","pop":2,"dom":1,"universo_dom":"domicilios_ocupados_grade_ibge_2022","na_bacia":1,"area_pct_bacia":100.0,"metodo_recorte_bacia":"ponto_representativo_grade_2022; area_pct_geometrica"},"geometry":{"type":"Polygon","coordinates":[[[-51.433629698363035,-28.990513086167322],[-51.43372094375202,-28.981205749660973],[-51.42377468695063,-28.98112020550628],[-51.423683087957215,-28.990427534471877],[-51.433629698363035,-28.990513086167322]]]}},{"type":"Feature","properties":{"id_grade":"1KME5262N8117","pop":17,"dom":8,"universo_dom":"domicilios_ocupados_grade_ibge_2022","na_bacia":1,"area_pct_bacia":100.0,"metodo_recorte_bacia":"ponto_representativo_grade_2022; area_pct_geometrica"},"geometry":{"type":"Polygon","coordinates":[[[-51.393843295922785,-28.990168894081368],[-51.39393595572532,-28.980861587912337],[-51.38398972512696,-28.980774720340293],[-51.38389671172279,-28.99008201885227],[-51.393843295922785,-28.990168894081368]]]}},{"type":"Feature","properties":{"id_grade":"1KME5263N8117","pop":14,"dom":6,"universo_dom":"domicilios_ocupados_grade_ibge_2022","na_bacia":1,"area_pct_bacia":100.0,"metodo_recorte_bacia":"ponto_representativo_grade_2022; area_pct_geometrica"},"geometry":{"type":"Polygon","coordinates":[[[-51.38389671172279,-28.99008201885227],[-51.38398972512696,-28.980774720340293],[-51.3740435011422,-28.980687521916323],[-51.3739501341371,-28.98999481274179],[-51.38389671172279,-28.99008201885227]]]}},{"type":"Feature","properties":{"id_grade":"1KME5257N8118","pop":16,"dom":5,"universo_dom":"domicilios_ocupados_grade_ibge_2022","na_bacia":1,"area_pct_bacia":100.0,"metodo_recorte_bacia":"ponto_representativo_grade_2022; area_pct_geometrica"},"geometry":{"type":"Polygon","coordinates":[[[-51.44366720704132,-28.98129096295967],[-51.443758092362415,-28.971984108212286],[-51.43381218265309,-28.971898902421238],[-51.43372094375202,-28.981205749660973],[-51.44366720704132,-28.98129096295967]]]}},{"type":"Feature","properties":{"id_grade":"1KME5258N8118","pop":8,"dom":4,"universo_dom":"domicilios_ocupados_grade_ibge_2022","na_bacia":1,"area_pct_bacia":100.0,"metodo_recorte_bacia":"ponto_representativo_grade_2022; area_pct_geometrica"},"geometry":{"type":"Polygon","coordinates":[[[-51.43372094375202,-28.981205749660973],[-51.43381218265309,-28.971898902421238],[-51.423866279430996,-28.971813365803275],[-51.42377468695063,-28.98112020550628],[-51.43372094375202,-28.981205749660973]]]}},{"type":"Feature","properties":{"id_grade":"1KME5259N8118","pop":32,"dom":11,"universo_dom":"domicilios_ocupados_grade_ibge_2022","na_bacia":1,"area_pct_bacia":100.0,"metodo_recorte_bacia":"ponto_representativo_grade_2022; area_pct_geometrica"},"geometry":{"type":"Polygon","coordinates":[[[-51.42377468695063,-28.98112020550628],[-51.423866279430996,-28.971813365803275],[-51.41392038272126,-28.971727498358504],[-51.41382843666229,-28.981034330495937],[-51.42377468695063,-28.98112020550628]]]}},{"type":"Feature","properties":{"id_grade":"1KME5262N8118","pop":44,"dom":15,"universo_dom":"domicilios_ocupados_grade_ibge_2022","na_bacia":1,"area_pct_bacia":100.0,"metodo_recorte_bacia":"ponto_representativo_grade_2022; area_pct_geometrica"},"geometry":{"type":"Polygon","coordinates":[[[-51.39393595572532,-28.980861587912337],[-51.39402860893938,-28.971554770993418],[-51.384082731917516,-28.971467911074836],[-51.38398972512696,-28.980774720340293],[-51.39393595572532,-28.980861587912337]]]}},{"type":"Feature","properties":{"id_grade":"1KME5257N8119","pop":4,"dom":2,"universo_dom":"domicilios_ocupados_grade_ibge_2022","na_bacia":1,"area_pct_bacia":100.0,"metodo_recorte_bacia":"ponto_representativo_grade_2022; area_pct_geometrica"},"geometry":{"type":"Polygon","coordinates":[[[-51.443758092362415,-28.971984108212286],[-51.44384897122142,-28.962677742361073],[-51.43390341506695,-28.9625925440735],[-51.43381218265309,-28.971898902421238],[-51.443758092362415,-28.971984108212286]]]}},{"type":"Feature","properties":{"id_grade":"1KME5258N8119","pop":20,"dom":5,"universo_dom":"domicilios_ocupados_grade_ibge_2022","na_bacia":1,"area_pct_bacia":100.0,"metodo_recorte_bacia":"ponto_representativo_grade_2022; area_pct_geometrica"},"geometry":{"type":"Polygon","coordinates":[[[-51.43381218265309,-28.971898902421238],[-51.43390341506695,-28.9625925440735],[-51.42395786539901,-28.962507014987768],[-51.423866279430996,-28.971813365803275],[-51.43381218265309,-28.971898902421238]]]}},{"type":"Feature","properties":{"id_grade":"1KME5259N8119","pop":26,"dom":8,"universo_dom":"domicilios_ocupados_grade_ibge_2022","na_bacia":1,"area_pct_bacia":100.0,"metodo_recorte_bacia":"ponto_representativo_grade_2022; area_pct_geometrica"},"geometry":{"type":"Polygon","coordinates":[[[-51.423866279430996,-28.971813365803275],[-51.42395786539901,-28.962507014987768],[-51.41401232224273,-28.96242115510498],[-51.41392038272126,-28.971727498358504],[-51.423866279430996,-28.971813365803275]]]}},{"type":"Feature","properties":{"id_grade":"1KME5260N8119","pop":27,"dom":8,"universo_dom":"domicilios_ocupados_grade_ibge_2022","na_bacia":1,"area_pct_bacia":100.0,"metodo_recorte_bacia":"ponto_representativo_grade_2022; area_pct_geometrica"},"geometry":{"type":"Polygon","coordinates":[[[-51.41392038272126,-28.971727498358504],[-51.41401232224273,-28.96242115510498],[-51.40406678562324,-28.962334964425636],[-51.40397449254901,-28.971641300088177],[-51.41392038272126,-28.971727498358504]]]}},{"type":"Feature","properties":{"id_grade":"1KME5261N8119","pop":39,"dom":11,"universo_dom":"domicilios_ocupados_grade_ibge_2022","na_bacia":1,"area_pct_bacia":100.0,"metodo_recorte_bacia":"ponto_representativo_grade_2022; area_pct_geometrica"},"geometry":{"type":"Polygon","coordinates":[[[-51.40397449254901,-28.971641300088177],[-51.40406678562324,-28.962334964425636],[-51.394121255565686,-28.96224844295074],[-51.39402860893938,-28.971554770993418],[-51.40397449254901,-28.971641300088177]]]}},{"type":"Feature","properties":{"id_grade":"1KME5262N8119","pop":13,"dom":4,"universo_dom":"domicilios_ocupados_grade_ibge_2022","na_bacia":1,"area_pct_bacia":100.0,"metodo_recorte_bacia":"ponto_representativo_grade_2022; area_pct_geometrica"},"geometry":{"type":"Polygon","coordinates":[[[-51.39402860893938,-28.971554770993418],[-51.394121255565686,-28.96224844295074],[-51.38417573209518,-28.96216159068111],[-51.384082731917516,-28.971467911074836],[-51.39402860893938,-28.971554770993418]]]}},{"type":"Feature","properties":{"id_grade":"1KME5263N8119","pop":21,"dom":8,"universo_dom":"domicilios_ocupados_grade_ibge_2022","na_bacia":1,"area_pct_bacia":100.0,"metodo_recorte_bacia":"ponto_representativo_grade_2022; area_pct_geometrica"},"geometry":{"type":"Polygon","coordinates":[[[-51.384082731917516,-28.971467911074836],[-51.38417573209518,-28.96216159068111],[-51.37423021523688,-28.96207440761721],[-51.37413686150855,-28.971380720332885],[-51.384082731917516,-28.971467911074836]]]}},{"type":"Feature","properties":{"id_grade":"1KME5264N8119","pop":10,"dom":4,"universo_dom":"domicilios_ocupados_grade_ibge_2022","na_bacia":1,"area_pct_bacia":100.0,"metodo_recorte_bacia":"ponto_representativo_grade_2022; area_pct_geometrica"},"geometry":{"type":"Polygon","coordinates":[[[-51.37413686150855,-28.971380720332885],[-51.37423021523688,-28.96207440761721],[-51.3642847050159,-28.961986893760095],[-51.364190997737616,-28.971293198768524],[-51.37413686150855,-28.971380720332885]]]}},{"type":"Feature","properties":{"id_grade":"1KME5255N8120","pop":2,"dom":1,"universo_dom":"domicilios_ocupados_grade_ibge_2022","na_bacia":1,"area_pct_bacia":100.0,"metodo_recorte_bacia":"ponto_representativo_grade_2022; area_pct_geometrica"},"geometry":{"type":"Polygon","coordinates":[[[-51.46374010288942,-28.96284714653841],[-51.46383026822552,-28.953541254297217],[-51.45388505270449,-28.953456725049506],[-51.45379453383728,-28.962762609849502],[-51.46374010288942,-28.96284714653841]]]}},{"type":"Feature","properties":{"id_grade":"1KME5256N8120","pop":2,"dom":1,"universo_dom":"domicilios_ocupados_grade_ibge_2022","na_bacia":1,"area_pct_bacia":100.0,"metodo_recorte_bacia":"ponto_representativo_grade_2022; area_pct_geometrica"},"geometry":{"type":"Polygon","coordinates":[[[-51.45379453383728,-28.962762609849502],[-51.45388505270449,-28.953456725049506],[-51.443939843619034,-28.953371865031304],[-51.44384897122142,-28.962677742361073],[-51.45379453383728,-28.962762609849502]]]}},{"type":"Feature","properties":{"id_grade":"1KME5261N8120","pop":20,"dom":7,"universo_dom":"domicilios_ocupados_grade_ibge_2022","na_bacia":1,"area_pct_bacia":100.0,"metodo_recorte_bacia":"ponto_representativo_grade_2022; area_pct_geometrica"},"geometry":{"type":"Polygon","coordinates":[[[-51.40406678562324,-28.962334964425636],[-51.404159072135556,-28.953029117269026],[-51.394213895604935,-28.952942603409895],[-51.394121255565686,-28.96224844295074],[-51.40406678562324,-28.962334964425636]]]}},{"type":"Feature","properties":{"id_grade":"1KME5262N8120","pop":8,"dom":4,"universo_dom":"domicilios_ocupados_grade_ibge_2022","na_bacia":1,"area_pct_bacia":100.0,"metodo_recorte_bacia":"ponto_representativo_grade_2022; area_pct_geometrica"},"geometry":{"type":"Polygon","coordinates":[[[-51.394121255565686,-28.96224844295074],[-51.394213895604935,-28.952942603409895],[-51.38426872566066,-28.952855758785137],[-51.38417573209518,-28.96216159068111],[-51.394121255565686,-28.96224844295074]]]}},{"type":"Feature","properties":{"id_grade":"1KME5263N8120","pop":2,"dom":1,"universo_dom":"domicilios_ocupados_grade_ibge_2022","na_bacia":1,"area_pct_bacia":100.0,"metodo_recorte_bacia":"ponto_representativo_grade_2022; area_pct_geometrica"},"geometry":{"type":"Polygon","coordinates":[[[-51.38417573209518,-28.96216159068111],[-51.38426872566066,-28.952855758785137],[-51.374323562327874,-28.952768583395432],[-51.37423021523688,-28.96207440761721],[-51.38417573209518,-28.96216159068111]]]}},{"type":"Feature","properties":{"id_grade":"1KME5257N8121","pop":4,"dom":1,"universo_dom":"domicilios_ocupados_grade_ibge_2022","na_bacia":1,"area_pct_bacia":100.0,"metodo_recorte_bacia":"ponto_representativo_grade_2022; area_pct_geometrica"},"geometry":{"type":"Polygon","coordinates":[[[-51.443939843619034,-28.953371865031304],[-51.44403070955594,-28.944066475849606],[-51.43408586043577,-28.943981292557105],[-51.43399464099428,-28.953286674243333],[-51.443939843619034,-28.953371865031304]]]}},{"type":"Feature","properties":{"id_grade":"1KME5258N8121","pop":22,"dom":7,"universo_dom":"domicilios_ocupados_grade_ibge_2022","na_bacia":1,"area_pct_bacia":100.0,"metodo_recorte_bacia":"ponto_representativo_grade_2022; area_pct_geometrica"},"geometry":{"type":"Polygon","coordinates":[[[-51.43399464099428,-28.953286674243333],[-51.43408586043577,-28.943981292557105],[-51.42414101780075,-28.943895778524883],[-51.42404944485536,-28.953201152686457],[-51.43399464099428,-28.953286674243333]]]}},{"type":"Feature","properties":{"id_grade":"1KME5259N8121","pop":24,"dom":10,"universo_dom":"domicilios_ocupados_grade_ibge_2022","na_bacia":1,"area_pct_bacia":100.0,"metodo_recorte_bacia":"ponto_representativo_grade_2022; area_pct_geometrica"},"geometry":{"type":"Polygon","coordinates":[[[-51.42404944485536,-28.953201152686457],[-51.42414101780075,-28.943895778524883],[-51.414196181676,-28.943809933753602],[-51.414104255227414,-28.95311530036135],[-51.42404944485536,-28.953201152686457]]]}},{"type":"Feature","properties":{"id_grade":"1KME5260N8121","pop":35,"dom":12,"universo_dom":"domicilios_ocupados_grade_ibge_2022","na_bacia":1,"area_pct_bacia":100.0,"metodo_recorte_bacia":"ponto_representativo_grade_2022; area_pct_geometrica"},"geometry":{"type":"Polygon","coordinates":[[[-51.414104255227414,-28.95311530036135],[-51.414196181676,-28.943809933753602],[-51.404251352086646,-28.94372375824396],[-51.404159072135556,-28.953029117269026],[-51.414104255227414,-28.95311530036135]]]}},{"type":"Feature","properties":{"id_grade":"1KME5261N8121","pop":14,"dom":6,"universo_dom":"domicilios_ocupados_grade_ibge_2022","na_bacia":1,"area_pct_bacia":100.0,"metodo_recorte_bacia":"ponto_representativo_grade_2022; area_pct_geometrica"},"geometry":{"type":"Polygon","coordinates":[[[-51.404159072135556,-28.953029117269026],[-51.404251352086646,-28.94372375824396],[-51.394306529057815,-28.94363725199684],[-51.394213895604935,-28.952942603409895],[-51.404159072135556,-28.953029117269026]]]}},{"type":"Feature","properties":{"id_grade":"1KME5262N8121","pop":56,"dom":20,"universo_dom":"domicilios_ocupados_grade_ibge_2022","na_bacia":1,"area_pct_bacia":100.0,"metodo_recorte_bacia":"ponto_representativo_grade_2022; area_pct_geometrica"},"geometry":{"type":"Polygon","coordinates":[[[-51.394213895604935,-28.952942603409895],[-51.394306529057815,-28.94363725199684],[-51.38436171261465,-28.94355041501302],[-51.38426872566066,-28.952855758785137],[-51.394213895604935,-28.952942603409895]]]}},{"type":"Feature","properties":{"id_grade":"1KME5263N8121","pop":18,"dom":5,"universo_dom":"domicilios_ocupados_grade_ibge_2022","na_bacia":1,"area_pct_bacia":100.0,"metodo_recorte_bacia":"ponto_representativo_grade_2022; area_pct_geometrica"},"geometry":{"type":"Polygon","coordinates":[[[-51.38426872566066,-28.952855758785137],[-51.38436171261465,-28.94355041501302],[-51.37441690278226,-28.94346324729355],[-51.374323562327874,-28.952768583395432],[-51.38426872566066,-28.952855758785137]]]}},{"type":"Feature","properties":{"id_grade":"1KME5264N8121","pop":11,"dom":4,"universo_dom":"domicilios_ocupados_grade_ibge_2022","na_bacia":1,"area_pct_bacia":100.0,"metodo_recorte_bacia":"ponto_representativo_grade_2022; area_pct_geometrica"},"geometry":{"type":"Polygon","coordinates":[[[-51.374323562327874,-28.952768583395432],[-51.37441690278226,-28.94346324729355],[-51.364472099585775,-28.943375748838896],[-51.36437840563171,-28.952681077241625],[-51.374323562327874,-28.952768583395432]]]}},{"type":"Feature","properties":{"id_grade":"1KME5265N8121","pop":13,"dom":4,"universo_dom":"domicilios_ocupados_grade_ibge_2022","na_bacia":1,"area_pct_bacia":100.0,"metodo_recorte_bacia":"ponto_representativo_grade_2022; area_pct_geometrica"},"geometry":{"type":"Polygon","coordinates":[[[-51.36437840563171,-28.952681077241625],[-51.364472099585775,-28.943375748838896],[-51.35452730305033,-28.943287919649816],[-51.354433255597286,-28.9525932403244],[-51.36437840563171,-28.952681077241625]]]}},{"type":"Feature","properties":{"id_grade":"1KME5258N8122","pop":11,"dom":3,"universo_dom":"domicilios_ocupados_grade_ibge_2022","na_bacia":1,"area_pct_bacia":100.0,"metodo_recorte_bacia":"ponto_representativo_grade_2022; area_pct_geometrica"},"geometry":{"type":"Polygon","coordinates":[[[-51.43408586043577,-28.943981292557105],[-51.43417707339212,-28.934676398640956],[-51.42423258423587,-28.934590892129602],[-51.42414101780075,-28.943895778524883],[-51.43408586043577,-28.943981292557105]]]}},{"type":"Feature","properties":{"id_grade":"1KME5259N8122","pop":8,"dom":3,"universo_dom":"domicilios_ocupados_grade_ibge_2022","na_bacia":1,"area_pct_bacia":100.0,"metodo_recorte_bacia":"ponto_representativo_grade_2022; area_pct_geometrica"},"geometry":{"type":"Polygon","coordinates":[[[-51.42414101780075,-28.943895778524883],[-51.42423258423587,-28.934590892129602],[-51.414288101589186,-28.934505054907902],[-51.414196181676,-28.943809933753602],[-51.42414101780075,-28.943895778524883]]]}},{"type":"Feature","properties":{"id_grade":"1KME5260N8122","pop":3,"dom":1,"universo_dom":"domicilios_ocupados_grade_ibge_2022","na_bacia":1,"area_pct_bacia":100.0,"metodo_recorte_bacia":"ponto_representativo_grade_2022; area_pct_geometrica"},"geometry":{"type":"Polygon","coordinates":[[[-51.414196181676,-28.943809933753602],[-51.414288101589186,-28.934505054907902],[-51.4043436254772,-28.934418886977234],[-51.404251352086646,-28.94372375824396],[-51.414196181676,-28.943809933753602]]]}},{"type":"Feature","properties":{"id_grade":"1KME5262N8122","pop":5,"dom":2,"universo_dom":"domicilios_ocupados_grade_ibge_2022","na_bacia":1,"area_pct_bacia":100.0,"metodo_recorte_bacia":"ponto_representativo_grade_2022; area_pct_geometrica"},"geometry":{"type":"Polygon","coordinates":[[[-51.394306529057815,-28.94363725199684],[-51.39439915592505,-28.934332388337893],[-51.38445469295785,-28.934245558990906],[-51.38436171261465,-28.94355041501302],[-51.394306529057815,-28.94363725199684]]]}},{"type":"Feature","properties":{"id_grade":"1KME5263N8122","pop":2,"dom":1,"universo_dom":"domicilios_ocupados_grade_ibge_2022","na_bacia":1,"area_pct_bacia":100.0,"metodo_recorte_bacia":"ponto_representativo_grade_2022; area_pct_geometrica"},"geometry":{"type":"Polygon","coordinates":[[[-51.38436171261465,-28.94355041501302],[-51.38445469295785,-28.934245558990906],[-51.37451023660073,-28.93415839893739],[-51.37441690278226,-28.94346324729355],[-51.38436171261465,-28.94355041501302]]]}},{"type":"Feature","properties":{"id_grade":"1KME5264N8122","pop":9,"dom":2,"universo_dom":"domicilios_ocupados_grade_ibge_2022","na_bacia":1,"area_pct_bacia":100.0,"metodo_recorte_bacia":"ponto_representativo_grade_2022; area_pct_geometrica"},"geometry":{"type":"Polygon","coordinates":[[[-51.37441690278226,-28.94346324729355],[-51.37451023660073,-28.93415839893739],[-51.36456578687881,-28.93407090817776],[-51.364472099585775,-28.943375748838896],[-51.37441690278226,-28.94346324729355]]]}},{"type":"Feature","properties":{"id_grade":"1KME5255N8123","pop":7,"dom":3,"universo_dom":"domicilios_ocupados_grade_ibge_2022","na_bacia":1,"area_pct_bacia":100.0,"metodo_recorte_bacia":"ponto_representativo_grade_2022; area_pct_geometrica"},"geometry":{"type":"Polygon","coordinates":[[[-51.46401057966711,-28.934930933907356],[-51.464100725773946,-28.925626505011312],[-51.45415657069541,-28.925541998064517],[-51.45406607113287,-28.934846419530597],[-51.46401057966711,-28.934930933907356]]]}},{"type":"Feature","properties":{"id_grade":"1KME5260N8123","pop":7,"dom":2,"universo_dom":"domicilios_ocupados_grade_ibge_2022","na_bacia":1,"area_pct_bacia":100.0,"metodo_recorte_bacia":"ponto_representativo_grade_2022; area_pct_geometrica"},"geometry":{"type":"Polygon","coordinates":[[[-51.414288101589186,-28.934505054907902],[-51.41438001496766,-28.92520066345072],[-51.40443589230794,-28.925114503094807],[-51.4043436254772,-28.934418886977234],[-51.414288101589186,-28.934505054907902]]]}},{"type":"Feature","properties":{"id_grade":"1KME5261N8123","pop":19,"dom":4,"universo_dom":"domicilios_ocupados_grade_ibge_2022","na_bacia":1,"area_pct_bacia":100.0,"metodo_recorte_bacia":"ponto_representativo_grade_2022; area_pct_geometrica"},"geometry":{"type":"Polygon","coordinates":[[[-51.4043436254772,-28.934418886977234],[-51.40443589230794,-28.925114503094807],[-51.39449177620733,-28.925028012059414],[-51.39439915592505,-28.934332388337893],[-51.4043436254772,-28.934418886977234]]]}},{"type":"Feature","properties":{"id_grade":"1KME5262N8123","pop":19,"dom":5,"universo_dom":"domicilios_ocupados_grade_ibge_2022","na_bacia":1,"area_pct_bacia":100.0,"metodo_recorte_bacia":"ponto_representativo_grade_2022; area_pct_geometrica"},"geometry":{"type":"Polygon","coordinates":[[[-51.39439915592505,-28.934332388337893],[-51.39449177620733,-28.925028012059414],[-51.384547666690985,-28.924941190345514],[-51.38445469295785,-28.934245558990906],[-51.39439915592505,-28.934332388337893]]]}},{"type":"Feature","properties":{"id_grade":"1KME5263N8123","pop":40,"dom":13,"universo_dom":"domicilios_ocupados_grade_ibge_2022","na_bacia":1,"area_pct_bacia":100.0,"metodo_recorte_bacia":"ponto_representativo_grade_2022; area_pct_geometrica"},"geometry":{"type":"Polygon","coordinates":[[[-51.38445469295785,-28.934245558990906],[-51.384547666690985,-28.924941190345514],[-51.374603563784,-28.924854037953892],[-51.37451023660073,-28.93415839893739],[-51.38445469295785,-28.934245558990906]]]}},{"type":"Feature","properties":{"id_grade":"1KME5264N8123","pop":17,"dom":4,"universo_dom":"domicilios_ocupados_grade_ibge_2022","na_bacia":1,"area_pct_bacia":100.0,"metodo_recorte_bacia":"ponto_representativo_grade_2022; area_pct_geometrica"},"geometry":{"type":"Polygon","coordinates":[[[-51.37451023660073,-28.93415839893739],[-51.374603563784,-28.924854037953892],[-51.364659467511515,-28.924766554885103],[-51.36456578687881,-28.93407090817776],[-51.37451023660073,-28.93415839893739]]]}},{"type":"Feature","properties":{"id_grade":"1KME5265N8123","pop":18,"dom":6,"universo_dom":"domicilios_ocupados_grade_ibge_2022","na_bacia":1,"area_pct_bacia":100.0,"metodo_recorte_bacia":"ponto_representativo_grade_2022; area_pct_geometrica"},"geometry":{"type":"Polygon","coordinates":[[[-51.36456578687881,-28.93407090817776],[-51.364659467511515,-28.924766554885103],[-51.35471537789865,-28.924678741140287],[-51.354621343817215,-28.933983086712747],[-51.36456578687881,-28.93407090817776]]]}},{"type":"Feature","properties":{"id_grade":"1KME5265N8124","pop":7,"dom":2,"universo_dom":"domicilios_ocupados_grade_ibge_2022","na_bacia":1,"area_pct_bacia":100.0,"metodo_recorte_bacia":"ponto_representativo_grade_2022; area_pct_geometrica"},"geometry":{"type":"Polygon","coordinates":[[[-51.364659467511515,-28.924766554885103],[-51.36475314148461,-28.91546268858745],[-51.35480940529535,-28.91537488255859],[-51.35471537789865,-28.924678741140287],[-51.364659467511515,-28.924766554885103]]]}},{"type":"Feature","properties":{"id_grade":"200ME52596N81162","pop":8,"dom":3,"universo_dom":"domicilios_ocupados_grade_ibge_2022","na_bacia":1,"area_pct_bacia":100.0,"metodo_recorte_bacia":"ponto_representativo_grade_2022; area_pct_geometrica"},"geometry":{"type":"Polygon","coordinates":[[[-51.41762330696997,-28.99968385902281],[-51.41764167112621,-28.997822256991512],[-51.4156522943179,-28.997805065551262],[-51.41563391577256,-28.999666667582574],[-51.41762330696997,-28.99968385902281]]]}},{"type":"Feature","properties":{"id_grade":"200ME52598N81162","pop":2,"dom":1,"universo_dom":"domicilios_ocupados_grade_ibge_2022","na_bacia":1,"area_pct_bacia":100.0,"metodo_recorte_bacia":"ponto_representativo_grade_2022; area_pct_geometrica"},"geometry":{"type":"Polygon","coordinates":[[[-51.41563391577256,-28.999666667582574],[-51.4156522943179,-28.997805065551262],[-51.41366291750962,-28.997787861520447],[-51.41364452457509,-28.999649462652467],[-51.41563391577256,-28.999666667582574]]]}},{"type":"Feature","properties":{"id_grade":"200ME52598N81168","pop":2,"dom":1,"universo_dom":"domicilios_ocupados_grade_ibge_2022","na_bacia":1,"area_pct_bacia":100.0,"metodo_recorte_bacia":"ponto_representativo_grade_2022; area_pct_geometrica"},"geometry":{"type":"Polygon","coordinates":[[[-51.41568904960991,-28.994081920843886],[-51.41570742725594,-28.992220378167904],[-51.41371809271578,-28.99220317503649],[-51.4136997015799,-28.994064717712504],[-51.41568904960991,-28.994081920843886]]]}},{"type":"Feature","properties":{"id_grade":"200ME52590N81170","pop":15,"dom":4,"universo_dom":"domicilios_ocupados_grade_ibge_2022","na_bacia":1,"area_pct_bacia":100.0,"metodo_recorte_bacia":"ponto_representativo_grade_2022; area_pct_geometrica"},"geometry":{"type":"Polygon","coordinates":[[[-51.4236647672152,-28.99228905939256],[-51.42368308820391,-28.990427534702842],[-51.42169376625429,-28.99041038463144],[-51.421675431775725,-28.992271908421834],[-51.4236647672152,-28.99228905939256]]]}},{"type":"Feature","properties":{"id_grade":"200ME52592N81170","pop":10,"dom":4,"universo_dom":"domicilios_ocupados_grade_ibge_2022","na_bacia":1,"area_pct_bacia":100.0,"metodo_recorte_bacia":"ponto_representativo_grade_2022; area_pct_geometrica"},"geometry":{"type":"Polygon","coordinates":[[[-51.421675431775725,-28.992271908421834],[-51.42169376625429,-28.99041038463144],[-51.419704445203934,-28.99039322107019],[-51.41968609633625,-28.992254744860528],[-51.421675431775725,-28.992271908421834]]]}},{"type":"Feature","properties":{"id_grade":"200ME52594N81170","pop":11,"dom":4,"universo_dom":"domicilios_ocupados_grade_ibge_2022","na_bacia":1,"area_pct_bacia":100.0,"metodo_recorte_bacia":"ponto_representativo_grade_2022; area_pct_geometrica"},"geometry":{"type":"Polygon","coordinates":[[[-51.41968609633625,-28.992254744860528],[-51.419704445203934,-28.99039322107019],[-51.41771512505296,-28.99037604491849],[-51.4176967617961,-28.992237568708806],[-51.41968609633625,-28.992254744860528]]]}},{"type":"Feature","properties":{"id_grade":"200ME52596N81170","pop":15,"dom":4,"universo_dom":"domicilios_ocupados_grade_ibge_2022","na_bacia":1,"area_pct_bacia":100.0,"metodo_recorte_bacia":"ponto_representativo_grade_2022; area_pct_geometrica"},"geometry":{"type":"Polygon","coordinates":[[[-51.4176967617961,-28.992237568708806],[-51.41771512505296,-28.99037604491849],[-51.41572580400259,-28.99035885527695],[-51.41570742725594,-28.992220378167904],[-51.4176967617961,-28.992237568708806]]]}},{"type":"Feature","properties":{"id_grade":"200ME52598N81170","pop":9,"dom":4,"universo_dom":"domicilios_ocupados_grade_ibge_2022","na_bacia":1,"area_pct_bacia":100.0,"metodo_recorte_bacia":"ponto_representativo_grade_2022; area_pct_geometrica"},"geometry":{"type":"Polygon","coordinates":[[[-51.41570742725594,-28.992220378167904],[-51.41572580400259,-28.99035885527695],[-51.41373648385161,-28.990341652145528],[-51.41371809271578,-28.99220317503649],[-51.41570742725594,-28.992220378167904]]]}},{"type":"Feature","properties":{"id_grade":"200ME52598N81172","pop":2,"dom":1,"universo_dom":"domicilios_ocupados_grade_ibge_2022","na_bacia":1,"area_pct_bacia":100.0,"metodo_recorte_bacia":"ponto_representativo_grade_2022; area_pct_geometrica"},"geometry":{"type":"Polygon","coordinates":[[[-51.41572580400259,-28.99035885527695],[-51.41574418164861,-28.98849735127167],[-51.41375487498743,-28.98848014814033],[-51.41373648385161,-28.990341652145528],[-51.41572580400259,-28.99035885527695]]]}},{"type":"Feature","properties":{"id_grade":"200ME52598N81174","pop":7,"dom":3,"universo_dom":"domicilios_ocupados_grade_ibge_2022","na_bacia":1,"area_pct_bacia":100.0,"metodo_recorte_bacia":"ponto_representativo_grade_2022; area_pct_geometrica"},"geometry":{"type":"Polygon","coordinates":[[[-51.41574418164861,-28.98849735127167],[-51.415762557496,-28.98663586705164],[-51.41377326612332,-28.986618664819485],[-51.41375487498743,-28.98848014814033],[-51.41574418164861,-28.98849735127167]]]}},{"type":"Feature","properties":{"id_grade":"200ME52596N81178","pop":3,"dom":1,"universo_dom":"domicilios_ocupados_grade_ibge_2022","na_bacia":1,"area_pct_bacia":100.0,"metodo_recorte_bacia":"ponto_representativo_grade_2022; area_pct_geometrica"},"geometry":{"type":"Polygon","coordinates":[[[-51.41777021212555,-28.984791591358807],[-51.4177885744831,-28.982930145809508],[-51.41579931009006,-28.982912957067366],[-51.41578093424266,-28.984774402616512],[-51.41777021212555,-28.984791591358807]]]}},{"type":"Feature","properties":{"id_grade":"200ME52594N81180","pop":6,"dom":2,"universo_dom":"domicilios_ocupados_grade_ibge_2022","na_bacia":1,"area_pct_bacia":100.0,"metodo_recorte_bacia":"ponto_representativo_grade_2022; area_pct_geometrica"},"geometry":{"type":"Polygon","coordinates":[[[-51.41977783887614,-28.982947321062042],[-51.41979618594518,-28.981085895297817],[-51.417806935941314,-28.981068720045364],[-51.4177885744831,-28.982930145809508],[-51.41977783887614,-28.982947321062042]]]}},{"type":"Feature","properties":{"id_grade":"200ME52598N81180","pop":2,"dom":1,"universo_dom":"domicilios_ocupados_grade_ibge_2022","na_bacia":1,"area_pct_bacia":100.0,"metodo_recorte_bacia":"ponto_representativo_grade_2022; area_pct_geometrica"},"geometry":{"type":"Polygon","coordinates":[[[-51.41579931009006,-28.982912957067366],[-51.41581768593744,-28.981051532202457],[-51.41382843683283,-28.981034330869722],[-51.413810046596325,-28.982895755734493],[-51.41579931009006,-28.982912957067366]]]}},{"type":"Feature","properties":{"id_grade":"200ME52600N81152","pop":5,"dom":2,"universo_dom":"domicilios_ocupados_grade_ibge_2022","na_bacia":1,"area_pct_bacia":100.0,"metodo_recorte_bacia":"ponto_representativo_grade_2022; area_pct_geometrica"},"geometry":{"type":"Polygon","coordinates":[[[-51.41355255900333,-29.008957764189354],[-51.413570952837176,-29.007096064132],[-51.41158150588177,-29.007078845712048],[-51.411563097658814,-29.008940544870278],[-51.41355255900333,-29.008957764189354]]]}},{"type":"Feature","properties":{"id_grade":"200ME52602N81154","pop":3,"dom":1,"universo_dom":"domicilios_ocupados_grade_ibge_2022","na_bacia":1,"area_pct_bacia":100.0,"metodo_recorte_bacia":"ponto_representativo_grade_2022; area_pct_geometrica"},"geometry":{"type":"Polygon","coordinates":[[[-51.41158150588177,-29.007078845712048],[-51.41159991320541,-29.005217166339097],[-51.40961048063912,-29.00519993442942],[-51.409592058926364,-29.007061613802357],[-51.41158150588177,-29.007078845712048]]]}},{"type":"Feature","properties":{"id_grade":"200ME52602N81156","pop":9,"dom":3,"universo_dom":"domicilios_ocupados_grade_ibge_2022","na_bacia":1,"area_pct_bacia":100.0,"metodo_recorte_bacia":"ponto_representativo_grade_2022; area_pct_geometrica"},"geometry":{"type":"Polygon","coordinates":[[[-51.41159991320541,-29.005217166339097],[-51.41161832052905,-29.00335550585184],[-51.409628901452606,-29.00333827484149],[-51.40961048063912,-29.00519993442942],[-51.41159991320541,-29.005217166339097]]]}},{"type":"Feature","properties":{"id_grade":"200ME52602N81158","pop":4,"dom":2,"universo_dom":"domicilios_ocupados_grade_ibge_2022","na_bacia":1,"area_pct_bacia":100.0,"metodo_recorte_bacia":"ponto_representativo_grade_2022; area_pct_geometrica"},"geometry":{"type":"Polygon","coordinates":[[[-51.41161832052905,-29.00335550585184],[-51.411636727852674,-29.001493866049042],[-51.409647323165416,-29.001476635038664],[-51.409628901452606,-29.00333827484149],[-51.41161832052905,-29.00335550585184]]]}},{"type":"Feature","properties":{"id_grade":"200ME52604N81160","pop":10,"dom":3,"universo_dom":"domicilios_ocupados_grade_ibge_2022","na_bacia":1,"area_pct_bacia":100.0,"metodo_recorte_bacia":"ponto_representativo_grade_2022; area_pct_geometrica"},"geometry":{"type":"Polygon","coordinates":[[[-51.409647323165416,-29.001476635038664],[-51.40966574397885,-28.999615014121662],[-51.407676353680756,-28.999597769621378],[-51.407657918478094,-29.001459389639113],[-51.409647323165416,-29.001476635038664]]]}},{"type":"Feature","properties":{"id_grade":"200ME52606N81160","pop":3,"dom":1,"universo_dom":"domicilios_ocupados_grade_ibge_2022","na_bacia":1,"area_pct_bacia":100.0,"metodo_recorte_bacia":"ponto_representativo_grade_2022; area_pct_geometrica"},"geometry":{"type":"Polygon","coordinates":[[[-51.407657918478094,-29.001459389639113],[-51.407676353680756,-28.999597769621378],[-51.405686963382614,-28.99958051253062],[-51.40566851469015,-29.001442132548306],[-51.407657918478094,-29.001459389639113]]]}},{"type":"Feature","properties":{"id_grade":"200ME52600N81162","pop":6,"dom":1,"universo_dom":"domicilios_ocupados_grade_ibge_2022","na_bacia":1,"area_pct_bacia":100.0,"metodo_recorte_bacia":"ponto_representativo_grade_2022; area_pct_geometrica"},"geometry":{"type":"Polygon","coordinates":[[[-51.41364452457509,-28.999649462652467],[-51.41366291750962,-28.997787861520447],[-51.411673540701315,-28.997770644],[-51.411655134277005,-28.99963224513198],[-51.41364452457509,-28.999649462652467]]]}},{"type":"Feature","properties":{"id_grade":"200ME52602N81162","pop":6,"dom":3,"universo_dom":"domicilios_ocupados_grade_ibge_2022","na_bacia":1,"area_pct_bacia":100.0,"metodo_recorte_bacia":"ponto_representativo_grade_2022; area_pct_geometrica"},"geometry":{"type":"Polygon","coordinates":[[[-51.411655134277005,-28.99963224513198],[-51.411673540701315,-28.997770644],[-51.40968416479234,-28.99775341298957],[-51.40966574397885,-28.999615014121662],[-51.411655134277005,-28.99963224513198]]]}},{"type":"Feature","properties":{"id_grade":"200ME52602N81164","pop":12,"dom":4,"universo_dom":"domicilios_ocupados_grade_ibge_2022","na_bacia":1,"area_pct_bacia":100.0,"metodo_recorte_bacia":"ponto_representativo_grade_2022; area_pct_geometrica"},"geometry":{"type":"Polygon","coordinates":[[[-51.411673540701315,-28.997770644],[-51.41169194712563,-28.995909062653087],[-51.40970258470645,-28.995891832542],[-51.40968416479234,-28.99775341298957],[-51.411673540701315,-28.997770644]]]}},{"type":"Feature","properties":{"id_grade":"200ME52604N81164","pop":47,"dom":17,"universo_dom":"domicilios_ocupados_grade_ibge_2022","na_bacia":1,"area_pct_bacia":100.0,"metodo_recorte_bacia":"ponto_representativo_grade_2022; area_pct_geometrica"},"geometry":{"type":"Polygon","coordinates":[[[-51.40968416479234,-28.99775341298957],[-51.40970258470645,-28.995891832542],[-51.40771322318665,-28.99587458894117],[-51.40769478798405,-28.997736169388645],[-51.40968416479234,-28.99775341298957]]]}},{"type":"Feature","properties":{"id_grade":"200ME52606N81164","pop":13,"dom":5,"universo_dom":"domicilios_ocupados_grade_ibge_2022","na_bacia":1,"area_pct_bacia":100.0,"metodo_recorte_bacia":"ponto_representativo_grade_2022; area_pct_geometrica"},"geometry":{"type":"Polygon","coordinates":[[[-51.40769478798405,-28.997736169388645],[-51.40771322318665,-28.99587458894117],[-51.40572386166684,-28.995857331850388],[-51.40570541297439,-28.997718912297834],[-51.40769478798405,-28.997736169388645]]]}},{"type":"Feature","properties":{"id_grade":"200ME52602N81166","pop":23,"dom":8,"universo_dom":"domicilios_ocupados_grade_ibge_2022","na_bacia":1,"area_pct_bacia":100.0,"metodo_recorte_bacia":"ponto_representativo_grade_2022; area_pct_geometrica"},"geometry":{"type":"Polygon","coordinates":[[[-51.41169194712563,-28.995909062653087],[-51.41171035265063,-28.994047501091167],[-51.409721004620614,-28.994030270980158],[-51.40970258470645,-28.995891832542],[-51.41169194712563,-28.995909062653087]]]}},{"type":"Feature","properties":{"id_grade":"200ME52604N81166","pop":61,"dom":25,"universo_dom":"domicilios_ocupados_grade_ibge_2022","na_bacia":1,"area_pct_bacia":100.0,"metodo_recorte_bacia":"ponto_representativo_grade_2022; area_pct_geometrica"},"geometry":{"type":"Polygon","coordinates":[[[-51.40970258470645,-28.995891832542],[-51.409721004620614,-28.994030270980158],[-51.40773165748993,-28.99401302737925],[-51.40771322318665,-28.99587458894117],[-51.40970258470645,-28.995891832542]]]}},{"type":"Feature","properties":{"id_grade":"200ME52606N81166","pop":50,"dom":18,"universo_dom":"domicilios_ocupados_grade_ibge_2022","na_bacia":1,"area_pct_bacia":100.0,"metodo_recorte_bacia":"ponto_representativo_grade_2022; area_pct_geometrica"},"geometry":{"type":"Polygon","coordinates":[[[-51.40771322318665,-28.99587458894117],[-51.40773165748993,-28.99401302737925],[-51.40574230945998,-28.9939957711878],[-51.40572386166684,-28.995857331850388],[-51.40771322318665,-28.99587458894117]]]}},{"type":"Feature","properties":{"id_grade":"200ME52608N81166","pop":9,"dom":3,"universo_dom":"domicilios_ocupados_grade_ibge_2022","na_bacia":1,"area_pct_bacia":100.0,"metodo_recorte_bacia":"ponto_representativo_grade_2022; area_pct_geometrica"},"geometry":{"type":"Polygon","coordinates":[[[-51.40572386166684,-28.995857331850388],[-51.40574230945998,-28.9939957711878],[-51.40375296232929,-28.993978500607273],[-51.40373450014704,-28.995840061269725],[-51.40572386166684,-28.995857331850388]]]}},{"type":"Feature","properties":{"id_grade":"200ME52604N81168","pop":41,"dom":15,"universo_dom":"domicilios_ocupados_grade_ibge_2022","na_bacia":1,"area_pct_bacia":100.0,"metodo_recorte_bacia":"ponto_representativo_grade_2022; area_pct_geometrica"},"geometry":{"type":"Polygon","coordinates":[[[-51.409721004620614,-28.994030270980158],[-51.40973942453479,-28.992168728304083],[-51.407750090893956,-28.99215148560253],[-51.40773165748993,-28.99401302737925],[-51.409721004620614,-28.994030270980158]]]}},{"type":"Feature","properties":{"id_grade":"200ME52606N81168","pop":21,"dom":10,"universo_dom":"domicilios_ocupados_grade_ibge_2022","na_bacia":1,"area_pct_bacia":100.0,"metodo_recorte_bacia":"ponto_representativo_grade_2022; area_pct_geometrica"},"geometry":{"type":"Polygon","coordinates":[[[-51.40773165748993,-28.99401302737925],[-51.407750090893956,-28.99215148560253],[-51.40576075815244,-28.992134229411143],[-51.40574230945998,-28.9939957711878],[-51.40773165748993,-28.99401302737925]]]}},{"type":"Feature","properties":{"id_grade":"200ME52600N81170","pop":51,"dom":17,"universo_dom":"domicilios_ocupados_grade_ibge_2022","na_bacia":1,"area_pct_bacia":100.0,"metodo_recorte_bacia":"ponto_representativo_grade_2022; area_pct_geometrica"},"geometry":{"type":"Polygon","coordinates":[[[-51.41371809271578,-28.99220317503649],[-51.41373648385161,-28.990341652145528],[-51.41174716370062,-28.99032443552426],[-51.41172875817563,-28.992185958415202],[-51.41371809271578,-28.99220317503649]]]}},{"type":"Feature","properties":{"id_grade":"200ME52602N81170","pop":13,"dom":5,"universo_dom":"domicilios_ocupados_grade_ibge_2022","na_bacia":1,"area_pct_bacia":100.0,"metodo_recorte_bacia":"ponto_representativo_grade_2022; area_pct_geometrica"},"geometry":{"type":"Polygon","coordinates":[[[-51.41172875817563,-28.992185958415202],[-51.41174716370062,-28.99032443552426],[-51.40975784444891,-28.9903072063125],[-51.40973942453479,-28.992168728304083],[-51.41172875817563,-28.992185958415202]]]}},{"type":"Feature","properties":{"id_grade":"200ME52604N81170","pop":46,"dom":20,"universo_dom":"domicilios_ocupados_grade_ibge_2022","na_bacia":1,"area_pct_bacia":100.0,"metodo_recorte_bacia":"ponto_representativo_grade_2022; area_pct_geometrica"},"geometry":{"type":"Polygon","coordinates":[[[-51.40973942453479,-28.992168728304083],[-51.40975784444891,-28.9903072063125],[-51.407768525197234,-28.99028996361098],[-51.407750090893956,-28.99215148560253],[-51.40973942453479,-28.992168728304083]]]}},{"type":"Feature","properties":{"id_grade":"200ME52606N81170","pop":67,"dom":26,"universo_dom":"domicilios_ocupados_grade_ibge_2022","na_bacia":1,"area_pct_bacia":100.0,"metodo_recorte_bacia":"ponto_representativo_grade_2022; area_pct_geometrica"},"geometry":{"type":"Polygon","coordinates":[[[-51.407750090893956,-28.99215148560253],[-51.407768525197234,-28.99028996361098],[-51.40577920594558,-28.99027270741952],[-51.40576075815244,-28.992134229411143],[-51.407750090893956,-28.99215148560253]]]}},{"type":"Feature","properties":{"id_grade":"200ME52608N81170","pop":45,"dom":17,"universo_dom":"domicilios_ocupados_grade_ibge_2022","na_bacia":1,"area_pct_bacia":100.0,"metodo_recorte_bacia":"ponto_representativo_grade_2022; area_pct_geometrica"},"geometry":{"type":"Polygon","coordinates":[[[-51.40576075815244,-28.992134229411143],[-51.40577920594558,-28.99027270741952],[-51.403789886693865,-28.990255438637554],[-51.4037714245116,-28.992116959729834],[-51.40576075815244,-28.992134229411143]]]}},{"type":"Feature","properties":{"id_grade":"200ME52600N81172","pop":15,"dom":8,"universo_dom":"domicilios_ocupados_grade_ibge_2022","na_bacia":1,"area_pct_bacia":100.0,"metodo_recorte_bacia":"ponto_representativo_grade_2022; area_pct_geometrica"},"geometry":{"type":"Polygon","coordinates":[[[-51.41373648385161,-28.990341652145528],[-51.41375487498743,-28.98848014814033],[-51.41176556922562,-28.98846293241839],[-51.41174716370062,-28.99032443552426],[-51.41373648385161,-28.990341652145528]]]}},{"type":"Feature","properties":{"id_grade":"200ME52602N81172","pop":50,"dom":23,"universo_dom":"domicilios_ocupados_grade_ibge_2022","na_bacia":1,"area_pct_bacia":100.0,"metodo_recorte_bacia":"ponto_representativo_grade_2022; area_pct_geometrica"},"geometry":{"type":"Polygon","coordinates":[[[-51.41174716370062,-28.99032443552426],[-51.41176556922562,-28.98846293241839],[-51.409776263463755,-28.988445703206587],[-51.40975784444891,-28.9903072063125],[-51.41174716370062,-28.99032443552426]]]}},{"type":"Feature","properties":{"id_grade":"200ME52604N81172","pop":130,"dom":54,"universo_dom":"domicilios_ocupados_grade_ibge_2022","na_bacia":1,"area_pct_bacia":100.0,"metodo_recorte_bacia":"ponto_representativo_grade_2022; area_pct_geometrica"},"geometry":{"type":"Polygon","coordinates":[[[-51.40975784444891,-28.9903072063125],[-51.409776263463755,-28.988445703206587],[-51.4077869586012,-28.988428461404336],[-51.407768525197234,-28.99028996361098],[-51.40975784444891,-28.9903072063125]]]}},{"type":"Feature","properties":{"id_grade":"200ME52606N81172","pop":95,"dom":37,"universo_dom":"domicilios_ocupados_grade_ibge_2022","na_bacia":1,"area_pct_bacia":100.0,"metodo_recorte_bacia":"ponto_representativo_grade_2022; area_pct_geometrica"},"geometry":{"type":"Polygon","coordinates":[[[-51.407768525197234,-28.99028996361098],[-51.4077869586012,-28.988428461404336],[-51.40579765283934,-28.988411205212937],[-51.40577920594558,-28.99027270741952],[-51.407768525197234,-28.99028996361098]]]}},{"type":"Feature","properties":{"id_grade":"200ME52608N81172","pop":29,"dom":13,"universo_dom":"domicilios_ocupados_grade_ibge_2022","na_bacia":1,"area_pct_bacia":100.0,"metodo_recorte_bacia":"ponto_representativo_grade_2022; area_pct_geometrica"},"geometry":{"type":"Polygon","coordinates":[[[-51.40577920594558,-28.99027270741952],[-51.40579765283934,-28.988411205212937],[-51.40380834887617,-28.988393936430967],[-51.403789886693865,-28.990255438637554],[-51.40577920594558,-28.99027270741952]]]}},{"type":"Feature","properties":{"id_grade":"200ME52600N81174","pop":2,"dom":1,"universo_dom":"domicilios_ocupados_grade_ibge_2022","na_bacia":1,"area_pct_bacia":100.0,"metodo_recorte_bacia":"ponto_representativo_grade_2022; area_pct_geometrica"},"geometry":{"type":"Polygon","coordinates":[[[-51.41375487498743,-28.98848014814033],[-51.41377326612332,-28.986618664819485],[-51.41178397385124,-28.986601449097588],[-51.41176556922562,-28.98846293241839],[-51.41375487498743,-28.98848014814033]]]}},{"type":"Feature","properties":{"id_grade":"200ME52602N81174","pop":41,"dom":20,"universo_dom":"domicilios_ocupados_grade_ibge_2022","na_bacia":1,"area_pct_bacia":100.0,"metodo_recorte_bacia":"ponto_representativo_grade_2022; area_pct_geometrica"},"geometry":{"type":"Polygon","coordinates":[[[-51.41176556922562,-28.98846293241839],[-51.41178397385124,-28.986601449097588],[-51.40979468247855,-28.9865842198858],[-51.409776263463755,-28.988445703206587],[-51.41176556922562,-28.98846293241839]]]}},{"type":"Feature","properties":{"id_grade":"200ME52604N81174","pop":100,"dom":35,"universo_dom":"domicilios_ocupados_grade_ibge_2022","na_bacia":1,"area_pct_bacia":100.0,"metodo_recorte_bacia":"ponto_representativo_grade_2022; area_pct_geometrica"},"geometry":{"type":"Polygon","coordinates":[[[-51.409776263463755,-28.988445703206587],[-51.40979468247855,-28.9865842198858],[-51.40780539200517,-28.98656697808352],[-51.4077869586012,-28.988428461404336],[-51.409776263463755,-28.988445703206587]]]}},{"type":"Feature","properties":{"id_grade":"200ME52606N81174","pop":123,"dom":57,"universo_dom":"domicilios_ocupados_grade_ibge_2022","na_bacia":1,"area_pct_bacia":100.0,"metodo_recorte_bacia":"ponto_representativo_grade_2022; area_pct_geometrica"},"geometry":{"type":"Polygon","coordinates":[[[-51.4077869586012,-28.988428461404336],[-51.40780539200517,-28.98656697808352],[-51.405816100632485,-28.986549722791512],[-51.40579765283934,-28.988411205212937],[-51.4077869586012,-28.988428461404336]]]}},{"type":"Feature","properties":{"id_grade":"200ME52608N81174","pop":26,"dom":11,"universo_dom":"domicilios_ocupados_grade_ibge_2022","na_bacia":1,"area_pct_bacia":100.0,"metodo_recorte_bacia":"ponto_representativo_grade_2022; area_pct_geometrica"},"geometry":{"type":"Polygon","coordinates":[[[-51.40579765283934,-28.988411205212937],[-51.405816100632485,-28.986549722791512],[-51.4038268101591,-28.9865324540095],[-51.40380834887617,-28.988393936430967],[-51.40579765283934,-28.988411205212937]]]}},{"type":"Feature","properties":{"id_grade":"200ME52604N81176","pop":16,"dom":6,"universo_dom":"domicilios_ocupados_grade_ibge_2022","na_bacia":1,"area_pct_bacia":100.0,"metodo_recorte_bacia":"ponto_representativo_grade_2022; area_pct_geometrica"},"geometry":{"type":"Polygon","coordinates":[[[-51.40979468247855,-28.9865842198858],[-51.409813101493405,-28.98472275635009],[-51.407823824509876,-28.98470551454781],[-51.40780539200517,-28.98656697808352],[-51.40979468247855,-28.9865842198858]]]}},{"type":"Feature","properties":{"id_grade":"200ME52606N81176","pop":93,"dom":38,"universo_dom":"domicilios_ocupados_grade_ibge_2022","na_bacia":1,"area_pct_bacia":100.0,"metodo_recorte_bacia":"ponto_representativo_grade_2022; area_pct_geometrica"},"geometry":{"type":"Polygon","coordinates":[[[-51.40780539200517,-28.98656697808352],[-51.407823824509876,-28.98470551454781],[-51.405834547526304,-28.984688259255744],[-51.405816100632485,-28.986549722791512],[-51.40780539200517,-28.98656697808352]]]}},{"type":"Feature","properties":{"id_grade":"200ME52608N81176","pop":10,"dom":4,"universo_dom":"domicilios_ocupados_grade_ibge_2022","na_bacia":1,"area_pct_bacia":100.0,"metodo_recorte_bacia":"ponto_representativo_grade_2022; area_pct_geometrica"},"geometry":{"type":"Polygon","coordinates":[[[-51.405816100632485,-28.986549722791512],[-51.405834547526304,-28.984688259255744],[-51.403845271442094,-28.984670991373097],[-51.4038268101591,-28.9865324540095],[-51.405816100632485,-28.986549722791512]]]}},{"type":"Feature","properties":{"id_grade":"200ME52604N81178","pop":23,"dom":9,"universo_dom":"domicilios_ocupados_grade_ibge_2022","na_bacia":1,"area_pct_bacia":100.0,"metodo_recorte_bacia":"ponto_representativo_grade_2022; area_pct_geometrica"},"geometry":{"type":"Polygon","coordinates":[[[-51.409813101493405,-28.98472275635009],[-51.40983152050825,-28.982861312599486],[-51.40784225701452,-28.982844070797196],[-51.407823824509876,-28.98470551454781],[-51.409813101493405,-28.98472275635009]]]}},{"type":"Feature","properties":{"id_grade":"200ME52606N81178","pop":30,"dom":14,"universo_dom":"domicilios_ocupados_grade_ibge_2022","na_bacia":1,"area_pct_bacia":100.0,"metodo_recorte_bacia":"ponto_representativo_grade_2022; area_pct_geometrica"},"geometry":{"type":"Polygon","coordinates":[[[-51.407823824509876,-28.98470551454781],[-51.40784225701452,-28.982844070797196],[-51.405852994420115,-28.982826816404412],[-51.405834547526304,-28.984688259255744],[-51.407823824509876,-28.98470551454781]]]}},{"type":"Feature","properties":{"id_grade":"200ME52604N81180","pop":83,"dom":28,"universo_dom":"domicilios_ocupados_grade_ibge_2022","na_bacia":1,"area_pct_bacia":100.0,"metodo_recorte_bacia":"ponto_representativo_grade_2022; area_pct_geometrica"},"geometry":{"type":"Polygon","coordinates":[[[-51.40983152050825,-28.982861312599486],[-51.409849938623715,-28.98099988773465],[-51.40786068951917,-28.980982646831638],[-51.40784225701452,-28.982844070797196],[-51.40983152050825,-28.982861312599486]]]}},{"type":"Feature","properties":{"id_grade":"200ME52606N81180","pop":61,"dom":19,"universo_dom":"domicilios_ocupados_grade_ibge_2022","na_bacia":1,"area_pct_bacia":100.0,"metodo_recorte_bacia":"ponto_representativo_grade_2022; area_pct_geometrica"},"geometry":{"type":"Polygon","coordinates":[[[-51.40784225701452,-28.982844070797196],[-51.40786068951917,-28.980982646831638],[-51.405871441313934,-28.980965392438904],[-51.405852994420115,-28.982826816404412],[-51.40784225701452,-28.982844070797196]]]}},{"type":"Feature","properties":{"id_grade":"200ME52602N81182","pop":13,"dom":6,"universo_dom":"domicilios_ocupados_grade_ibge_2022","na_bacia":1,"area_pct_bacia":100.0,"metodo_recorte_bacia":"ponto_representativo_grade_2022; area_pct_geometrica"},"geometry":{"type":"Polygon","coordinates":[[[-51.411839187728276,-28.981017116047045],[-51.411857591454634,-28.979155710967227],[-51.40986835673925,-28.979138482654783],[-51.409849938623715,-28.98099988773465],[-51.411839187728276,-28.981017116047045]]]}},{"type":"Feature","properties":{"id_grade":"200ME52604N81182","pop":47,"dom":19,"universo_dom":"domicilios_ocupados_grade_ibge_2022","na_bacia":1,"area_pct_bacia":100.0,"metodo_recorte_bacia":"ponto_representativo_grade_2022; area_pct_geometrica"},"geometry":{"type":"Polygon","coordinates":[[[-51.409849938623715,-28.98099988773465],[-51.40986835673925,-28.979138482654783],[-51.407879122023814,-28.979121241751844],[-51.40786068951917,-28.980982646831638],[-51.409849938623715,-28.98099988773465]]]}},{"type":"Feature","properties":{"id_grade":"200ME52606N81182","pop":22,"dom":10,"universo_dom":"domicilios_ocupados_grade_ibge_2022","na_bacia":1,"area_pct_bacia":100.0,"metodo_recorte_bacia":"ponto_representativo_grade_2022; area_pct_geometrica"},"geometry":{"type":"Polygon","coordinates":[[[-51.40786068951917,-28.980982646831638],[-51.407879122023814,-28.979121241751844],[-51.40588988730843,-28.979103988258377],[-51.405871441313934,-28.980965392438904],[-51.40786068951917,-28.980982646831638]]]}},{"type":"Feature","properties":{"id_grade":"200ME52608N81182","pop":25,"dom":11,"universo_dom":"domicilios_ocupados_grade_ibge_2022","na_bacia":1,"area_pct_bacia":100.0,"metodo_recorte_bacia":"ponto_representativo_grade_2022; area_pct_geometrica"},"geometry":{"type":"Polygon","coordinates":[[[-51.405871441313934,-28.980965392438904],[-51.40588988730843,-28.979103988258377],[-51.403900653492315,-28.979086720375786],[-51.4038821931087,-28.980948124556278],[-51.405871441313934,-28.980965392438904]]]}},{"type":"Feature","properties":{"id_grade":"200ME52600N81184","pop":5,"dom":2,"universo_dom":"domicilios_ocupados_grade_ibge_2022","na_bacia":1,"area_pct_bacia":100.0,"metodo_recorte_bacia":"ponto_representativo_grade_2022; area_pct_geometrica"},"geometry":{"type":"Polygon","coordinates":[[[-51.41384682617007,-28.97917292489057],[-51.41386521550726,-28.97731153869647],[-51.41187599518099,-28.977294324773165],[-51.411857591454634,-28.979155710967227],[-51.41384682617007,-28.97917292489057]]]}},{"type":"Feature","properties":{"id_grade":"200ME52606N81184","pop":53,"dom":17,"universo_dom":"domicilios_ocupados_grade_ibge_2022","na_bacia":1,"area_pct_bacia":100.0,"metodo_recorte_bacia":"ponto_representativo_grade_2022; area_pct_geometrica"},"geometry":{"type":"Polygon","coordinates":[[[-51.407879122023814,-28.979121241751844],[-51.40789755362914,-28.977259857356508],[-51.405908333302875,-28.977242602963738],[-51.40588988730843,-28.979103988258377],[-51.407879122023814,-28.979121241751844]]]}},{"type":"Feature","properties":{"id_grade":"200ME52612N81164","pop":3,"dom":1,"universo_dom":"domicilios_ocupados_grade_ibge_2022","na_bacia":1,"area_pct_bacia":100.0,"metodo_recorte_bacia":"ponto_representativo_grade_2022; area_pct_geometrica"},"geometry":{"type":"Polygon","coordinates":[[[-51.40172666205575,-28.997684358546287],[-51.401745138627184,-28.995822778098646],[-51.399755778006686,-28.9958054814378],[-51.3997372870461,-28.99766706188539],[-51.40172666205575,-28.997684358546287]]]}},{"type":"Feature","properties":{"id_grade":"200ME52618N81166","pop":2,"dom":1,"universo_dom":"domicilios_ocupados_grade_ibge_2022","na_bacia":1,"area_pct_bacia":100.0,"metodo_recorte_bacia":"ponto_representativo_grade_2022; area_pct_geometrica"},"geometry":{"type":"Polygon","coordinates":[[[-51.39577705676572,-28.995770849445076],[-51.39579557650461,-28.993909289681906],[-51.39380623027324,-28.99389195345083],[-51.39378769704456,-28.995753513213987],[-51.39577705676572,-28.995770849445076]]]}},{"type":"Feature","properties":{"id_grade":"200ME52616N81168","pop":4,"dom":1,"universo_dom":"domicilios_ocupados_grade_ibge_2022","na_bacia":1,"area_pct_bacia":100.0,"metodo_recorte_bacia":"ponto_representativo_grade_2022; area_pct_geometrica"},"geometry":{"type":"Polygon","coordinates":[[[-51.39778492183666,-28.993926612423156],[-51.397803427186375,-28.992065072445058],[-51.39581409534418,-28.992047749703868],[-51.39579557650461,-28.993909289681906],[-51.39778492183666,-28.993926612423156]]]}},{"type":"Feature","properties":{"id_grade":"200ME52618N81168","pop":8,"dom":2,"universo_dom":"domicilios_ocupados_grade_ibge_2022","na_bacia":1,"area_pct_bacia":100.0,"metodo_recorte_bacia":"ponto_representativo_grade_2022; area_pct_geometrica"},"geometry":{"type":"Polygon","coordinates":[[[-51.39579557650461,-28.993909289681906],[-51.39581409534418,-28.992047749703868],[-51.39382476350198,-28.9920304143721],[-51.39380623027324,-28.99389195345083],[-51.39579557650461,-28.993909289681906]]]}},{"type":"Feature","properties":{"id_grade":"200ME52610N81170","pop":19,"dom":6,"universo_dom":"domicilios_ocupados_grade_ibge_2022","na_bacia":1,"area_pct_bacia":100.0,"metodo_recorte_bacia":"ponto_representativo_grade_2022; area_pct_geometrica"},"geometry":{"type":"Polygon","coordinates":[[[-51.4037714245116,-28.992116959729834],[-51.403789886693865,-28.990255438637554],[-51.40180056834151,-28.990238156365777],[-51.40178209177009,-28.992099677458096],[-51.4037714245116,-28.992116959729834]]]}},{"type":"Feature","properties":{"id_grade":"200ME52612N81170","pop":12,"dom":6,"universo_dom":"domicilios_ocupados_grade_ibge_2022","na_bacia":1,"area_pct_bacia":100.0,"metodo_recorte_bacia":"ponto_representativo_grade_2022; area_pct_geometrica"},"geometry":{"type":"Polygon","coordinates":[[[-51.40178209177009,-28.992099677458096],[-51.40180056834151,-28.990238156365777],[-51.39981124998916,-28.990220860604136],[-51.39979275902857,-28.99208238169648],[-51.40178209177009,-28.992099677458096]]]}},{"type":"Feature","properties":{"id_grade":"200ME52610N81172","pop":18,"dom":5,"universo_dom":"domicilios_ocupados_grade_ibge_2022","na_bacia":1,"area_pct_bacia":100.0,"metodo_recorte_bacia":"ponto_representativo_grade_2022; area_pct_geometrica"},"geometry":{"type":"Polygon","coordinates":[[[-51.403789886693865,-28.990255438637554],[-51.40380834887617,-28.988393936430967],[-51.40181904401362,-28.988376654159126],[-51.40180056834151,-28.990238156365777],[-51.403789886693865,-28.990255438637554]]]}},{"type":"Feature","properties":{"id_grade":"200ME52612N81172","pop":4,"dom":2,"universo_dom":"domicilios_ocupados_grade_ibge_2022","na_bacia":1,"area_pct_bacia":100.0,"metodo_recorte_bacia":"ponto_representativo_grade_2022; area_pct_geometrica"},"geometry":{"type":"Polygon","coordinates":[[[-51.40180056834151,-28.990238156365777],[-51.40181904401362,-28.988376654159126],[-51.39982974005044,-28.988359359296954],[-51.39981124998916,-28.990220860604136],[-51.40180056834151,-28.990238156365777]]]}},{"type":"Feature","properties":{"id_grade":"200ME52610N81180","pop":2,"dom":1,"universo_dom":"domicilios_ocupados_grade_ibge_2022","na_bacia":1,"area_pct_bacia":100.0,"metodo_recorte_bacia":"ponto_representativo_grade_2022; area_pct_geometrica"},"geometry":{"type":"Polygon","coordinates":[[[-51.40386373182571,-28.98280954852183],[-51.4038821931087,-28.980948124556278],[-51.401892944903466,-28.98093084408316],[-51.40187447013068,-28.98279226714933],[-51.40386373182571,-28.98280954852183]]]}},{"type":"Feature","properties":{"id_grade":"200ME52616N81180","pop":2,"dom":1,"universo_dom":"domicilios_ocupados_grade_ibge_2022","na_bacia":1,"area_pct_bacia":100.0,"metodo_recorte_bacia":"ponto_representativo_grade_2022; area_pct_geometrica"},"geometry":{"type":"Polygon","coordinates":[[[-51.397895946740505,-28.982757664834292],[-51.39791444939227,-28.980896242667452],[-51.39592520298566,-28.980878921724813],[-51.39590668504541,-28.982740343891678],[-51.397895946740505,-28.982757664834292]]]}},{"type":"Feature","properties":{"id_grade":"200ME52612N81182","pop":13,"dom":4,"universo_dom":"domicilios_ocupados_grade_ibge_2022","na_bacia":1,"area_pct_bacia":100.0,"metodo_recorte_bacia":"ponto_representativo_grade_2022; area_pct_geometrica"},"geometry":{"type":"Polygon","coordinates":[[[-51.401892944903466,-28.98093084408316],[-51.40191141967625,-28.979069439902727],[-51.399922185860135,-28.97905214593974],[-51.39990369759755,-28.980913549220897],[-51.401892944903466,-28.98093084408316]]]}},{"type":"Feature","properties":{"id_grade":"200ME52616N81182","pop":1,"dom":1,"universo_dom":"domicilios_ocupados_grade_ibge_2022","na_bacia":1,"area_pct_bacia":100.0,"metodo_recorte_bacia":"ponto_representativo_grade_2022; area_pct_geometrica"},"geometry":{"type":"Polygon","coordinates":[[[-51.39791444939227,-28.980896242667452],[-51.39793295294339,-28.979034839386287],[-51.39594372002659,-28.97901751934307],[-51.39592520298566,-28.980878921724813],[-51.39791444939227,-28.980896242667452]]]}},{"type":"Feature","properties":{"id_grade":"200ME52618N81182","pop":8,"dom":3,"universo_dom":"domicilios_ocupados_grade_ibge_2022","na_bacia":1,"area_pct_bacia":100.0,"metodo_recorte_bacia":"ponto_representativo_grade_2022; area_pct_geometrica"},"geometry":{"type":"Polygon","coordinates":[[[-51.39592520298566,-28.980878921724813],[-51.39594372002659,-28.97901751934307],[-51.393954487109845,-28.97900018580993],[-51.39393595567975,-28.980861588191743],[-51.39592520298566,-28.980878921724813]]]}},{"type":"Feature","properties":{"id_grade":"200ME52612N81188","pop":3,"dom":1,"universo_dom":"domicilios_ocupados_grade_ibge_2022","na_bacia":1,"area_pct_bacia":100.0,"metodo_recorte_bacia":"ponto_representativo_grade_2022; area_pct_geometrica"},"geometry":{"type":"Polygon","coordinates":[[[-51.40194836832251,-28.97534669089702],[-51.40196684219597,-28.973485346071822],[-51.399977650648,-28.973468053008162],[-51.399959162385414,-28.975329397833374],[-51.40194836832251,-28.97534669089702]]]}},{"type":"Feature","properties":{"id_grade":"200ME52614N81188","pop":6,"dom":1,"universo_dom":"domicilios_ocupados_grade_ibge_2022","na_bacia":1,"area_pct_bacia":100.0,"metodo_recorte_bacia":"ponto_representativo_grade_2022; area_pct_geometrica"},"geometry":{"type":"Polygon","coordinates":[[[-51.399959162385414,-28.975329397833374],[-51.399977650648,-28.973468053008162],[-51.39798845999939,-28.973450747354075],[-51.39796995734758,-28.975312091279946],[-51.399959162385414,-28.975329397833374]]]}},{"type":"Feature","properties":{"id_grade":"200ME52610N81190","pop":6,"dom":2,"universo_dom":"domicilios_ocupados_grade_ibge_2022","na_bacia":1,"area_pct_bacia":100.0,"metodo_recorte_bacia":"ponto_representativo_grade_2022; area_pct_geometrica"},"geometry":{"type":"Polygon","coordinates":[[[-51.403956032844576,-28.973502625645676],[-51.40397449232892,-28.971641299706107],[-51.401985315170116,-28.971624021031705],[-51.40196684219597,-28.973485346071822],[-51.403956032844576,-28.973502625645676]]]}}]}