{"type":"FeatureCollection","name":"4313086","crs":{"type":"name","properties":{"name":"urn:ogc:def:crs:OGC:1.3:CRS84"}},"features":[{"type":"Feature","properties":{"id_grade":"1KME5266N8110","pop":12,"dom":4,"universo_dom":"domicilios_ocupados_grade_ibge_2022","na_bacia":1,"area_pct_bacia":100.0,"metodo_recorte_bacia":"ponto_representativo_grade_2022; area_pct_geometrica","status_borda_bacia":"total","metodo_area_bacia":"interseção geométrica em EPSG:5880","metodo_na_bacia":"ponto_representativo_grade_2022_within_bacia","pop_n_validos":1,"pop_n_total":1,"pop_completude":1.0,"dom_n_validos":1,"dom_n_total":1,"dom_completude":1.0},"geometry":{"type":"Polygon","coordinates":[[[-51.353398292123,-29.054984065485502],[-51.353492413170926,-29.045673354982096],[-51.34354373345818,-29.045585109504454],[-51.34344925863542,-29.05489581220572],[-51.353398292123,-29.054984065485502]]]}},{"type":"Feature","properties":{"id_grade":"1KME5267N8110","pop":36,"dom":11,"universo_dom":"domicilios_ocupados_grade_ibge_2022","na_bacia":1,"area_pct_bacia":100.0,"metodo_recorte_bacia":"ponto_representativo_grade_2022; area_pct_geometrica","status_borda_bacia":"total","metodo_area_bacia":"interseção geométrica em EPSG:5880","metodo_na_bacia":"ponto_representativo_grade_2022_within_bacia","pop_n_validos":1,"pop_n_total":1,"pop_completude":1.0,"dom_n_validos":1,"dom_n_total":1,"dom_completude":1.0},"geometry":{"type":"Polygon","coordinates":[[[-51.34344925863542,-29.05489581220572],[-51.34354373345818,-29.045585109504454],[-51.333595060464596,-29.045496532973964],[-51.33350023186771,-29.054807227843455],[-51.34344925863542,-29.05489581220572]]]}},{"type":"Feature","properties":{"id_grade":"1KME5268N8110","pop":18,"dom":7,"universo_dom":"domicilios_ocupados_grade_ibge_2022","na_bacia":1,"area_pct_bacia":100.0,"metodo_recorte_bacia":"ponto_representativo_grade_2022; area_pct_geometrica","status_borda_bacia":"total","metodo_area_bacia":"interseção geométrica em EPSG:5880","metodo_na_bacia":"ponto_representativo_grade_2022_within_bacia","pop_n_validos":1,"pop_n_total":1,"pop_completude":1.0,"dom_n_validos":1,"dom_n_total":1,"dom_completude":1.0},"geometry":{"type":"Polygon","coordinates":[[[-51.33350023186771,-29.054807227843455],[-51.333595060464596,-29.045496532973964],[-51.32364639421534,-29.045407625390858],[-51.32355121184506,-29.054718312399668],[-51.33350023186771,-29.054807227843455]]]}},{"type":"Feature","properties":{"id_grade":"1KME5265N8111","pop":6,"dom":2,"universo_dom":"domicilios_ocupados_grade_ibge_2022","na_bacia":1,"area_pct_bacia":100.0,"metodo_recorte_bacia":"ponto_representativo_grade_2022; area_pct_geometrica","status_borda_bacia":"total","metodo_area_bacia":"interseção geométrica em EPSG:5880","metodo_na_bacia":"ponto_representativo_grade_2022_within_bacia","pop_n_validos":1,"pop_n_total":1,"pop_completude":1.0,"dom_n_validos":1,"dom_n_total":1,"dom_completude":1.0},"geometry":{"type":"Polygon","coordinates":[[[-51.36344109957769,-29.045761269405457],[-51.363534860181204,-29.036451042992983],[-51.35358652752484,-29.03636313633865],[-51.353492413170926,-29.045673354982096],[-51.36344109957769,-29.045761269405457]]]}},{"type":"Feature","properties":{"id_grade":"1KME5266N8111","pop":37,"dom":12,"universo_dom":"domicilios_ocupados_grade_ibge_2022","na_bacia":1,"area_pct_bacia":100.0,"metodo_recorte_bacia":"ponto_representativo_grade_2022; area_pct_geometrica","status_borda_bacia":"total","metodo_area_bacia":"interseção geométrica em EPSG:5880","metodo_na_bacia":"ponto_representativo_grade_2022_within_bacia","pop_n_validos":1,"pop_n_total":1,"pop_completude":1.0,"dom_n_validos":1,"dom_n_total":1,"dom_completude":1.0},"geometry":{"type":"Polygon","coordinates":[[[-51.353492413170926,-29.045673354982096],[-51.35358652752484,-29.03636313633865],[-51.34363820156177,-29.03627489865927],[-51.34354373345818,-29.045585109504454],[-51.353492413170926,-29.045673354982096]]]}},{"type":"Feature","properties":{"id_grade":"1KME5267N8111","pop":23,"dom":7,"universo_dom":"domicilios_ocupados_grade_ibge_2022","na_bacia":1,"area_pct_bacia":100.0,"metodo_recorte_bacia":"ponto_representativo_grade_2022; area_pct_geometrica","status_borda_bacia":"total","metodo_area_bacia":"interseção geométrica em EPSG:5880","metodo_na_bacia":"ponto_representativo_grade_2022_within_bacia","pop_n_validos":1,"pop_n_total":1,"pop_completude":1.0,"dom_n_validos":1,"dom_n_total":1,"dom_completude":1.0},"geometry":{"type":"Polygon","coordinates":[[[-51.34354373345818,-29.045585109504454],[-51.34363820156177,-29.03627489865927],[-51.33368988231715,-29.03618632995631],[-51.333595060464596,-29.045496532973964],[-51.34354373345818,-29.045585109504454]]]}},{"type":"Feature","properties":{"id_grade":"1KME5268N8111","pop":17,"dom":7,"universo_dom":"domicilios_ocupados_grade_ibge_2022","na_bacia":1,"area_pct_bacia":100.0,"metodo_recorte_bacia":"ponto_representativo_grade_2022; area_pct_geometrica","status_borda_bacia":"total","metodo_area_bacia":"interseção geométrica em EPSG:5880","metodo_na_bacia":"ponto_representativo_grade_2022_within_bacia","pop_n_validos":1,"pop_n_total":1,"pop_completude":1.0,"dom_n_validos":1,"dom_n_total":1,"dom_completude":1.0},"geometry":{"type":"Polygon","coordinates":[[[-51.333595060464596,-29.045496532973964],[-51.33368988231715,-29.03618632995631],[-51.323741569816136,-29.03609743022996],[-51.32364639421534,-29.045407625390858],[-51.333595060464596,-29.045496532973964]]]}},{"type":"Feature","properties":{"id_grade":"1KME5269N8111","pop":31,"dom":7,"universo_dom":"domicilios_ocupados_grade_ibge_2022","na_bacia":1,"area_pct_bacia":100.0,"metodo_recorte_bacia":"ponto_representativo_grade_2022; area_pct_geometrica","status_borda_bacia":"total","metodo_area_bacia":"interseção geométrica em EPSG:5880","metodo_na_bacia":"ponto_representativo_grade_2022_within_bacia","pop_n_validos":1,"pop_n_total":1,"pop_completude":1.0,"dom_n_validos":1,"dom_n_total":1,"dom_completude":1.0},"geometry":{"type":"Polygon","coordinates":[[[-51.32364639421534,-29.045407625390858],[-51.323741569816136,-29.03609743022996],[-51.31379326408389,-29.036008199481333],[-51.31369773473556,-29.04531838675651],[-51.32364639421534,-29.045407625390858]]]}},{"type":"Feature","properties":{"id_grade":"1KME5274N8111","pop":7,"dom":2,"universo_dom":"domicilios_ocupados_grade_ibge_2022","na_bacia":1,"area_pct_bacia":100.0,"metodo_recorte_bacia":"ponto_representativo_grade_2022; area_pct_geometrica","status_borda_bacia":"total","metodo_area_bacia":"interseção geométrica em EPSG:5880","metodo_na_bacia":"ponto_representativo_grade_2022_within_bacia","pop_n_validos":1,"pop_n_total":1,"pop_completude":1.0,"dom_n_validos":1,"dom_n_total":1,"dom_completude":1.0},"geometry":{"type":"Polygon","coordinates":[[[-51.2739031650144,-29.044958121720946],[-51.274000109345536,-29.035647966281857],[-51.26405183783438,-29.035557080434945],[-51.26395453975937,-29.04486722784185],[-51.2739031650144,-29.044958121720946]]]}},{"type":"Feature","properties":{"id_grade":"1KME5267N8112","pop":3,"dom":1,"universo_dom":"domicilios_ocupados_grade_ibge_2022","na_bacia":1,"area_pct_bacia":100.0,"metodo_recorte_bacia":"ponto_representativo_grade_2022; area_pct_geometrica","status_borda_bacia":"total","metodo_area_bacia":"interseção geométrica em EPSG:5880","metodo_na_bacia":"ponto_representativo_grade_2022_within_bacia","pop_n_validos":1,"pop_n_total":1,"pop_completude":1.0,"dom_n_validos":1,"dom_n_total":1,"dom_completude":1.0},"geometry":{"type":"Polygon","coordinates":[[[-51.34363820156177,-29.03627489865927],[-51.34373266294691,-29.02696517929448],[-51.333784697426104,-29.026876618414846],[-51.33368988231715,-29.03618632995631],[-51.34363820156177,-29.03627489865927]]]}},{"type":"Feature","properties":{"id_grade":"1KME5268N8112","pop":29,"dom":9,"universo_dom":"domicilios_ocupados_grade_ibge_2022","na_bacia":1,"area_pct_bacia":100.0,"metodo_recorte_bacia":"ponto_representativo_grade_2022; area_pct_geometrica","status_borda_bacia":"total","metodo_area_bacia":"interseção geométrica em EPSG:5880","metodo_na_bacia":"ponto_representativo_grade_2022_within_bacia","pop_n_validos":1,"pop_n_total":1,"pop_completude":1.0,"dom_n_validos":1,"dom_n_total":1,"dom_completude":1.0},"geometry":{"type":"Polygon","coordinates":[[[-51.33368988231715,-29.03618632995631],[-51.333784697426104,-29.026876618414846],[-51.32383673864818,-29.026787726541052],[-51.323741569816136,-29.03609743022996],[-51.33368988231715,-29.03618632995631]]]}},{"type":"Feature","properties":{"id_grade":"1KME5272N8112","pop":36,"dom":11,"universo_dom":"domicilios_ocupados_grade_ibge_2022","na_bacia":1,"area_pct_bacia":100.0,"metodo_recorte_bacia":"ponto_representativo_grade_2022; area_pct_geometrica","status_borda_bacia":"total","metodo_area_bacia":"interseção geométrica em EPSG:5880","metodo_na_bacia":"ponto_representativo_grade_2022_within_bacia","pop_n_validos":1,"pop_n_total":1,"pop_completude":1.0,"dom_n_validos":1,"dom_n_total":1,"dom_completude":1.0},"geometry":{"type":"Polygon","coordinates":[[[-51.293896673026275,-29.035828744920956],[-51.293992903023245,-29.02651906496502],[-51.284044971468376,-29.02642884912438],[-51.283948387751224,-29.035738521110765],[-51.293896673026275,-29.035828744920956]]]}},{"type":"Feature","properties":{"id_grade":"1KME5273N8112","pop":47,"dom":14,"universo_dom":"domicilios_ocupados_grade_ibge_2022","na_bacia":1,"area_pct_bacia":100.0,"metodo_recorte_bacia":"ponto_representativo_grade_2022; area_pct_geometrica","status_borda_bacia":"total","metodo_area_bacia":"interseção geométrica em EPSG:5880","metodo_na_bacia":"ponto_representativo_grade_2022_within_bacia","pop_n_validos":1,"pop_n_total":1,"pop_completude":1.0,"dom_n_validos":1,"dom_n_total":1,"dom_completude":1.0},"geometry":{"type":"Polygon","coordinates":[[[-51.283948387751224,-29.035738521110765],[-51.284044971468376,-29.02642884912438],[-51.274097046782146,-29.026338302293947],[-51.274000109345536,-29.035647966281857],[-51.283948387751224,-29.035738521110765]]]}},{"type":"Feature","properties":{"id_grade":"1KME5274N8112","pop":45,"dom":15,"universo_dom":"domicilios_ocupados_grade_ibge_2022","na_bacia":1,"area_pct_bacia":100.0,"metodo_recorte_bacia":"ponto_representativo_grade_2022; area_pct_geometrica","status_borda_bacia":"total","metodo_area_bacia":"interseção geométrica em EPSG:5880","metodo_na_bacia":"ponto_representativo_grade_2022_within_bacia","pop_n_validos":1,"pop_n_total":1,"pop_completude":1.0,"dom_n_validos":1,"dom_n_total":1,"dom_completude":1.0},"geometry":{"type":"Polygon","coordinates":[[[-51.274000109345536,-29.035647966281857],[-51.274097046782146,-29.026338302293947],[-51.2641491289897,-29.026247424474814],[-51.26405183783438,-29.035557080434945],[-51.274000109345536,-29.035647966281857]]]}},{"type":"Feature","properties":{"id_grade":"1KME5275N8112","pop":22,"dom":7,"universo_dom":"domicilios_ocupados_grade_ibge_2022","na_bacia":1,"area_pct_bacia":100.0,"metodo_recorte_bacia":"ponto_representativo_grade_2022; area_pct_geometrica","status_borda_bacia":"total","metodo_area_bacia":"interseção geométrica em EPSG:5880","metodo_na_bacia":"ponto_representativo_grade_2022_within_bacia","pop_n_validos":1,"pop_n_total":1,"pop_completude":1.0,"dom_n_validos":1,"dom_n_total":1,"dom_completude":1.0},"geometry":{"type":"Polygon","coordinates":[[[-51.26405183783438,-29.035557080434945],[-51.2641491289897,-29.026247424474814],[-51.25420121811621,-29.026156215667303],[-51.254103573242894,-29.03546586357055],[-51.26405183783438,-29.035557080434945]]]}},{"type":"Feature","properties":{"id_grade":"1KME5276N8112","pop":14,"dom":5,"universo_dom":"domicilios_ocupados_grade_ibge_2022","na_bacia":1,"area_pct_bacia":100.0,"metodo_recorte_bacia":"ponto_representativo_grade_2022; area_pct_geometrica","status_borda_bacia":"total","metodo_area_bacia":"interseção geométrica em EPSG:5880","metodo_na_bacia":"ponto_representativo_grade_2022_within_bacia","pop_n_validos":1,"pop_n_total":1,"pop_completude":1.0,"dom_n_validos":1,"dom_n_total":1,"dom_completude":1.0},"geometry":{"type":"Polygon","coordinates":[[[-51.254103573242894,-29.03546586357055],[-51.25420121811621,-29.026156215667303],[-51.24425331418679,-29.026064675873062],[-51.244155315596245,-29.035374315689996],[-51.254103573242894,-29.03546586357055]]]}},{"type":"Feature","properties":{"id_grade":"1KME5266N8113","pop":21,"dom":8,"universo_dom":"domicilios_ocupados_grade_ibge_2022","na_bacia":1,"area_pct_bacia":100.0,"metodo_recorte_bacia":"ponto_representativo_grade_2022; area_pct_geometrica","status_borda_bacia":"total","metodo_area_bacia":"interseção geométrica em EPSG:5880","metodo_na_bacia":"ponto_representativo_grade_2022_within_bacia","pop_n_validos":1,"pop_n_total":1,"pop_completude":1.0,"dom_n_validos":1,"dom_n_total":1,"dom_completude":1.0},"geometry":{"type":"Polygon","coordinates":[[[-51.353680635185455,-29.0270534091795],[-51.35377473615349,-29.017744173129493],[-51.34382711761432,-29.01765595103454],[-51.34373266294691,-29.02696517929448],[-51.353680635185455,-29.0270534091795]]]}},{"type":"Feature","properties":{"id_grade":"1KME5267N8113","pop":20,"dom":5,"universo_dom":"domicilios_ocupados_grade_ibge_2022","na_bacia":1,"area_pct_bacia":100.0,"metodo_recorte_bacia":"ponto_representativo_grade_2022; area_pct_geometrica","status_borda_bacia":"total","metodo_area_bacia":"interseção geométrica em EPSG:5880","metodo_na_bacia":"ponto_representativo_grade_2022_within_bacia","pop_n_validos":1,"pop_n_total":1,"pop_completude":1.0,"dom_n_validos":1,"dom_n_total":1,"dom_completude":1.0},"geometry":{"type":"Polygon","coordinates":[[[-51.34373266294691,-29.02696517929448],[-51.34382711761432,-29.01765595103454],[-51.33387950579217,-29.017567397974144],[-51.333784697426104,-29.026876618414846],[-51.34373266294691,-29.02696517929448]]]}},{"type":"Feature","properties":{"id_grade":"1KME5268N8113","pop":11,"dom":3,"universo_dom":"domicilios_ocupados_grade_ibge_2022","na_bacia":1,"area_pct_bacia":100.0,"metodo_recorte_bacia":"ponto_representativo_grade_2022; area_pct_geometrica","status_borda_bacia":"total","metodo_area_bacia":"interseção geométrica em EPSG:5880","metodo_na_bacia":"ponto_representativo_grade_2022_within_bacia","pop_n_validos":1,"pop_n_total":1,"pop_completude":1.0,"dom_n_validos":1,"dom_n_total":1,"dom_completude":1.0},"geometry":{"type":"Polygon","coordinates":[[[-51.333784697426104,-29.026876618414846],[-51.33387950579217,-29.017567397974144],[-51.32393190071219,-29.01747851394869],[-51.32383673864818,-29.026787726541052],[-51.333784697426104,-29.026876618414846]]]}},{"type":"Feature","properties":{"id_grade":"1KME5272N8113","pop":46,"dom":16,"universo_dom":"domicilios_ocupados_grade_ibge_2022","na_bacia":1,"area_pct_bacia":100.0,"metodo_recorte_bacia":"ponto_representativo_grade_2022; area_pct_geometrica","status_borda_bacia":"total","metodo_area_bacia":"interseção geométrica em EPSG:5880","metodo_na_bacia":"ponto_representativo_grade_2022_within_bacia","pop_n_validos":1,"pop_n_total":1,"pop_completude":1.0,"dom_n_validos":1,"dom_n_total":1,"dom_completude":1.0},"geometry":{"type":"Polygon","coordinates":[[[-51.293992903023245,-29.02651906496502],[-51.29408912617672,-29.01720987609335],[-51.28414154831689,-29.017119668217752],[-51.284044971468376,-29.02642884912438],[-51.293992903023245,-29.02651906496502]]]}},{"type":"Feature","properties":{"id_grade":"1KME5273N8113","pop":16,"dom":7,"universo_dom":"domicilios_ocupados_grade_ibge_2022","na_bacia":1,"area_pct_bacia":100.0,"metodo_recorte_bacia":"ponto_representativo_grade_2022; area_pct_geometrica","status_borda_bacia":"total","metodo_area_bacia":"interseção geométrica em EPSG:5880","metodo_na_bacia":"ponto_representativo_grade_2022_within_bacia","pop_n_validos":1,"pop_n_total":1,"pop_completude":1.0,"dom_n_validos":1,"dom_n_total":1,"dom_completude":1.0},"geometry":{"type":"Polygon","coordinates":[[[-51.284044971468376,-29.02642884912438],[-51.28414154831689,-29.017119668217752],[-51.27419397732496,-29.017029129381623],[-51.274097046782146,-29.026338302293947],[-51.284044971468376,-29.02642884912438]]]}},{"type":"Feature","properties":{"id_grade":"1KME5266N8114","pop":35,"dom":11,"universo_dom":"domicilios_ocupados_grade_ibge_2022","na_bacia":1,"area_pct_bacia":100.0,"metodo_recorte_bacia":"ponto_representativo_grade_2022; area_pct_geometrica","status_borda_bacia":"total","metodo_area_bacia":"interseção geométrica em EPSG:5880","metodo_na_bacia":"ponto_representativo_grade_2022_within_bacia","pop_n_validos":1,"pop_n_total":1,"pop_completude":1.0,"dom_n_validos":1,"dom_n_total":1,"dom_completude":1.0},"geometry":{"type":"Polygon","coordinates":[[[-51.35377473615349,-29.017744173129493],[-51.35386883042965,-29.008435427813126],[-51.343921565564706,-29.008347213504056],[-51.34382711761432,-29.01765595103454],[-51.35377473615349,-29.017744173129493]]]}},{"type":"Feature","properties":{"id_grade":"1KME5267N8114","pop":18,"dom":5,"universo_dom":"domicilios_ocupados_grade_ibge_2022","na_bacia":1,"area_pct_bacia":100.0,"metodo_recorte_bacia":"ponto_representativo_grade_2022; area_pct_geometrica","status_borda_bacia":"total","metodo_area_bacia":"interseção geométrica em EPSG:5880","metodo_na_bacia":"ponto_representativo_grade_2022_within_bacia","pop_n_validos":1,"pop_n_total":1,"pop_completude":1.0,"dom_n_validos":1,"dom_n_total":1,"dom_completude":1.0},"geometry":{"type":"Polygon","coordinates":[[[-51.34382711761432,-29.01765595103454],[-51.343921565564706,-29.008347213504056],[-51.333974307416064,-29.008258668258765],[-51.33387950579217,-29.017567397974144],[-51.34382711761432,-29.01765595103454]]]}},{"type":"Feature","properties":{"id_grade":"1KME5268N8114","pop":31,"dom":10,"universo_dom":"domicilios_ocupados_grade_ibge_2022","na_bacia":1,"area_pct_bacia":100.0,"metodo_recorte_bacia":"ponto_representativo_grade_2022; area_pct_geometrica","status_borda_bacia":"total","metodo_area_bacia":"interseção geométrica em EPSG:5880","metodo_na_bacia":"ponto_representativo_grade_2022_within_bacia","pop_n_validos":1,"pop_n_total":1,"pop_completude":1.0,"dom_n_validos":1,"dom_n_total":1,"dom_completude":1.0},"geometry":{"type":"Polygon","coordinates":[[[-51.33387950579217,-29.017567397974144],[-51.333974307416064,-29.008258668258765],[-51.32402705600887,-29.008169792077688],[-51.32393190071219,-29.01747851394869],[-51.33387950579217,-29.017567397974144]]]}},{"type":"Feature","properties":{"id_grade":"1KME5270N8114","pop":30,"dom":10,"universo_dom":"domicilios_ocupados_grade_ibge_2022","na_bacia":1,"area_pct_bacia":100.0,"metodo_recorte_bacia":"ponto_representativo_grade_2022; area_pct_geometrica","status_borda_bacia":"total","metodo_area_bacia":"interseção geométrica em EPSG:5880","metodo_na_bacia":"ponto_representativo_grade_2022_within_bacia","pop_n_validos":1,"pop_n_total":1,"pop_completude":1.0,"dom_n_validos":1,"dom_n_total":1,"dom_completude":1.0},"geometry":{"type":"Polygon","coordinates":[[[-51.313984302399525,-29.01738929895971],[-51.31407981136827,-29.008080584962077],[-51.30413257351942,-29.00799104691265],[-51.304036710879316,-29.017299753007663],[-51.313984302399525,-29.01738929895971]]]}},{"type":"Feature","properties":{"id_grade":"1KME5272N8114","pop":56,"dom":21,"universo_dom":"domicilios_ocupados_grade_ibge_2022","na_bacia":1,"area_pct_bacia":100.0,"metodo_recorte_bacia":"ponto_representativo_grade_2022; area_pct_geometrica","status_borda_bacia":"total","metodo_area_bacia":"interseção geométrica em EPSG:5880","metodo_na_bacia":"ponto_representativo_grade_2022_within_bacia","pop_n_validos":1,"pop_n_total":1,"pop_completude":1.0,"dom_n_validos":1,"dom_n_total":1,"dom_completude":1.0},"geometry":{"type":"Polygon","coordinates":[[[-51.29408912617672,-29.01720987609335],[-51.294185342487445,-29.007901177930332],[-51.284238118297495,-29.007810978015538],[-51.28414154831689,-29.017119668217752],[-51.29408912617672,-29.01720987609335]]]}},{"type":"Feature","properties":{"id_grade":"1KME5273N8114","pop":35,"dom":14,"universo_dom":"domicilios_ocupados_grade_ibge_2022","na_bacia":1,"area_pct_bacia":100.0,"metodo_recorte_bacia":"ponto_representativo_grade_2022; area_pct_geometrica","status_borda_bacia":"total","metodo_area_bacia":"interseção geométrica em EPSG:5880","metodo_na_bacia":"ponto_representativo_grade_2022_within_bacia","pop_n_validos":1,"pop_n_total":1,"pop_completude":1.0,"dom_n_validos":1,"dom_n_total":1,"dom_completude":1.0},"geometry":{"type":"Polygon","coordinates":[[[-51.28414154831689,-29.017119668217752],[-51.284238118297495,-29.007810978015538],[-51.27429090097473,-29.007720447169717],[-51.27419397732496,-29.017029129381623],[-51.28414154831689,-29.017119668217752]]]}},{"type":"Feature","properties":{"id_grade":"1KME5264N8115","pop":18,"dom":6,"universo_dom":"domicilios_ocupados_grade_ibge_2022","na_bacia":1,"area_pct_bacia":100.0,"metodo_recorte_bacia":"ponto_representativo_grade_2022; area_pct_geometrica","status_borda_bacia":"total","metodo_area_bacia":"interseção geométrica em EPSG:5880","metodo_na_bacia":"ponto_representativo_grade_2022_within_bacia","pop_n_validos":1,"pop_n_total":1,"pop_completude":1.0,"dom_n_validos":1,"dom_n_total":1,"dom_completude":1.0},"geometry":{"type":"Polygon","coordinates":[[[-51.373763380207855,-29.008610863618564],[-51.37385676049255,-28.999302593184527],[-51.36390983592096,-28.999215048474237],[-51.36381610198574,-29.00852331118506],[-51.373763380207855,-29.008610863618564]]]}},{"type":"Feature","properties":{"id_grade":"1KME5265N8115","pop":17,"dom":5,"universo_dom":"domicilios_ocupados_grade_ibge_2022","na_bacia":1,"area_pct_bacia":100.0,"metodo_recorte_bacia":"ponto_representativo_grade_2022; area_pct_geometrica","status_borda_bacia":"total","metodo_area_bacia":"interseção geométrica em EPSG:5880","metodo_na_bacia":"ponto_representativo_grade_2022_within_bacia","pop_n_validos":1,"pop_n_total":1,"pop_completude":1.0,"dom_n_validos":1,"dom_n_total":1,"dom_completude":1.0},"geometry":{"type":"Polygon","coordinates":[[[-51.36381610198574,-29.00852331118506],[-51.36390983592096,-28.999215048474237],[-51.353962918014645,-28.999127172855065],[-51.35386883042965,-29.008435427813126],[-51.36381610198574,-29.00852331118506]]]}},{"type":"Feature","properties":{"id_grade":"1KME5266N8115","pop":21,"dom":7,"universo_dom":"domicilios_ocupados_grade_ibge_2022","na_bacia":1,"area_pct_bacia":100.0,"metodo_recorte_bacia":"ponto_representativo_grade_2022; area_pct_geometrica","status_borda_bacia":"total","metodo_area_bacia":"interseção geométrica em EPSG:5880","metodo_na_bacia":"ponto_representativo_grade_2022_within_bacia","pop_n_validos":1,"pop_n_total":1,"pop_completude":1.0,"dom_n_validos":1,"dom_n_total":1,"dom_completude":1.0},"geometry":{"type":"Polygon","coordinates":[[[-51.35386883042965,-29.008435427813126],[-51.353962918014645,-28.999127172855065],[-51.34401600679879,-28.999038966327824],[-51.343921565564706,-29.008347213504056],[-51.35386883042965,-29.008435427813126]]]}},{"type":"Feature","properties":{"id_grade":"1KME5267N8115","pop":18,"dom":6,"universo_dom":"domicilios_ocupados_grade_ibge_2022","na_bacia":1,"area_pct_bacia":100.0,"metodo_recorte_bacia":"ponto_representativo_grade_2022; area_pct_geometrica","status_borda_bacia":"total","metodo_area_bacia":"interseção geométrica em EPSG:5880","metodo_na_bacia":"ponto_representativo_grade_2022_within_bacia","pop_n_validos":1,"pop_n_total":1,"pop_completude":1.0,"dom_n_validos":1,"dom_n_total":1,"dom_completude":1.0},"geometry":{"type":"Polygon","coordinates":[[[-51.343921565564706,-29.008347213504056],[-51.34401600679879,-28.999038966327824],[-51.334069102298514,-28.998950428893266],[-51.333974307416064,-29.008258668258765],[-51.343921565564706,-29.008347213504056]]]}},{"type":"Feature","properties":{"id_grade":"1KME5268N8115","pop":34,"dom":11,"universo_dom":"domicilios_ocupados_grade_ibge_2022","na_bacia":1,"area_pct_bacia":100.0,"metodo_recorte_bacia":"ponto_representativo_grade_2022; area_pct_geometrica","status_borda_bacia":"total","metodo_area_bacia":"interseção geométrica em EPSG:5880","metodo_na_bacia":"ponto_representativo_grade_2022_within_bacia","pop_n_validos":1,"pop_n_total":1,"pop_completude":1.0,"dom_n_validos":1,"dom_n_total":1,"dom_completude":1.0},"geometry":{"type":"Polygon","coordinates":[[[-51.333974307416064,-29.008258668258765],[-51.334069102298514,-28.998950428893266],[-51.324122204538966,-28.99886156055269],[-51.32402705600887,-29.008169792077688],[-51.333974307416064,-29.008258668258765]]]}},{"type":"Feature","properties":{"id_grade":"1KME5269N8115","pop":4,"dom":1,"universo_dom":"domicilios_ocupados_grade_ibge_2022","na_bacia":1,"area_pct_bacia":100.0,"metodo_recorte_bacia":"ponto_representativo_grade_2022; area_pct_geometrica","status_borda_bacia":"total","metodo_area_bacia":"interseção geométrica em EPSG:5880","metodo_na_bacia":"ponto_representativo_grade_2022_within_bacia","pop_n_validos":1,"pop_n_total":1,"pop_completude":1.0,"dom_n_validos":1,"dom_n_total":1,"dom_completude":1.0},"geometry":{"type":"Polygon","coordinates":[[[-51.32402705600887,-29.008169792077688],[-51.324122204538966,-28.99886156055269],[-51.3141753135453,-28.998772361306262],[-51.31407981136827,-29.008080584962077],[-51.32402705600887,-29.008169792077688]]]}},{"type":"Feature","properties":{"id_grade":"1KME5270N8115","pop":55,"dom":16,"universo_dom":"domicilios_ocupados_grade_ibge_2022","na_bacia":1,"area_pct_bacia":100.0,"metodo_recorte_bacia":"ponto_representativo_grade_2022; area_pct_geometrica","status_borda_bacia":"total","metodo_area_bacia":"interseção geométrica em EPSG:5880","metodo_na_bacia":"ponto_representativo_grade_2022_within_bacia","pop_n_validos":1,"pop_n_total":1,"pop_completude":1.0,"dom_n_validos":1,"dom_n_total":1,"dom_completude":1.0},"geometry":{"type":"Polygon","coordinates":[[[-51.31407981136827,-29.008080584962077],[-51.3141753135453,-28.998772361306262],[-51.304228429342636,-28.99868283115538],[-51.30413257351942,-29.00799104691265],[-51.31407981136827,-29.008080584962077]]]}},{"type":"Feature","properties":{"id_grade":"1KME5271N8115","pop":3,"dom":1,"universo_dom":"domicilios_ocupados_grade_ibge_2022","na_bacia":1,"area_pct_bacia":100.0,"metodo_recorte_bacia":"ponto_representativo_grade_2022; area_pct_geometrica","status_borda_bacia":"total","metodo_area_bacia":"interseção geométrica em EPSG:5880","metodo_na_bacia":"ponto_representativo_grade_2022_within_bacia","pop_n_validos":1,"pop_n_total":1,"pop_completude":1.0,"dom_n_validos":1,"dom_n_total":1,"dom_completude":1.0},"geometry":{"type":"Polygon","coordinates":[[[-51.30413257351942,-29.00799104691265],[-51.304228429342636,-28.99868283115538],[-51.29428155195613,-28.998592970100532],[-51.294185342487445,-29.007901177930332],[-51.30413257351942,-29.00799104691265]]]}},{"type":"Feature","properties":{"id_grade":"1KME5272N8115","pop":41,"dom":15,"universo_dom":"domicilios_ocupados_grade_ibge_2022","na_bacia":1,"area_pct_bacia":100.0,"metodo_recorte_bacia":"ponto_representativo_grade_2022; area_pct_geometrica","status_borda_bacia":"total","metodo_area_bacia":"interseção geométrica em EPSG:5880","metodo_na_bacia":"ponto_representativo_grade_2022_within_bacia","pop_n_validos":1,"pop_n_total":1,"pop_completude":1.0,"dom_n_validos":1,"dom_n_total":1,"dom_completude":1.0},"geometry":{"type":"Polygon","coordinates":[[[-51.294185342487445,-29.007901177930332],[-51.29428155195613,-28.998592970100532],[-51.28433468141094,-28.99850277814252],[-51.284238118297495,-29.007810978015538],[-51.294185342487445,-29.007901177930332]]]}},{"type":"Feature","properties":{"id_grade":"1KME5273N8115","pop":3,"dom":1,"universo_dom":"domicilios_ocupados_grade_ibge_2022","na_bacia":1,"area_pct_bacia":100.0,"metodo_recorte_bacia":"ponto_representativo_grade_2022; area_pct_geometrica","status_borda_bacia":"total","metodo_area_bacia":"interseção geométrica em EPSG:5880","metodo_na_bacia":"ponto_representativo_grade_2022_within_bacia","pop_n_validos":1,"pop_n_total":1,"pop_completude":1.0,"dom_n_validos":1,"dom_n_total":1,"dom_completude":1.0},"geometry":{"type":"Polygon","coordinates":[[[-51.284238118297495,-29.007810978015538],[-51.28433468141094,-28.99850277814252],[-51.27438781773217,-28.998412255282688],[-51.27429090097473,-29.007720447169717],[-51.284238118297495,-29.007810978015538]]]}},{"type":"Feature","properties":{"id_grade":"1KME5265N8116","pop":6,"dom":2,"universo_dom":"domicilios_ocupados_grade_ibge_2022","na_bacia":1,"area_pct_bacia":100.0,"metodo_recorte_bacia":"ponto_representativo_grade_2022; area_pct_geometrica","status_borda_bacia":"total","metodo_area_bacia":"interseção geométrica em EPSG:5880","metodo_na_bacia":"ponto_representativo_grade_2022_within_bacia","pop_n_validos":1,"pop_n_total":1,"pop_completude":1.0,"dom_n_validos":1,"dom_n_total":1,"dom_completude":1.0},"geometry":{"type":"Polygon","coordinates":[[[-51.36390983592096,-28.999215048474237],[-51.36400356319086,-28.989907275751072],[-51.35405699890921,-28.98981940788037],[-51.353962918014645,-28.999127172855065],[-51.36390983592096,-28.999215048474237]]]}},{"type":"Feature","properties":{"id_grade":"1KME5266N8116","pop":14,"dom":5,"universo_dom":"domicilios_ocupados_grade_ibge_2022","na_bacia":1,"area_pct_bacia":100.0,"metodo_recorte_bacia":"ponto_representativo_grade_2022; area_pct_geometrica","status_borda_bacia":"total","metodo_area_bacia":"interseção geométrica em EPSG:5880","metodo_na_bacia":"ponto_representativo_grade_2022_within_bacia","pop_n_validos":1,"pop_n_total":1,"pop_completude":1.0,"dom_n_validos":1,"dom_n_total":1,"dom_completude":1.0},"geometry":{"type":"Polygon","coordinates":[[[-51.353962918014645,-28.999127172855065],[-51.35405699890921,-28.98981940788037],[-51.344110441317284,-28.989731209131154],[-51.34401600679879,-28.999038966327824],[-51.353962918014645,-28.999127172855065]]]}},{"type":"Feature","properties":{"id_grade":"1KME5267N8116","pop":10,"dom":2,"universo_dom":"domicilios_ocupados_grade_ibge_2022","na_bacia":1,"area_pct_bacia":100.0,"metodo_recorte_bacia":"ponto_representativo_grade_2022; area_pct_geometrica","status_borda_bacia":"total","metodo_area_bacia":"interseção geométrica em EPSG:5880","metodo_na_bacia":"ponto_representativo_grade_2022_within_bacia","pop_n_validos":1,"pop_n_total":1,"pop_completude":1.0,"dom_n_validos":1,"dom_n_total":1,"dom_completude":1.0},"geometry":{"type":"Polygon","coordinates":[[[-51.34401600679879,-28.999038966327824],[-51.344110441317284,-28.989731209131154],[-51.33416389044024,-28.98964267950364],[-51.334069102298514,-28.998950428893266],[-51.34401600679879,-28.999038966327824]]]}},{"type":"Feature","properties":{"id_grade":"1KME5268N8116","pop":23,"dom":7,"universo_dom":"domicilios_ocupados_grade_ibge_2022","na_bacia":1,"area_pct_bacia":100.0,"metodo_recorte_bacia":"ponto_representativo_grade_2022; area_pct_geometrica","status_borda_bacia":"total","metodo_area_bacia":"interseção geométrica em EPSG:5880","metodo_na_bacia":"ponto_representativo_grade_2022_within_bacia","pop_n_validos":1,"pop_n_total":1,"pop_completude":1.0,"dom_n_validos":1,"dom_n_total":1,"dom_completude":1.0},"geometry":{"type":"Polygon","coordinates":[[[-51.334069102298514,-28.998950428893266],[-51.33416389044024,-28.98964267950364],[-51.32421734630319,-28.989553818998736],[-51.324122204538966,-28.99886156055269],[-51.334069102298514,-28.998950428893266]]]}},{"type":"Feature","properties":{"id_grade":"1KME5269N8116","pop":1,"dom":1,"universo_dom":"domicilios_ocupados_grade_ibge_2022","na_bacia":1,"area_pct_bacia":100.0,"metodo_recorte_bacia":"ponto_representativo_grade_2022; area_pct_geometrica","status_borda_bacia":"total","metodo_area_bacia":"interseção geométrica em EPSG:5880","metodo_na_bacia":"ponto_representativo_grade_2022_within_bacia","pop_n_validos":1,"pop_n_total":1,"pop_completude":1.0,"dom_n_validos":1,"dom_n_total":1,"dom_completude":1.0},"geometry":{"type":"Polygon","coordinates":[[[-51.324122204538966,-28.99886156055269],[-51.32421734630319,-28.989553818998736],[-51.3142708089313,-28.98946462761762],[-51.3141753135453,-28.998772361306262],[-51.324122204538966,-28.99886156055269]]]}},{"type":"Feature","properties":{"id_grade":"1KME5270N8116","pop":33,"dom":10,"universo_dom":"domicilios_ocupados_grade_ibge_2022","na_bacia":1,"area_pct_bacia":100.0,"metodo_recorte_bacia":"ponto_representativo_grade_2022; area_pct_geometrica","status_borda_bacia":"total","metodo_area_bacia":"interseção geométrica em EPSG:5880","metodo_na_bacia":"ponto_representativo_grade_2022_within_bacia","pop_n_validos":1,"pop_n_total":1,"pop_completude":1.0,"dom_n_validos":1,"dom_n_total":1,"dom_completude":1.0},"geometry":{"type":"Polygon","coordinates":[[[-51.3141753135453,-28.998772361306262],[-51.3142708089313,-28.98946462761762],[-51.3043242783497,-28.989375105360818],[-51.304228429342636,-28.99868283115538],[-51.3141753135453,-28.998772361306262]]]}},{"type":"Feature","properties":{"id_grade":"1KME5272N8116","pop":40,"dom":14,"universo_dom":"domicilios_ocupados_grade_ibge_2022","na_bacia":1,"area_pct_bacia":100.0,"metodo_recorte_bacia":"ponto_representativo_grade_2022; area_pct_geometrica","status_borda_bacia":"total","metodo_area_bacia":"interseção geométrica em EPSG:5880","metodo_na_bacia":"ponto_representativo_grade_2022_within_bacia","pop_n_validos":1,"pop_n_total":1,"pop_completude":1.0,"dom_n_validos":1,"dom_n_total":1,"dom_completude":1.0},"geometry":{"type":"Polygon","coordinates":[[[-51.29428155195613,-28.998592970100532],[-51.29437775458353,-28.98928525222934],[-51.28443123765793,-28.98919506822405],[-51.28433468141094,-28.99850277814252],[-51.29428155195613,-28.998592970100532]]]}},{"type":"Feature","properties":{"id_grade":"1KME5265N8117","pop":4,"dom":1,"universo_dom":"domicilios_ocupados_grade_ibge_2022","na_bacia":1,"area_pct_bacia":100.0,"metodo_recorte_bacia":"ponto_representativo_grade_2022; area_pct_geometrica","status_borda_bacia":"total","metodo_area_bacia":"interseção geométrica em EPSG:5880","metodo_na_bacia":"ponto_representativo_grade_2022_within_bacia","pop_n_validos":1,"pop_n_total":1,"pop_completude":1.0,"dom_n_validos":1,"dom_n_total":1,"dom_completude":1.0},"geometry":{"type":"Polygon","coordinates":[[[-51.36400356319086,-28.989907275751072],[-51.36409728379618,-28.980599992640684],[-51.35415107311404,-28.980512132514598],[-51.35405699890921,-28.98981940788037],[-51.36400356319086,-28.989907275751072]]]}},{"type":"Feature","properties":{"id_grade":"1KME5266N8117","pop":21,"dom":7,"universo_dom":"domicilios_ocupados_grade_ibge_2022","na_bacia":1,"area_pct_bacia":100.0,"metodo_recorte_bacia":"ponto_representativo_grade_2022; area_pct_geometrica","status_borda_bacia":"total","metodo_area_bacia":"interseção geométrica em EPSG:5880","metodo_na_bacia":"ponto_representativo_grade_2022_within_bacia","pop_n_validos":1,"pop_n_total":1,"pop_completude":1.0,"dom_n_validos":1,"dom_n_total":1,"dom_completude":1.0},"geometry":{"type":"Polygon","coordinates":[[[-51.35405699890921,-28.98981940788037],[-51.35415107311404,-28.980512132514598],[-51.344204869120915,-28.98042394153892],[-51.344110441317284,-28.989731209131154],[-51.35405699890921,-28.98981940788037]]]}},{"type":"Feature","properties":{"id_grade":"1KME5267N8117","pop":29,"dom":11,"universo_dom":"domicilios_ocupados_grade_ibge_2022","na_bacia":1,"area_pct_bacia":100.0,"metodo_recorte_bacia":"ponto_representativo_grade_2022; area_pct_geometrica","status_borda_bacia":"total","metodo_area_bacia":"interseção geométrica em EPSG:5880","metodo_na_bacia":"ponto_representativo_grade_2022_within_bacia","pop_n_validos":1,"pop_n_total":1,"pop_completude":1.0,"dom_n_validos":1,"dom_n_total":1,"dom_completude":1.0},"geometry":{"type":"Polygon","coordinates":[[[-51.344110441317284,-28.989731209131154],[-51.344204869120915,-28.98042394153892],[-51.334258671841944,-28.980335419714073],[-51.33416389044024,-28.98964267950364],[-51.344110441317284,-28.989731209131154]]]}},{"type":"Feature","properties":{"id_grade":"1KME5268N8117","pop":31,"dom":8,"universo_dom":"domicilios_ocupados_grade_ibge_2022","na_bacia":1,"area_pct_bacia":100.0,"metodo_recorte_bacia":"ponto_representativo_grade_2022; area_pct_geometrica","status_borda_bacia":"total","metodo_area_bacia":"interseção geométrica em EPSG:5880","metodo_na_bacia":"ponto_representativo_grade_2022_within_bacia","pop_n_validos":1,"pop_n_total":1,"pop_completude":1.0,"dom_n_validos":1,"dom_n_total":1,"dom_completude":1.0},"geometry":{"type":"Polygon","coordinates":[[[-51.33416389044024,-28.98964267950364],[-51.334258671841944,-28.980335419714073],[-51.324312481302265,-28.980246567041096],[-51.32421734630319,-28.989553818998736],[-51.33416389044024,-28.98964267950364]]]}},{"type":"Feature","properties":{"id_grade":"1KME5269N8117","pop":6,"dom":2,"universo_dom":"domicilios_ocupados_grade_ibge_2022","na_bacia":1,"area_pct_bacia":100.0,"metodo_recorte_bacia":"ponto_representativo_grade_2022; area_pct_geometrica","status_borda_bacia":"total","metodo_area_bacia":"interseção geométrica em EPSG:5880","metodo_na_bacia":"ponto_representativo_grade_2022_within_bacia","pop_n_validos":1,"pop_n_total":1,"pop_completude":1.0,"dom_n_validos":1,"dom_n_total":1,"dom_completude":1.0},"geometry":{"type":"Polygon","coordinates":[[[-51.32421734630319,-28.989553818998736],[-51.324312481302265,-28.980246567041096],[-51.314366297527016,-28.980157383521036],[-51.3142708089313,-28.98946462761762],[-51.32421734630319,-28.989553818998736]]]}},{"type":"Feature","properties":{"id_grade":"1KME5270N8117","pop":21,"dom":6,"universo_dom":"domicilios_ocupados_grade_ibge_2022","na_bacia":1,"area_pct_bacia":100.0,"metodo_recorte_bacia":"ponto_representativo_grade_2022; area_pct_geometrica","status_borda_bacia":"total","metodo_area_bacia":"interseção geométrica em EPSG:5880","metodo_na_bacia":"ponto_representativo_grade_2022_within_bacia","pop_n_validos":1,"pop_n_total":1,"pop_completude":1.0,"dom_n_validos":1,"dom_n_total":1,"dom_completude":1.0},"geometry":{"type":"Polygon","coordinates":[[[-51.3142708089313,-28.98946462761762],[-51.314366297527016,-28.980157383521036],[-51.30442012054134,-28.980067869154453],[-51.3043242783497,-28.989375105360818],[-51.3142708089313,-28.98946462761762]]]}},{"type":"Feature","properties":{"id_grade":"1KME5271N8117","pop":2,"dom":1,"universo_dom":"domicilios_ocupados_grade_ibge_2022","na_bacia":1,"area_pct_bacia":100.0,"metodo_recorte_bacia":"ponto_representativo_grade_2022; area_pct_geometrica","status_borda_bacia":"total","metodo_area_bacia":"interseção geométrica em EPSG:5880","metodo_na_bacia":"ponto_representativo_grade_2022_within_bacia","pop_n_validos":1,"pop_n_total":1,"pop_completude":1.0,"dom_n_validos":1,"dom_n_total":1,"dom_completude":1.0},"geometry":{"type":"Polygon","coordinates":[[[-51.3043242783497,-28.989375105360818],[-51.30442012054134,-28.980067869154453],[-51.29447395037035,-28.979978023942305],[-51.29437775458353,-28.98928525222934],[-51.3043242783497,-28.989375105360818]]]}},{"type":"Feature","properties":{"id_grade":"1KME5272N8117","pop":47,"dom":16,"universo_dom":"domicilios_ocupados_grade_ibge_2022","na_bacia":1,"area_pct_bacia":100.0,"metodo_recorte_bacia":"ponto_representativo_grade_2022; area_pct_geometrica","status_borda_bacia":"total","metodo_area_bacia":"interseção geométrica em EPSG:5880","metodo_na_bacia":"ponto_representativo_grade_2022_within_bacia","pop_n_validos":1,"pop_n_total":1,"pop_completude":1.0,"dom_n_validos":1,"dom_n_total":1,"dom_completude":1.0},"geometry":{"type":"Polygon","coordinates":[[[-51.29437775458353,-28.98928525222934],[-51.29447395037035,-28.979978023942305],[-51.2845277870392,-28.979887847885575],[-51.28443123765793,-28.98919506822405],[-51.29437775458353,-28.98928525222934]]]}},{"type":"Feature","properties":{"id_grade":"1KME5273N8117","pop":17,"dom":5,"universo_dom":"domicilios_ocupados_grade_ibge_2022","na_bacia":1,"area_pct_bacia":100.0,"metodo_recorte_bacia":"ponto_representativo_grade_2022; area_pct_geometrica","status_borda_bacia":"total","metodo_area_bacia":"interseção geométrica em EPSG:5880","metodo_na_bacia":"ponto_representativo_grade_2022_within_bacia","pop_n_validos":1,"pop_n_total":1,"pop_completude":1.0,"dom_n_validos":1,"dom_n_total":1,"dom_completude":1.0},"geometry":{"type":"Polygon","coordinates":[[[-51.28443123765793,-28.98919506822405],[-51.2845277870392,-28.979887847885575],[-51.274581630573046,-28.97979734098479],[-51.27448472759803,-28.989104553346095],[-51.28443123765793,-28.98919506822405]]]}},{"type":"Feature","properties":{"id_grade":"1KME5265N8118","pop":5,"dom":2,"universo_dom":"domicilios_ocupados_grade_ibge_2022","na_bacia":1,"area_pct_bacia":100.0,"metodo_recorte_bacia":"ponto_representativo_grade_2022; area_pct_geometrica","status_borda_bacia":"total","metodo_area_bacia":"interseção geométrica em EPSG:5880","metodo_na_bacia":"ponto_representativo_grade_2022_within_bacia","pop_n_validos":1,"pop_n_total":1,"pop_completude":1.0,"dom_n_validos":1,"dom_n_total":1,"dom_completude":1.0},"geometry":{"type":"Polygon","coordinates":[[[-51.36409728379618,-28.980599992640684],[-51.364190997737616,-28.971293198768524],[-51.35424514062986,-28.971205346382874],[-51.35415107311404,-28.980512132514598],[-51.36409728379618,-28.980599992640684]]]}},{"type":"Feature","properties":{"id_grade":"1KME5268N8118","pop":13,"dom":3,"universo_dom":"domicilios_ocupados_grade_ibge_2022","na_bacia":1,"area_pct_bacia":100.0,"metodo_recorte_bacia":"ponto_representativo_grade_2022; area_pct_geometrica","status_borda_bacia":"total","metodo_area_bacia":"interseção geométrica em EPSG:5880","metodo_na_bacia":"ponto_representativo_grade_2022_within_bacia","pop_n_validos":1,"pop_n_total":1,"pop_completude":1.0,"dom_n_validos":1,"dom_n_total":1,"dom_completude":1.0},"geometry":{"type":"Polygon","coordinates":[[[-51.334258671841944,-28.980335419714073],[-51.334353446504366,-28.97102864915042],[-51.32440760953691,-28.97093980430533],[-51.324312481302265,-28.980246567041096],[-51.334258671841944,-28.980335419714073]]]}},{"type":"Feature","properties":{"id_grade":"1KME5269N8118","pop":7,"dom":2,"universo_dom":"domicilios_ocupados_grade_ibge_2022","na_bacia":1,"area_pct_bacia":100.0,"metodo_recorte_bacia":"ponto_representativo_grade_2022; area_pct_geometrica","status_borda_bacia":"total","metodo_area_bacia":"interseção geométrica em EPSG:5880","metodo_na_bacia":"ponto_representativo_grade_2022_within_bacia","pop_n_validos":1,"pop_n_total":1,"pop_completude":1.0,"dom_n_validos":1,"dom_n_total":1,"dom_completude":1.0},"geometry":{"type":"Polygon","coordinates":[[[-51.324312481302265,-28.980246567041096],[-51.32440760953691,-28.97093980430533],[-51.314461779333165,-28.970850628642083],[-51.314366297527016,-28.980157383521036],[-51.324312481302265,-28.980246567041096]]]}},{"type":"Feature","properties":{"id_grade":"1KME5270N8118","pop":24,"dom":7,"universo_dom":"domicilios_ocupados_grade_ibge_2022","na_bacia":1,"area_pct_bacia":100.0,"metodo_recorte_bacia":"ponto_representativo_grade_2022; area_pct_geometrica","status_borda_bacia":"total","metodo_area_bacia":"interseção geométrica em EPSG:5880","metodo_na_bacia":"ponto_representativo_grade_2022_within_bacia","pop_n_validos":1,"pop_n_total":1,"pop_completude":1.0,"dom_n_validos":1,"dom_n_total":1,"dom_completude":1.0},"geometry":{"type":"Polygon","coordinates":[[[-51.314366297527016,-28.980157383521036],[-51.314461779333165,-28.970850628642083],[-51.304515955918255,-28.970761122161438],[-51.30442012054134,-28.980067869154453],[-51.314366297527016,-28.980157383521036]]]}},{"type":"Feature","properties":{"id_grade":"1KME5271N8118","pop":5,"dom":2,"universo_dom":"domicilios_ocupados_grade_ibge_2022","na_bacia":1,"area_pct_bacia":100.0,"metodo_recorte_bacia":"ponto_representativo_grade_2022; area_pct_geometrica","status_borda_bacia":"total","metodo_area_bacia":"interseção geométrica em EPSG:5880","metodo_na_bacia":"ponto_representativo_grade_2022_within_bacia","pop_n_validos":1,"pop_n_total":1,"pop_completude":1.0,"dom_n_validos":1,"dom_n_total":1,"dom_completude":1.0},"geometry":{"type":"Polygon","coordinates":[[[-51.30442012054134,-28.980067869154453],[-51.304515955918255,-28.970761122161438],[-51.29457013931734,-28.97067128486433],[-51.29447395037035,-28.979978023942305],[-51.30442012054134,-28.980067869154453]]]}},{"type":"Feature","properties":{"id_grade":"1KME5272N8118","pop":30,"dom":9,"universo_dom":"domicilios_ocupados_grade_ibge_2022","na_bacia":1,"area_pct_bacia":100.0,"metodo_recorte_bacia":"ponto_representativo_grade_2022; area_pct_geometrica","status_borda_bacia":"total","metodo_area_bacia":"interseção geométrica em EPSG:5880","metodo_na_bacia":"ponto_representativo_grade_2022_within_bacia","pop_n_validos":1,"pop_n_total":1,"pop_completude":1.0,"dom_n_validos":1,"dom_n_total":1,"dom_completude":1.0},"geometry":{"type":"Polygon","coordinates":[[[-51.29447395037035,-28.979978023942305],[-51.29457013931734,-28.97067128486433],[-51.28462432955552,-28.970581116751703],[-51.2845277870392,-28.979887847885575],[-51.29447395037035,-28.979978023942305]]]}},{"type":"Feature","properties":{"id_grade":"1KME5273N8118","pop":7,"dom":2,"universo_dom":"domicilios_ocupados_grade_ibge_2022","na_bacia":1,"area_pct_bacia":100.0,"metodo_recorte_bacia":"ponto_representativo_grade_2022; area_pct_geometrica","status_borda_bacia":"total","metodo_area_bacia":"interseção geométrica em EPSG:5880","metodo_na_bacia":"ponto_representativo_grade_2022_within_bacia","pop_n_validos":1,"pop_n_total":1,"pop_completude":1.0,"dom_n_validos":1,"dom_n_total":1,"dom_completude":1.0},"geometry":{"type":"Polygon","coordinates":[[[-51.2845277870392,-28.979887847885575],[-51.28462432955552,-28.970581116751703],[-51.274678526657944,-28.97049061782423],[-51.274581630573046,-28.97979734098479],[-51.2845277870392,-28.979887847885575]]]}},{"type":"Feature","properties":{"id_grade":"1KME5270N8119","pop":15,"dom":3,"universo_dom":"domicilios_ocupados_grade_ibge_2022","na_bacia":1,"area_pct_bacia":100.0,"metodo_recorte_bacia":"ponto_representativo_grade_2022; area_pct_geometrica","status_borda_bacia":"total","metodo_area_bacia":"interseção geométrica em EPSG:5880","metodo_na_bacia":"ponto_representativo_grade_2022_within_bacia","pop_n_validos":1,"pop_n_total":1,"pop_completude":1.0,"dom_n_validos":1,"dom_n_total":1,"dom_completude":1.0},"geometry":{"type":"Polygon","coordinates":[[[-51.314461779333165,-28.970850628642083],[-51.31455725435047,-28.96154436260638],[-51.30461178448121,-28.961454864007585],[-51.304515955918255,-28.970761122161438],[-51.314461779333165,-28.970850628642083]]]}},{"type":"Feature","properties":{"id_grade":"1KME5272N8119","pop":6,"dom":2,"universo_dom":"domicilios_ocupados_grade_ibge_2022","na_bacia":1,"area_pct_bacia":100.0,"metodo_recorte_bacia":"ponto_representativo_grade_2022; area_pct_geometrica","status_borda_bacia":"total","metodo_area_bacia":"interseção geométrica em EPSG:5880","metodo_na_bacia":"ponto_representativo_grade_2022_within_bacia","pop_n_validos":1,"pop_n_total":1,"pop_completude":1.0,"dom_n_validos":1,"dom_n_total":1,"dom_completude":1.0},"geometry":{"type":"Polygon","coordinates":[[[-51.29457013931734,-28.97067128486433],[-51.294666321425204,-28.961365034621572],[-51.284720865207575,-28.96127487444867],[-51.28462432955552,-28.970581116751703],[-51.29457013931734,-28.97067128486433]]]}},{"type":"Feature","properties":{"id_grade":"1KME5273N8119","pop":33,"dom":13,"universo_dom":"domicilios_ocupados_grade_ibge_2022","na_bacia":1,"area_pct_bacia":100.0,"metodo_recorte_bacia":"ponto_representativo_grade_2022; area_pct_geometrica","status_borda_bacia":"total","metodo_area_bacia":"interseção geométrica em EPSG:5880","metodo_na_bacia":"ponto_representativo_grade_2022_within_bacia","pop_n_validos":1,"pop_n_total":1,"pop_completude":1.0,"dom_n_validos":1,"dom_n_total":1,"dom_completude":1.0},"geometry":{"type":"Polygon","coordinates":[[[-51.28462432955552,-28.970581116751703],[-51.284720865207575,-28.96127487444867],[-51.27477541585346,-28.96118438349039],[-51.274678526657944,-28.97049061782423],[-51.28462432955552,-28.970581116751703]]]}},{"type":"Feature","properties":{"id_grade":"1KME5272N8120","pop":19,"dom":6,"universo_dom":"domicilios_ocupados_grade_ibge_2022","na_bacia":1,"area_pct_bacia":100.0,"metodo_recorte_bacia":"ponto_representativo_grade_2022; area_pct_geometrica","status_borda_bacia":"total","metodo_area_bacia":"interseção geométrica em EPSG:5880","metodo_na_bacia":"ponto_representativo_grade_2022_within_bacia","pop_n_validos":1,"pop_n_total":1,"pop_completude":1.0,"dom_n_validos":1,"dom_n_total":1,"dom_completude":1.0},"geometry":{"type":"Polygon","coordinates":[[[-51.294666321425204,-28.961365034621572],[-51.294762496694695,-28.952059272839392],[-51.28481739399613,-28.951969120602406],[-51.284720865207575,-28.96127487444867],[-51.294666321425204,-28.961365034621572]]]}},{"type":"Feature","properties":{"id_grade":"1KME5273N8120","pop":17,"dom":7,"universo_dom":"domicilios_ocupados_grade_ibge_2022","na_bacia":1,"area_pct_bacia":100.0,"metodo_recorte_bacia":"ponto_representativo_grade_2022; area_pct_geometrica","status_borda_bacia":"total","metodo_area_bacia":"interseção geométrica em EPSG:5880","metodo_na_bacia":"ponto_representativo_grade_2022_within_bacia","pop_n_validos":1,"pop_n_total":1,"pop_completude":1.0,"dom_n_validos":1,"dom_n_total":1,"dom_completude":1.0},"geometry":{"type":"Polygon","coordinates":[[[-51.284720865207575,-28.96127487444867],[-51.28481739399613,-28.951969120602406],[-51.27487229816033,-28.95187863760908],[-51.27477541585346,-28.96118438349039],[-51.284720865207575,-28.96127487444867]]]}},{"type":"Feature","properties":{"id_grade":"1KME5272N8121","pop":5,"dom":2,"universo_dom":"domicilios_ocupados_grade_ibge_2022","na_bacia":1,"area_pct_bacia":100.0,"metodo_recorte_bacia":"ponto_representativo_grade_2022; area_pct_geometrica","status_borda_bacia":"total","metodo_area_bacia":"interseção geométrica em EPSG:5880","metodo_na_bacia":"ponto_representativo_grade_2022_within_bacia","pop_n_validos":1,"pop_n_total":1,"pop_completude":1.0,"dom_n_validos":1,"dom_n_total":1,"dom_completude":1.0},"geometry":{"type":"Polygon","coordinates":[[[-51.294762496694695,-28.952059272839392],[-51.29485866512653,-28.942753999143907],[-51.28491391592189,-28.942663854838553],[-51.28481739399613,-28.951969120602406],[-51.294762496694695,-28.952059272839392]]]}},{"type":"Feature","properties":{"id_grade":"1KME5273N8121","pop":9,"dom":4,"universo_dom":"domicilios_ocupados_grade_ibge_2022","na_bacia":1,"area_pct_bacia":100.0,"metodo_recorte_bacia":"ponto_representativo_grade_2022; area_pct_geometrica","status_borda_bacia":"total","metodo_area_bacia":"interseção geométrica em EPSG:5880","metodo_na_bacia":"ponto_representativo_grade_2022_within_bacia","pop_n_validos":1,"pop_n_total":1,"pop_completude":1.0,"dom_n_validos":1,"dom_n_total":1,"dom_completude":1.0},"geometry":{"type":"Polygon","coordinates":[[[-51.28481739399613,-28.951969120602406],[-51.28491391592189,-28.942663854838553],[-51.2749691735793,-28.94257337980589],[-51.27487229816033,-28.95187863760908],[-51.28481739399613,-28.951969120602406]]]}},{"type":"Feature","properties":{"id_grade":"1KME5273N8122","pop":16,"dom":4,"universo_dom":"domicilios_ocupados_grade_ibge_2022","na_bacia":1,"area_pct_bacia":100.0,"metodo_recorte_bacia":"ponto_representativo_grade_2022; area_pct_geometrica","status_borda_bacia":"total","metodo_area_bacia":"interseção geométrica em EPSG:5880","metodo_na_bacia":"ponto_representativo_grade_2022_within_bacia","pop_n_validos":1,"pop_n_total":1,"pop_completude":1.0,"dom_n_validos":1,"dom_n_total":1,"dom_completude":1.0},"geometry":{"type":"Polygon","coordinates":[[[-51.28491391592189,-28.942663854838553],[-51.28501043098561,-28.933359076784054],[-51.275066042111085,-28.933268609707756],[-51.2749691735793,-28.94257337980589],[-51.28491391592189,-28.942663854838553]]]}},{"type":"Feature","properties":{"id_grade":"200ME52694N81124","pop":5,"dom":1,"universo_dom":"domicilios_ocupados_grade_ibge_2022","na_bacia":1,"area_pct_bacia":100.0,"metodo_recorte_bacia":"ponto_representativo_grade_2022; area_pct_geometrica","status_borda_bacia":"total","metodo_area_bacia":"interseção geométrica em EPSG:5880","metodo_na_bacia":"ponto_representativo_grade_2022_within_bacia","pop_n_validos":1,"pop_n_total":1,"pop_completude":1.0,"dom_n_validos":1,"dom_n_total":1,"dom_completude":1.0},"geometry":{"type":"Polygon","coordinates":[[[-51.31978130955974,-29.034199798681687],[-51.31980037158985,-29.032337838720263],[-51.31781073847475,-29.03231999257354],[-51.31779166205553,-29.034181952535047],[-51.31978130955974,-29.034199798681687]]]}},{"type":"Feature","properties":{"id_grade":"200ME52692N81126","pop":5,"dom":1,"universo_dom":"domicilios_ocupados_grade_ibge_2022","na_bacia":1,"area_pct_bacia":100.0,"metodo_recorte_bacia":"ponto_representativo_grade_2022; area_pct_geometrica","status_borda_bacia":"total","metodo_area_bacia":"interseção geométrica em EPSG:5880","metodo_na_bacia":"ponto_representativo_grade_2022_within_bacia","pop_n_validos":1,"pop_n_total":1,"pop_completude":1.0,"dom_n_validos":1,"dom_n_total":1,"dom_completude":1.0},"geometry":{"type":"Polygon","coordinates":[[[-51.321790004704894,-29.03235567047776],[-51.32180905234583,-29.03049373030134],[-51.319819433619905,-29.030475898543855],[-51.31980037158985,-29.032337838720263],[-51.321790004704894,-29.03235567047776]]]}},{"type":"Feature","properties":{"id_grade":"200ME52698N81126","pop":12,"dom":4,"universo_dom":"domicilios_ocupados_grade_ibge_2022","na_bacia":1,"area_pct_bacia":100.0,"metodo_recorte_bacia":"ponto_representativo_grade_2022; area_pct_geometrica","status_borda_bacia":"total","metodo_area_bacia":"interseção geométrica em EPSG:5880","metodo_na_bacia":"ponto_representativo_grade_2022_within_bacia","pop_n_validos":1,"pop_n_total":1,"pop_completude":1.0,"dom_n_validos":1,"dom_n_total":1,"dom_completude":1.0},"geometry":{"type":"Polygon","coordinates":[[[-51.31582110625902,-29.032302133836378],[-51.315840196168104,-29.030440194559247],[-51.31385057834149,-29.030422323231562],[-51.31383147404324,-29.032284262508607],[-51.31582110625902,-29.032302133836378]]]}},{"type":"Feature","properties":{"id_grade":"200ME52696N81128","pop":9,"dom":2,"universo_dom":"domicilios_ocupados_grade_ibge_2022","na_bacia":1,"area_pct_bacia":100.0,"metodo_recorte_bacia":"ponto_representativo_grade_2022; area_pct_geometrica","status_borda_bacia":"total","metodo_area_bacia":"interseção geométrica em EPSG:5880","metodo_na_bacia":"ponto_representativo_grade_2022_within_bacia","pop_n_validos":1,"pop_n_total":1,"pop_completude":1.0,"dom_n_validos":1,"dom_n_total":1,"dom_completude":1.0},"geometry":{"type":"Polygon","coordinates":[[[-51.317829814894026,-29.030458053296503],[-51.31784889131325,-29.028596132905193],[-51.31585928697648,-29.02857827506729],[-51.315840196168104,-29.030440194559247],[-51.317829814894026,-29.030458053296503]]]}},{"type":"Feature","properties":{"id_grade":"200ME52690N81132","pop":2,"dom":1,"universo_dom":"domicilios_ocupados_grade_ibge_2022","na_bacia":1,"area_pct_bacia":100.0,"metodo_recorte_bacia":"ponto_representativo_grade_2022; area_pct_geometrica","status_borda_bacia":"total","metodo_area_bacia":"interseção geométrica em EPSG:5880","metodo_na_bacia":"ponto_representativo_grade_2022_within_bacia","pop_n_validos":1,"pop_n_total":1,"pop_completude":1.0,"dom_n_validos":1,"dom_n_total":1,"dom_completude":1.0},"geometry":{"type":"Polygon","coordinates":[[[-51.32383673847466,-29.02678772667213],[-51.323855771726414,-29.024925844951692],[-51.321866194369306,-29.02490802668411],[-51.32184714762769,-29.0267699084045],[-51.32383673847466,-29.02678772667213]]]}},{"type":"Feature","properties":{"id_grade":"200ME52692N81132","pop":5,"dom":2,"universo_dom":"domicilios_ocupados_grade_ibge_2022","na_bacia":1,"area_pct_bacia":100.0,"metodo_recorte_bacia":"ponto_representativo_grade_2022; area_pct_geometrica","status_borda_bacia":"total","metodo_area_bacia":"interseção geométrica em EPSG:5880","metodo_na_bacia":"ponto_representativo_grade_2022_within_bacia","pop_n_validos":1,"pop_n_total":1,"pop_completude":1.0,"dom_n_validos":1,"dom_n_total":1,"dom_completude":1.0},"geometry":{"type":"Polygon","coordinates":[[[-51.32184714762769,-29.0267699084045],[-51.321866194369306,-29.02490802668411],[-51.31987661791151,-29.024890195825826],[-51.31985755678078,-29.026752077546295],[-51.32184714762769,-29.0267699084045]]]}},{"type":"Feature","properties":{"id_grade":"200ME52696N81132","pop":3,"dom":2,"universo_dom":"domicilios_ocupados_grade_ibge_2022","na_bacia":1,"area_pct_bacia":100.0,"metodo_recorte_bacia":"ponto_representativo_grade_2022; area_pct_geometrica","status_borda_bacia":"total","metodo_area_bacia":"interseção geométrica em EPSG:5880","metodo_na_bacia":"ponto_representativo_grade_2022_within_bacia","pop_n_validos":1,"pop_n_total":1,"pop_completude":1.0,"dom_n_validos":1,"dom_n_total":1,"dom_completude":1.0},"geometry":{"type":"Polygon","coordinates":[[[-51.31786796683315,-29.026734232298942],[-51.31788704235311,-29.024872351477715],[-51.31589746589532,-29.024854494539195],[-51.31587837688556,-29.02671637446112],[-51.31786796683315,-29.026734232298942]]]}},{"type":"Feature","properties":{"id_grade":"200ME52698N81132","pop":30,"dom":13,"universo_dom":"domicilios_ocupados_grade_ibge_2022","na_bacia":1,"area_pct_bacia":100.0,"metodo_recorte_bacia":"ponto_representativo_grade_2022; area_pct_geometrica","status_borda_bacia":"total","metodo_area_bacia":"interseção geométrica em EPSG:5880","metodo_na_bacia":"ponto_representativo_grade_2022_within_bacia","pop_n_validos":1,"pop_n_total":1,"pop_completude":1.0,"dom_n_validos":1,"dom_n_total":1,"dom_completude":1.0},"geometry":{"type":"Polygon","coordinates":[[[-51.31587837688556,-29.02671637446112],[-51.31589746589532,-29.024854494539195],[-51.31390789033686,-29.024836623211556],[-51.31388878693792,-29.026698504032712],[-51.31587837688556,-29.02671637446112]]]}},{"type":"Feature","properties":{"id_grade":"200ME52690N81138","pop":2,"dom":1,"universo_dom":"domicilios_ocupados_grade_ibge_2022","na_bacia":1,"area_pct_bacia":100.0,"metodo_recorte_bacia":"ponto_representativo_grade_2022; area_pct_geometrica","status_borda_bacia":"total","metodo_area_bacia":"interseção geométrica em EPSG:5880","metodo_na_bacia":"ponto_representativo_grade_2022_within_bacia","pop_n_validos":1,"pop_n_total":1,"pop_completude":1.0,"dom_n_validos":1,"dom_n_total":1,"dom_completude":1.0},"geometry":{"type":"Polygon","coordinates":[[[-51.32389383643136,-29.021202139966793],[-51.32391286878385,-29.019340317601532],[-51.3219233345942,-29.019322500233205],[-51.321904287852526,-29.02118432259836],[-51.32389383643136,-29.021202139966793]]]}},{"type":"Feature","properties":{"id_grade":"200ME52692N81138","pop":5,"dom":1,"universo_dom":"domicilios_ocupados_grade_ibge_2022","na_bacia":1,"area_pct_bacia":100.0,"metodo_recorte_bacia":"ponto_representativo_grade_2022; area_pct_geometrica","status_borda_bacia":"total","metodo_area_bacia":"interseção geométrica em EPSG:5880","metodo_na_bacia":"ponto_representativo_grade_2022_within_bacia","pop_n_validos":1,"pop_n_total":1,"pop_completude":1.0,"dom_n_validos":1,"dom_n_total":1,"dom_completude":1.0},"geometry":{"type":"Polygon","coordinates":[[[-51.321904287852526,-29.02118432259836],[-51.3219233345942,-29.019322500233205],[-51.3199338004045,-29.0193046702742],[-51.31991474017309,-29.021166492639395],[-51.321904287852526,-29.02118432259836]]]}},{"type":"Feature","properties":{"id_grade":"200ME52696N81138","pop":4,"dom":2,"universo_dom":"domicilios_ocupados_grade_ibge_2022","na_bacia":1,"area_pct_bacia":100.0,"metodo_recorte_bacia":"ponto_representativo_grade_2022; area_pct_geometrica","status_borda_bacia":"total","metodo_area_bacia":"interseção geométrica em EPSG:5880","metodo_na_bacia":"ponto_representativo_grade_2022_within_bacia","pop_n_validos":1,"pop_n_total":1,"pop_completude":1.0,"dom_n_validos":1,"dom_n_total":1,"dom_completude":1.0},"geometry":{"type":"Polygon","coordinates":[[[-51.31792519159427,-29.02114864919073],[-51.31794426621485,-29.01928682682556],[-51.315954732924524,-29.019268970786367],[-51.31593564391477,-29.021130792252205],[-51.31792519159427,-29.02114864919073]]]}},{"type":"Feature","properties":{"id_grade":"200ME52708N81124","pop":3,"dom":1,"universo_dom":"domicilios_ocupados_grade_ibge_2022","na_bacia":1,"area_pct_bacia":100.0,"metodo_recorte_bacia":"ponto_representativo_grade_2022; area_pct_geometrica","status_borda_bacia":"total","metodo_area_bacia":"interseção geométrica em EPSG:5880","metodo_na_bacia":"ponto_representativo_grade_2022_within_bacia","pop_n_validos":1,"pop_n_total":1,"pop_completude":1.0,"dom_n_validos":1,"dom_n_total":1,"dom_completude":1.0},"geometry":{"type":"Polygon","coordinates":[[[-51.30585378602336,-29.03407459956302],[-51.305872946978866,-29.032212641400186],[-51.30388331656178,-29.032194703522677],[-51.303864141217105,-29.03405666078629],[-51.30585378602336,-29.03407459956302]]]}},{"type":"Feature","properties":{"id_grade":"200ME52702N81126","pop":6,"dom":2,"universo_dom":"domicilios_ocupados_grade_ibge_2022","na_bacia":1,"area_pct_bacia":100.0,"metodo_recorte_bacia":"ponto_representativo_grade_2022; area_pct_geometrica","status_borda_bacia":"total","metodo_area_bacia":"interseção geométrica em EPSG:5880","metodo_na_bacia":"ponto_representativo_grade_2022_within_bacia","pop_n_validos":1,"pop_n_total":1,"pop_completude":1.0,"dom_n_validos":1,"dom_n_total":1,"dom_completude":1.0},"geometry":{"type":"Polygon","coordinates":[[[-51.311841841827516,-29.03226637679185],[-51.31186096051487,-29.030404438414006],[-51.30987134268827,-29.030386540106708],[-51.30985221051105,-29.032248478484448],[-51.311841841827516,-29.03226637679185]]]}},{"type":"Feature","properties":{"id_grade":"200ME52704N81126","pop":6,"dom":1,"universo_dom":"domicilios_ocupados_grade_ibge_2022","na_bacia":1,"area_pct_bacia":100.0,"metodo_recorte_bacia":"ponto_representativo_grade_2022; area_pct_geometrica","status_borda_bacia":"total","metodo_area_bacia":"interseção geométrica em EPSG:5880","metodo_na_bacia":"ponto_representativo_grade_2022_within_bacia","pop_n_validos":1,"pop_n_total":1,"pop_completude":1.0,"dom_n_validos":1,"dom_n_total":1,"dom_completude":1.0},"geometry":{"type":"Polygon","coordinates":[[[-51.30985221051105,-29.032248478484448],[-51.30987134268827,-29.030386540106708],[-51.30788172576098,-29.030368628309567],[-51.30786257829533,-29.032230566687215],[-51.30985221051105,-29.032248478484448]]]}},{"type":"Feature","properties":{"id_grade":"200ME52706N81126","pop":72,"dom":26,"universo_dom":"domicilios_ocupados_grade_ibge_2022","na_bacia":1,"area_pct_bacia":100.0,"metodo_recorte_bacia":"ponto_representativo_grade_2022; area_pct_geometrica","status_borda_bacia":"total","metodo_area_bacia":"interseção geométrica em EPSG:5880","metodo_na_bacia":"ponto_representativo_grade_2022_within_bacia","pop_n_validos":1,"pop_n_total":1,"pop_completude":1.0,"dom_n_validos":1,"dom_n_total":1,"dom_completude":1.0},"geometry":{"type":"Polygon","coordinates":[[[-51.30786257829533,-29.032230566687215],[-51.30788172576098,-29.030368628309567],[-51.30589210883368,-29.03035070392181],[-51.305872946978866,-29.032212641400186],[-51.30786257829533,-29.032230566687215]]]}},{"type":"Feature","properties":{"id_grade":"200ME52708N81126","pop":21,"dom":7,"universo_dom":"domicilios_ocupados_grade_ibge_2022","na_bacia":1,"area_pct_bacia":100.0,"metodo_recorte_bacia":"ponto_representativo_grade_2022; area_pct_geometrica","status_borda_bacia":"total","metodo_area_bacia":"interseção geométrica em EPSG:5880","metodo_na_bacia":"ponto_representativo_grade_2022_within_bacia","pop_n_validos":1,"pop_n_total":1,"pop_completude":1.0,"dom_n_validos":1,"dom_n_total":1,"dom_completude":1.0},"geometry":{"type":"Polygon","coordinates":[[[-51.305872946978866,-29.032212641400186],[-51.30589210883368,-29.03035070392181],[-51.303902491906456,-29.030332766044257],[-51.30388331656178,-29.032194703522677],[-51.305872946978866,-29.032212641400186]]]}},{"type":"Feature","properties":{"id_grade":"200ME52700N81128","pop":3,"dom":1,"universo_dom":"domicilios_ocupados_grade_ibge_2022","na_bacia":1,"area_pct_bacia":100.0,"metodo_recorte_bacia":"ponto_representativo_grade_2022; area_pct_geometrica","status_borda_bacia":"total","metodo_area_bacia":"interseção geométrica em EPSG:5880","metodo_na_bacia":"ponto_representativo_grade_2022_within_bacia","pop_n_validos":1,"pop_n_total":1,"pop_completude":1.0,"dom_n_validos":1,"dom_n_total":1,"dom_completude":1.0},"geometry":{"type":"Polygon","coordinates":[[[-51.31385057834149,-29.030422323231562],[-51.31386968263968,-29.028560403739554],[-51.31188007920224,-29.02854251892205],[-51.31186096051487,-29.030404438414006],[-51.31385057834149,-29.030422323231562]]]}},{"type":"Feature","properties":{"id_grade":"200ME52702N81128","pop":33,"dom":11,"universo_dom":"domicilios_ocupados_grade_ibge_2022","na_bacia":1,"area_pct_bacia":100.0,"metodo_recorte_bacia":"ponto_representativo_grade_2022; area_pct_geometrica","status_borda_bacia":"total","metodo_area_bacia":"interseção geométrica em EPSG:5880","metodo_na_bacia":"ponto_representativo_grade_2022_within_bacia","pop_n_validos":1,"pop_n_total":1,"pop_completude":1.0,"dom_n_validos":1,"dom_n_total":1,"dom_completude":1.0},"geometry":{"type":"Polygon","coordinates":[[[-51.31186096051487,-29.030404438414006],[-51.31188007920224,-29.02854251892205],[-51.3098904757648,-29.028524621513938],[-51.30987134268827,-29.030386540106708],[-51.31186096051487,-29.030404438414006]]]}},{"type":"Feature","properties":{"id_grade":"200ME52704N81128","pop":69,"dom":26,"universo_dom":"domicilios_ocupados_grade_ibge_2022","na_bacia":1,"area_pct_bacia":100.0,"metodo_recorte_bacia":"ponto_representativo_grade_2022; area_pct_geometrica","status_borda_bacia":"total","metodo_area_bacia":"interseção geométrica em EPSG:5880","metodo_na_bacia":"ponto_representativo_grade_2022_within_bacia","pop_n_validos":1,"pop_n_total":1,"pop_completude":1.0,"dom_n_validos":1,"dom_n_total":1,"dom_completude":1.0},"geometry":{"type":"Polygon","coordinates":[[[-51.30987134268827,-29.030386540106708],[-51.3098904757648,-29.028524621513938],[-51.307900872327366,-29.02850670971679],[-51.30788172576098,-29.030368628309567],[-51.30987134268827,-29.030386540106708]]]}},{"type":"Feature","properties":{"id_grade":"200ME52706N81128","pop":64,"dom":24,"universo_dom":"domicilios_ocupados_grade_ibge_2022","na_bacia":1,"area_pct_bacia":100.0,"metodo_recorte_bacia":"ponto_representativo_grade_2022; area_pct_geometrica","status_borda_bacia":"total","metodo_area_bacia":"interseção geométrica em EPSG:5880","metodo_na_bacia":"ponto_representativo_grade_2022_within_bacia","pop_n_validos":1,"pop_n_total":1,"pop_completude":1.0,"dom_n_validos":1,"dom_n_total":1,"dom_completude":1.0},"geometry":{"type":"Polygon","coordinates":[[[-51.30788172576098,-29.030368628309567],[-51.307900872327366,-29.02850670971679],[-51.30591126978924,-29.028488785329134],[-51.30589210883368,-29.03035070392181],[-51.30788172576098,-29.030368628309567]]]}},{"type":"Feature","properties":{"id_grade":"200ME52708N81128","pop":29,"dom":15,"universo_dom":"domicilios_ocupados_grade_ibge_2022","na_bacia":1,"area_pct_bacia":100.0,"metodo_recorte_bacia":"ponto_representativo_grade_2022; area_pct_geometrica","status_borda_bacia":"total","metodo_area_bacia":"interseção geométrica em EPSG:5880","metodo_na_bacia":"ponto_representativo_grade_2022_within_bacia","pop_n_validos":1,"pop_n_total":1,"pop_completude":1.0,"dom_n_validos":1,"dom_n_total":1,"dom_completude":1.0},"geometry":{"type":"Polygon","coordinates":[[[-51.30589210883368,-29.03035070392181],[-51.30591126978924,-29.028488785329134],[-51.303921666351755,-29.02847084835091],[-51.303902491906456,-29.030332766044257],[-51.30589210883368,-29.03035070392181]]]}},{"type":"Feature","properties":{"id_grade":"200ME52702N81130","pop":70,"dom":24,"universo_dom":"domicilios_ocupados_grade_ibge_2022","na_bacia":1,"area_pct_bacia":100.0,"metodo_recorte_bacia":"ponto_representativo_grade_2022; area_pct_geometrica","status_borda_bacia":"total","metodo_area_bacia":"interseção geométrica em EPSG:5880","metodo_na_bacia":"ponto_representativo_grade_2022_within_bacia","pop_n_validos":1,"pop_n_total":1,"pop_completude":1.0,"dom_n_validos":1,"dom_n_total":1,"dom_completude":1.0},"geometry":{"type":"Polygon","coordinates":[[[-51.31188007920224,-29.02854251892205],[-51.31189919699028,-29.026680619215107],[-51.30990960794201,-29.02666272180707],[-51.3098904757648,-29.028524621513938],[-51.31188007920224,-29.02854251892205]]]}},{"type":"Feature","properties":{"id_grade":"200ME52704N81130","pop":86,"dom":34,"universo_dom":"domicilios_ocupados_grade_ibge_2022","na_bacia":1,"area_pct_bacia":100.0,"metodo_recorte_bacia":"ponto_representativo_grade_2022; area_pct_geometrica","status_borda_bacia":"total","metodo_area_bacia":"interseção geométrica em EPSG:5880","metodo_na_bacia":"ponto_representativo_grade_2022_within_bacia","pop_n_validos":1,"pop_n_total":1,"pop_completude":1.0,"dom_n_validos":1,"dom_n_total":1,"dom_completude":1.0},"geometry":{"type":"Polygon","coordinates":[[[-51.3098904757648,-29.028524621513938],[-51.30990960794201,-29.02666272180707],[-51.307920018893704,-29.026644810909335],[-51.307900872327366,-29.02850670971679],[-51.3098904757648,-29.028524621513938]]]}},{"type":"Feature","properties":{"id_grade":"200ME52706N81130","pop":88,"dom":37,"universo_dom":"domicilios_ocupados_grade_ibge_2022","na_bacia":1,"area_pct_bacia":100.0,"metodo_recorte_bacia":"ponto_representativo_grade_2022; area_pct_geometrica","status_borda_bacia":"total","metodo_area_bacia":"interseção geométrica em EPSG:5880","metodo_na_bacia":"ponto_representativo_grade_2022_within_bacia","pop_n_validos":1,"pop_n_total":1,"pop_completude":1.0,"dom_n_validos":1,"dom_n_total":1,"dom_completude":1.0},"geometry":{"type":"Polygon","coordinates":[[[-51.307900872327366,-29.02850670971679],[-51.307920018893704,-29.026644810909335],[-51.30593042984543,-29.026626887420846],[-51.30591126978924,-29.028488785329134],[-51.307900872327366,-29.02850670971679]]]}},{"type":"Feature","properties":{"id_grade":"200ME52708N81130","pop":20,"dom":10,"universo_dom":"domicilios_ocupados_grade_ibge_2022","na_bacia":1,"area_pct_bacia":100.0,"metodo_recorte_bacia":"ponto_representativo_grade_2022; area_pct_geometrica","status_borda_bacia":"total","metodo_area_bacia":"interseção geométrica em EPSG:5880","metodo_na_bacia":"ponto_representativo_grade_2022_within_bacia","pop_n_validos":1,"pop_n_total":1,"pop_completude":1.0,"dom_n_validos":1,"dom_n_total":1,"dom_completude":1.0},"geometry":{"type":"Polygon","coordinates":[[[-51.30591126978924,-29.028488785329134],[-51.30593042984543,-29.026626887420846],[-51.30394084169643,-29.0266089495433],[-51.303921666351755,-29.02847084835091],[-51.30591126978924,-29.028488785329134]]]}},{"type":"Feature","properties":{"id_grade":"200ME52700N81132","pop":13,"dom":6,"universo_dom":"domicilios_ocupados_grade_ibge_2022","na_bacia":1,"area_pct_bacia":100.0,"metodo_recorte_bacia":"ponto_representativo_grade_2022; area_pct_geometrica","status_borda_bacia":"total","metodo_area_bacia":"interseção geométrica em EPSG:5880","metodo_na_bacia":"ponto_representativo_grade_2022_within_bacia","pop_n_validos":1,"pop_n_total":1,"pop_completude":1.0,"dom_n_validos":1,"dom_n_total":1,"dom_completude":1.0},"geometry":{"type":"Polygon","coordinates":[[[-51.31388878693792,-29.026698504032712],[-51.31390789033686,-29.024836623211556],[-51.31191831477838,-29.024818739293295],[-51.31189919699028,-29.026680619215107],[-51.31388878693792,-29.026698504032712]]]}},{"type":"Feature","properties":{"id_grade":"200ME52704N81132","pop":29,"dom":12,"universo_dom":"domicilios_ocupados_grade_ibge_2022","na_bacia":1,"area_pct_bacia":100.0,"metodo_recorte_bacia":"ponto_representativo_grade_2022; area_pct_geometrica","status_borda_bacia":"total","metodo_area_bacia":"interseção geométrica em EPSG:5880","metodo_na_bacia":"ponto_representativo_grade_2022_within_bacia","pop_n_validos":1,"pop_n_total":1,"pop_completude":1.0,"dom_n_validos":1,"dom_n_total":1,"dom_completude":1.0},"geometry":{"type":"Polygon","coordinates":[[[-51.30990960794201,-29.02666272180707],[-51.30992874011923,-29.024800841885337],[-51.30793916456077,-29.02478293188673],[-51.307920018893704,-29.026644810909335],[-51.30990960794201,-29.02666272180707]]]}},{"type":"Feature","properties":{"id_grade":"200ME52706N81132","pop":12,"dom":5,"universo_dom":"domicilios_ocupados_grade_ibge_2022","na_bacia":1,"area_pct_bacia":100.0,"metodo_recorte_bacia":"ponto_representativo_grade_2022; area_pct_geometrica","status_borda_bacia":"total","metodo_area_bacia":"interseção geométrica em EPSG:5880","metodo_na_bacia":"ponto_representativo_grade_2022_within_bacia","pop_n_validos":1,"pop_n_total":1,"pop_completude":1.0,"dom_n_validos":1,"dom_n_total":1,"dom_completude":1.0},"geometry":{"type":"Polygon","coordinates":[[[-51.307920018893704,-29.026644810909335],[-51.30793916456077,-29.02478293188673],[-51.30594958990162,-29.02476500839837],[-51.30593042984543,-29.026626887420846],[-51.307920018893704,-29.026644810909335]]]}},{"type":"Feature","properties":{"id_grade":"200ME52702N81134","pop":1,"dom":1,"universo_dom":"domicilios_ocupados_grade_ibge_2022","na_bacia":1,"area_pct_bacia":100.0,"metodo_recorte_bacia":"ponto_representativo_grade_2022; area_pct_geometrica","status_borda_bacia":"total","metodo_area_bacia":"interseção geométrica em EPSG:5880","metodo_na_bacia":"ponto_representativo_grade_2022_within_bacia","pop_n_validos":1,"pop_n_total":1,"pop_completude":1.0,"dom_n_validos":1,"dom_n_total":1,"dom_completude":1.0},"geometry":{"type":"Polygon","coordinates":[[[-51.31191831477838,-29.024818739293295],[-51.311937432566424,-29.02295687915655],[-51.30994787139713,-29.022938982647855],[-51.30992874011923,-29.024800841885337],[-51.31191831477838,-29.024818739293295]]]}},{"type":"Feature","properties":{"id_grade":"200ME52704N81134","pop":3,"dom":1,"universo_dom":"domicilios_ocupados_grade_ibge_2022","na_bacia":1,"area_pct_bacia":100.0,"metodo_recorte_bacia":"ponto_representativo_grade_2022; area_pct_geometrica","status_borda_bacia":"total","metodo_area_bacia":"interseção geométrica em EPSG:5880","metodo_na_bacia":"ponto_representativo_grade_2022_within_bacia","pop_n_validos":1,"pop_n_total":1,"pop_completude":1.0,"dom_n_validos":1,"dom_n_total":1,"dom_completude":1.0},"geometry":{"type":"Polygon","coordinates":[[[-51.30992874011923,-29.024800841885337],[-51.30994787139713,-29.022938982647855],[-51.307958311127095,-29.022921071750094],[-51.30793916456077,-29.02478293188673],[-51.30992874011923,-29.024800841885337]]]}},{"type":"Feature","properties":{"id_grade":"200ME52702N81136","pop":5,"dom":2,"universo_dom":"domicilios_ocupados_grade_ibge_2022","na_bacia":1,"area_pct_bacia":100.0,"metodo_recorte_bacia":"ponto_representativo_grade_2022; area_pct_geometrica","status_borda_bacia":"total","metodo_area_bacia":"interseção geométrica em EPSG:5880","metodo_na_bacia":"ponto_representativo_grade_2022_within_bacia","pop_n_validos":1,"pop_n_total":1,"pop_completude":1.0,"dom_n_validos":1,"dom_n_total":1,"dom_completude":1.0},"geometry":{"type":"Polygon","coordinates":[[[-51.311937432566424,-29.02295687915655],[-51.311956549455154,-29.021095038804972],[-51.309967002674966,-29.02107714229619],[-51.30994787139713,-29.022938982647855],[-51.311937432566424,-29.02295687915655]]]}},{"type":"Feature","properties":{"id_grade":"200ME52700N81140","pop":3,"dom":1,"universo_dom":"domicilios_ocupados_grade_ibge_2022","na_bacia":1,"area_pct_bacia":100.0,"metodo_recorte_bacia":"ponto_representativo_grade_2022; area_pct_geometrica","status_borda_bacia":"total","metodo_area_bacia":"interseção geométrica em EPSG:5880","metodo_na_bacia":"ponto_representativo_grade_2022_within_bacia","pop_n_validos":1,"pop_n_total":1,"pop_completude":1.0,"dom_n_validos":1,"dom_n_total":1,"dom_completude":1.0},"geometry":{"type":"Polygon","coordinates":[[[-51.313965199634204,-29.019251100357916],[-51.313984302133804,-29.017389298677145],[-51.311994783232585,-29.017371416557538],[-51.31197566724319,-29.019233217339078],[-51.313965199634204,-29.019251100357916]]]}},{"type":"Feature","properties":{"id_grade":"200ME52702N81140","pop":5,"dom":2,"universo_dom":"domicilios_ocupados_grade_ibge_2022","na_bacia":1,"area_pct_bacia":100.0,"metodo_recorte_bacia":"ponto_representativo_grade_2022; area_pct_geometrica","status_borda_bacia":"total","metodo_area_bacia":"interseção geométrica em EPSG:5880","metodo_na_bacia":"ponto_representativo_grade_2022_within_bacia","pop_n_validos":1,"pop_n_total":1,"pop_completude":1.0,"dom_n_validos":1,"dom_n_total":1,"dom_completude":1.0},"geometry":{"type":"Polygon","coordinates":[[[-51.31197566724319,-29.019233217339078],[-51.311994783232585,-29.017371416557538],[-51.31000526523076,-29.01735352004881],[-51.309986133952854,-29.019215321729686],[-51.31197566724319,-29.019233217339078]]]}},{"type":"Feature","properties":{"id_grade":"200ME52704N81140","pop":2,"dom":1,"universo_dom":"domicilios_ocupados_grade_ibge_2022","na_bacia":1,"area_pct_bacia":100.0,"metodo_recorte_bacia":"ponto_representativo_grade_2022; area_pct_geometrica","status_borda_bacia":"total","metodo_area_bacia":"interseção geométrica em EPSG:5880","metodo_na_bacia":"ponto_representativo_grade_2022_within_bacia","pop_n_validos":1,"pop_n_total":1,"pop_completude":1.0,"dom_n_validos":1,"dom_n_total":1,"dom_completude":1.0},"geometry":{"type":"Polygon","coordinates":[[[-51.309986133952854,-29.019215321729686],[-51.31000526523076,-29.01735352004881],[-51.3080157463296,-29.017335610949623],[-51.307996601561854,-29.01919741173106],[-51.309986133952854,-29.019215321729686]]]}},{"type":"Feature","properties":{"id_grade":"200ME52712N81124","pop":2,"dom":1,"universo_dom":"domicilios_ocupados_grade_ibge_2022","na_bacia":1,"area_pct_bacia":100.0,"metodo_recorte_bacia":"ponto_representativo_grade_2022; area_pct_geometrica","status_borda_bacia":"total","metodo_area_bacia":"interseção geométrica em EPSG:5880","metodo_na_bacia":"ponto_representativo_grade_2022_within_bacia","pop_n_validos":1,"pop_n_total":1,"pop_completude":1.0,"dom_n_validos":1,"dom_n_total":1,"dom_completude":1.0},"geometry":{"type":"Polygon","coordinates":[[[-51.301874496410846,-29.034038709418848],[-51.30189368614464,-29.03217675215538],[-51.29990405572755,-29.03215878729813],[-51.29988485160459,-29.034020743662282],[-51.301874496410846,-29.034038709418848]]]}},{"type":"Feature","properties":{"id_grade":"200ME52712N81126","pop":4,"dom":1,"universo_dom":"domicilios_ocupados_grade_ibge_2022","na_bacia":1,"area_pct_bacia":100.0,"metodo_recorte_bacia":"ponto_representativo_grade_2022; area_pct_geometrica","status_borda_bacia":"total","metodo_area_bacia":"interseção geométrica em EPSG:5880","metodo_na_bacia":"ponto_representativo_grade_2022_within_bacia","pop_n_validos":1,"pop_n_total":1,"pop_completude":1.0,"dom_n_validos":1,"dom_n_total":1,"dom_completude":1.0},"geometry":{"type":"Polygon","coordinates":[[[-51.30189368614464,-29.03217675215538],[-51.30191287497916,-29.03031481467696],[-51.299923258951196,-29.030296850718972],[-51.29990405572755,-29.03215878729813],[-51.30189368614464,-29.03217675215538]]]}},{"type":"Feature","properties":{"id_grade":"200ME52716N81126","pop":3,"dom":1,"universo_dom":"domicilios_ocupados_grade_ibge_2022","na_bacia":1,"area_pct_bacia":100.0,"metodo_recorte_bacia":"ponto_representativo_grade_2022; area_pct_geometrica","status_borda_bacia":"total","metodo_area_bacia":"interseção geométrica em EPSG:5880","metodo_na_bacia":"ponto_representativo_grade_2022_within_bacia","pop_n_validos":1,"pop_n_total":1,"pop_completude":1.0,"dom_n_validos":1,"dom_n_total":1,"dom_completude":1.0},"geometry":{"type":"Polygon","coordinates":[[[-51.29791442531046,-29.032140809850418],[-51.29793364292322,-29.030278873271335],[-51.295944026895256,-29.030260882333835],[-51.295924795792644,-29.03212281801364],[-51.29791442531046,-29.032140809850418]]]}},{"type":"Feature","properties":{"id_grade":"200ME52718N81126","pop":11,"dom":4,"universo_dom":"domicilios_ocupados_grade_ibge_2022","na_bacia":1,"area_pct_bacia":100.0,"metodo_recorte_bacia":"ponto_representativo_grade_2022; area_pct_geometrica","status_borda_bacia":"total","metodo_area_bacia":"interseção geométrica em EPSG:5880","metodo_na_bacia":"ponto_representativo_grade_2022_within_bacia","pop_n_validos":1,"pop_n_total":1,"pop_completude":1.0,"dom_n_validos":1,"dom_n_total":1,"dom_completude":1.0},"geometry":{"type":"Polygon","coordinates":[[[-51.295924795792644,-29.03212281801364],[-51.295944026895256,-29.030260882333835],[-51.29395441176666,-29.030242877906446],[-51.29393516627487,-29.032104813586287],[-51.295924795792644,-29.03212281801364]]]}},{"type":"Feature","properties":{"id_grade":"200ME52710N81128","pop":5,"dom":2,"universo_dom":"domicilios_ocupados_grade_ibge_2022","na_bacia":1,"area_pct_bacia":100.0,"metodo_recorte_bacia":"ponto_representativo_grade_2022; area_pct_geometrica","status_borda_bacia":"total","metodo_area_bacia":"interseção geométrica em EPSG:5880","metodo_na_bacia":"ponto_representativo_grade_2022_within_bacia","pop_n_validos":1,"pop_n_total":1,"pop_completude":1.0,"dom_n_validos":1,"dom_n_total":1,"dom_completude":1.0},"geometry":{"type":"Polygon","coordinates":[[[-51.303902491906456,-29.030332766044257],[-51.303921666351755,-29.02847084835091],[-51.30193206471296,-29.02845289698354],[-51.30191287497916,-29.03031481467696],[-51.303902491906456,-29.030332766044257]]]}},{"type":"Feature","properties":{"id_grade":"200ME52714N81128","pop":12,"dom":4,"universo_dom":"domicilios_ocupados_grade_ibge_2022","na_bacia":1,"area_pct_bacia":100.0,"metodo_recorte_bacia":"ponto_representativo_grade_2022; area_pct_geometrica","status_borda_bacia":"total","metodo_area_bacia":"interseção geométrica em EPSG:5880","metodo_na_bacia":"ponto_representativo_grade_2022_within_bacia","pop_n_validos":1,"pop_n_total":1,"pop_completude":1.0,"dom_n_validos":1,"dom_n_total":1,"dom_completude":1.0},"geometry":{"type":"Polygon","coordinates":[[[-51.299923258951196,-29.030296850718972],[-51.29994246217485,-29.028434933025725],[-51.297952860536036,-29.028416955578003],[-51.29793364292322,-29.030278873271335],[-51.299923258951196,-29.030296850718972]]]}},{"type":"Feature","properties":{"id_grade":"200ME52716N81128","pop":3,"dom":1,"universo_dom":"domicilios_ocupados_grade_ibge_2022","na_bacia":1,"area_pct_bacia":100.0,"metodo_recorte_bacia":"ponto_representativo_grade_2022; area_pct_geometrica","status_borda_bacia":"total","metodo_area_bacia":"interseção geométrica em EPSG:5880","metodo_na_bacia":"ponto_representativo_grade_2022_within_bacia","pop_n_validos":1,"pop_n_total":1,"pop_completude":1.0,"dom_n_validos":1,"dom_n_total":1,"dom_completude":1.0},"geometry":{"type":"Polygon","coordinates":[[[-51.29793364292322,-29.030278873271335],[-51.297952860536036,-29.028416955578003],[-51.295963258897245,-29.028398965539814],[-51.295944026895256,-29.030260882333835],[-51.29793364292322,-29.030278873271335]]]}},{"type":"Feature","properties":{"id_grade":"200ME52712N81130","pop":5,"dom":2,"universo_dom":"domicilios_ocupados_grade_ibge_2022","na_bacia":1,"area_pct_bacia":100.0,"metodo_recorte_bacia":"ponto_representativo_grade_2022; area_pct_geometrica","status_borda_bacia":"total","metodo_area_bacia":"interseção geométrica em EPSG:5880","metodo_na_bacia":"ponto_representativo_grade_2022_within_bacia","pop_n_validos":1,"pop_n_total":1,"pop_completude":1.0,"dom_n_validos":1,"dom_n_total":1,"dom_completude":1.0},"geometry":{"type":"Polygon","coordinates":[[[-51.30193206471296,-29.02845289698354],[-51.301951253547486,-29.026590999075335],[-51.299961665398484,-29.026573036016867],[-51.29994246217485,-29.028434933025725],[-51.30193206471296,-29.02845289698354]]]}},{"type":"Feature","properties":{"id_grade":"200ME52716N81130","pop":34,"dom":11,"universo_dom":"domicilios_ocupados_grade_ibge_2022","na_bacia":1,"area_pct_bacia":100.0,"metodo_recorte_bacia":"ponto_representativo_grade_2022; area_pct_geometrica","status_borda_bacia":"total","metodo_area_bacia":"interseção geométrica em EPSG:5880","metodo_na_bacia":"ponto_representativo_grade_2022_within_bacia","pop_n_validos":1,"pop_n_total":1,"pop_completude":1.0,"dom_n_validos":1,"dom_n_total":1,"dom_completude":1.0},"geometry":{"type":"Polygon","coordinates":[[[-51.297952860536036,-29.028416955578003],[-51.29797207724954,-29.026555058569016],[-51.29598248999986,-29.026537068530843],[-51.295963258897245,-29.028398965539814],[-51.297952860536036,-29.028416955578003]]]}},{"type":"Feature","properties":{"id_grade":"200ME52718N81130","pop":31,"dom":12,"universo_dom":"domicilios_ocupados_grade_ibge_2022","na_bacia":1,"area_pct_bacia":100.0,"metodo_recorte_bacia":"ponto_representativo_grade_2022; area_pct_geometrica","status_borda_bacia":"total","metodo_area_bacia":"interseção geométrica em EPSG:5880","metodo_na_bacia":"ponto_representativo_grade_2022_within_bacia","pop_n_validos":1,"pop_n_total":1,"pop_completude":1.0,"dom_n_validos":1,"dom_n_total":1,"dom_completude":1.0},"geometry":{"type":"Polygon","coordinates":[[[-51.295963258897245,-29.028398965539814],[-51.29598248999986,-29.026537068530843],[-51.29399290275023,-29.026519065002805],[-51.29397365725845,-29.028380962011735],[-51.295963258897245,-29.028398965539814]]]}},{"type":"Feature","properties":{"id_grade":"200ME52710N81132","pop":4,"dom":1,"universo_dom":"domicilios_ocupados_grade_ibge_2022","na_bacia":1,"area_pct_bacia":100.0,"metodo_recorte_bacia":"ponto_representativo_grade_2022; area_pct_geometrica","status_borda_bacia":"total","metodo_area_bacia":"interseção geométrica em EPSG:5880","metodo_na_bacia":"ponto_representativo_grade_2022_within_bacia","pop_n_validos":1,"pop_n_total":1,"pop_completude":1.0,"dom_n_validos":1,"dom_n_total":1,"dom_completude":1.0},"geometry":{"type":"Polygon","coordinates":[[[-51.30394084169643,-29.0266089495433],[-51.30396001614179,-29.024747071420187],[-51.30197044148264,-29.02472912095216],[-51.301951253547486,-29.026590999075335],[-51.30394084169643,-29.0266089495433]]]}},{"type":"Feature","properties":{"id_grade":"200ME52714N81132","pop":3,"dom":1,"universo_dom":"domicilios_ocupados_grade_ibge_2022","na_bacia":1,"area_pct_bacia":100.0,"metodo_recorte_bacia":"ponto_representativo_grade_2022; area_pct_geometrica","status_borda_bacia":"total","metodo_area_bacia":"interseção geométrica em EPSG:5880","metodo_na_bacia":"ponto_representativo_grade_2022_within_bacia","pop_n_validos":1,"pop_n_total":1,"pop_completude":1.0,"dom_n_validos":1,"dom_n_total":1,"dom_completude":1.0},"geometry":{"type":"Polygon","coordinates":[[[-51.299961665398484,-29.026573036016867],[-51.29998086772281,-29.024711157893584],[-51.2979912948623,-29.024693181345256],[-51.29797207724954,-29.026555058569016],[-51.299961665398484,-29.026573036016867]]]}},{"type":"Feature","properties":{"id_grade":"200ME52716N81132","pop":57,"dom":19,"universo_dom":"domicilios_ocupados_grade_ibge_2022","na_bacia":1,"area_pct_bacia":100.0,"metodo_recorte_bacia":"ponto_representativo_grade_2022; area_pct_geometrica","status_borda_bacia":"total","metodo_area_bacia":"interseção geométrica em EPSG:5880","metodo_na_bacia":"ponto_representativo_grade_2022_within_bacia","pop_n_validos":1,"pop_n_total":1,"pop_completude":1.0,"dom_n_validos":1,"dom_n_total":1,"dom_completude":1.0},"geometry":{"type":"Polygon","coordinates":[[[-51.29797207724954,-29.026555058569016],[-51.2979912948623,-29.024693181345256],[-51.29600172110253,-29.024675191307033],[-51.29598248999986,-29.026537068530843],[-51.29797207724954,-29.026555058569016]]]}},{"type":"Feature","properties":{"id_grade":"200ME52718N81132","pop":21,"dom":7,"universo_dom":"domicilios_ocupados_grade_ibge_2022","na_bacia":1,"area_pct_bacia":100.0,"metodo_recorte_bacia":"ponto_representativo_grade_2022; area_pct_geometrica","status_borda_bacia":"total","metodo_area_bacia":"interseção geométrica em EPSG:5880","metodo_na_bacia":"ponto_representativo_grade_2022_within_bacia","pop_n_validos":1,"pop_n_total":1,"pop_completude":1.0,"dom_n_validos":1,"dom_n_total":1,"dom_completude":1.0},"geometry":{"type":"Polygon","coordinates":[[[-51.29598248999986,-29.026537068530843],[-51.29600172110253,-29.024675191307033],[-51.29401214824202,-29.024657187778892],[-51.29399290275023,-29.026519065002805],[-51.29598248999986,-29.026537068530843]]]}},{"type":"Feature","properties":{"id_grade":"200ME52718N81134","pop":1,"dom":1,"universo_dom":"domicilios_ocupados_grade_ibge_2022","na_bacia":1,"area_pct_bacia":100.0,"metodo_recorte_bacia":"ponto_representativo_grade_2022; area_pct_geometrica","status_borda_bacia":"total","metodo_area_bacia":"interseção geométrica em EPSG:5880","metodo_na_bacia":"ponto_representativo_grade_2022_within_bacia","pop_n_validos":1,"pop_n_total":1,"pop_completude":1.0,"dom_n_validos":1,"dom_n_total":1,"dom_completude":1.0},"geometry":{"type":"Polygon","coordinates":[[[-51.29600172110253,-29.024675191307033],[-51.29602095220514,-29.0228133329689],[-51.294031392834476,-29.022795330340166],[-51.29401214824202,-29.024657187778892],[-51.29600172110253,-29.024675191307033]]]}}]}
