{"type":"FeatureCollection","name":"4315453","crs":{"type":"name","properties":{"name":"urn:ogc:def:crs:OGC:1.3:CRS84"}},"features":[{"type":"Feature","properties":{"id_grade":"200ME51958N81032","pop":3,"dom":1,"universo_dom":"domicilios_ocupados_grade_ibge_2022","na_bacia":1,"area_pct_bacia":100.0,"metodo_recorte_bacia":"ponto_representativo_grade_2022; area_pct_geometrica","status_borda_bacia":"total","metodo_area_bacia":"interse??o geom?trica em EPSG:5880","metodo_na_bacia":"ponto_representativo_grade_2022_within_bacia","pop_n_validos":1,"pop_n_total":1,"pop_completude":1.0,"dom_n_validos":1,"dom_n_total":1,"dom_completude":1.0},"geometry":{"type":"Polygon","coordinates":[[[-52.051350594454156,-29.12554409103261],[-52.05136445863542,-29.12368112334263],[-52.04937408844496,-29.123668140135273],[-52.049360210103494,-29.125531107594814],[-52.051350594454156,-29.12554409103261]]]}},{"type":"Feature","properties":{"id_grade":"200ME51948N81034","pop":2,"dom":1,"universo_dom":"domicilios_ocupados_grade_ibge_2022","na_bacia":1,"area_pct_bacia":100.0,"metodo_recorte_bacia":"ponto_representativo_grade_2022; area_pct_geometrica","status_borda_bacia":"total","metodo_area_bacia":"interse??o geom?trica em EPSG:5880","metodo_na_bacia":"ponto_representativo_grade_2022_within_bacia","pop_n_validos":1,"pop_n_total":1,"pop_completude":1.0,"dom_n_validos":1,"dom_n_total":1,"dom_completude":1.0},"geometry":{"type":"Polygon","coordinates":[[[-52.06131631254284,-29.123745840579467],[-52.06133010572678,-29.121882891543205],[-52.05933974871197,-29.12186997483176],[-52.059325941368016,-29.123732923638805],[-52.06131631254284,-29.123745840579467]]]}},{"type":"Feature","properties":{"id_grade":"200ME51948N81036","pop":12,"dom":5,"universo_dom":"domicilios_ocupados_grade_ibge_2022","na_bacia":1,"area_pct_bacia":100.0,"metodo_recorte_bacia":"ponto_representativo_grade_2022; area_pct_geometrica","status_borda_bacia":"total","metodo_area_bacia":"interse??o geom?trica em EPSG:5880","metodo_na_bacia":"ponto_representativo_grade_2022_within_bacia","pop_n_validos":1,"pop_n_total":1,"pop_completude":1.0,"dom_n_validos":1,"dom_n_total":1,"dom_completude":1.0},"geometry":{"type":"Polygon","coordinates":[[[-52.06133010572678,-29.121882891543205],[-52.06134389871446,-29.120019962306085],[-52.05935355585947,-29.120007045823744],[-52.05933974871197,-29.12186997483176],[-52.06133010572678,-29.121882891543205]]]}},{"type":"Feature","properties":{"id_grade":"200ME51950N81036","pop":21,"dom":7,"universo_dom":"domicilios_ocupados_grade_ibge_2022","na_bacia":1,"area_pct_bacia":100.0,"metodo_recorte_bacia":"ponto_representativo_grade_2022; area_pct_geometrica","status_borda_bacia":"total","metodo_area_bacia":"interse??o geom?trica em EPSG:5880","metodo_na_bacia":"ponto_representativo_grade_2022_within_bacia","pop_n_validos":1,"pop_n_total":1,"pop_completude":1.0,"dom_n_validos":1,"dom_n_total":1,"dom_completude":1.0},"geometry":{"type":"Polygon","coordinates":[[[-52.05933974871197,-29.12186997483176],[-52.05935355585947,-29.120007045823744],[-52.05736321320094,-29.11999411608853],[-52.05734939189363,-29.12185704486719],[-52.05933974871197,-29.12186997483176]]]}},{"type":"Feature","properties":{"id_grade":"200ME51950N81040","pop":11,"dom":5,"universo_dom":"domicilios_ocupados_grade_ibge_2022","na_bacia":1,"area_pct_bacia":100.0,"metodo_recorte_bacia":"ponto_representativo_grade_2022; area_pct_geometrica","status_borda_bacia":"total","metodo_area_bacia":"interse??o geom?trica em EPSG:5880","metodo_na_bacia":"ponto_representativo_grade_2022_within_bacia","pop_n_validos":1,"pop_n_total":1,"pop_completude":1.0,"dom_n_validos":1,"dom_n_total":1,"dom_completude":1.0},"geometry":{"type":"Polygon","coordinates":[[[-52.0593673628105,-29.118144136611818],[-52.05938116956507,-29.116281247192795],[-52.057390855225556,-29.116268317916347],[-52.05737703431158,-29.118131207105975],[-52.0593673628105,-29.118144136611818]]]}},{"type":"Feature","properties":{"id_grade":"1KME5192N8098","pop":20,"dom":7,"universo_dom":"domicilios_ocupados_grade_ibge_2022","na_bacia":1,"area_pct_bacia":100.0,"metodo_recorte_bacia":"ponto_representativo_grade_2022; area_pct_geometrica","status_borda_bacia":"total","metodo_area_bacia":"interse??o geom?trica em EPSG:5880","metodo_na_bacia":"ponto_representativo_grade_2022_within_bacia","pop_n_validos":1,"pop_n_total":1,"pop_completude":1.0,"dom_n_validos":1,"dom_n_total":1,"dom_completude":1.0},"geometry":{"type":"Polygon","coordinates":[[[-52.08882799306987,-29.172369003369056],[-52.088895991005664,-29.163051861787874],[-52.07894263638306,-29.162988048490725],[-52.07887428432467,-29.17230518439833],[-52.08882799306987,-29.172369003369056]]]}},{"type":"Feature","properties":{"id_grade":"1KME5193N8098","pop":27,"dom":11,"universo_dom":"domicilios_ocupados_grade_ibge_2022","na_bacia":1,"area_pct_bacia":100.0,"metodo_recorte_bacia":"ponto_representativo_grade_2022; area_pct_geometrica","status_borda_bacia":"total","metodo_area_bacia":"interse??o geom?trica em EPSG:5880","metodo_na_bacia":"ponto_representativo_grade_2022_within_bacia","pop_n_validos":1,"pop_n_total":1,"pop_completude":1.0,"dom_n_validos":1,"dom_n_total":1,"dom_completude":1.0},"geometry":{"type":"Polygon","coordinates":[[[-52.07887428432467,-29.17230518439833],[-52.07894263638306,-29.162988048490725],[-52.06898928662403,-29.162923903735393],[-52.068920580443546,-29.172241033939862],[-52.07887428432467,-29.17230518439833]]]}},{"type":"Feature","properties":{"id_grade":"1KME5200N8098","pop":2,"dom":1,"universo_dom":"domicilios_ocupados_grade_ibge_2022","na_bacia":1,"area_pct_bacia":100.0,"metodo_recorte_bacia":"ponto_representativo_grade_2022; area_pct_geometrica","status_borda_bacia":"total","metodo_area_bacia":"interse??o geom?trica em EPSG:5880","metodo_na_bacia":"ponto_representativo_grade_2022_within_bacia","pop_n_validos":1,"pop_n_total":1,"pop_completude":1.0,"dom_n_validos":1,"dom_n_total":1,"dom_completude":1.0},"geometry":{"type":"Polygon","coordinates":[[[-52.009198460713776,-29.171849169975687],[-52.0092692916157,-29.162532074608176],[-51.9993159766071,-29.16246560966042],[-51.99924479158681,-29.171782699118687],[-52.009198460713776,-29.171849169975687]]]}},{"type":"Feature","properties":{"id_grade":"1KME5192N8099","pop":21,"dom":7,"universo_dom":"domicilios_ocupados_grade_ibge_2022","na_bacia":1,"area_pct_bacia":100.0,"metodo_recorte_bacia":"ponto_representativo_grade_2022; area_pct_geometrica","status_borda_bacia":"total","metodo_area_bacia":"interse??o geom?trica em EPSG:5880","metodo_na_bacia":"ponto_representativo_grade_2022_within_bacia","pop_n_validos":1,"pop_n_total":1,"pop_completude":1.0,"dom_n_validos":1,"dom_n_total":1,"dom_completude":1.0},"geometry":{"type":"Polygon","coordinates":[[[-52.088895991005664,-29.163051861787874],[-52.088963984103096,-29.153735216855182],[-52.079010983577895,-29.153671409228924],[-52.07894263638306,-29.162988048490725],[-52.088895991005664,-29.163051861787874]]]}},{"type":"Feature","properties":{"id_grade":"1KME5193N8099","pop":4,"dom":2,"universo_dom":"domicilios_ocupados_grade_ibge_2022","na_bacia":1,"area_pct_bacia":100.0,"metodo_recorte_bacia":"ponto_representativo_grade_2022; area_pct_geometrica","status_borda_bacia":"total","metodo_area_bacia":"interse??o geom?trica em EPSG:5880","metodo_na_bacia":"ponto_representativo_grade_2022_within_bacia","pop_n_validos":1,"pop_n_total":1,"pop_completude":1.0,"dom_n_validos":1,"dom_n_total":1,"dom_completude":1.0},"geometry":{"type":"Polygon","coordinates":[[[-52.07894263638306,-29.162988048490725],[-52.079010983577895,-29.153671409228924],[-52.06905798791575,-29.153607270173488],[-52.06898928662403,-29.162923903735393],[-52.07894263638306,-29.162988048490725]]]}},{"type":"Feature","properties":{"id_grade":"1KME5194N8099","pop":15,"dom":5,"universo_dom":"domicilios_ocupados_grade_ibge_2022","na_bacia":1,"area_pct_bacia":100.0,"metodo_recorte_bacia":"ponto_representativo_grade_2022; area_pct_geometrica","status_borda_bacia":"total","metodo_area_bacia":"interse??o geom?trica em EPSG:5880","metodo_na_bacia":"ponto_representativo_grade_2022_within_bacia","pop_n_validos":1,"pop_n_total":1,"pop_completude":1.0,"dom_n_validos":1,"dom_n_total":1,"dom_completude":1.0},"geometry":{"type":"Polygon","coordinates":[[[-52.06898928662403,-29.162923903735393],[-52.06905798791575,-29.153607270173488],[-52.059104997141844,-29.153542799689703],[-52.05903594175376,-29.1628594275219],[-52.06898928662403,-29.162923903735393]]]}},{"type":"Feature","properties":{"id_grade":"1KME5200N8099","pop":17,"dom":6,"universo_dom":"domicilios_ocupados_grade_ibge_2022","na_bacia":1,"area_pct_bacia":100.0,"metodo_recorte_bacia":"ponto_representativo_grade_2022; area_pct_geometrica","status_borda_bacia":"total","metodo_area_bacia":"interse??o geom?trica em EPSG:5880","metodo_na_bacia":"ponto_representativo_grade_2022_within_bacia","pop_n_validos":1,"pop_n_total":1,"pop_completude":1.0,"dom_n_validos":1,"dom_n_total":1,"dom_completude":1.0},"geometry":{"type":"Polygon","coordinates":[[[-52.0092692916157,-29.162532074608176],[-52.00934011747769,-29.153215475865057],[-51.999387156562285,-29.153149016823107],[-51.9993159766071,-29.16246560966042],[-52.0092692916157,-29.162532074608176]]]}},{"type":"Feature","properties":{"id_grade":"1KME5201N8099","pop":24,"dom":9,"universo_dom":"domicilios_ocupados_grade_ibge_2022","na_bacia":1,"area_pct_bacia":100.0,"metodo_recorte_bacia":"ponto_representativo_grade_2022; area_pct_geometrica","status_borda_bacia":"total","metodo_area_bacia":"interse??o geom?trica em EPSG:5880","metodo_na_bacia":"ponto_representativo_grade_2022_within_bacia","pop_n_validos":1,"pop_n_total":1,"pop_completude":1.0,"dom_n_validos":1,"dom_n_total":1,"dom_completude":1.0},"geometry":{"type":"Polygon","coordinates":[[[-51.9993159766071,-29.16246560966042],[-51.999387156562285,-29.153149016823107],[-51.98943420071146,-29.15308222635749],[-51.98936266666365,-29.16239881325912],[-51.9993159766071,-29.16246560966042]]]}},{"type":"Feature","properties":{"id_grade":"1KME5189N8100","pop":19,"dom":10,"universo_dom":"domicilios_ocupados_grade_ibge_2022","na_bacia":1,"area_pct_bacia":100.0,"metodo_recorte_bacia":"ponto_representativo_grade_2022; area_pct_geometrica","status_borda_bacia":"total","metodo_area_bacia":"interse??o geom?trica em EPSG:5880","metodo_na_bacia":"ponto_representativo_grade_2022_within_bacia","pop_n_validos":1,"pop_n_total":1,"pop_completude":1.0,"dom_n_validos":1,"dom_n_total":1,"dom_completude":1.0},"geometry":{"type":"Polygon","coordinates":[[[-52.11882301460506,-29.15392465115391],[-52.118889940644905,-29.14460848566527],[-52.10893727975546,-29.1445456779092],[-52.10886999964187,-29.153861837818525],[-52.11882301460506,-29.15392465115391]]]}},{"type":"Feature","properties":{"id_grade":"1KME5194N8100","pop":20,"dom":6,"universo_dom":"domicilios_ocupados_grade_ibge_2022","na_bacia":1,"area_pct_bacia":100.0,"metodo_recorte_bacia":"ponto_representativo_grade_2022; area_pct_geometrica","status_borda_bacia":"total","metodo_area_bacia":"interse??o geom?trica em EPSG:5880","metodo_na_bacia":"ponto_representativo_grade_2022_within_bacia","pop_n_validos":1,"pop_n_total":1,"pop_completude":1.0,"dom_n_validos":1,"dom_n_total":1,"dom_completude":1.0},"geometry":{"type":"Polygon","coordinates":[[[-52.06905798791575,-29.153607270173488],[-52.06912668431922,-29.14429113287578],[-52.059174047616494,-29.144226668118588],[-52.059104997141844,-29.153542799689703],[-52.06905798791575,-29.153607270173488]]]}},{"type":"Feature","properties":{"id_grade":"1KME5195N8100","pop":16,"dom":4,"universo_dom":"domicilios_ocupados_grade_ibge_2022","na_bacia":1,"area_pct_bacia":100.0,"metodo_recorte_bacia":"ponto_representativo_grade_2022; area_pct_geometrica","status_borda_bacia":"total","metodo_area_bacia":"interse??o geom?trica em EPSG:5880","metodo_na_bacia":"ponto_representativo_grade_2022_within_bacia","pop_n_validos":1,"pop_n_total":1,"pop_completude":1.0,"dom_n_validos":1,"dom_n_total":1,"dom_completude":1.0},"geometry":{"type":"Polygon","coordinates":[[[-52.059104997141844,-29.153542799689703],[-52.059174047616494,-29.144226668118588],[-52.04922141582667,-29.14416187196255],[-52.049152011281365,-29.15347799777803],[-52.059104997141844,-29.153542799689703]]]}},{"type":"Feature","properties":{"id_grade":"1KME5196N8100","pop":5,"dom":2,"universo_dom":"domicilios_ocupados_grade_ibge_2022","na_bacia":1,"area_pct_bacia":100.0,"metodo_recorte_bacia":"ponto_representativo_grade_2022; area_pct_geometrica","status_borda_bacia":"total","metodo_area_bacia":"interse??o geom?trica em EPSG:5880","metodo_na_bacia":"ponto_representativo_grade_2022_within_bacia","pop_n_validos":1,"pop_n_total":1,"pop_completude":1.0,"dom_n_validos":1,"dom_n_total":1,"dom_completude":1.0},"geometry":{"type":"Polygon","coordinates":[[[-52.049152011281365,-29.15347799777803],[-52.04922141582667,-29.14416187196255],[-52.03926878897495,-29.144096744409072],[-52.03919903035953,-29.153412864438934],[-52.049152011281365,-29.15347799777803]]]}},{"type":"Feature","properties":{"id_grade":"1KME5198N8100","pop":10,"dom":4,"universo_dom":"domicilios_ocupados_grade_ibge_2022","na_bacia":1,"area_pct_bacia":100.0,"metodo_recorte_bacia":"ponto_representativo_grade_2022; area_pct_geometrica","status_borda_bacia":"total","metodo_area_bacia":"interse??o geom?trica em EPSG:5880","metodo_na_bacia":"ponto_representativo_grade_2022_within_bacia","pop_n_validos":1,"pop_n_total":1,"pop_completude":1.0,"dom_n_validos":1,"dom_n_total":1,"dom_completude":1.0},"geometry":{"type":"Polygon","coordinates":[[[-52.02924605440151,-29.153347399673255],[-52.02931616708652,-29.144031285458222],[-52.019363550186576,-29.14396549511083],[-52.0192930834325,-29.153281603481805],[-52.02924605440151,-29.153347399673255]]]}},{"type":"Feature","properties":{"id_grade":"1KME5199N8100","pop":32,"dom":13,"universo_dom":"domicilios_ocupados_grade_ibge_2022","na_bacia":1,"area_pct_bacia":100.0,"metodo_recorte_bacia":"ponto_representativo_grade_2022; area_pct_geometrica","status_borda_bacia":"total","metodo_area_bacia":"interse??o geom?trica em EPSG:5880","metodo_na_bacia":"ponto_representativo_grade_2022_within_bacia","pop_n_validos":1,"pop_n_total":1,"pop_completude":1.0,"dom_n_validos":1,"dom_n_total":1,"dom_completude":1.0},"geometry":{"type":"Polygon","coordinates":[[[-52.0192930834325,-29.153281603481805],[-52.019363550186576,-29.14396549511083],[-52.009410938300284,-29.143899373367532],[-52.00934011747769,-29.153215475865057],[-52.0192930834325,-29.153281603481805]]]}},{"type":"Feature","properties":{"id_grade":"1KME5202N8100","pop":39,"dom":16,"universo_dom":"domicilios_ocupados_grade_ibge_2022","na_bacia":1,"area_pct_bacia":100.0,"metodo_recorte_bacia":"ponto_representativo_grade_2022; area_pct_geometrica","status_borda_bacia":"total","metodo_area_bacia":"interse??o geom?trica em EPSG:5880","metodo_na_bacia":"ponto_representativo_grade_2022_within_bacia","pop_n_validos":1,"pop_n_total":1,"pop_completude":1.0,"dom_n_validos":1,"dom_n_total":1,"dom_completude":1.0},"geometry":{"type":"Polygon","coordinates":[[[-51.98943420071146,-29.15308222635749],[-51.98950572966949,-29.143766135695355],[-51.97955313297535,-29.143699019768057],[-51.97948124995041,-29.153015104468277],[-51.98943420071146,-29.15308222635749]]]}},{"type":"Feature","properties":{"id_grade":"1KME5190N8101","pop":4,"dom":1,"universo_dom":"domicilios_ocupados_grade_ibge_2022","na_bacia":1,"area_pct_bacia":100.0,"metodo_recorte_bacia":"ponto_representativo_grade_2022; area_pct_geometrica","status_borda_bacia":"total","metodo_area_bacia":"interse??o geom?trica em EPSG:5880","metodo_na_bacia":"ponto_representativo_grade_2022_within_bacia","pop_n_validos":1,"pop_n_total":1,"pop_completude":1.0,"dom_n_validos":1,"dom_n_total":1,"dom_completude":1.0},"geometry":{"type":"Polygon","coordinates":[[[-52.10893727975546,-29.1445456779092],[-52.10900455508209,-29.135230013898056],[-52.099052253027665,-29.135166880346386],[-52.09898462365298,-29.144482538751543],[-52.10893727975546,-29.1445456779092]]]}},{"type":"Feature","properties":{"id_grade":"1KME5191N8101","pop":4,"dom":2,"universo_dom":"domicilios_ocupados_grade_ibge_2022","na_bacia":1,"area_pct_bacia":100.0,"metodo_recorte_bacia":"ponto_representativo_grade_2022; area_pct_geometrica","status_borda_bacia":"total","metodo_area_bacia":"interse??o geom?trica em EPSG:5880","metodo_na_bacia":"ponto_representativo_grade_2022_within_bacia","pop_n_validos":1,"pop_n_total":1,"pop_completude":1.0,"dom_n_validos":1,"dom_n_total":1,"dom_completude":1.0},"geometry":{"type":"Polygon","coordinates":[[[-52.09898462365298,-29.144482538751543],[-52.099052253027665,-29.135166880346386],[-52.08909995578488,-29.135103415422986],[-52.089031972362655,-29.144419068192917],[-52.09898462365298,-29.144482538751543]]]}},{"type":"Feature","properties":{"id_grade":"1KME5192N8101","pop":28,"dom":10,"universo_dom":"domicilios_ocupados_grade_ibge_2022","na_bacia":1,"area_pct_bacia":100.0,"metodo_recorte_bacia":"ponto_representativo_grade_2022; area_pct_geometrica","status_borda_bacia":"total","metodo_area_bacia":"interse??o geom?trica em EPSG:5880","metodo_na_bacia":"ponto_representativo_grade_2022_within_bacia","pop_n_validos":1,"pop_n_total":1,"pop_completude":1.0,"dom_n_validos":1,"dom_n_total":1,"dom_completude":1.0},"geometry":{"type":"Polygon","coordinates":[[[-52.089031972362655,-29.144419068192917],[-52.08909995578488,-29.135103415422986],[-52.07914766337892,-29.135039619129003],[-52.079079325909674,-29.144355266234285],[-52.089031972362655,-29.144419068192917]]]}},{"type":"Feature","properties":{"id_grade":"1KME5193N8101","pop":20,"dom":7,"universo_dom":"domicilios_ocupados_grade_ibge_2022","na_bacia":1,"area_pct_bacia":100.0,"metodo_recorte_bacia":"ponto_representativo_grade_2022; area_pct_geometrica","status_borda_bacia":"total","metodo_area_bacia":"interse??o geom?trica em EPSG:5880","metodo_na_bacia":"ponto_representativo_grade_2022_within_bacia","pop_n_validos":1,"pop_n_total":1,"pop_completude":1.0,"dom_n_validos":1,"dom_n_total":1,"dom_completude":1.0},"geometry":{"type":"Polygon","coordinates":[[[-52.079079325909674,-29.144355266234285],[-52.07914766337892,-29.135039619129003],[-52.06919537583498,-29.13497549146471],[-52.06912668431922,-29.14429113287578],[-52.079079325909674,-29.144355266234285]]]}},{"type":"Feature","properties":{"id_grade":"1KME5194N8101","pop":10,"dom":4,"universo_dom":"domicilios_ocupados_grade_ibge_2022","na_bacia":1,"area_pct_bacia":100.0,"metodo_recorte_bacia":"ponto_representativo_grade_2022; area_pct_geometrica","status_borda_bacia":"total","metodo_area_bacia":"interse??o geom?trica em EPSG:5880","metodo_na_bacia":"ponto_representativo_grade_2022_within_bacia","pop_n_validos":1,"pop_n_total":1,"pop_completude":1.0,"dom_n_validos":1,"dom_n_total":1,"dom_completude":1.0},"geometry":{"type":"Polygon","coordinates":[[[-52.06912668431922,-29.14429113287578],[-52.06919537583498,-29.13497549146471],[-52.05924309317823,-29.134911032430608],[-52.059174047616494,-29.144226668118588],[-52.06912668431922,-29.14429113287578]]]}},{"type":"Feature","properties":{"id_grade":"1KME5197N8101","pop":6,"dom":1,"universo_dom":"domicilios_ocupados_grade_ibge_2022","na_bacia":1,"area_pct_bacia":100.0,"metodo_recorte_bacia":"ponto_representativo_grade_2022; area_pct_geometrica","status_borda_bacia":"total","metodo_area_bacia":"interse??o geom?trica em EPSG:5880","metodo_na_bacia":"ponto_representativo_grade_2022_within_bacia","pop_n_validos":1,"pop_n_total":1,"pop_completude":1.0,"dom_n_validos":1,"dom_n_total":1,"dom_completude":1.0},"geometry":{"type":"Polygon","coordinates":[[[-52.03926878897495,-29.144096744409072],[-52.039338542627085,-29.134781120256264],[-52.02938627478306,-29.13471566711726],[-52.02931616708652,-29.144031285458222],[-52.03926878897495,-29.144096744409072]]]}},{"type":"Feature","properties":{"id_grade":"1KME5198N8101","pop":7,"dom":3,"universo_dom":"domicilios_ocupados_grade_ibge_2022","na_bacia":1,"area_pct_bacia":100.0,"metodo_recorte_bacia":"ponto_representativo_grade_2022; area_pct_geometrica","status_borda_bacia":"total","metodo_area_bacia":"interse??o geom?trica em EPSG:5880","metodo_na_bacia":"ponto_representativo_grade_2022_within_bacia","pop_n_validos":1,"pop_n_total":1,"pop_completude":1.0,"dom_n_validos":1,"dom_n_total":1,"dom_completude":1.0},"geometry":{"type":"Polygon","coordinates":[[[-52.02931616708652,-29.144031285458222],[-52.02938627478306,-29.13471566711726],[-52.019434011926975,-29.134649882610795],[-52.019363550186576,-29.14396549511083],[-52.02931616708652,-29.144031285458222]]]}},{"type":"Feature","properties":{"id_grade":"1KME5199N8101","pop":19,"dom":7,"universo_dom":"domicilios_ocupados_grade_ibge_2022","na_bacia":1,"area_pct_bacia":100.0,"metodo_recorte_bacia":"ponto_representativo_grade_2022; area_pct_geometrica","status_borda_bacia":"total","metodo_area_bacia":"interse??o geom?trica em EPSG:5880","metodo_na_bacia":"ponto_representativo_grade_2022_within_bacia","pop_n_validos":1,"pop_n_total":1,"pop_completude":1.0,"dom_n_validos":1,"dom_n_total":1,"dom_completude":1.0},"geometry":{"type":"Polygon","coordinates":[[[-52.019363550186576,-29.14396549511083],[-52.019434011926975,-29.134649882610795],[-52.00948175408403,-29.1345837667379],[-52.009410938300284,-29.143899373367532],[-52.019363550186576,-29.14396549511083]]]}},{"type":"Feature","properties":{"id_grade":"1KME5200N8101","pop":4,"dom":1,"universo_dom":"domicilios_ocupados_grade_ibge_2022","na_bacia":1,"area_pct_bacia":100.0,"metodo_recorte_bacia":"ponto_representativo_grade_2022; area_pct_geometrica","status_borda_bacia":"total","metodo_area_bacia":"interse??o geom?trica em EPSG:5880","metodo_na_bacia":"ponto_representativo_grade_2022_within_bacia","pop_n_validos":1,"pop_n_total":1,"pop_completude":1.0,"dom_n_validos":1,"dom_n_total":1,"dom_completude":1.0},"geometry":{"type":"Polygon","coordinates":[[[-52.009410938300284,-29.143899373367532],[-52.00948175408403,-29.1345837667379],[-51.999529501279405,-29.134517319499196],[-51.999458331452864,-29.14383292022886],[-52.009410938300284,-29.143899373367532]]]}},{"type":"Feature","properties":{"id_grade":"1KME5201N8101","pop":18,"dom":9,"universo_dom":"domicilios_ocupados_grade_ibge_2022","na_bacia":1,"area_pct_bacia":100.0,"metodo_recorte_bacia":"ponto_representativo_grade_2022; area_pct_geometrica","status_borda_bacia":"total","metodo_area_bacia":"interse??o geom?trica em EPSG:5880","metodo_na_bacia":"ponto_representativo_grade_2022_within_bacia","pop_n_validos":1,"pop_n_total":1,"pop_completude":1.0,"dom_n_validos":1,"dom_n_total":1,"dom_completude":1.0},"geometry":{"type":"Polygon","coordinates":[[[-51.999458331452864,-29.14383292022886],[-51.999529501279405,-29.134517319499196],[-51.98957725353828,-29.134450540895138],[-51.98950572966949,-29.143766135695355],[-51.999458331452864,-29.14383292022886]]]}},{"type":"Feature","properties":{"id_grade":"1KME5187N8102","pop":6,"dom":2,"universo_dom":"domicilios_ocupados_grade_ibge_2022","na_bacia":1,"area_pct_bacia":100.0,"metodo_recorte_bacia":"ponto_representativo_grade_2022; area_pct_geometrica","status_borda_bacia":"total","metodo_area_bacia":"interse??o geom?trica em EPSG:5880","metodo_na_bacia":"ponto_representativo_grade_2022_within_bacia","pop_n_validos":1,"pop_n_total":1,"pop_completude":1.0,"dom_n_validos":1,"dom_n_total":1,"dom_completude":1.0},"geometry":{"type":"Polygon","coordinates":[[[-52.13886148986332,-29.13541742631886],[-52.13892769833184,-29.126102241195603],[-52.12897573601802,-29.126040107276385],[-52.1289091735251,-29.135355286884963],[-52.13886148986332,-29.13541742631886]]]}},{"type":"Feature","properties":{"id_grade":"1KME5190N8102","pop":4,"dom":2,"universo_dom":"domicilios_ocupados_grade_ibge_2022","na_bacia":1,"area_pct_bacia":100.0,"metodo_recorte_bacia":"ponto_representativo_grade_2022; area_pct_geometrica","status_borda_bacia":"total","metodo_area_bacia":"interse??o geom?trica em EPSG:5880","metodo_na_bacia":"ponto_representativo_grade_2022_within_bacia","pop_n_validos":1,"pop_n_total":1,"pop_completude":1.0,"dom_n_validos":1,"dom_n_total":1,"dom_completude":1.0},"geometry":{"type":"Polygon","coordinates":[[[-52.10900455508209,-29.135230013898056],[-52.10907182562228,-29.125914845407067],[-52.099119877590724,-29.125851717458133],[-52.099052253027665,-29.135166880346386],[-52.10900455508209,-29.135230013898056]]]}},{"type":"Feature","properties":{"id_grade":"1KME5191N8102","pop":3,"dom":1,"universo_dom":"domicilios_ocupados_grade_ibge_2022","na_bacia":1,"area_pct_bacia":100.0,"metodo_recorte_bacia":"ponto_representativo_grade_2022; area_pct_geometrica","status_borda_bacia":"total","metodo_area_bacia":"interse??o geom?trica em EPSG:5880","metodo_na_bacia":"ponto_representativo_grade_2022_within_bacia","pop_n_validos":1,"pop_n_total":1,"pop_completude":1.0,"dom_n_validos":1,"dom_n_total":1,"dom_completude":1.0},"geometry":{"type":"Polygon","coordinates":[[[-52.099052253027665,-29.135166880346386],[-52.099119877590724,-29.125851717458133],[-52.08916793437028,-29.12578825816713],[-52.08909995578488,-29.135103415422986],[-52.099052253027665,-29.135166880346386]]]}},{"type":"Feature","properties":{"id_grade":"1KME5192N8102","pop":5,"dom":2,"universo_dom":"domicilios_ocupados_grade_ibge_2022","na_bacia":1,"area_pct_bacia":100.0,"metodo_recorte_bacia":"ponto_representativo_grade_2022; area_pct_geometrica","status_borda_bacia":"total","metodo_area_bacia":"interse??o geom?trica em EPSG:5880","metodo_na_bacia":"ponto_representativo_grade_2022_within_bacia","pop_n_validos":1,"pop_n_total":1,"pop_completude":1.0,"dom_n_validos":1,"dom_n_total":1,"dom_completude":1.0},"geometry":{"type":"Polygon","coordinates":[[[-52.08909995578488,-29.135103415422986],[-52.08916793437028,-29.12578825816713],[-52.07921599598616,-29.125724467534706],[-52.07914766337892,-29.135039619129003],[-52.08909995578488,-29.135103415422986]]]}},{"type":"Feature","properties":{"id_grade":"1KME5193N8102","pop":15,"dom":6,"universo_dom":"domicilios_ocupados_grade_ibge_2022","na_bacia":1,"area_pct_bacia":100.0,"metodo_recorte_bacia":"ponto_representativo_grade_2022; area_pct_geometrica","status_borda_bacia":"total","metodo_area_bacia":"interse??o geom?trica em EPSG:5880","metodo_na_bacia":"ponto_representativo_grade_2022_within_bacia","pop_n_validos":1,"pop_n_total":1,"pop_completude":1.0,"dom_n_validos":1,"dom_n_total":1,"dom_completude":1.0},"geometry":{"type":"Polygon","coordinates":[[[-52.07914766337892,-29.135039619129003],[-52.07921599598616,-29.125724467534706],[-52.06926406246353,-29.12566034556142],[-52.06919537583498,-29.13497549146471],[-52.07914766337892,-29.135039619129003]]]}},{"type":"Feature","properties":{"id_grade":"1KME5194N8102","pop":7,"dom":3,"universo_dom":"domicilios_ocupados_grade_ibge_2022","na_bacia":1,"area_pct_bacia":100.0,"metodo_recorte_bacia":"ponto_representativo_grade_2022; area_pct_geometrica","status_borda_bacia":"total","metodo_area_bacia":"interse??o geom?trica em EPSG:5880","metodo_na_bacia":"ponto_representativo_grade_2022_within_bacia","pop_n_validos":1,"pop_n_total":1,"pop_completude":1.0,"dom_n_validos":1,"dom_n_total":1,"dom_completude":1.0},"geometry":{"type":"Polygon","coordinates":[[[-52.06919537583498,-29.13497549146471],[-52.06926406246353,-29.12566034556142],[-52.05931213382758,-29.125595892248064],[-52.05924309317823,-29.134911032430608],[-52.06919537583498,-29.13497549146471]]]}},{"type":"Feature","properties":{"id_grade":"1KME5195N8102","pop":15,"dom":4,"universo_dom":"domicilios_ocupados_grade_ibge_2022","na_bacia":1,"area_pct_bacia":100.0,"metodo_recorte_bacia":"ponto_representativo_grade_2022; area_pct_geometrica","status_borda_bacia":"total","metodo_area_bacia":"interse??o geom?trica em EPSG:5880","metodo_na_bacia":"ponto_representativo_grade_2022_within_bacia","pop_n_validos":1,"pop_n_total":1,"pop_completude":1.0,"dom_n_validos":1,"dom_n_total":1,"dom_completude":1.0},"geometry":{"type":"Polygon","coordinates":[[[-52.05924309317823,-29.134911032430608],[-52.05931213382758,-29.125595892248064],[-52.049360210103494,-29.125531107594774],[-52.04929081543387,-29.134846242027624],[-52.05924309317823,-29.134911032430608]]]}},{"type":"Feature","properties":{"id_grade":"1KME5196N8102","pop":2,"dom":1,"universo_dom":"domicilios_ocupados_grade_ibge_2022","na_bacia":1,"area_pct_bacia":100.0,"metodo_recorte_bacia":"ponto_representativo_grade_2022; area_pct_geometrica","status_borda_bacia":"total","metodo_area_bacia":"interse??o geom?trica em EPSG:5880","metodo_na_bacia":"ponto_representativo_grade_2022_within_bacia","pop_n_validos":1,"pop_n_total":1,"pop_completude":1.0,"dom_n_validos":1,"dom_n_total":1,"dom_completude":1.0},"geometry":{"type":"Polygon","coordinates":[[[-52.04929081543387,-29.134846242027624],[-52.049360210103494,-29.125531107594774],[-52.03940829131645,-29.125465991602788],[-52.039338542627085,-29.134781120256264],[-52.04929081543387,-29.134846242027624]]]}},{"type":"Feature","properties":{"id_grade":"1KME5197N8102","pop":6,"dom":3,"universo_dom":"domicilios_ocupados_grade_ibge_2022","na_bacia":1,"area_pct_bacia":100.0,"metodo_recorte_bacia":"ponto_representativo_grade_2022; area_pct_geometrica","status_borda_bacia":"total","metodo_area_bacia":"interse??o geom?trica em EPSG:5880","metodo_na_bacia":"ponto_representativo_grade_2022_within_bacia","pop_n_validos":1,"pop_n_total":1,"pop_completude":1.0,"dom_n_validos":1,"dom_n_total":1,"dom_completude":1.0},"geometry":{"type":"Polygon","coordinates":[[[-52.039338542627085,-29.134781120256264],[-52.03940829131645,-29.125465991602788],[-52.029456377491634,-29.12540054427194],[-52.02938627478306,-29.13471566711726],[-52.039338542627085,-29.134781120256264]]]}},{"type":"Feature","properties":{"id_grade":"1KME5198N8102","pop":12,"dom":4,"universo_dom":"domicilios_ocupados_grade_ibge_2022","na_bacia":1,"area_pct_bacia":100.0,"metodo_recorte_bacia":"ponto_representativo_grade_2022; area_pct_geometrica","status_borda_bacia":"total","metodo_area_bacia":"interse??o geom?trica em EPSG:5880","metodo_na_bacia":"ponto_representativo_grade_2022_within_bacia","pop_n_validos":1,"pop_n_total":1,"pop_completude":1.0,"dom_n_validos":1,"dom_n_total":1,"dom_completude":1.0},"geometry":{"type":"Polygon","coordinates":[[[-52.02938627478306,-29.13471566711726],[-52.029456377491634,-29.12540054427194],[-52.01950446865425,-29.125334765603764],[-52.019434011926975,-29.134649882610795],[-52.02938627478306,-29.13471566711726]]]}},{"type":"Feature","properties":{"id_grade":"1KME5199N8102","pop":8,"dom":2,"universo_dom":"domicilios_ocupados_grade_ibge_2022","na_bacia":1,"area_pct_bacia":100.0,"metodo_recorte_bacia":"ponto_representativo_grade_2022; area_pct_geometrica","status_borda_bacia":"total","metodo_area_bacia":"interse??o geom?trica em EPSG:5880","metodo_na_bacia":"ponto_representativo_grade_2022_within_bacia","pop_n_validos":1,"pop_n_total":1,"pop_completude":1.0,"dom_n_validos":1,"dom_n_total":1,"dom_completude":1.0},"geometry":{"type":"Polygon","coordinates":[[[-52.019434011926975,-29.134649882610795],[-52.01950446865425,-29.125334765603764],[-52.00955256482944,-29.125268655598315],[-52.00948175408403,-29.1345837667379],[-52.019434011926975,-29.134649882610795]]]}},{"type":"Feature","properties":{"id_grade":"1KME5200N8102","pop":15,"dom":6,"universo_dom":"domicilios_ocupados_grade_ibge_2022","na_bacia":1,"area_pct_bacia":100.0,"metodo_recorte_bacia":"ponto_representativo_grade_2022; area_pct_geometrica","status_borda_bacia":"total","metodo_area_bacia":"interse??o geom?trica em EPSG:5880","metodo_na_bacia":"ponto_representativo_grade_2022_within_bacia","pop_n_validos":1,"pop_n_total":1,"pop_completude":1.0,"dom_n_validos":1,"dom_n_total":1,"dom_completude":1.0},"geometry":{"type":"Polygon","coordinates":[[[-52.00948175408403,-29.1345837667379],[-52.00955256482944,-29.125268655598315],[-51.999600666042426,-29.125202214256404],[-51.999529501279405,-29.134517319499196],[-52.00948175408403,-29.1345837667379]]]}},{"type":"Feature","properties":{"id_grade":"1KME5187N8103","pop":3,"dom":1,"universo_dom":"domicilios_ocupados_grade_ibge_2022","na_bacia":1,"area_pct_bacia":100.0,"metodo_recorte_bacia":"ponto_representativo_grade_2022; area_pct_geometrica","status_borda_bacia":"total","metodo_area_bacia":"interse??o geom?trica em EPSG:5880","metodo_na_bacia":"ponto_representativo_grade_2022_within_bacia","pop_n_validos":1,"pop_n_total":1,"pop_completude":1.0,"dom_n_validos":1,"dom_n_total":1,"dom_completude":1.0},"geometry":{"type":"Polygon","coordinates":[[[-52.13892769833184,-29.126102241195603],[-52.13899390208997,-29.11678755122376],[-52.129042293775356,-29.116725422816035],[-52.12897573601802,-29.126040107276385],[-52.13892769833184,-29.126102241195603]]]}},{"type":"Feature","properties":{"id_grade":"1KME5188N8103","pop":16,"dom":6,"universo_dom":"domicilios_ocupados_grade_ibge_2022","na_bacia":1,"area_pct_bacia":100.0,"metodo_recorte_bacia":"ponto_representativo_grade_2022; area_pct_geometrica","status_borda_bacia":"total","metodo_area_bacia":"interse??o geom?trica em EPSG:5880","metodo_na_bacia":"ponto_representativo_grade_2022_within_bacia","pop_n_validos":1,"pop_n_total":1,"pop_completude":1.0,"dom_n_validos":1,"dom_n_total":1,"dom_completude":1.0},"geometry":{"type":"Polygon","coordinates":[[[-52.12897573601802,-29.126040107276385],[-52.129042293775356,-29.116725422816035],[-52.11909069019581,-29.11666296309433],[-52.11902377843977,-29.125977642013503],[-52.12897573601802,-29.126040107276385]]]}},{"type":"Feature","properties":{"id_grade":"1KME5189N8103","pop":4,"dom":2,"universo_dom":"domicilios_ocupados_grade_ibge_2022","na_bacia":1,"area_pct_bacia":100.0,"metodo_recorte_bacia":"ponto_representativo_grade_2022; area_pct_geometrica","status_borda_bacia":"total","metodo_area_bacia":"interse??o geom?trica em EPSG:5880","metodo_na_bacia":"ponto_representativo_grade_2022_within_bacia","pop_n_validos":1,"pop_n_total":1,"pop_completude":1.0,"dom_n_validos":1,"dom_n_total":1,"dom_completude":1.0},"geometry":{"type":"Polygon","coordinates":[[[-52.11902377843977,-29.125977642013503],[-52.11909069019581,-29.11666296309433],[-52.10913909137651,-29.11660017205849],[-52.10907182562228,-29.125914845407067],[-52.11902377843977,-29.125977642013503]]]}},{"type":"Feature","properties":{"id_grade":"1KME5190N8103","pop":9,"dom":4,"universo_dom":"domicilios_ocupados_grade_ibge_2022","na_bacia":1,"area_pct_bacia":100.0,"metodo_recorte_bacia":"ponto_representativo_grade_2022; area_pct_geometrica","status_borda_bacia":"total","metodo_area_bacia":"interse??o geom?trica em EPSG:5880","metodo_na_bacia":"ponto_representativo_grade_2022_within_bacia","pop_n_validos":1,"pop_n_total":1,"pop_completude":1.0,"dom_n_validos":1,"dom_n_total":1,"dom_completude":1.0},"geometry":{"type":"Polygon","coordinates":[[[-52.10907182562228,-29.125914845407067],[-52.10913909137651,-29.11660017205849],[-52.09918749734263,-29.116537049709695],[-52.099119877590724,-29.125851717458133],[-52.10907182562228,-29.125914845407067]]]}},{"type":"Feature","properties":{"id_grade":"1KME5192N8103","pop":8,"dom":3,"universo_dom":"domicilios_ocupados_grade_ibge_2022","na_bacia":1,"area_pct_bacia":100.0,"metodo_recorte_bacia":"ponto_representativo_grade_2022; area_pct_geometrica","status_borda_bacia":"total","metodo_area_bacia":"interse??o geom?trica em EPSG:5880","metodo_na_bacia":"ponto_representativo_grade_2022_within_bacia","pop_n_validos":1,"pop_n_total":1,"pop_completude":1.0,"dom_n_validos":1,"dom_n_total":1,"dom_completude":1.0},"geometry":{"type":"Polygon","coordinates":[[[-52.08916793437028,-29.12578825816713],[-52.08923590811937,-29.1164735960479],[-52.079284323731905,-29.116409811074114],[-52.07921599598616,-29.125724467534706],[-52.08916793437028,-29.12578825816713]]]}},{"type":"Feature","properties":{"id_grade":"1KME5193N8103","pop":33,"dom":11,"universo_dom":"domicilios_ocupados_grade_ibge_2022","na_bacia":1,"area_pct_bacia":100.0,"metodo_recorte_bacia":"ponto_representativo_grade_2022; area_pct_geometrica","status_borda_bacia":"total","metodo_area_bacia":"interse??o geom?trica em EPSG:5880","metodo_na_bacia":"ponto_representativo_grade_2022_within_bacia","pop_n_validos":1,"pop_n_total":1,"pop_completude":1.0,"dom_n_validos":1,"dom_n_total":1,"dom_completude":1.0},"geometry":{"type":"Polygon","coordinates":[[[-52.07921599598616,-29.125724467534706],[-52.079284323731905,-29.116409811074114],[-52.06933274420541,-29.11634569478885],[-52.06926406246353,-29.12566034556142],[-52.07921599598616,-29.125724467534706]]]}},{"type":"Feature","properties":{"id_grade":"1KME5196N8103","pop":5,"dom":2,"universo_dom":"domicilios_ocupados_grade_ibge_2022","na_bacia":1,"area_pct_bacia":100.0,"metodo_recorte_bacia":"ponto_representativo_grade_2022; area_pct_geometrica","status_borda_bacia":"total","metodo_area_bacia":"interse??o geom?trica em EPSG:5880","metodo_na_bacia":"ponto_representativo_grade_2022_within_bacia","pop_n_validos":1,"pop_n_total":1,"pop_completude":1.0,"dom_n_validos":1,"dom_n_total":1,"dom_completude":1.0},"geometry":{"type":"Polygon","coordinates":[[[-52.049360210103494,-29.125531107594774],[-52.049429599836074,-29.11621646828629],[-52.039478035043594,-29.11615135807047],[-52.03940829131645,-29.125465991602788],[-52.049360210103494,-29.125531107594774]]]}},{"type":"Feature","properties":{"id_grade":"1KME5197N8103","pop":18,"dom":6,"universo_dom":"domicilios_ocupados_grade_ibge_2022","na_bacia":1,"area_pct_bacia":100.0,"metodo_recorte_bacia":"ponto_representativo_grade_2022; area_pct_geometrica","status_borda_bacia":"total","metodo_area_bacia":"interse??o geom?trica em EPSG:5880","metodo_na_bacia":"ponto_representativo_grade_2022_within_bacia","pop_n_validos":1,"pop_n_total":1,"pop_completude":1.0,"dom_n_validos":1,"dom_n_total":1,"dom_completude":1.0},"geometry":{"type":"Polygon","coordinates":[[[-52.03940829131645,-29.125465991602788],[-52.039478035043594,-29.11615135807047],[-52.02952647521282,-29.116085916545497],[-52.029456377491634,-29.12540054427194],[-52.03940829131645,-29.125465991602788]]]}},{"type":"Feature","properties":{"id_grade":"1KME5198N8103","pop":12,"dom":5,"universo_dom":"domicilios_ocupados_grade_ibge_2022","na_bacia":1,"area_pct_bacia":100.0,"metodo_recorte_bacia":"ponto_representativo_grade_2022; area_pct_geometrica","status_borda_bacia":"total","metodo_area_bacia":"interse??o geom?trica em EPSG:5880","metodo_na_bacia":"ponto_representativo_grade_2022_within_bacia","pop_n_validos":1,"pop_n_total":1,"pop_completude":1.0,"dom_n_validos":1,"dom_n_total":1,"dom_completude":1.0},"geometry":{"type":"Polygon","coordinates":[[[-52.029456377491634,-29.12540054427194],[-52.02952647521282,-29.116085916545497],[-52.01957492036892,-29.116020143712017],[-52.01950446865425,-29.125334765603764],[-52.029456377491634,-29.12540054427194]]]}},{"type":"Feature","properties":{"id_grade":"1KME5199N8103","pop":11,"dom":4,"universo_dom":"domicilios_ocupados_grade_ibge_2022","na_bacia":1,"area_pct_bacia":100.0,"metodo_recorte_bacia":"ponto_representativo_grade_2022; area_pct_geometrica","status_borda_bacia":"total","metodo_area_bacia":"interse??o geom?trica em EPSG:5880","metodo_na_bacia":"ponto_representativo_grade_2022_within_bacia","pop_n_validos":1,"pop_n_total":1,"pop_completude":1.0,"dom_n_validos":1,"dom_n_total":1,"dom_completude":1.0},"geometry":{"type":"Polygon","coordinates":[[[-52.01950446865425,-29.125334765603764],[-52.01957492036892,-29.116020143712017],[-52.009623370537085,-29.115954039570962],[-52.00955256482944,-29.125268655598315],[-52.01950446865425,-29.125334765603764]]]}},{"type":"Feature","properties":{"id_grade":"1KME5200N8103","pop":1,"dom":1,"universo_dom":"domicilios_ocupados_grade_ibge_2022","na_bacia":1,"area_pct_bacia":100.0,"metodo_recorte_bacia":"ponto_representativo_grade_2022; area_pct_geometrica","status_borda_bacia":"total","metodo_area_bacia":"interse??o geom?trica em EPSG:5880","metodo_na_bacia":"ponto_representativo_grade_2022_within_bacia","pop_n_validos":1,"pop_n_total":1,"pop_completude":1.0,"dom_n_validos":1,"dom_n_total":1,"dom_completude":1.0},"geometry":{"type":"Polygon","coordinates":[[[-52.00955256482944,-29.125268655598315],[-52.009623370537085,-29.115954039570962],[-51.999671825742496,-29.11588760412249],[-51.999600666042426,-29.125202214256404],[-52.00955256482944,-29.125268655598315]]]}},{"type":"Feature","properties":{"id_grade":"1KME5187N8104","pop":7,"dom":3,"universo_dom":"domicilios_ocupados_grade_ibge_2022","na_bacia":1,"area_pct_bacia":100.0,"metodo_recorte_bacia":"ponto_representativo_grade_2022; area_pct_geometrica","status_borda_bacia":"total","metodo_area_bacia":"interse??o geom?trica em EPSG:5880","metodo_na_bacia":"ponto_representativo_grade_2022_within_bacia","pop_n_validos":1,"pop_n_total":1,"pop_completude":1.0,"dom_n_validos":1,"dom_n_total":1,"dom_completude":1.0},"geometry":{"type":"Polygon","coordinates":[[[-52.13899390208997,-29.11678755122376],[-52.139060101138234,-29.107473356025316],[-52.129108846797635,-29.107411233127007],[-52.129042293775356,-29.116725422816035],[-52.13899390208997,-29.11678755122376]]]}},{"type":"Feature","properties":{"id_grade":"1KME5188N8104","pop":4,"dom":1,"universo_dom":"domicilios_ocupados_grade_ibge_2022","na_bacia":1,"area_pct_bacia":100.0,"metodo_recorte_bacia":"ponto_representativo_grade_2022; area_pct_geometrica","status_borda_bacia":"total","metodo_area_bacia":"interse??o geom?trica em EPSG:5880","metodo_na_bacia":"ponto_representativo_grade_2022_within_bacia","pop_n_validos":1,"pop_n_total":1,"pop_completude":1.0,"dom_n_validos":1,"dom_n_total":1,"dom_completude":1.0},"geometry":{"type":"Polygon","coordinates":[[[-52.129042293775356,-29.116725422816035],[-52.129108846797635,-29.107411233127007],[-52.11915759719161,-29.107348778943106],[-52.11909069019581,-29.11666296309433],[-52.129042293775356,-29.116725422816035]]]}},{"type":"Feature","properties":{"id_grade":"1KME5189N8104","pop":5,"dom":2,"universo_dom":"domicilios_ocupados_grade_ibge_2022","na_bacia":1,"area_pct_bacia":100.0,"metodo_recorte_bacia":"ponto_representativo_grade_2022; area_pct_geometrica","status_borda_bacia":"total","metodo_area_bacia":"interse??o geom?trica em EPSG:5880","metodo_na_bacia":"ponto_representativo_grade_2022_within_bacia","pop_n_validos":1,"pop_n_total":1,"pop_completude":1.0,"dom_n_validos":1,"dom_n_total":1,"dom_completude":1.0},"geometry":{"type":"Polygon","coordinates":[[[-52.11909069019581,-29.11666296309433],[-52.11915759719161,-29.107348778943106],[-52.10920635234532,-29.107285993475145],[-52.10913909137651,-29.11660017205849],[-52.11909069019581,-29.11666296309433]]]}},{"type":"Feature","properties":{"id_grade":"1KME5190N8104","pop":4,"dom":2,"universo_dom":"domicilios_ocupados_grade_ibge_2022","na_bacia":1,"area_pct_bacia":100.0,"metodo_recorte_bacia":"ponto_representativo_grade_2022; area_pct_geometrica","status_borda_bacia":"total","metodo_area_bacia":"interse??o geom?trica em EPSG:5880","metodo_na_bacia":"ponto_representativo_grade_2022_within_bacia","pop_n_validos":1,"pop_n_total":1,"pop_completude":1.0,"dom_n_validos":1,"dom_n_total":1,"dom_completude":1.0},"geometry":{"type":"Polygon","coordinates":[[[-52.10913909137651,-29.11660017205849],[-52.10920635234532,-29.107285993475145],[-52.09925511228394,-29.107222876723032],[-52.09918749734263,-29.116537049709695],[-52.10913909137651,-29.11660017205849]]]}},{"type":"Feature","properties":{"id_grade":"1KME5191N8104","pop":22,"dom":5,"universo_dom":"domicilios_ocupados_grade_ibge_2022","na_bacia":1,"area_pct_bacia":100.0,"metodo_recorte_bacia":"ponto_representativo_grade_2022; area_pct_geometrica","status_borda_bacia":"total","metodo_area_bacia":"interse??o geom?trica em EPSG:5880","metodo_na_bacia":"ponto_representativo_grade_2022_within_bacia","pop_n_validos":1,"pop_n_total":1,"pop_completude":1.0,"dom_n_validos":1,"dom_n_total":1,"dom_completude":1.0},"geometry":{"type":"Polygon","coordinates":[[[-52.09918749734263,-29.116537049709695],[-52.09925511228394,-29.107222876723032],[-52.08930387703267,-29.10715942868752],[-52.08923590811937,-29.1164735960479],[-52.09918749734263,-29.116537049709695]]]}},{"type":"Feature","properties":{"id_grade":"1KME5196N8104","pop":27,"dom":10,"universo_dom":"domicilios_ocupados_grade_ibge_2022","na_bacia":1,"area_pct_bacia":100.0,"metodo_recorte_bacia":"ponto_representativo_grade_2022; area_pct_geometrica","status_borda_bacia":"total","metodo_area_bacia":"interse??o geom?trica em EPSG:5880","metodo_na_bacia":"ponto_representativo_grade_2022_within_bacia","pop_n_validos":1,"pop_n_total":1,"pop_completude":1.0,"dom_n_validos":1,"dom_n_total":1,"dom_completude":1.0},"geometry":{"type":"Polygon","coordinates":[[[-52.049429599836074,-29.11621646828629],[-52.04949898463213,-29.106902323725084],[-52.03954777380903,-29.10683721928211],[-52.039478035043594,-29.11615135807047],[-52.049429599836074,-29.11621646828629]]]}},{"type":"Feature","properties":{"id_grade":"1KME5197N8104","pop":13,"dom":5,"universo_dom":"domicilios_ocupados_grade_ibge_2022","na_bacia":1,"area_pct_bacia":100.0,"metodo_recorte_bacia":"ponto_representativo_grade_2022; area_pct_geometrica","status_borda_bacia":"total","metodo_area_bacia":"interse??o geom?trica em EPSG:5880","metodo_na_bacia":"ponto_representativo_grade_2022_within_bacia","pop_n_validos":1,"pop_n_total":1,"pop_completude":1.0,"dom_n_validos":1,"dom_n_total":1,"dom_completude":1.0},"geometry":{"type":"Polygon","coordinates":[[[-52.039478035043594,-29.11615135807047],[-52.03954777380903,-29.10683721928211],[-52.0295965679471,-29.106771783559754],[-52.02952647521282,-29.116085916545497],[-52.039478035043594,-29.11615135807047]]]}},{"type":"Feature","properties":{"id_grade":"1KME5198N8104","pop":3,"dom":2,"universo_dom":"domicilios_ocupados_grade_ibge_2022","na_bacia":1,"area_pct_bacia":100.0,"metodo_recorte_bacia":"ponto_representativo_grade_2022; area_pct_geometrica","status_borda_bacia":"total","metodo_area_bacia":"interse??o geom?trica em EPSG:5880","metodo_na_bacia":"ponto_representativo_grade_2022_within_bacia","pop_n_validos":1,"pop_n_total":1,"pop_completude":1.0,"dom_n_validos":1,"dom_n_total":1,"dom_completude":1.0},"geometry":{"type":"Polygon","coordinates":[[[-52.02952647521282,-29.116085916545497],[-52.0295965679471,-29.106771783559754],[-52.019645367071526,-29.10670601655815],[-52.01957492036892,-29.116020143712017],[-52.02952647521282,-29.116085916545497]]]}},{"type":"Feature","properties":{"id_grade":"1KME5186N8105","pop":8,"dom":2,"universo_dom":"domicilios_ocupados_grade_ibge_2022","na_bacia":1,"area_pct_bacia":100.0,"metodo_recorte_bacia":"ponto_representativo_grade_2022; area_pct_geometrica","status_borda_bacia":"total","metodo_area_bacia":"interse??o geom?trica em EPSG:5880","metodo_na_bacia":"ponto_representativo_grade_2022_within_bacia","pop_n_validos":1,"pop_n_total":1,"pop_completude":1.0,"dom_n_validos":1,"dom_n_total":1,"dom_completude":1.0},"geometry":{"type":"Polygon","coordinates":[[[-52.149011360188204,-29.10753514763818],[-52.14907720057773,-29.098221441359897],[-52.139126295477105,-29.098159655223526],[-52.139060101138234,-29.107473356025316],[-52.149011360188204,-29.10753514763818]]]}},{"type":"Feature","properties":{"id_grade":"1KME5187N8105","pop":9,"dom":3,"universo_dom":"domicilios_ocupados_grade_ibge_2022","na_bacia":1,"area_pct_bacia":100.0,"metodo_recorte_bacia":"ponto_representativo_grade_2022; area_pct_geometrica","status_borda_bacia":"total","metodo_area_bacia":"interse??o geom?trica em EPSG:5880","metodo_na_bacia":"ponto_representativo_grade_2022_within_bacia","pop_n_validos":1,"pop_n_total":1,"pop_completude":1.0,"dom_n_validos":1,"dom_n_total":1,"dom_completude":1.0},"geometry":{"type":"Polygon","coordinates":[[[-52.139060101138234,-29.107473356025316],[-52.139126295477105,-29.098159655223526],[-52.12917539508536,-29.098097537830853],[-52.129108846797635,-29.107411233127007],[-52.139060101138234,-29.107473356025316]]]}},{"type":"Feature","properties":{"id_grade":"1KME5192N8105","pop":6,"dom":3,"universo_dom":"domicilios_ocupados_grade_ibge_2022","na_bacia":1,"area_pct_bacia":100.0,"metodo_recorte_bacia":"ponto_representativo_grade_2022; area_pct_geometrica","status_borda_bacia":"total","metodo_area_bacia":"interse??o geom?trica em EPSG:5880","metodo_na_bacia":"ponto_representativo_grade_2022_within_bacia","pop_n_validos":1,"pop_n_total":1,"pop_completude":1.0,"dom_n_validos":1,"dom_n_total":1,"dom_completude":1.0},"geometry":{"type":"Polygon","coordinates":[[[-52.08930387703267,-29.10715942868752],[-52.08937184111069,-29.097845755709187],[-52.07942096464098,-29.097781982043813],[-52.07935264661667,-29.107095649369654],[-52.08930387703267,-29.10715942868752]]]}},{"type":"Feature","properties":{"id_grade":"1KME5193N8105","pop":6,"dom":2,"universo_dom":"domicilios_ocupados_grade_ibge_2022","na_bacia":1,"area_pct_bacia":100.0,"metodo_recorte_bacia":"ponto_representativo_grade_2022; area_pct_geometrica","status_borda_bacia":"total","metodo_area_bacia":"interse??o geom?trica em EPSG:5880","metodo_na_bacia":"ponto_representativo_grade_2022_within_bacia","pop_n_validos":1,"pop_n_total":1,"pop_completude":1.0,"dom_n_validos":1,"dom_n_total":1,"dom_completude":1.0},"geometry":{"type":"Polygon","coordinates":[[[-52.07935264661667,-29.107095649369654],[-52.07942096464098,-29.097781982043813],[-52.069470093031214,-29.097717877125707],[-52.06940142106113,-29.107031538769366],[-52.07935264661667,-29.107095649369654]]]}},{"type":"Feature","properties":{"id_grade":"1KME5194N8105","pop":7,"dom":3,"universo_dom":"domicilios_ocupados_grade_ibge_2022","na_bacia":1,"area_pct_bacia":100.0,"metodo_recorte_bacia":"ponto_representativo_grade_2022; area_pct_geometrica","status_borda_bacia":"total","metodo_area_bacia":"interse??o geom?trica em EPSG:5880","metodo_na_bacia":"ponto_representativo_grade_2022_within_bacia","pop_n_validos":1,"pop_n_total":1,"pop_completude":1.0,"dom_n_validos":1,"dom_n_total":1,"dom_completude":1.0},"geometry":{"type":"Polygon","coordinates":[[[-52.06940142106113,-29.107031538769366],[-52.069470093031214,-29.097717877125707],[-52.05951922630656,-29.09765344095522],[-52.059450200391225,-29.106967096887722],[-52.06940142106113,-29.107031538769366]]]}},{"type":"Feature","properties":{"id_grade":"1KME5195N8105","pop":27,"dom":10,"universo_dom":"domicilios_ocupados_grade_ibge_2022","na_bacia":1,"area_pct_bacia":100.0,"metodo_recorte_bacia":"ponto_representativo_grade_2022; area_pct_geometrica","status_borda_bacia":"total","metodo_area_bacia":"interse??o geom?trica em EPSG:5880","metodo_na_bacia":"ponto_representativo_grade_2022_within_bacia","pop_n_validos":1,"pop_n_total":1,"pop_completude":1.0,"dom_n_validos":1,"dom_n_total":1,"dom_completude":1.0},"geometry":{"type":"Polygon","coordinates":[[[-52.059450200391225,-29.106967096887722],[-52.05951922630656,-29.09765344095522],[-52.049568364492195,-29.097588673533522],[-52.04949898463213,-29.106902323725084],[-52.059450200391225,-29.106967096887722]]]}},{"type":"Feature","properties":{"id_grade":"1KME5196N8105","pop":11,"dom":4,"universo_dom":"domicilios_ocupados_grade_ibge_2022","na_bacia":1,"area_pct_bacia":100.0,"metodo_recorte_bacia":"ponto_representativo_grade_2022; area_pct_geometrica","status_borda_bacia":"total","metodo_area_bacia":"interse??o geom?trica em EPSG:5880","metodo_na_bacia":"ponto_representativo_grade_2022_within_bacia","pop_n_validos":1,"pop_n_total":1,"pop_completude":1.0,"dom_n_validos":1,"dom_n_total":1,"dom_completude":1.0},"geometry":{"type":"Polygon","coordinates":[[[-52.04949898463213,-29.106902323725084],[-52.049568364492195,-29.097588673533522],[-52.0396175076133,-29.097523574860684],[-52.03954777380903,-29.10683721928211],[-52.04949898463213,-29.106902323725084]]]}},{"type":"Feature","properties":{"id_grade":"1KME5197N8105","pop":3,"dom":1,"universo_dom":"domicilios_ocupados_grade_ibge_2022","na_bacia":1,"area_pct_bacia":100.0,"metodo_recorte_bacia":"ponto_representativo_grade_2022; area_pct_geometrica","status_borda_bacia":"total","metodo_area_bacia":"interse??o geom?trica em EPSG:5880","metodo_na_bacia":"ponto_representativo_grade_2022_within_bacia","pop_n_validos":1,"pop_n_total":1,"pop_completude":1.0,"dom_n_validos":1,"dom_n_total":1,"dom_completude":1.0},"geometry":{"type":"Polygon","coordinates":[[[-52.03954777380903,-29.10683721928211],[-52.0396175076133,-29.097523574860684],[-52.029666655695046,-29.097458144937555],[-52.0295965679471,-29.106771783559754],[-52.03954777380903,-29.10683721928211]]]}},{"type":"Feature","properties":{"id_grade":"1KME5198N8105","pop":4,"dom":2,"universo_dom":"domicilios_ocupados_grade_ibge_2022","na_bacia":1,"area_pct_bacia":100.0,"metodo_recorte_bacia":"ponto_representativo_grade_2022; area_pct_geometrica","status_borda_bacia":"total","metodo_area_bacia":"interse??o geom?trica em EPSG:5880","metodo_na_bacia":"ponto_representativo_grade_2022_within_bacia","pop_n_validos":1,"pop_n_total":1,"pop_completude":1.0,"dom_n_validos":1,"dom_n_total":1,"dom_completude":1.0},"geometry":{"type":"Polygon","coordinates":[[[-52.0295965679471,-29.106771783559754],[-52.029666655695046,-29.097458144937555],[-52.019715808762605,-29.097392383764838],[-52.019645367071526,-29.10670601655815],[-52.0295965679471,-29.106771783559754]]]}},{"type":"Feature","properties":{"id_grade":"1KME5186N8106","pop":11,"dom":4,"universo_dom":"domicilios_ocupados_grade_ibge_2022","na_bacia":1,"area_pct_bacia":100.0,"metodo_recorte_bacia":"ponto_representativo_grade_2022; area_pct_geometrica","status_borda_bacia":"total","metodo_area_bacia":"interse??o geom?trica em EPSG:5880","metodo_na_bacia":"ponto_representativo_grade_2022_within_bacia","pop_n_validos":1,"pop_n_total":1,"pop_completude":1.0,"dom_n_validos":1,"dom_n_total":1,"dom_completude":1.0},"geometry":{"type":"Polygon","coordinates":[[[-52.14907720057773,-29.098221441359897],[-52.149143036283554,-29.088908229103495],[-52.139192485107095,-29.088846448441213],[-52.139126295477105,-29.098159655223526],[-52.14907720057773,-29.098221441359897]]]}},{"type":"Feature","properties":{"id_grade":"1KME5187N8106","pop":2,"dom":1,"universo_dom":"domicilios_ocupados_grade_ibge_2022","na_bacia":1,"area_pct_bacia":100.0,"metodo_recorte_bacia":"ponto_representativo_grade_2022; area_pct_geometrica","status_borda_bacia":"total","metodo_area_bacia":"interse??o geom?trica em EPSG:5880","metodo_na_bacia":"ponto_representativo_grade_2022_within_bacia","pop_n_validos":1,"pop_n_total":1,"pop_completude":1.0,"dom_n_validos":1,"dom_n_total":1,"dom_completude":1.0},"geometry":{"type":"Polygon","coordinates":[[[-52.139126295477105,-29.098159655223526],[-52.139192485107095,-29.088846448441213],[-52.12924193863902,-29.088784336551388],[-52.12917539508536,-29.098097537830853],[-52.139126295477105,-29.098159655223526]]]}},{"type":"Feature","properties":{"id_grade":"1KME5188N8106","pop":7,"dom":2,"universo_dom":"domicilios_ocupados_grade_ibge_2022","na_bacia":1,"area_pct_bacia":100.0,"metodo_recorte_bacia":"ponto_representativo_grade_2022; area_pct_geometrica","status_borda_bacia":"total","metodo_area_bacia":"interse??o geom?trica em EPSG:5880","metodo_na_bacia":"ponto_representativo_grade_2022_within_bacia","pop_n_validos":1,"pop_n_total":1,"pop_completude":1.0,"dom_n_validos":1,"dom_n_total":1,"dom_completude":1.0},"geometry":{"type":"Polygon","coordinates":[[[-52.12917539508536,-29.098097537830853],[-52.12924193863902,-29.088784336551388],[-52.119291396904494,-29.088721893435796],[-52.119224499427666,-29.098035089182783],[-52.12917539508536,-29.098097537830853]]]}},{"type":"Feature","properties":{"id_grade":"1KME5192N8106","pop":22,"dom":7,"universo_dom":"domicilios_ocupados_grade_ibge_2022","na_bacia":1,"area_pct_bacia":100.0,"metodo_recorte_bacia":"ponto_representativo_grade_2022; area_pct_geometrica","status_borda_bacia":"total","metodo_area_bacia":"interse??o geom?trica em EPSG:5880","metodo_na_bacia":"ponto_representativo_grade_2022_within_bacia","pop_n_validos":1,"pop_n_total":1,"pop_completude":1.0,"dom_n_validos":1,"dom_n_total":1,"dom_completude":1.0},"geometry":{"type":"Polygon","coordinates":[[[-52.08937184111069,-29.097845755709187],[-52.089439800353944,-29.088532576735357],[-52.07948927780536,-29.08846880871976],[-52.07942096464098,-29.097781982043813],[-52.08937184111069,-29.097845755709187]]]}},{"type":"Feature","properties":{"id_grade":"1KME5193N8106","pop":4,"dom":2,"universo_dom":"domicilios_ocupados_grade_ibge_2022","na_bacia":1,"area_pct_bacia":100.0,"metodo_recorte_bacia":"ponto_representativo_grade_2022; area_pct_geometrica","status_borda_bacia":"total","metodo_area_bacia":"interse??o geom?trica em EPSG:5880","metodo_na_bacia":"ponto_representativo_grade_2022_within_bacia","pop_n_validos":1,"pop_n_total":1,"pop_completude":1.0,"dom_n_validos":1,"dom_n_total":1,"dom_completude":1.0},"geometry":{"type":"Polygon","coordinates":[[[-52.07942096464098,-29.097781982043813],[-52.07948927780536,-29.08846880871976],[-52.06953876011619,-29.088404709480407],[-52.069470093031214,-29.097717877125707],[-52.07942096464098,-29.097781982043813]]]}},{"type":"Feature","properties":{"id_grade":"1KME5194N8106","pop":8,"dom":2,"universo_dom":"domicilios_ocupados_grade_ibge_2022","na_bacia":1,"area_pct_bacia":100.0,"metodo_recorte_bacia":"ponto_representativo_grade_2022; area_pct_geometrica","status_borda_bacia":"total","metodo_area_bacia":"interse??o geom?trica em EPSG:5880","metodo_na_bacia":"ponto_representativo_grade_2022_within_bacia","pop_n_validos":1,"pop_n_total":1,"pop_completude":1.0,"dom_n_validos":1,"dom_n_total":1,"dom_completude":1.0},"geometry":{"type":"Polygon","coordinates":[[[-52.069470093031214,-29.097717877125707],[-52.06953876011619,-29.088404709480407],[-52.05958824731161,-29.088340279018635],[-52.05951922630656,-29.09765344095522],[-52.069470093031214,-29.097717877125707]]]}},{"type":"Feature","properties":{"id_grade":"1KME5195N8106","pop":10,"dom":3,"universo_dom":"domicilios_ocupados_grade_ibge_2022","na_bacia":1,"area_pct_bacia":100.0,"metodo_recorte_bacia":"ponto_representativo_grade_2022; area_pct_geometrica","status_borda_bacia":"total","metodo_area_bacia":"interse??o geom?trica em EPSG:5880","metodo_na_bacia":"ponto_representativo_grade_2022_within_bacia","pop_n_validos":1,"pop_n_total":1,"pop_completude":1.0,"dom_n_validos":1,"dom_n_total":1,"dom_completude":1.0},"geometry":{"type":"Polygon","coordinates":[[[-52.05951922630656,-29.09765344095522],[-52.05958824731161,-29.088340279018635],[-52.049637739416795,-29.088275517334466],[-52.049568364492195,-29.097588673533522],[-52.05951922630656,-29.09765344095522]]]}},{"type":"Feature","properties":{"id_grade":"1KME5196N8106","pop":8,"dom":3,"universo_dom":"domicilios_ocupados_grade_ibge_2022","na_bacia":1,"area_pct_bacia":100.0,"metodo_recorte_bacia":"ponto_representativo_grade_2022; area_pct_geometrica","status_borda_bacia":"total","metodo_area_bacia":"interse??o geom?trica em EPSG:5880","metodo_na_bacia":"ponto_representativo_grade_2022_within_bacia","pop_n_validos":1,"pop_n_total":1,"pop_completude":1.0,"dom_n_validos":1,"dom_n_total":1,"dom_completude":1.0},"geometry":{"type":"Polygon","coordinates":[[[-52.049568364492195,-29.097588673533522],[-52.049637739416795,-29.088275517334466],[-52.03968723645692,-29.088210424428674],[-52.0396175076133,-29.097523574860684],[-52.049568364492195,-29.097588673533522]]]}},{"type":"Feature","properties":{"id_grade":"1KME5197N8106","pop":8,"dom":3,"universo_dom":"domicilios_ocupados_grade_ibge_2022","na_bacia":1,"area_pct_bacia":100.0,"metodo_recorte_bacia":"ponto_representativo_grade_2022; area_pct_geometrica","status_borda_bacia":"total","metodo_area_bacia":"interse??o geom?trica em EPSG:5880","metodo_na_bacia":"ponto_representativo_grade_2022_within_bacia","pop_n_validos":1,"pop_n_total":1,"pop_completude":1.0,"dom_n_validos":1,"dom_n_total":1,"dom_completude":1.0},"geometry":{"type":"Polygon","coordinates":[[[-52.0396175076133,-29.097523574860684],[-52.03968723645692,-29.088210424428674],[-52.02973673845717,-29.088145000302084],[-52.029666655695046,-29.097458144937555],[-52.0396175076133,-29.097523574860684]]]}},{"type":"Feature","properties":{"id_grade":"1KME5198N8106","pop":28,"dom":10,"universo_dom":"domicilios_ocupados_grade_ibge_2022","na_bacia":1,"area_pct_bacia":100.0,"metodo_recorte_bacia":"ponto_representativo_grade_2022; area_pct_geometrica","status_borda_bacia":"total","metodo_area_bacia":"interse??o geom?trica em EPSG:5880","metodo_na_bacia":"ponto_representativo_grade_2022_within_bacia","pop_n_validos":1,"pop_n_total":1,"pop_completude":1.0,"dom_n_validos":1,"dom_n_total":1,"dom_completude":1.0},"geometry":{"type":"Polygon","coordinates":[[[-52.029666655695046,-29.097458144937555],[-52.02973673845717,-29.088145000302084],[-52.019786245442695,-29.088079244954596],[-52.019715808762605,-29.097392383764838],[-52.029666655695046,-29.097458144937555]]]}},{"type":"Feature","properties":{"id_grade":"1KME5197N8107","pop":12,"dom":5,"universo_dom":"domicilios_ocupados_grade_ibge_2022","na_bacia":1,"area_pct_bacia":100.0,"metodo_recorte_bacia":"ponto_representativo_grade_2022; area_pct_geometrica","status_borda_bacia":"total","metodo_area_bacia":"interse??o geom?trica em EPSG:5880","metodo_na_bacia":"ponto_representativo_grade_2022_within_bacia","pop_n_validos":1,"pop_n_total":1,"pop_completude":1.0,"dom_n_validos":1,"dom_n_total":1,"dom_completude":1.0},"geometry":{"type":"Polygon","coordinates":[[[-52.03968723645692,-29.088210424428674],[-52.03975696034043,-29.078897767609384],[-52.029806816234,-29.07883234927603],[-52.02973673845717,-29.088145000302084],[-52.03968723645692,-29.088210424428674]]]}},{"type":"Feature","properties":{"id_grade":"200ME51922N81046","pop":4,"dom":1,"universo_dom":"domicilios_ocupados_grade_ibge_2022","na_bacia":1,"area_pct_bacia":100.0,"metodo_recorte_bacia":"ponto_representativo_grade_2022; area_pct_geometrica","status_borda_bacia":"total","metodo_area_bacia":"interse??o geom?trica em EPSG:5880","metodo_na_bacia":"ponto_representativo_grade_2022_within_bacia","pop_n_validos":1,"pop_n_total":1,"pop_completude":1.0,"dom_n_validos":1,"dom_n_total":1,"dom_completude":1.0},"geometry":{"type":"Polygon","coordinates":[[[-52.087272807094344,-29.112735139614966],[-52.0872864156355,-29.110872306411796],[-52.08529614040452,-29.110859563018348],[-52.085282518373496,-29.11272239622158],[-52.087272807094344,-29.112735139614966]]]}},{"type":"Feature","properties":{"id_grade":"200ME51928N81046","pop":8,"dom":4,"universo_dom":"domicilios_ocupados_grade_ibge_2022","na_bacia":1,"area_pct_bacia":100.0,"metodo_recorte_bacia":"ponto_representativo_grade_2022; area_pct_geometrica","status_borda_bacia":"total","metodo_area_bacia":"interse??o geom?trica em EPSG:5880","metodo_na_bacia":"ponto_representativo_grade_2022_within_bacia","pop_n_validos":1,"pop_n_total":1,"pop_completude":1.0,"dom_n_validos":1,"dom_n_total":1,"dom_completude":1.0},"geometry":{"type":"Polygon","coordinates":[[[-52.0813019418311,-29.112696869864628],[-52.081315591741145,-29.11083403756069],[-52.079325318308754,-29.110821254597127],[-52.07931165311027,-29.112684086901066],[-52.0813019418311,-29.112696869864628]]]}},{"type":"Feature","properties":{"id_grade":"200ME51922N81048","pop":3,"dom":1,"universo_dom":"domicilios_ocupados_grade_ibge_2022","na_bacia":1,"area_pct_bacia":100.0,"metodo_recorte_bacia":"ponto_representativo_grade_2022; area_pct_geometrica","status_borda_bacia":"total","metodo_area_bacia":"interse??o geom?trica em EPSG:5880","metodo_na_bacia":"ponto_representativo_grade_2022_within_bacia","pop_n_validos":1,"pop_n_total":1,"pop_completude":1.0,"dom_n_validos":1,"dom_n_total":1,"dom_completude":1.0},"geometry":{"type":"Polygon","coordinates":[[[-52.0872864156355,-29.110872306411796],[-52.08730002327741,-29.109009492993643],[-52.08530976243554,-29.108996750499593],[-52.08529614040452,-29.110859563018348],[-52.0872864156355,-29.110872306411796]]]}},{"type":"Feature","properties":{"id_grade":"200ME51924N81048","pop":5,"dom":4,"universo_dom":"domicilios_ocupados_grade_ibge_2022","na_bacia":1,"area_pct_bacia":100.0,"metodo_recorte_bacia":"ponto_representativo_grade_2022; area_pct_geometrica","status_borda_bacia":"total","metodo_area_bacia":"interse??o geom?trica em EPSG:5880","metodo_na_bacia":"ponto_representativo_grade_2022_within_bacia","pop_n_validos":1,"pop_n_total":1,"pop_completude":1.0,"dom_n_validos":1,"dom_n_total":1,"dom_completude":1.0},"geometry":{"type":"Polygon","coordinates":[[[-52.08529614040452,-29.110859563018348],[-52.08530976243554,-29.108996750499593],[-52.083319502493,-29.108983994515672],[-52.083305866072806,-29.11084680703448],[-52.08529614040452,-29.110859563018348]]]}},{"type":"Feature","properties":{"id_grade":"200ME51926N81048","pop":47,"dom":21,"universo_dom":"domicilios_ocupados_grade_ibge_2022","na_bacia":1,"area_pct_bacia":100.0,"metodo_recorte_bacia":"ponto_representativo_grade_2022; area_pct_geometrica","status_borda_bacia":"total","metodo_area_bacia":"interse??o geom?trica em EPSG:5880","metodo_na_bacia":"ponto_representativo_grade_2022_within_bacia","pop_n_validos":1,"pop_n_total":1,"pop_completude":1.0,"dom_n_validos":1,"dom_n_total":1,"dom_completude":1.0},"geometry":{"type":"Polygon","coordinates":[[[-52.083305866072806,-29.11084680703448],[-52.083319502493,-29.108983994515672],[-52.08132924255045,-29.10897122504196],[-52.081315591741145,-29.11083403756069],[-52.083305866072806,-29.11084680703448]]]}},{"type":"Feature","properties":{"id_grade":"200ME51926N81050","pop":1,"dom":1,"universo_dom":"domicilios_ocupados_grade_ibge_2022","na_bacia":1,"area_pct_bacia":100.0,"metodo_recorte_bacia":"ponto_representativo_grade_2022; area_pct_geometrica","status_borda_bacia":"total","metodo_area_bacia":"interse??o geom?trica em EPSG:5880","metodo_na_bacia":"ponto_representativo_grade_2022_within_bacia","pop_n_validos":1,"pop_n_total":1,"pop_completude":1.0,"dom_n_validos":1,"dom_n_total":1,"dom_completude":1.0},"geometry":{"type":"Polygon","coordinates":[[[-52.083319502493,-29.108983994515672],[-52.08333313801387,-29.107121200882673],[-52.0813428924605,-29.107108431408946],[-52.08132924255045,-29.10897122504196],[-52.083319502493,-29.108983994515672]]]}},{"type":"Feature","properties":{"id_grade":"200ME51938N81042","pop":26,"dom":8,"universo_dom":"domicilios_ocupados_grade_ibge_2022","na_bacia":1,"area_pct_bacia":100.0,"metodo_recorte_bacia":"ponto_representativo_grade_2022; area_pct_geometrica","status_borda_bacia":"total","metodo_area_bacia":"interse??o geom?trica em EPSG:5880","metodo_na_bacia":"ponto_representativo_grade_2022_within_bacia","pop_n_validos":1,"pop_n_total":1,"pop_completude":1.0,"dom_n_validos":1,"dom_n_total":1,"dom_completude":1.0},"geometry":{"type":"Polygon","coordinates":[[[-52.071323059911265,-29.116358544111453],[-52.071336781767,-29.114495673136787],[-52.06934647955637,-29.11448282362333],[-52.069332744210726,-29.11634569459808],[-52.071323059911265,-29.116358544111453]]]}},{"type":"Feature","properties":{"id_grade":"200ME51930N81044","pop":17,"dom":7,"universo_dom":"domicilios_ocupados_grade_ibge_2022","na_bacia":1,"area_pct_bacia":100.0,"metodo_recorte_bacia":"ponto_representativo_grade_2022; area_pct_geometrica","status_borda_bacia":"total","metodo_area_bacia":"interse??o geom?trica em EPSG:5880","metodo_na_bacia":"ponto_representativo_grade_2022_within_bacia","pop_n_validos":1,"pop_n_total":1,"pop_completude":1.0,"dom_n_validos":1,"dom_n_total":1,"dom_completude":1.0},"geometry":{"type":"Polygon","coordinates":[[[-52.07929798881111,-29.11454693898998],[-52.07931165311027,-29.112684086901066],[-52.07732136528876,-29.11267129044769],[-52.07730768660042,-29.114534142536662],[-52.07929798881111,-29.11454693898998]]]}},{"type":"Feature","properties":{"id_grade":"200ME51932N81044","pop":40,"dom":13,"universo_dom":"domicilios_ocupados_grade_ibge_2022","na_bacia":1,"area_pct_bacia":100.0,"metodo_recorte_bacia":"ponto_representativo_grade_2022; area_pct_geometrica","status_borda_bacia":"total","metodo_area_bacia":"interse??o geom?trica em EPSG:5880","metodo_na_bacia":"ponto_representativo_grade_2022_within_bacia","pop_n_validos":1,"pop_n_total":1,"pop_completude":1.0,"dom_n_validos":1,"dom_n_total":1,"dom_completude":1.0},"geometry":{"type":"Polygon","coordinates":[[[-52.07730768660042,-29.114534142536662],[-52.07732136528876,-29.11267129044769],[-52.07533107746718,-29.11265848140372],[-52.075317384389734,-29.11452133259335],[-52.07730768660042,-29.114534142536662]]]}},{"type":"Feature","properties":{"id_grade":"200ME51934N81044","pop":5,"dom":2,"universo_dom":"domicilios_ocupados_grade_ibge_2022","na_bacia":1,"area_pct_bacia":100.0,"metodo_recorte_bacia":"ponto_representativo_grade_2022; area_pct_geometrica","status_borda_bacia":"total","metodo_area_bacia":"interse??o geom?trica em EPSG:5880","metodo_na_bacia":"ponto_representativo_grade_2022_within_bacia","pop_n_validos":1,"pop_n_total":1,"pop_completude":1.0,"dom_n_validos":1,"dom_n_total":1,"dom_completude":1.0},"geometry":{"type":"Polygon","coordinates":[[[-52.075317384389734,-29.11452133259335],[-52.07533107746718,-29.11265848140372],[-52.07334079054499,-29.11264565797065],[-52.07332708307837,-29.114508510059622],[-52.075317384389734,-29.11452133259335]]]}},{"type":"Feature","properties":{"id_grade":"200ME51936N81044","pop":6,"dom":3,"universo_dom":"domicilios_ocupados_grade_ibge_2022","na_bacia":1,"area_pct_bacia":100.0,"metodo_recorte_bacia":"ponto_representativo_grade_2022; area_pct_geometrica","status_borda_bacia":"total","metodo_area_bacia":"interse??o geom?trica em EPSG:5880","metodo_na_bacia":"ponto_representativo_grade_2022_within_bacia","pop_n_validos":1,"pop_n_total":1,"pop_completude":1.0,"dom_n_validos":1,"dom_n_total":1,"dom_completude":1.0},"geometry":{"type":"Polygon","coordinates":[[[-52.07332708307837,-29.114508510059622],[-52.07334079054499,-29.11264565797065],[-52.07135050272348,-29.112632821947123],[-52.071336781767,-29.114495673136787],[-52.07332708307837,-29.114508510059622]]]}},{"type":"Feature","properties":{"id_grade":"200ME51938N81044","pop":22,"dom":11,"universo_dom":"domicilios_ocupados_grade_ibge_2022","na_bacia":1,"area_pct_bacia":100.0,"metodo_recorte_bacia":"ponto_representativo_grade_2022; area_pct_geometrica","status_borda_bacia":"total","metodo_area_bacia":"interse??o geom?trica em EPSG:5880","metodo_na_bacia":"ponto_representativo_grade_2022_within_bacia","pop_n_validos":1,"pop_n_total":1,"pop_completude":1.0,"dom_n_validos":1,"dom_n_total":1,"dom_completude":1.0},"geometry":{"type":"Polygon","coordinates":[[[-52.071336781767,-29.114495673136787],[-52.07135050272348,-29.112632821947123],[-52.06936021580128,-29.11261997333308],[-52.06934647955637,-29.11448282362333],[-52.071336781767,-29.114495673136787]]]}},{"type":"Feature","properties":{"id_grade":"200ME51930N81046","pop":46,"dom":15,"universo_dom":"domicilios_ocupados_grade_ibge_2022","na_bacia":1,"area_pct_bacia":100.0,"metodo_recorte_bacia":"ponto_representativo_grade_2022; area_pct_geometrica","status_borda_bacia":"total","metodo_area_bacia":"interse??o geom?trica em EPSG:5880","metodo_na_bacia":"ponto_representativo_grade_2022_within_bacia","pop_n_validos":1,"pop_n_total":1,"pop_completude":1.0,"dom_n_validos":1,"dom_n_total":1,"dom_completude":1.0},"geometry":{"type":"Polygon","coordinates":[[[-52.07931165311027,-29.112684086901066],[-52.079325318308754,-29.110821254597127],[-52.07733504397702,-29.110808459043092],[-52.07732136528876,-29.11267129044769],[-52.07931165311027,-29.112684086901066]]]}},{"type":"Feature","properties":{"id_grade":"200ME51932N81046","pop":6,"dom":2,"universo_dom":"domicilios_ocupados_grade_ibge_2022","na_bacia":1,"area_pct_bacia":100.0,"metodo_recorte_bacia":"ponto_representativo_grade_2022; area_pct_geometrica","status_borda_bacia":"total","metodo_area_bacia":"interse??o geom?trica em EPSG:5880","metodo_na_bacia":"ponto_representativo_grade_2022_within_bacia","pop_n_validos":1,"pop_n_total":1,"pop_completude":1.0,"dom_n_validos":1,"dom_n_total":1,"dom_completude":1.0},"geometry":{"type":"Polygon","coordinates":[[[-52.07732136528876,-29.11267129044769],[-52.07733504397702,-29.110808459043092],[-52.07534477054469,-29.110795649099867],[-52.07533107746718,-29.11265848140372],[-52.07732136528876,-29.11267129044769]]]}},{"type":"Feature","properties":{"id_grade":"200ME51934N81046","pop":14,"dom":8,"universo_dom":"domicilios_ocupados_grade_ibge_2022","na_bacia":1,"area_pct_bacia":100.0,"metodo_recorte_bacia":"ponto_representativo_grade_2022; area_pct_geometrica","status_borda_bacia":"total","metodo_area_bacia":"interse??o geom?trica em EPSG:5880","metodo_na_bacia":"ponto_representativo_grade_2022_within_bacia","pop_n_validos":1,"pop_n_total":1,"pop_completude":1.0,"dom_n_validos":1,"dom_n_total":1,"dom_completude":1.0},"geometry":{"type":"Polygon","coordinates":[[[-52.07533107746718,-29.11265848140372],[-52.07534477054469,-29.110795649099867],[-52.07335449711229,-29.110782826566147],[-52.07334079054499,-29.11264565797065],[-52.07533107746718,-29.11265848140372]]]}},{"type":"Feature","properties":{"id_grade":"200ME51936N81046","pop":47,"dom":22,"universo_dom":"domicilios_ocupados_grade_ibge_2022","na_bacia":1,"area_pct_bacia":100.0,"metodo_recorte_bacia":"ponto_representativo_grade_2022; area_pct_geometrica","status_borda_bacia":"total","metodo_area_bacia":"interse??o geom?trica em EPSG:5880","metodo_na_bacia":"ponto_representativo_grade_2022_within_bacia","pop_n_validos":1,"pop_n_total":1,"pop_completude":1.0,"dom_n_validos":1,"dom_n_total":1,"dom_completude":1.0},"geometry":{"type":"Polygon","coordinates":[[[-52.07334079054499,-29.11264565797065],[-52.07335449711229,-29.110782826566147],[-52.07136422367995,-29.110769990542558],[-52.07135050272348,-29.112632821947123],[-52.07334079054499,-29.11264565797065]]]}},{"type":"Feature","properties":{"id_grade":"200ME51938N81046","pop":86,"dom":40,"universo_dom":"domicilios_ocupados_grade_ibge_2022","na_bacia":1,"area_pct_bacia":100.0,"metodo_recorte_bacia":"ponto_representativo_grade_2022; area_pct_geometrica","status_borda_bacia":"total","metodo_area_bacia":"interse??o geom?trica em EPSG:5880","metodo_na_bacia":"ponto_representativo_grade_2022_within_bacia","pop_n_validos":1,"pop_n_total":1,"pop_completude":1.0,"dom_n_validos":1,"dom_n_total":1,"dom_completude":1.0},"geometry":{"type":"Polygon","coordinates":[[[-52.07135050272348,-29.112632821947123],[-52.07136422367995,-29.110769990542558],[-52.069373951146865,-29.11075714192849],[-52.06936021580128,-29.11261997333308],[-52.07135050272348,-29.112632821947123]]]}},{"type":"Feature","properties":{"id_grade":"200ME51934N81048","pop":4,"dom":1,"universo_dom":"domicilios_ocupados_grade_ibge_2022","na_bacia":1,"area_pct_bacia":100.0,"metodo_recorte_bacia":"ponto_representativo_grade_2022; area_pct_geometrica","status_borda_bacia":"total","metodo_area_bacia":"interse??o geom?trica em EPSG:5880","metodo_na_bacia":"ponto_representativo_grade_2022_within_bacia","pop_n_validos":1,"pop_n_total":1,"pop_completude":1.0,"dom_n_validos":1,"dom_n_total":1,"dom_completude":1.0},"geometry":{"type":"Polygon","coordinates":[[[-52.07534477054469,-29.110795649099867],[-52.07535846362214,-29.108932837480406],[-52.07336820367959,-29.108920014946722],[-52.07335449711229,-29.110782826566147],[-52.07534477054469,-29.110795649099867]]]}},{"type":"Feature","properties":{"id_grade":"200ME51936N81048","pop":48,"dom":21,"universo_dom":"domicilios_ocupados_grade_ibge_2022","na_bacia":1,"area_pct_bacia":100.0,"metodo_recorte_bacia":"ponto_representativo_grade_2022; area_pct_geometrica","status_borda_bacia":"total","metodo_area_bacia":"interse??o geom?trica em EPSG:5880","metodo_na_bacia":"ponto_representativo_grade_2022_within_bacia","pop_n_validos":1,"pop_n_total":1,"pop_completude":1.0,"dom_n_validos":1,"dom_n_total":1,"dom_completude":1.0},"geometry":{"type":"Polygon","coordinates":[[[-52.07335449711229,-29.110782826566147],[-52.07336820367959,-29.108920014946722],[-52.071377944636374,-29.1089071789231],[-52.07136422367995,-29.110769990542558],[-52.07335449711229,-29.110782826566147]]]}},{"type":"Feature","properties":{"id_grade":"200ME51938N81048","pop":6,"dom":2,"universo_dom":"domicilios_ocupados_grade_ibge_2022","na_bacia":1,"area_pct_bacia":100.0,"metodo_recorte_bacia":"ponto_representativo_grade_2022; area_pct_geometrica","status_borda_bacia":"total","metodo_area_bacia":"interse??o geom?trica em EPSG:5880","metodo_na_bacia":"ponto_representativo_grade_2022_within_bacia","pop_n_validos":1,"pop_n_total":1,"pop_completude":1.0,"dom_n_validos":1,"dom_n_total":1,"dom_completude":1.0},"geometry":{"type":"Polygon","coordinates":[[[-52.07136422367995,-29.110769990542558],[-52.071377944636374,-29.1089071789231],[-52.06938768649252,-29.108894330309006],[-52.069373951146865,-29.11075714192849],[-52.07136422367995,-29.110769990542558]]]}},{"type":"Feature","properties":{"id_grade":"200ME51936N81050","pop":4,"dom":2,"universo_dom":"domicilios_ocupados_grade_ibge_2022","na_bacia":1,"area_pct_bacia":100.0,"metodo_recorte_bacia":"ponto_representativo_grade_2022; area_pct_geometrica","status_borda_bacia":"total","metodo_area_bacia":"interse??o geom?trica em EPSG:5880","metodo_na_bacia":"ponto_representativo_grade_2022_within_bacia","pop_n_validos":1,"pop_n_total":1,"pop_completude":1.0,"dom_n_validos":1,"dom_n_total":1,"dom_completude":1.0},"geometry":{"type":"Polygon","coordinates":[[[-52.07336820367959,-29.108920014946722],[-52.073381911146214,-29.10705722311224],[-52.07139166559284,-29.10704438708877],[-52.071377944636374,-29.1089071789231],[-52.07336820367959,-29.108920014946722]]]}},{"type":"Feature","properties":{"id_grade":"200ME51940N81042","pop":2,"dom":1,"universo_dom":"domicilios_ocupados_grade_ibge_2022","na_bacia":1,"area_pct_bacia":100.0,"metodo_recorte_bacia":"ponto_representativo_grade_2022; area_pct_geometrica","status_borda_bacia":"total","metodo_area_bacia":"interse??o geom?trica em EPSG:5880","metodo_na_bacia":"ponto_representativo_grade_2022_within_bacia","pop_n_validos":1,"pop_n_total":1,"pop_completude":1.0,"dom_n_validos":1,"dom_n_total":1,"dom_completude":1.0},"geometry":{"type":"Polygon","coordinates":[[[-52.069332744210726,-29.11634569459808],[-52.06934647955637,-29.11448282362333],[-52.067356179144326,-29.114469961519447],[-52.06734242851024,-29.116332831594786],[-52.069332744210726,-29.11634569459808]]]}},{"type":"Feature","properties":{"id_grade":"200ME51942N81042","pop":2,"dom":1,"universo_dom":"domicilios_ocupados_grade_ibge_2022","na_bacia":1,"area_pct_bacia":100.0,"metodo_recorte_bacia":"ponto_representativo_grade_2022; area_pct_geometrica","status_borda_bacia":"total","metodo_area_bacia":"interse??o geom?trica em EPSG:5880","metodo_na_bacia":"ponto_representativo_grade_2022_within_bacia","pop_n_validos":1,"pop_n_total":1,"pop_completude":1.0,"dom_n_validos":1,"dom_n_total":1,"dom_completude":1.0},"geometry":{"type":"Polygon","coordinates":[[[-52.06734242851024,-29.116332831594786],[-52.067356179144326,-29.114469961519447],[-52.06536587783296,-29.11445708502632],[-52.065352113709025,-29.11631995510182],[-52.06734242851024,-29.116332831594786]]]}},{"type":"Feature","properties":{"id_grade":"200ME51946N81042","pop":4,"dom":2,"universo_dom":"domicilios_ocupados_grade_ibge_2022","na_bacia":1,"area_pct_bacia":100.0,"metodo_recorte_bacia":"ponto_representativo_grade_2022; area_pct_geometrica","status_borda_bacia":"total","metodo_area_bacia":"interse??o geom?trica em EPSG:5880","metodo_na_bacia":"ponto_representativo_grade_2022_within_bacia","pop_n_validos":1,"pop_n_total":1,"pop_completude":1.0,"dom_n_validos":1,"dom_n_total":1,"dom_completude":1.0},"geometry":{"type":"Polygon","coordinates":[[[-52.06336179890786,-29.116307066018262],[-52.06337557742091,-29.114444195942877],[-52.06138527610955,-29.11443129336941],[-52.061371484106644,-29.11629416344484],[-52.06336179890786,-29.116307066018262]]]}},{"type":"Feature","properties":{"id_grade":"200ME51948N81042","pop":25,"dom":11,"universo_dom":"domicilios_ocupados_grade_ibge_2022","na_bacia":1,"area_pct_bacia":100.0,"metodo_recorte_bacia":"ponto_representativo_grade_2022; area_pct_geometrica","status_borda_bacia":"total","metodo_area_bacia":"interse??o geom?trica em EPSG:5880","metodo_na_bacia":"ponto_representativo_grade_2022_within_bacia","pop_n_validos":1,"pop_n_total":1,"pop_completude":1.0,"dom_n_validos":1,"dom_n_total":1,"dom_completude":1.0},"geometry":{"type":"Polygon","coordinates":[[[-52.061371484106644,-29.11629416344484],[-52.06138527610955,-29.11443129336941],[-52.0593949756975,-29.11441837730619],[-52.05938116930548,-29.11628124738158],[-52.061371484106644,-29.11629416344484]]]}},{"type":"Feature","properties":{"id_grade":"200ME51940N81044","pop":36,"dom":15,"universo_dom":"domicilios_ocupados_grade_ibge_2022","na_bacia":1,"area_pct_bacia":100.0,"metodo_recorte_bacia":"ponto_representativo_grade_2022; area_pct_geometrica","status_borda_bacia":"total","metodo_area_bacia":"interse??o geom?trica em EPSG:5880","metodo_na_bacia":"ponto_representativo_grade_2022_within_bacia","pop_n_validos":1,"pop_n_total":1,"pop_completude":1.0,"dom_n_validos":1,"dom_n_total":1,"dom_completude":1.0},"geometry":{"type":"Polygon","coordinates":[[[-52.06934647955637,-29.11448282362333],[-52.06936021580128,-29.11261997333308],[-52.06736992887909,-29.112607110329833],[-52.067356179144326,-29.114469961519447],[-52.06934647955637,-29.11448282362333]]]}},{"type":"Feature","properties":{"id_grade":"200ME51942N81044","pop":68,"dom":27,"universo_dom":"domicilios_ocupados_grade_ibge_2022","na_bacia":1,"area_pct_bacia":100.0,"metodo_recorte_bacia":"ponto_representativo_grade_2022; area_pct_geometrica","status_borda_bacia":"total","metodo_area_bacia":"interse??o geom?trica em EPSG:5880","metodo_na_bacia":"ponto_representativo_grade_2022_within_bacia","pop_n_validos":1,"pop_n_total":1,"pop_completude":1.0,"dom_n_validos":1,"dom_n_total":1,"dom_completude":1.0},"geometry":{"type":"Polygon","coordinates":[[[-52.067356179144326,-29.114469961519447],[-52.06736992887909,-29.112607110329833],[-52.065379641956895,-29.112594234736058],[-52.06536587783296,-29.11445708502632],[-52.067356179144326,-29.114469961519447]]]}},{"type":"Feature","properties":{"id_grade":"200ME51944N81044","pop":33,"dom":12,"universo_dom":"domicilios_ocupados_grade_ibge_2022","na_bacia":1,"area_pct_bacia":100.0,"metodo_recorte_bacia":"ponto_representativo_grade_2022; area_pct_geometrica","status_borda_bacia":"total","metodo_area_bacia":"interse??o geom?trica em EPSG:5880","metodo_na_bacia":"ponto_representativo_grade_2022_within_bacia","pop_n_validos":1,"pop_n_total":1,"pop_completude":1.0,"dom_n_validos":1,"dom_n_total":1,"dom_completude":1.0},"geometry":{"type":"Polygon","coordinates":[[[-52.06536587783296,-29.11445708502632],[-52.065379641956895,-29.112594234736058],[-52.063389355034644,-29.1125813456525],[-52.06337557742091,-29.114444195942877],[-52.06536587783296,-29.11445708502632]]]}},{"type":"Feature","properties":{"id_grade":"200ME51946N81044","pop":47,"dom":17,"universo_dom":"domicilios_ocupados_grade_ibge_2022","na_bacia":1,"area_pct_bacia":100.0,"metodo_recorte_bacia":"ponto_representativo_grade_2022; area_pct_geometrica","status_borda_bacia":"total","metodo_area_bacia":"interse??o geom?trica em EPSG:5880","metodo_na_bacia":"ponto_representativo_grade_2022_within_bacia","pop_n_validos":1,"pop_n_total":1,"pop_completude":1.0,"dom_n_validos":1,"dom_n_total":1,"dom_completude":1.0},"geometry":{"type":"Polygon","coordinates":[[[-52.06337557742091,-29.114444195942877],[-52.063389355034644,-29.1125813456525],[-52.06139906901177,-29.112568443079184],[-52.06138527610955,-29.11443129336941],[-52.06337557742091,-29.114444195942877]]]}},{"type":"Feature","properties":{"id_grade":"200ME51948N81044","pop":17,"dom":8,"universo_dom":"domicilios_ocupados_grade_ibge_2022","na_bacia":1,"area_pct_bacia":100.0,"metodo_recorte_bacia":"ponto_representativo_grade_2022; area_pct_geometrica","status_borda_bacia":"total","metodo_area_bacia":"interse??o geom?trica em EPSG:5880","metodo_na_bacia":"ponto_representativo_grade_2022_within_bacia","pop_n_validos":1,"pop_n_total":1,"pop_completude":1.0,"dom_n_validos":1,"dom_n_total":1,"dom_completude":1.0},"geometry":{"type":"Polygon","coordinates":[[[-52.06138527610955,-29.11443129336941],[-52.06139906901177,-29.112568443079184],[-52.05940878208958,-29.112555527915198],[-52.0593949756975,-29.11441837730619],[-52.06138527610955,-29.11443129336941]]]}},{"type":"Feature","properties":{"id_grade":"200ME51940N81046","pop":76,"dom":33,"universo_dom":"domicilios_ocupados_grade_ibge_2022","na_bacia":1,"area_pct_bacia":100.0,"metodo_recorte_bacia":"ponto_representativo_grade_2022; area_pct_geometrica","status_borda_bacia":"total","metodo_area_bacia":"interse??o geom?trica em EPSG:5880","metodo_na_bacia":"ponto_representativo_grade_2022_within_bacia","pop_n_validos":1,"pop_n_total":1,"pop_completude":1.0,"dom_n_validos":1,"dom_n_total":1,"dom_completude":1.0},"geometry":{"type":"Polygon","coordinates":[[[-52.06936021580128,-29.11261997333308],[-52.069373951146865,-29.11075714192849],[-52.06738367771453,-29.110744279824626],[-52.06736992887909,-29.112607110329833],[-52.06936021580128,-29.11261997333308]]]}},{"type":"Feature","properties":{"id_grade":"200ME51942N81046","pop":17,"dom":7,"universo_dom":"domicilios_ocupados_grade_ibge_2022","na_bacia":1,"area_pct_bacia":100.0,"metodo_recorte_bacia":"ponto_representativo_grade_2022; area_pct_geometrica","status_borda_bacia":"total","metodo_area_bacia":"interse??o geom?trica em EPSG:5880","metodo_na_bacia":"ponto_representativo_grade_2022_within_bacia","pop_n_validos":1,"pop_n_total":1,"pop_completude":1.0,"dom_n_validos":1,"dom_n_total":1,"dom_completude":1.0},"geometry":{"type":"Polygon","coordinates":[[[-52.06736992887909,-29.112607110329833],[-52.06738367771453,-29.110744279824626],[-52.065393405181446,-29.110731404230865],[-52.065379641956895,-29.112594234736058],[-52.06736992887909,-29.112607110329833]]]}},{"type":"Feature","properties":{"id_grade":"200ME51944N81046","pop":30,"dom":12,"universo_dom":"domicilios_ocupados_grade_ibge_2022","na_bacia":1,"area_pct_bacia":100.0,"metodo_recorte_bacia":"ponto_representativo_grade_2022; area_pct_geometrica","status_borda_bacia":"total","metodo_area_bacia":"interse??o geom?trica em EPSG:5880","metodo_na_bacia":"ponto_representativo_grade_2022_within_bacia","pop_n_validos":1,"pop_n_total":1,"pop_completude":1.0,"dom_n_validos":1,"dom_n_total":1,"dom_completude":1.0},"geometry":{"type":"Polygon","coordinates":[[[-52.065379641956895,-29.112594234736058],[-52.065393405181446,-29.110731404230865],[-52.06340313264843,-29.110718515147315],[-52.063389355034644,-29.1125813456525],[-52.065379641956895,-29.112594234736058]]]}},{"type":"Feature","properties":{"id_grade":"200ME51946N81046","pop":12,"dom":4,"universo_dom":"domicilios_ocupados_grade_ibge_2022","na_bacia":1,"area_pct_bacia":100.0,"metodo_recorte_bacia":"ponto_representativo_grade_2022; area_pct_geometrica","status_borda_bacia":"total","metodo_area_bacia":"interse??o geom?trica em EPSG:5880","metodo_na_bacia":"ponto_representativo_grade_2022_within_bacia","pop_n_validos":1,"pop_n_total":1,"pop_completude":1.0,"dom_n_validos":1,"dom_n_total":1,"dom_completude":1.0},"geometry":{"type":"Polygon","coordinates":[[[-52.063389355034644,-29.1125813456525],[-52.06340313264843,-29.110718515147315],[-52.06141286101467,-29.110705612573945],[-52.06139906901177,-29.112568443079184],[-52.063389355034644,-29.1125813456525]]]}},{"type":"Feature","properties":{"id_grade":"200ME51942N81048","pop":9,"dom":2,"universo_dom":"domicilios_ocupados_grade_ibge_2022","na_bacia":1,"area_pct_bacia":100.0,"metodo_recorte_bacia":"ponto_representativo_grade_2022; area_pct_geometrica","status_borda_bacia":"total","metodo_area_bacia":"interse??o geom?trica em EPSG:5880","metodo_na_bacia":"ponto_representativo_grade_2022_within_bacia","pop_n_validos":1,"pop_n_total":1,"pop_completude":1.0,"dom_n_validos":1,"dom_n_total":1,"dom_completude":1.0},"geometry":{"type":"Polygon","coordinates":[[[-52.06738367771453,-29.110744279824626],[-52.06739742744929,-29.10888146820516],[-52.06540716930539,-29.10886859261139],[-52.065393405181446,-29.110731404230865],[-52.06738367771453,-29.110744279824626]]]}},{"type":"Feature","properties":{"id_grade":"200ME51948N81048","pop":2,"dom":1,"universo_dom":"domicilios_ocupados_grade_ibge_2022","na_bacia":1,"area_pct_bacia":100.0,"metodo_recorte_bacia":"ponto_representativo_grade_2022; area_pct_geometrica","status_borda_bacia":"total","metodo_area_bacia":"interse??o geom?trica em EPSG:5880","metodo_na_bacia":"ponto_representativo_grade_2022_within_bacia","pop_n_validos":1,"pop_n_total":1,"pop_completude":1.0,"dom_n_validos":1,"dom_n_total":1,"dom_completude":1.0},"geometry":{"type":"Polygon","coordinates":[[[-52.06141286101467,-29.110705612573945],[-52.06142665211826,-29.10884280275309],[-52.05943639487367,-29.108829887589216],[-52.05942258848165,-29.11069269741],[-52.06141286101467,-29.110705612573945]]]}},{"type":"Feature","properties":{"id_grade":"200ME51950N81042","pop":15,"dom":8,"universo_dom":"domicilios_ocupados_grade_ibge_2022","na_bacia":1,"area_pct_bacia":100.0,"metodo_recorte_bacia":"ponto_representativo_grade_2022; area_pct_geometrica","status_borda_bacia":"total","metodo_area_bacia":"interse??o geom?trica em EPSG:5880","metodo_na_bacia":"ponto_representativo_grade_2022_within_bacia","pop_n_validos":1,"pop_n_total":1,"pop_completude":1.0,"dom_n_validos":1,"dom_n_total":1,"dom_completude":1.0},"geometry":{"type":"Polygon","coordinates":[[[-52.05938116930548,-29.11628124738158],[-52.0593949756975,-29.11441837730619],[-52.05740467618484,-29.114405448652462],[-52.05739085540364,-29.1162683178285],[-52.05938116930548,-29.11628124738158]]]}},{"type":"Feature","properties":{"id_grade":"200ME51952N81042","pop":4,"dom":1,"universo_dom":"domicilios_ocupados_grade_ibge_2022","na_bacia":1,"area_pct_bacia":100.0,"metodo_recorte_bacia":"ponto_representativo_grade_2022; area_pct_geometrica","status_borda_bacia":"total","metodo_area_bacia":"interse??o geom?trica em EPSG:5880","metodo_na_bacia":"ponto_representativo_grade_2022_within_bacia","pop_n_validos":1,"pop_n_total":1,"pop_completude":1.0,"dom_n_validos":1,"dom_n_total":1,"dom_completude":1.0},"geometry":{"type":"Polygon","coordinates":[[[-52.05739085540364,-29.1162683178285],[-52.05740467618484,-29.114405448652462],[-52.055414375772784,-29.114392506508842],[-52.05540054150174,-29.116255375684982],[-52.05739085540364,-29.1162683178285]]]}},{"type":"Feature","properties":{"id_grade":"200ME51956N81042","pop":3,"dom":1,"universo_dom":"domicilios_ocupados_grade_ibge_2022","na_bacia":1,"area_pct_bacia":100.0,"metodo_recorte_bacia":"ponto_representativo_grade_2022; area_pct_geometrica","status_borda_bacia":"total","metodo_area_bacia":"interse??o geom?trica em EPSG:5880","metodo_na_bacia":"ponto_representativo_grade_2022_within_bacia","pop_n_validos":1,"pop_n_total":1,"pop_completude":1.0,"dom_n_validos":1,"dom_n_total":1,"dom_completude":1.0},"geometry":{"type":"Polygon","coordinates":[[[-52.05341022670058,-29.116242420051652],[-52.05342407626005,-29.114379550875512],[-52.05143377674733,-29.114366581752254],[-52.051419913698,-29.116229450928433],[-52.05341022670058,-29.116242420051652]]]}},{"type":"Feature","properties":{"id_grade":"200ME51958N81042","pop":3,"dom":1,"universo_dom":"domicilios_ocupados_grade_ibge_2022","na_bacia":1,"area_pct_bacia":100.0,"metodo_recorte_bacia":"ponto_representativo_grade_2022; area_pct_geometrica","status_borda_bacia":"total","metodo_area_bacia":"interse??o geom?trica em EPSG:5880","metodo_na_bacia":"ponto_representativo_grade_2022_within_bacia","pop_n_validos":1,"pop_n_total":1,"pop_completude":1.0,"dom_n_validos":1,"dom_n_total":1,"dom_completude":1.0},"geometry":{"type":"Polygon","coordinates":[[[-52.051419913698,-29.116229450928433],[-52.05143377674733,-29.114366581752254],[-52.04944347723466,-29.11435360003854],[-52.04942959979616,-29.116216468315297],[-52.051419913698,-29.116229450928433]]]}},{"type":"Feature","properties":{"id_grade":"200ME51950N81044","pop":2,"dom":1,"universo_dom":"domicilios_ocupados_grade_ibge_2022","na_bacia":1,"area_pct_bacia":100.0,"metodo_recorte_bacia":"ponto_representativo_grade_2022; area_pct_geometrica","status_borda_bacia":"total","metodo_area_bacia":"interse??o geom?trica em EPSG:5880","metodo_na_bacia":"ponto_representativo_grade_2022_within_bacia","pop_n_validos":1,"pop_n_total":1,"pop_completude":1.0,"dom_n_validos":1,"dom_n_total":1,"dom_completude":1.0},"geometry":{"type":"Polygon","coordinates":[[[-52.0593949756975,-29.11441837730619],[-52.05940878208958,-29.112555527915198],[-52.05741849606671,-29.112542599261527],[-52.05740467618484,-29.114405448652462],[-52.0593949756975,-29.11441837730619]]]}},{"type":"Feature","properties":{"id_grade":"200ME51952N81044","pop":16,"dom":7,"universo_dom":"domicilios_ocupados_grade_ibge_2022","na_bacia":1,"area_pct_bacia":100.0,"metodo_recorte_bacia":"ponto_representativo_grade_2022; area_pct_geometrica","status_borda_bacia":"total","metodo_area_bacia":"interse??o geom?trica em EPSG:5880","metodo_na_bacia":"ponto_representativo_grade_2022_within_bacia","pop_n_validos":1,"pop_n_total":1,"pop_completude":1.0,"dom_n_validos":1,"dom_n_total":1,"dom_completude":1.0},"geometry":{"type":"Polygon","coordinates":[[[-52.05740467618484,-29.114405448652462],[-52.05741849606671,-29.112542599261527],[-52.05542821094315,-29.112529657117943],[-52.055414375772784,-29.114392506508842],[-52.05740467618484,-29.114405448652462]]]}},{"type":"Feature","properties":{"id_grade":"200ME51950N81046","pop":11,"dom":2,"universo_dom":"domicilios_ocupados_grade_ibge_2022","na_bacia":1,"area_pct_bacia":100.0,"metodo_recorte_bacia":"ponto_representativo_grade_2022; area_pct_geometrica","status_borda_bacia":"total","metodo_area_bacia":"interse??o geom?trica em EPSG:5880","metodo_na_bacia":"ponto_representativo_grade_2022_within_bacia","pop_n_validos":1,"pop_n_total":1,"pop_completude":1.0,"dom_n_validos":1,"dom_n_total":1,"dom_completude":1.0},"geometry":{"type":"Polygon","coordinates":[[[-52.05940878208958,-29.112555527915198],[-52.05942258848165,-29.11069269741],[-52.057432316847894,-29.11067976875624],[-52.05741849606671,-29.112542599261527],[-52.05940878208958,-29.112555527915198]]]}},{"type":"Feature","properties":{"id_grade":"200ME51950N81048","pop":4,"dom":2,"universo_dom":"domicilios_ocupados_grade_ibge_2022","na_bacia":1,"area_pct_bacia":100.0,"metodo_recorte_bacia":"ponto_representativo_grade_2022; area_pct_geometrica","status_borda_bacia":"total","metodo_area_bacia":"interse??o geom?trica em EPSG:5880","metodo_na_bacia":"ponto_representativo_grade_2022_within_bacia","pop_n_validos":1,"pop_n_total":1,"pop_completude":1.0,"dom_n_validos":1,"dom_n_total":1,"dom_completude":1.0},"geometry":{"type":"Polygon","coordinates":[[[-52.05942258848165,-29.11069269741],[-52.05943639487367,-29.108829887589216],[-52.057446136729766,-29.108816958935446],[-52.057432316847894,-29.11067976875624],[-52.05942258848165,-29.11069269741]]]}},{"type":"Feature","properties":{"id_grade":"200ME51952N81050","pop":4,"dom":2,"universo_dom":"domicilios_ocupados_grade_ibge_2022","na_bacia":1,"area_pct_bacia":100.0,"metodo_recorte_bacia":"ponto_representativo_grade_2022; area_pct_geometrica","status_borda_bacia":"total","metodo_area_bacia":"interse??o geom?trica em EPSG:5880","metodo_na_bacia":"ponto_representativo_grade_2022_within_bacia","pop_n_validos":1,"pop_n_total":1,"pop_completude":1.0,"dom_n_validos":1,"dom_n_total":1,"dom_completude":1.0},"geometry":{"type":"Polygon","coordinates":[[[-52.057446136729766,-29.108816958935446],[-52.057459956611694,-29.10695416889968],[-52.055469713756224,-29.10694122765557],[-52.05545587948524,-29.108804017691185],[-52.057446136729766,-29.108816958935446]]]}},{"type":"Feature","properties":{"id_grade":"200ME51956N81050","pop":4,"dom":2,"universo_dom":"domicilios_ocupados_grade_ibge_2022","na_bacia":1,"area_pct_bacia":100.0,"metodo_recorte_bacia":"ponto_representativo_grade_2022; area_pct_geometrica","status_borda_bacia":"total","metodo_area_bacia":"interse??o geom?trica em EPSG:5880","metodo_na_bacia":"ponto_representativo_grade_2022_within_bacia","pop_n_validos":1,"pop_n_total":1,"pop_completude":1.0,"dom_n_validos":1,"dom_n_total":1,"dom_completude":1.0},"geometry":{"type":"Polygon","coordinates":[[[-52.05346562224066,-29.108791062957145],[-52.053479470001484,-29.10692827292142],[-52.051489227146085,-29.106915304697488],[-52.051475364996065,-29.108778094733207],[-52.05346562224066,-29.108791062957145]]]}},{"type":"Feature","properties":{"id_grade":"200ME51958N81050","pop":7,"dom":3,"universo_dom":"domicilios_ocupados_grade_ibge_2022","na_bacia":1,"area_pct_bacia":100.0,"metodo_recorte_bacia":"ponto_representativo_grade_2022; area_pct_geometrica","status_borda_bacia":"total","metodo_area_bacia":"interse??o geom?trica em EPSG:5880","metodo_na_bacia":"ponto_representativo_grade_2022_within_bacia","pop_n_validos":1,"pop_n_total":1,"pop_completude":1.0,"dom_n_validos":1,"dom_n_total":1,"dom_completude":1.0},"geometry":{"type":"Polygon","coordinates":[[[-52.051475364996065,-29.108778094733207],[-52.051489227146085,-29.106915304697488],[-52.049498984290665,-29.106902323883105],[-52.04948510775148,-29.108765113019533],[-52.051475364996065,-29.108778094733207]]]}}]}
