{"type":"FeatureCollection","name":"4317251","crs":{"type":"name","properties":{"name":"urn:ogc:def:crs:OGC:1.3:CRS84"}},"features":[{"type":"Feature","properties":{"id_grade":"1KME5228N8093","pop":12,"dom":4,"universo_dom":"domicilios_ocupados_grade_ibge_2022","na_bacia":1,"area_pct_bacia":100.0,"metodo_recorte_bacia":"ponto_representativo_grade_2022; area_pct_geometrica","status_borda_bacia":"total","metodo_area_bacia":"interse??o geom?trica em EPSG:5880","metodo_na_bacia":"ponto_representativo_grade_2022_within_bacia","pop_n_validos":1,"pop_n_total":1,"pop_completude":1.0,"dom_n_validos":1,"dom_n_total":1,"dom_completude":1.0},"geometry":{"type":"Polygon","coordinates":[[[-51.73009390630797,-29.216454742662528],[-51.730174681047124,-29.207135335548077],[-51.720219746622284,-29.20705955644719],[-51.72013861765492,-29.21637895681007],[-51.73009390630797,-29.216454742662528]]]}},{"type":"Feature","properties":{"id_grade":"1KME5229N8093","pop":22,"dom":5,"universo_dom":"domicilios_ocupados_grade_ibge_2022","na_bacia":1,"area_pct_bacia":100.0,"metodo_recorte_bacia":"ponto_representativo_grade_2022; area_pct_geometrica","status_borda_bacia":"total","metodo_area_bacia":"interse??o geom?trica em EPSG:5880","metodo_na_bacia":"ponto_representativo_grade_2022_within_bacia","pop_n_validos":1,"pop_n_total":1,"pop_completude":1.0,"dom_n_validos":1,"dom_n_total":1,"dom_completude":1.0},"geometry":{"type":"Polygon","coordinates":[[[-51.72013861765492,-29.21637895681007],[-51.720219746622284,-29.20705955644719],[-51.710264817971066,-29.206983445764223],[-51.7101833347761,-29.216302839346195],[-51.72013861765492,-29.21637895681007]]]}},{"type":"Feature","properties":{"id_grade":"1KME5230N8093","pop":10,"dom":4,"universo_dom":"domicilios_ocupados_grade_ibge_2022","na_bacia":1,"area_pct_bacia":100.0,"metodo_recorte_bacia":"ponto_representativo_grade_2022; area_pct_geometrica","status_borda_bacia":"total","metodo_area_bacia":"interse??o geom?trica em EPSG:5880","metodo_na_bacia":"ponto_representativo_grade_2022_within_bacia","pop_n_validos":1,"pop_n_total":1,"pop_completude":1.0,"dom_n_validos":1,"dom_n_total":1,"dom_completude":1.0},"geometry":{"type":"Polygon","coordinates":[[[-51.7101833347761,-29.216302839346195],[-51.710264817971066,-29.206983445764223],[-51.70030989511868,-29.206907003500344],[-51.70022805769673,-29.216226390271416],[-51.7101833347761,-29.216302839346195]]]}},{"type":"Feature","properties":{"id_grade":"1KME5231N8093","pop":3,"dom":1,"universo_dom":"domicilios_ocupados_grade_ibge_2022","na_bacia":1,"area_pct_bacia":100.0,"metodo_recorte_bacia":"ponto_representativo_grade_2022; area_pct_geometrica","status_borda_bacia":"total","metodo_area_bacia":"interse??o geom?trica em EPSG:5880","metodo_na_bacia":"ponto_representativo_grade_2022_within_bacia","pop_n_validos":1,"pop_n_total":1,"pop_completude":1.0,"dom_n_validos":1,"dom_n_total":1,"dom_completude":1.0},"geometry":{"type":"Polygon","coordinates":[[[-51.70022805769673,-29.216226390271416],[-51.70030989511868,-29.206907003500344],[-51.690354978090326,-29.20683022965561],[-51.690272786442,-29.216149609587134],[-51.70022805769673,-29.216226390271416]]]}},{"type":"Feature","properties":{"id_grade":"1KME5232N8093","pop":17,"dom":7,"universo_dom":"domicilios_ocupados_grade_ibge_2022","na_bacia":1,"area_pct_bacia":100.0,"metodo_recorte_bacia":"ponto_representativo_grade_2022; area_pct_geometrica","status_borda_bacia":"total","metodo_area_bacia":"interse??o geom?trica em EPSG:5880","metodo_na_bacia":"ponto_representativo_grade_2022_within_bacia","pop_n_validos":1,"pop_n_total":1,"pop_completude":1.0,"dom_n_validos":1,"dom_n_total":1,"dom_completude":1.0},"geometry":{"type":"Polygon","coordinates":[[[-51.690272786442,-29.216149609587134],[-51.690354978090326,-29.20683022965561],[-51.680400066911204,-29.206753124231195],[-51.680317521037146,-29.216072497292913],[-51.690272786442,-29.216149609587134]]]}},{"type":"Feature","properties":{"id_grade":"1KME5228N8094","pop":4,"dom":2,"universo_dom":"domicilios_ocupados_grade_ibge_2022","na_bacia":1,"area_pct_bacia":100.0,"metodo_recorte_bacia":"ponto_representativo_grade_2022; area_pct_geometrica","status_borda_bacia":"total","metodo_area_bacia":"interse??o geom?trica em EPSG:5880","metodo_na_bacia":"ponto_representativo_grade_2022_within_bacia","pop_n_validos":1,"pop_n_total":1,"pop_completude":1.0,"dom_n_validos":1,"dom_n_total":1,"dom_completude":1.0},"geometry":{"type":"Polygon","coordinates":[[[-51.730174681047124,-29.207135335548077],[-51.73025545003785,-29.19781642685904],[-51.72030086981602,-29.197740654506003],[-51.720219746622284,-29.20705955644719],[-51.730174681047124,-29.207135335548077]]]}},{"type":"Feature","properties":{"id_grade":"1KME5229N8094","pop":7,"dom":2,"universo_dom":"domicilios_ocupados_grade_ibge_2022","na_bacia":1,"area_pct_bacia":100.0,"metodo_recorte_bacia":"ponto_representativo_grade_2022; area_pct_geometrica","status_borda_bacia":"total","metodo_area_bacia":"interse??o geom?trica em EPSG:5880","metodo_na_bacia":"ponto_representativo_grade_2022_within_bacia","pop_n_validos":1,"pop_n_total":1,"pop_completude":1.0,"dom_n_validos":1,"dom_n_total":1,"dom_completude":1.0},"geometry":{"type":"Polygon","coordinates":[[[-51.720219746622284,-29.20705955644719],[-51.72030086981602,-29.197740654506003],[-51.710346295367216,-29.197664550600535],[-51.710264817971066,-29.206983445764223],[-51.720219746622284,-29.20705955644719]]]}},{"type":"Feature","properties":{"id_grade":"1KME5230N8094","pop":7,"dom":3,"universo_dom":"domicilios_ocupados_grade_ibge_2022","na_bacia":1,"area_pct_bacia":100.0,"metodo_recorte_bacia":"ponto_representativo_grade_2022; area_pct_geometrica","status_borda_bacia":"total","metodo_area_bacia":"interse??o geom?trica em EPSG:5880","metodo_na_bacia":"ponto_representativo_grade_2022_within_bacia","pop_n_validos":1,"pop_n_total":1,"pop_completude":1.0,"dom_n_validos":1,"dom_n_total":1,"dom_completude":1.0},"geometry":{"type":"Polygon","coordinates":[[[-51.710264817971066,-29.206983445764223],[-51.710346295367216,-29.197664550600535],[-51.700391726716596,-29.19758811514335],[-51.70030989511868,-29.206907003500344],[-51.710264817971066,-29.206983445764223]]]}},{"type":"Feature","properties":{"id_grade":"1KME5231N8094","pop":15,"dom":5,"universo_dom":"domicilios_ocupados_grade_ibge_2022","na_bacia":1,"area_pct_bacia":100.0,"metodo_recorte_bacia":"ponto_representativo_grade_2022; area_pct_geometrica","status_borda_bacia":"total","metodo_area_bacia":"interse??o geom?trica em EPSG:5880","metodo_na_bacia":"ponto_representativo_grade_2022_within_bacia","pop_n_validos":1,"pop_n_total":1,"pop_completude":1.0,"dom_n_validos":1,"dom_n_total":1,"dom_completude":1.0},"geometry":{"type":"Polygon","coordinates":[[[-51.70030989511868,-29.206907003500344],[-51.700391726716596,-29.19758811514335],[-51.6904371638894,-29.197511348135095],[-51.690354978090326,-29.20683022965561],[-51.70030989511868,-29.206907003500344]]]}},{"type":"Feature","properties":{"id_grade":"1KME5232N8094","pop":25,"dom":8,"universo_dom":"domicilios_ocupados_grade_ibge_2022","na_bacia":1,"area_pct_bacia":100.0,"metodo_recorte_bacia":"ponto_representativo_grade_2022; area_pct_geometrica","status_borda_bacia":"total","metodo_area_bacia":"interse??o geom?trica em EPSG:5880","metodo_na_bacia":"ponto_representativo_grade_2022_within_bacia","pop_n_validos":1,"pop_n_total":1,"pop_completude":1.0,"dom_n_validos":1,"dom_n_total":1,"dom_completude":1.0},"geometry":{"type":"Polygon","coordinates":[[[-51.690354978090326,-29.20683022965561],[-51.6904371638894,-29.197511348135095],[-51.680482606910815,-29.197434249576634],[-51.680400066911204,-29.206753124231195],[-51.690354978090326,-29.20683022965561]]]}},{"type":"Feature","properties":{"id_grade":"1KME5225N8095","pop":6,"dom":4,"universo_dom":"domicilios_ocupados_grade_ibge_2022","na_bacia":1,"area_pct_bacia":100.0,"metodo_recorte_bacia":"ponto_representativo_grade_2022; area_pct_geometrica","status_borda_bacia":"total","metodo_area_bacia":"interse??o geom?trica em EPSG:5880","metodo_na_bacia":"ponto_representativo_grade_2022_within_bacia","pop_n_validos":1,"pop_n_total":1,"pop_completude":1.0,"dom_n_validos":1,"dom_n_total":1,"dom_completude":1.0},"geometry":{"type":"Polygon","coordinates":[[[-51.76011922508933,-29.19804175459619],[-51.76019892579516,-29.188723323896816],[-51.75024468258517,-29.188648552861597],[-51.75016462769971,-29.197966976904898],[-51.76011922508933,-29.19804175459619]]]}},{"type":"Feature","properties":{"id_grade":"1KME5226N8095","pop":3,"dom":1,"universo_dom":"domicilios_ocupados_grade_ibge_2022","na_bacia":1,"area_pct_bacia":100.0,"metodo_recorte_bacia":"ponto_representativo_grade_2022; area_pct_geometrica","status_borda_bacia":"total","metodo_area_bacia":"interse??o geom?trica em EPSG:5880","metodo_na_bacia":"ponto_representativo_grade_2022_within_bacia","pop_n_validos":1,"pop_n_total":1,"pop_completude":1.0,"dom_n_validos":1,"dom_n_total":1,"dom_completude":1.0},"geometry":{"type":"Polygon","coordinates":[[[-51.75016462769971,-29.197966976904898],[-51.75024468258517,-29.188648552861597],[-51.740290445071984,-29.188573450301146],[-51.74021003600748,-29.19789186765905],[-51.75016462769971,-29.197966976904898]]]}},{"type":"Feature","properties":{"id_grade":"1KME5227N8095","pop":8,"dom":3,"universo_dom":"domicilios_ocupados_grade_ibge_2022","na_bacia":1,"area_pct_bacia":100.0,"metodo_recorte_bacia":"ponto_representativo_grade_2022; area_pct_geometrica","status_borda_bacia":"total","metodo_area_bacia":"interse??o geom?trica em EPSG:5880","metodo_na_bacia":"ponto_representativo_grade_2022_within_bacia","pop_n_validos":1,"pop_n_total":1,"pop_completude":1.0,"dom_n_validos":1,"dom_n_total":1,"dom_completude":1.0},"geometry":{"type":"Polygon","coordinates":[[[-51.74021003600748,-29.19789186765905],[-51.740290445071984,-29.188573450301146],[-51.73033621328078,-29.188498016215853],[-51.73025545003785,-29.19781642685904],[-51.74021003600748,-29.19789186765905]]]}},{"type":"Feature","properties":{"id_grade":"1KME5228N8095","pop":27,"dom":7,"universo_dom":"domicilios_ocupados_grade_ibge_2022","na_bacia":1,"area_pct_bacia":100.0,"metodo_recorte_bacia":"ponto_representativo_grade_2022; area_pct_geometrica","status_borda_bacia":"total","metodo_area_bacia":"interse??o geom?trica em EPSG:5880","metodo_na_bacia":"ponto_representativo_grade_2022_within_bacia","pop_n_validos":1,"pop_n_total":1,"pop_completude":1.0,"dom_n_validos":1,"dom_n_total":1,"dom_completude":1.0},"geometry":{"type":"Polygon","coordinates":[[[-51.73025545003785,-29.19781642685904],[-51.73033621328078,-29.188498016215853],[-51.72038198723676,-29.188422250607484],[-51.72030086981602,-29.197740654506003],[-51.73025545003785,-29.19781642685904]]]}},{"type":"Feature","properties":{"id_grade":"1KME5229N8095","pop":6,"dom":1,"universo_dom":"domicilios_ocupados_grade_ibge_2022","na_bacia":1,"area_pct_bacia":100.0,"metodo_recorte_bacia":"ponto_representativo_grade_2022; area_pct_geometrica","status_borda_bacia":"total","metodo_area_bacia":"interse??o geom?trica em EPSG:5880","metodo_na_bacia":"ponto_representativo_grade_2022_within_bacia","pop_n_validos":1,"pop_n_total":1,"pop_completude":1.0,"dom_n_validos":1,"dom_n_total":1,"dom_completude":1.0},"geometry":{"type":"Polygon","coordinates":[[[-51.72030086981602,-29.197740654506003],[-51.72038198723676,-29.188422250607484],[-51.71042776696514,-29.188346153475752],[-51.710346295367216,-29.197664550600535],[-51.72030086981602,-29.197740654506003]]]}},{"type":"Feature","properties":{"id_grade":"1KME5230N8095","pop":19,"dom":6,"universo_dom":"domicilios_ocupados_grade_ibge_2022","na_bacia":1,"area_pct_bacia":100.0,"metodo_recorte_bacia":"ponto_representativo_grade_2022; area_pct_geometrica","status_borda_bacia":"total","metodo_area_bacia":"interse??o geom?trica em EPSG:5880","metodo_na_bacia":"ponto_representativo_grade_2022_within_bacia","pop_n_validos":1,"pop_n_total":1,"pop_completude":1.0,"dom_n_validos":1,"dom_n_total":1,"dom_completude":1.0},"geometry":{"type":"Polygon","coordinates":[[[-51.710346295367216,-29.197664550600535],[-51.71042776696514,-29.188346153475752],[-51.700473552491104,-29.188269724821723],[-51.700391726716596,-29.19758811514335],[-51.710346295367216,-29.197664550600535]]]}},{"type":"Feature","properties":{"id_grade":"1KME5231N8095","pop":20,"dom":8,"universo_dom":"domicilios_ocupados_grade_ibge_2022","na_bacia":1,"area_pct_bacia":100.0,"metodo_recorte_bacia":"ponto_representativo_grade_2022; area_pct_geometrica","status_borda_bacia":"total","metodo_area_bacia":"interse??o geom?trica em EPSG:5880","metodo_na_bacia":"ponto_representativo_grade_2022_within_bacia","pop_n_validos":1,"pop_n_total":1,"pop_completude":1.0,"dom_n_validos":1,"dom_n_total":1,"dom_completude":1.0},"geometry":{"type":"Polygon","coordinates":[[[-51.700391726716596,-29.19758811514335],[-51.700473552491104,-29.188269724821723],[-51.69051934383986,-29.188192964646273],[-51.6904371638894,-29.197511348135095],[-51.700391726716596,-29.19758811514335]]]}},{"type":"Feature","properties":{"id_grade":"1KME5232N8095","pop":15,"dom":5,"universo_dom":"domicilios_ocupados_grade_ibge_2022","na_bacia":1,"area_pct_bacia":100.0,"metodo_recorte_bacia":"ponto_representativo_grade_2022; area_pct_geometrica","status_borda_bacia":"total","metodo_area_bacia":"interse??o geom?trica em EPSG:5880","metodo_na_bacia":"ponto_representativo_grade_2022_within_bacia","pop_n_validos":1,"pop_n_total":1,"pop_completude":1.0,"dom_n_validos":1,"dom_n_total":1,"dom_completude":1.0},"geometry":{"type":"Polygon","coordinates":[[[-51.6904371638894,-29.197511348135095],[-51.69051934383986,-29.188192964646273],[-51.68056514103661,-29.188115872950025],[-51.680482606910815,-29.197434249576634],[-51.6904371638894,-29.197511348135095]]]}},{"type":"Feature","properties":{"id_grade":"1KME5233N8095","pop":26,"dom":8,"universo_dom":"domicilios_ocupados_grade_ibge_2022","na_bacia":1,"area_pct_bacia":100.0,"metodo_recorte_bacia":"ponto_representativo_grade_2022; area_pct_geometrica","status_borda_bacia":"total","metodo_area_bacia":"interse??o geom?trica em EPSG:5880","metodo_na_bacia":"ponto_representativo_grade_2022_within_bacia","pop_n_validos":1,"pop_n_total":1,"pop_completude":1.0,"dom_n_validos":1,"dom_n_total":1,"dom_completude":1.0},"geometry":{"type":"Polygon","coordinates":[[[-51.680482606910815,-29.197434249576634],[-51.68056514103661,-29.188115872950025],[-51.67061094410654,-29.188038449733575],[-51.67052805580605,-29.197356819468723],[-51.680482606910815,-29.197434249576634]]]}},{"type":"Feature","properties":{"id_grade":"1KME5234N8095","pop":17,"dom":6,"universo_dom":"domicilios_ocupados_grade_ibge_2022","na_bacia":1,"area_pct_bacia":100.0,"metodo_recorte_bacia":"ponto_representativo_grade_2022; area_pct_geometrica","status_borda_bacia":"total","metodo_area_bacia":"interse??o geom?trica em EPSG:5880","metodo_na_bacia":"ponto_representativo_grade_2022_within_bacia","pop_n_validos":1,"pop_n_total":1,"pop_completude":1.0,"dom_n_validos":1,"dom_n_total":1,"dom_completude":1.0},"geometry":{"type":"Polygon","coordinates":[[[-51.67052805580605,-29.197356819468723],[-51.67061094410654,-29.188038449733575],[-51.66065675307487,-29.187960694998132],[-51.6605735106003,-29.197279057811734],[-51.67052805580605,-29.197356819468723]]]}},{"type":"Feature","properties":{"id_grade":"1KME5227N8096","pop":10,"dom":4,"universo_dom":"domicilios_ocupados_grade_ibge_2022","na_bacia":1,"area_pct_bacia":100.0,"metodo_recorte_bacia":"ponto_representativo_grade_2022; area_pct_geometrica","status_borda_bacia":"total","metodo_area_bacia":"interse??o geom?trica em EPSG:5880","metodo_na_bacia":"ponto_representativo_grade_2022_within_bacia","pop_n_validos":1,"pop_n_total":1,"pop_completude":1.0,"dom_n_validos":1,"dom_n_total":1,"dom_completude":1.0},"geometry":{"type":"Polygon","coordinates":[[[-51.740290445071984,-29.188573450301146],[-51.74037084841449,-29.179255530613542],[-51.73041697077651,-29.17918010323994],[-51.73033621328078,-29.188498016215853],[-51.740290445071984,-29.188573450301146]]]}},{"type":"Feature","properties":{"id_grade":"1KME5230N8096","pop":7,"dom":3,"universo_dom":"domicilios_ocupados_grade_ibge_2022","na_bacia":1,"area_pct_bacia":100.0,"metodo_recorte_bacia":"ponto_representativo_grade_2022; area_pct_geometrica","status_borda_bacia":"total","metodo_area_bacia":"interse??o geom?trica em EPSG:5880","metodo_na_bacia":"ponto_representativo_grade_2022_within_bacia","pop_n_validos":1,"pop_n_total":1,"pop_completude":1.0,"dom_n_validos":1,"dom_n_total":1,"dom_completude":1.0},"geometry":{"type":"Polygon","coordinates":[[[-51.71042776696514,-29.188346153475752],[-51.71050923276548,-29.17902825401051],[-51.70055537244282,-29.17895183215629],[-51.700473552491104,-29.188269724821723],[-51.71042776696514,-29.188346153475752]]]}},{"type":"Feature","properties":{"id_grade":"1KME5232N8096","pop":29,"dom":8,"universo_dom":"domicilios_ocupados_grade_ibge_2022","na_bacia":1,"area_pct_bacia":100.0,"metodo_recorte_bacia":"ponto_representativo_grade_2022; area_pct_geometrica","status_borda_bacia":"total","metodo_area_bacia":"interse??o geom?trica em EPSG:5880","metodo_na_bacia":"ponto_representativo_grade_2022_within_bacia","pop_n_validos":1,"pop_n_total":1,"pop_completude":1.0,"dom_n_validos":1,"dom_n_total":1,"dom_completude":1.0},"geometry":{"type":"Polygon","coordinates":[[[-51.69051934383986,-29.188192964646273],[-51.69060151794233,-29.178875078810165],[-51.68064766928921,-29.178797993972438],[-51.68056514103661,-29.188115872950025],[-51.69051934383986,-29.188192964646273]]]}},{"type":"Feature","properties":{"id_grade":"1KME5233N8096","pop":10,"dom":5,"universo_dom":"domicilios_ocupados_grade_ibge_2022","na_bacia":1,"area_pct_bacia":100.0,"metodo_recorte_bacia":"ponto_representativo_grade_2022; area_pct_geometrica","status_borda_bacia":"total","metodo_area_bacia":"interse??o geom?trica em EPSG:5880","metodo_na_bacia":"ponto_representativo_grade_2022_within_bacia","pop_n_validos":1,"pop_n_total":1,"pop_completude":1.0,"dom_n_validos":1,"dom_n_total":1,"dom_completude":1.0},"geometry":{"type":"Polygon","coordinates":[[[-51.68056514103661,-29.188115872950025],[-51.68064766928921,-29.178797993972438],[-51.670693826508646,-29.17872057764425],[-51.67061094410654,-29.188038449733575],[-51.68056514103661,-29.188115872950025]]]}},{"type":"Feature","properties":{"id_grade":"1KME5234N8096","pop":8,"dom":4,"universo_dom":"domicilios_ocupados_grade_ibge_2022","na_bacia":1,"area_pct_bacia":100.0,"metodo_recorte_bacia":"ponto_representativo_grade_2022; area_pct_geometrica","status_borda_bacia":"total","metodo_area_bacia":"interse??o geom?trica em EPSG:5880","metodo_na_bacia":"ponto_representativo_grade_2022_within_bacia","pop_n_validos":1,"pop_n_total":1,"pop_completude":1.0,"dom_n_validos":1,"dom_n_total":1,"dom_completude":1.0},"geometry":{"type":"Polygon","coordinates":[[[-51.67061094410654,-29.188038449733575],[-51.670693826508646,-29.17872057764425],[-51.660739989625846,-29.17864282982619],[-51.66065675307487,-29.187960694998132],[-51.67061094410654,-29.188038449733575]]]}},{"type":"Feature","properties":{"id_grade":"1KME5230N8097","pop":12,"dom":5,"universo_dom":"domicilios_ocupados_grade_ibge_2022","na_bacia":1,"area_pct_bacia":100.0,"metodo_recorte_bacia":"ponto_representativo_grade_2022; area_pct_geometrica","status_borda_bacia":"total","metodo_area_bacia":"interse??o geom?trica em EPSG:5880","metodo_na_bacia":"ponto_representativo_grade_2022_within_bacia","pop_n_validos":1,"pop_n_total":1,"pop_completude":1.0,"dom_n_validos":1,"dom_n_total":1,"dom_completude":1.0},"geometry":{"type":"Polygon","coordinates":[[[-51.71050923276548,-29.17902825401051],[-51.710590692768854,-29.169710851826476],[-51.70063718657238,-29.16963443676814],[-51.70055537244282,-29.17895183215629],[-51.71050923276548,-29.17902825401051]]]}},{"type":"Feature","properties":{"id_grade":"1KME5231N8097","pop":32,"dom":12,"universo_dom":"domicilios_ocupados_grade_ibge_2022","na_bacia":1,"area_pct_bacia":100.0,"metodo_recorte_bacia":"ponto_representativo_grade_2022; area_pct_geometrica","status_borda_bacia":"total","metodo_area_bacia":"interse??o geom?trica em EPSG:5880","metodo_na_bacia":"ponto_representativo_grade_2022_within_bacia","pop_n_validos":1,"pop_n_total":1,"pop_completude":1.0,"dom_n_validos":1,"dom_n_total":1,"dom_completude":1.0},"geometry":{"type":"Polygon","coordinates":[[[-51.70055537244282,-29.17895183215629],[-51.70063718657238,-29.16963443676814],[-51.69068368619744,-29.16955769024756],[-51.69060151794233,-29.178875078810165],[-51.70055537244282,-29.17895183215629]]]}},{"type":"Feature","properties":{"id_grade":"1KME5232N8097","pop":12,"dom":6,"universo_dom":"domicilios_ocupados_grade_ibge_2022","na_bacia":1,"area_pct_bacia":100.0,"metodo_recorte_bacia":"ponto_representativo_grade_2022; area_pct_geometrica","status_borda_bacia":"total","metodo_area_bacia":"interse??o geom?trica em EPSG:5880","metodo_na_bacia":"ponto_representativo_grade_2022_within_bacia","pop_n_validos":1,"pop_n_total":1,"pop_completude":1.0,"dom_n_validos":1,"dom_n_total":1,"dom_completude":1.0},"geometry":{"type":"Polygon","coordinates":[[[-51.69060151794233,-29.178875078810165],[-51.69068368619744,-29.16955769024756],[-51.680730191669255,-29.169480612264795],[-51.68064766928921,-29.178797993972438],[-51.69060151794233,-29.178875078810165]]]}},{"type":"Feature","properties":{"id_grade":"1KME5233N8097","pop":12,"dom":5,"universo_dom":"domicilios_ocupados_grade_ibge_2022","na_bacia":1,"area_pct_bacia":100.0,"metodo_recorte_bacia":"ponto_representativo_grade_2022; area_pct_geometrica","status_borda_bacia":"total","metodo_area_bacia":"interse??o geom?trica em EPSG:5880","metodo_na_bacia":"ponto_representativo_grade_2022_within_bacia","pop_n_validos":1,"pop_n_total":1,"pop_completude":1.0,"dom_n_validos":1,"dom_n_total":1,"dom_completude":1.0},"geometry":{"type":"Polygon","coordinates":[[[-51.68064766928921,-29.178797993972438],[-51.680730191669255,-29.169480612264795],[-51.670776703013,-29.169403202821133],[-51.670693826508646,-29.17872057764425],[-51.68064766928921,-29.178797993972438]]]}},{"type":"Feature","properties":{"id_grade":"1KME5234N8097","pop":8,"dom":4,"universo_dom":"domicilios_ocupados_grade_ibge_2022","na_bacia":1,"area_pct_bacia":100.0,"metodo_recorte_bacia":"ponto_representativo_grade_2022; area_pct_geometrica","status_borda_bacia":"total","metodo_area_bacia":"interse??o geom?trica em EPSG:5880","metodo_na_bacia":"ponto_representativo_grade_2022_within_bacia","pop_n_validos":1,"pop_n_total":1,"pop_completude":1.0,"dom_n_validos":1,"dom_n_total":1,"dom_completude":1.0},"geometry":{"type":"Polygon","coordinates":[[[-51.670693826508646,-29.17872057764425],[-51.670776703013,-29.169403202821133],[-51.660823220253874,-29.169325461917097],[-51.660739989625846,-29.17864282982619],[-51.670693826508646,-29.17872057764425]]]}},{"type":"Feature","properties":{"id_grade":"1KME5229N8098","pop":5,"dom":2,"universo_dom":"domicilios_ocupados_grade_ibge_2022","na_bacia":1,"area_pct_bacia":100.0,"metodo_recorte_bacia":"ponto_representativo_grade_2022; area_pct_geometrica","status_borda_bacia":"total","metodo_area_bacia":"interse??o geom?trica em EPSG:5880","metodo_na_bacia":"ponto_representativo_grade_2022_within_bacia","pop_n_validos":1,"pop_n_total":1,"pop_completude":1.0,"dom_n_validos":1,"dom_n_total":1,"dom_completude":1.0},"geometry":{"type":"Polygon","coordinates":[[[-51.72054420476168,-29.169786935421083],[-51.7206253048671,-29.160470023376238],[-51.71067214697587,-29.160393946544588],[-51.710590692768854,-29.169710851826476],[-51.72054420476168,-29.169786935421083]]]}},{"type":"Feature","properties":{"id_grade":"1KME5230N8098","pop":2,"dom":1,"universo_dom":"domicilios_ocupados_grade_ibge_2022","na_bacia":1,"area_pct_bacia":100.0,"metodo_recorte_bacia":"ponto_representativo_grade_2022; area_pct_geometrica","status_borda_bacia":"total","metodo_area_bacia":"interse??o geom?trica em EPSG:5880","metodo_na_bacia":"ponto_representativo_grade_2022_within_bacia","pop_n_validos":1,"pop_n_total":1,"pop_completude":1.0,"dom_n_validos":1,"dom_n_total":1,"dom_completude":1.0},"geometry":{"type":"Polygon","coordinates":[[[-51.710590692768854,-29.169710851826476],[-51.71067214697587,-29.160393946544588],[-51.700718994880376,-29.1603175382787],[-51.70063718657238,-29.16963443676814],[-51.710590692768854,-29.169710851826476]]]}},{"type":"Feature","properties":{"id_grade":"1KME5231N8098","pop":7,"dom":4,"universo_dom":"domicilios_ocupados_grade_ibge_2022","na_bacia":1,"area_pct_bacia":100.0,"metodo_recorte_bacia":"ponto_representativo_grade_2022; area_pct_geometrica","status_borda_bacia":"total","metodo_area_bacia":"interse??o geom?trica em EPSG:5880","metodo_na_bacia":"ponto_representativo_grade_2022_within_bacia","pop_n_validos":1,"pop_n_total":1,"pop_completude":1.0,"dom_n_validos":1,"dom_n_total":1,"dom_completude":1.0},"geometry":{"type":"Polygon","coordinates":[[[-51.70063718657238,-29.16963443676814],[-51.700718994880376,-29.1603175382787],[-51.69076584860581,-29.160240798580112],[-51.69068368619744,-29.16955769024756],[-51.70063718657238,-29.16963443676814]]]}},{"type":"Feature","properties":{"id_grade":"1KME5232N8098","pop":29,"dom":9,"universo_dom":"domicilios_ocupados_grade_ibge_2022","na_bacia":1,"area_pct_bacia":100.0,"metodo_recorte_bacia":"ponto_representativo_grade_2022; area_pct_geometrica","status_borda_bacia":"total","metodo_area_bacia":"interse??o geom?trica em EPSG:5880","metodo_na_bacia":"ponto_representativo_grade_2022_within_bacia","pop_n_validos":1,"pop_n_total":1,"pop_completude":1.0,"dom_n_validos":1,"dom_n_total":1,"dom_completude":1.0},"geometry":{"type":"Polygon","coordinates":[[[-51.69068368619744,-29.16955769024756],[-51.69076584860581,-29.160240798580112],[-51.68081270817735,-29.16016372744892],[-51.680730191669255,-29.169480612264795],[-51.69068368619744,-29.16955769024756]]]}},{"type":"Feature","properties":{"id_grade":"1KME5233N8098","pop":16,"dom":7,"universo_dom":"domicilios_ocupados_grade_ibge_2022","na_bacia":1,"area_pct_bacia":100.0,"metodo_recorte_bacia":"ponto_representativo_grade_2022; area_pct_geometrica","status_borda_bacia":"total","metodo_area_bacia":"interse??o geom?trica em EPSG:5880","metodo_na_bacia":"ponto_representativo_grade_2022_within_bacia","pop_n_validos":1,"pop_n_total":1,"pop_completude":1.0,"dom_n_validos":1,"dom_n_total":1,"dom_completude":1.0},"geometry":{"type":"Polygon","coordinates":[[[-51.680730191669255,-29.169480612264795],[-51.68081270817735,-29.16016372744892],[-51.67085957362021,-29.16008632488585],[-51.670776703013,-29.169403202821133],[-51.680730191669255,-29.169480612264795]]]}},{"type":"Feature","properties":{"id_grade":"1KME5234N8098","pop":58,"dom":20,"universo_dom":"domicilios_ocupados_grade_ibge_2022","na_bacia":1,"area_pct_bacia":100.0,"metodo_recorte_bacia":"ponto_representativo_grade_2022; area_pct_geometrica","status_borda_bacia":"total","metodo_area_bacia":"interse??o geom?trica em EPSG:5880","metodo_na_bacia":"ponto_representativo_grade_2022_within_bacia","pop_n_validos":1,"pop_n_total":1,"pop_completude":1.0,"dom_n_validos":1,"dom_n_total":1,"dom_completude":1.0},"geometry":{"type":"Polygon","coordinates":[[[-51.670776703013,-29.169403202821133],[-51.67085957362021,-29.16008632488585],[-51.66090644495957,-29.16000859089221],[-51.660823220253874,-29.169325461917097],[-51.670776703013,-29.169403202821133]]]}},{"type":"Feature","properties":{"id_grade":"1KME5226N8099","pop":7,"dom":4,"universo_dom":"domicilios_ocupados_grade_ibge_2022","na_bacia":1,"area_pct_bacia":100.0,"metodo_recorte_bacia":"ponto_representativo_grade_2022; area_pct_geometrica","status_borda_bacia":"total","metodo_area_bacia":"interse??o geom?trica em EPSG:5880","metodo_na_bacia":"ponto_representativo_grade_2022_within_bacia","pop_n_validos":1,"pop_n_total":1,"pop_completude":1.0,"dom_n_validos":1,"dom_n_total":1,"dom_completude":1.0},"geometry":{"type":"Polygon","coordinates":[[[-51.75048481306327,-29.160696265260647],[-51.75056484516523,-29.151379829640863],[-51.7406120241162,-29.151304753786576],[-51.740531637935995,-29.16062118273495],[-51.75048481306327,-29.160696265260647]]]}},{"type":"Feature","properties":{"id_grade":"1KME5227N8099","pop":3,"dom":3,"universo_dom":"domicilios_ocupados_grade_ibge_2022","na_bacia":1,"area_pct_bacia":100.0,"metodo_recorte_bacia":"ponto_representativo_grade_2022; area_pct_geometrica","status_borda_bacia":"total","metodo_area_bacia":"interse??o geom?trica em EPSG:5880","metodo_na_bacia":"ponto_representativo_grade_2022_within_bacia","pop_n_validos":1,"pop_n_total":1,"pop_completude":1.0,"dom_n_validos":1,"dom_n_total":1,"dom_completude":1.0},"geometry":{"type":"Polygon","coordinates":[[[-51.740531637935995,-29.16062118273495],[-51.7406120241162,-29.151304753786576],[-51.73065920878672,-29.151229346525504],[-51.730578468528876,-29.16054576877318],[-51.740531637935995,-29.16062118273495]]]}},{"type":"Feature","properties":{"id_grade":"1KME5228N8099","pop":10,"dom":5,"universo_dom":"domicilios_ocupados_grade_ibge_2022","na_bacia":1,"area_pct_bacia":100.0,"metodo_recorte_bacia":"ponto_representativo_grade_2022; area_pct_geometrica","status_borda_bacia":"total","metodo_area_bacia":"interse??o geom?trica em EPSG:5880","metodo_na_bacia":"ponto_representativo_grade_2022_within_bacia","pop_n_validos":1,"pop_n_total":1,"pop_completude":1.0,"dom_n_validos":1,"dom_n_total":1,"dom_completude":1.0},"geometry":{"type":"Polygon","coordinates":[[[-51.730578468528876,-29.16054576877318],[-51.73065920878672,-29.151229346525504],[-51.72070639920198,-29.15115360785839],[-51.7206253048671,-29.160470023376238],[-51.730578468528876,-29.16054576877318]]]}},{"type":"Feature","properties":{"id_grade":"1KME5229N8099","pop":15,"dom":4,"universo_dom":"domicilios_ocupados_grade_ibge_2022","na_bacia":1,"area_pct_bacia":100.0,"metodo_recorte_bacia":"ponto_representativo_grade_2022; area_pct_geometrica","status_borda_bacia":"total","metodo_area_bacia":"interse??o geom?trica em EPSG:5880","metodo_na_bacia":"ponto_representativo_grade_2022_within_bacia","pop_n_validos":1,"pop_n_total":1,"pop_completude":1.0,"dom_n_validos":1,"dom_n_total":1,"dom_completude":1.0},"geometry":{"type":"Polygon","coordinates":[[[-51.7206253048671,-29.160470023376238],[-51.72070639920198,-29.15115360785839],[-51.71075359538715,-29.151077537786215],[-51.71067214697587,-29.160393946544588],[-51.7206253048671,-29.160470023376238]]]}},{"type":"Feature","properties":{"id_grade":"1KME5230N8099","pop":16,"dom":6,"universo_dom":"domicilios_ocupados_grade_ibge_2022","na_bacia":1,"area_pct_bacia":100.0,"metodo_recorte_bacia":"ponto_representativo_grade_2022; area_pct_geometrica","status_borda_bacia":"total","metodo_area_bacia":"interse??o geom?trica em EPSG:5880","metodo_na_bacia":"ponto_representativo_grade_2022_within_bacia","pop_n_validos":1,"pop_n_total":1,"pop_completude":1.0,"dom_n_validos":1,"dom_n_total":1,"dom_completude":1.0},"geometry":{"type":"Polygon","coordinates":[[[-51.71067214697587,-29.160393946544588],[-51.71075359538715,-29.151077537786215],[-51.70080079736745,-29.151001136309777],[-51.700718994880376,-29.1603175382787],[-51.71067214697587,-29.160393946544588]]]}},{"type":"Feature","properties":{"id_grade":"1KME5227N8100","pop":4,"dom":2,"universo_dom":"domicilios_ocupados_grade_ibge_2022","na_bacia":1,"area_pct_bacia":100.0,"metodo_recorte_bacia":"ponto_representativo_grade_2022; area_pct_geometrica","status_borda_bacia":"total","metodo_area_bacia":"interse??o geom?trica em EPSG:5880","metodo_na_bacia":"ponto_representativo_grade_2022_within_bacia","pop_n_validos":1,"pop_n_total":1,"pop_completude":1.0,"dom_n_validos":1,"dom_n_total":1,"dom_completude":1.0},"geometry":{"type":"Polygon","coordinates":[[[-51.7406120241162,-29.151304753786576],[-51.74069240457686,-29.141988820994474],[-51.73073994329983,-29.1419134204306],[-51.73065920878672,-29.151229346525504],[-51.7406120241162,-29.151304753786576]]]}},{"type":"Feature","properties":{"id_grade":"1KME5228N8100","pop":15,"dom":7,"universo_dom":"domicilios_ocupados_grade_ibge_2022","na_bacia":1,"area_pct_bacia":100.0,"metodo_recorte_bacia":"ponto_representativo_grade_2022; area_pct_geometrica","status_borda_bacia":"total","metodo_area_bacia":"interse??o geom?trica em EPSG:5880","metodo_na_bacia":"ponto_representativo_grade_2022_within_bacia","pop_n_validos":1,"pop_n_total":1,"pop_completude":1.0,"dom_n_validos":1,"dom_n_total":1,"dom_completude":1.0},"geometry":{"type":"Polygon","coordinates":[[[-51.73065920878672,-29.151229346525504],[-51.73073994329983,-29.1419134204306],[-51.72078748776692,-29.141837688490135],[-51.72070639920198,-29.15115360785839],[-51.73065920878672,-29.151229346525504]]]}},{"type":"Feature","properties":{"id_grade":"1KME5229N8100","pop":3,"dom":2,"universo_dom":"domicilios_ocupados_grade_ibge_2022","na_bacia":1,"area_pct_bacia":100.0,"metodo_recorte_bacia":"ponto_representativo_grade_2022; area_pct_geometrica","status_borda_bacia":"total","metodo_area_bacia":"interse??o geom?trica em EPSG:5880","metodo_na_bacia":"ponto_representativo_grade_2022_within_bacia","pop_n_validos":1,"pop_n_total":1,"pop_completude":1.0,"dom_n_validos":1,"dom_n_total":1,"dom_completude":1.0},"geometry":{"type":"Polygon","coordinates":[[[-51.72070639920198,-29.15115360785839],[-51.72078748776692,-29.141837688490135],[-51.710835038003324,-29.141761625174126],[-51.71075359538715,-29.151077537786215],[-51.72070639920198,-29.15115360785839]]]}},{"type":"Feature","properties":{"id_grade":"1KME5230N8100","pop":37,"dom":14,"universo_dom":"domicilios_ocupados_grade_ibge_2022","na_bacia":1,"area_pct_bacia":100.0,"metodo_recorte_bacia":"ponto_representativo_grade_2022; area_pct_geometrica","status_borda_bacia":"total","metodo_area_bacia":"interse??o geom?trica em EPSG:5880","metodo_na_bacia":"ponto_representativo_grade_2022_within_bacia","pop_n_validos":1,"pop_n_total":1,"pop_completude":1.0,"dom_n_validos":1,"dom_n_total":1,"dom_completude":1.0},"geometry":{"type":"Polygon","coordinates":[[[-51.71075359538715,-29.151077537786215],[-51.710835038003324,-29.141761625174126],[-51.700882594034226,-29.14168523048267],[-51.70080079736745,-29.151001136309777],[-51.71075359538715,-29.151077537786215]]]}},{"type":"Feature","properties":{"id_grade":"1KME5231N8100","pop":5,"dom":1,"universo_dom":"domicilios_ocupados_grade_ibge_2022","na_bacia":1,"area_pct_bacia":100.0,"metodo_recorte_bacia":"ponto_representativo_grade_2022; area_pct_geometrica","status_borda_bacia":"total","metodo_area_bacia":"interse??o geom?trica em EPSG:5880","metodo_na_bacia":"ponto_representativo_grade_2022_within_bacia","pop_n_validos":1,"pop_n_total":1,"pop_completude":1.0,"dom_n_validos":1,"dom_n_total":1,"dom_completude":1.0},"geometry":{"type":"Polygon","coordinates":[[[-51.70080079736745,-29.151001136309777],[-51.700882594034226,-29.14168523048267],[-51.6909301558848,-29.141608504417057],[-51.69084800516805,-29.150924403429407],[-51.70080079736745,-29.151001136309777]]]}},{"type":"Feature","properties":{"id_grade":"1KME5226N8101","pop":22,"dom":9,"universo_dom":"domicilios_ocupados_grade_ibge_2022","na_bacia":1,"area_pct_bacia":100.0,"metodo_recorte_bacia":"ponto_representativo_grade_2022; area_pct_geometrica","status_borda_bacia":"total","metodo_area_bacia":"interse??o geom?trica em EPSG:5880","metodo_na_bacia":"ponto_representativo_grade_2022_within_bacia","pop_n_validos":1,"pop_n_total":1,"pop_completude":1.0,"dom_n_validos":1,"dom_n_total":1,"dom_completude":1.0},"geometry":{"type":"Polygon","coordinates":[[[-51.75064487157283,-29.142063890181305],[-51.750724892286684,-29.13274844650316],[-51.74077277931859,-29.132673383980656],[-51.74069240457686,-29.141988820994474],[-51.75064487157283,-29.142063890181305]]]}},{"type":"Feature","properties":{"id_grade":"1KME5227N8101","pop":18,"dom":7,"universo_dom":"domicilios_ocupados_grade_ibge_2022","na_bacia":1,"area_pct_bacia":100.0,"metodo_recorte_bacia":"ponto_representativo_grade_2022; area_pct_geometrica","status_borda_bacia":"total","metodo_area_bacia":"interse??o geom?trica em EPSG:5880","metodo_na_bacia":"ponto_representativo_grade_2022_within_bacia","pop_n_validos":1,"pop_n_total":1,"pop_completude":1.0,"dom_n_validos":1,"dom_n_total":1,"dom_completude":1.0},"geometry":{"type":"Polygon","coordinates":[[[-51.74069240457686,-29.141988820994474],[-51.74077277931859,-29.132673383980656],[-51.730820672068816,-29.132597990110288],[-51.73073994329983,-29.1419134204306],[-51.74069240457686,-29.141988820994474]]]}},{"type":"Feature","properties":{"id_grade":"1KME5228N8101","pop":4,"dom":2,"universo_dom":"domicilios_ocupados_grade_ibge_2022","na_bacia":1,"area_pct_bacia":100.0,"metodo_recorte_bacia":"ponto_representativo_grade_2022; area_pct_geometrica","status_borda_bacia":"total","metodo_area_bacia":"interse??o geom?trica em EPSG:5880","metodo_na_bacia":"ponto_representativo_grade_2022_within_bacia","pop_n_validos":1,"pop_n_total":1,"pop_completude":1.0,"dom_n_validos":1,"dom_n_total":1,"dom_completude":1.0},"geometry":{"type":"Polygon","coordinates":[[[-51.73073994329983,-29.1419134204306],[-51.730820672068816,-29.132597990110288],[-51.72086857056256,-29.132522264892884],[-51.72078748776692,-29.141837688490135],[-51.73073994329983,-29.1419134204306]]]}},{"type":"Feature","properties":{"id_grade":"1KME5230N8101","pop":48,"dom":18,"universo_dom":"domicilios_ocupados_grade_ibge_2022","na_bacia":1,"area_pct_bacia":100.0,"metodo_recorte_bacia":"ponto_representativo_grade_2022; area_pct_geometrica","status_borda_bacia":"total","metodo_area_bacia":"interse??o geom?trica em EPSG:5880","metodo_na_bacia":"ponto_representativo_grade_2022_within_bacia","pop_n_validos":1,"pop_n_total":1,"pop_completude":1.0,"dom_n_validos":1,"dom_n_total":1,"dom_completude":1.0},"geometry":{"type":"Polygon","coordinates":[[[-51.710835038003324,-29.141761625174126],[-51.71091647482499,-29.132446208328897],[-51.70096438488131,-29.13236982041972],[-51.700882594034226,-29.14168523048267],[-51.710835038003324,-29.141761625174126]]]}},{"type":"Feature","properties":{"id_grade":"1KME5231N8101","pop":19,"dom":6,"universo_dom":"domicilios_ocupados_grade_ibge_2022","na_bacia":1,"area_pct_bacia":100.0,"metodo_recorte_bacia":"ponto_representativo_grade_2022; area_pct_geometrica","status_borda_bacia":"total","metodo_area_bacia":"interse??o geom?trica em EPSG:5880","metodo_na_bacia":"ponto_representativo_grade_2022_within_bacia","pop_n_validos":1,"pop_n_total":1,"pop_completude":1.0,"dom_n_validos":1,"dom_n_total":1,"dom_completude":1.0},"geometry":{"type":"Polygon","coordinates":[[[-51.700882594034226,-29.14168523048267],[-51.70096438488131,-29.13236982041972],[-51.69101230075669,-29.132293101165093],[-51.6909301558848,-29.141608504417057],[-51.700882594034226,-29.14168523048267]]]}},{"type":"Feature","properties":{"id_grade":"1KME5228N8102","pop":4,"dom":3,"universo_dom":"domicilios_ocupados_grade_ibge_2022","na_bacia":1,"area_pct_bacia":100.0,"metodo_recorte_bacia":"ponto_representativo_grade_2022; area_pct_geometrica","status_borda_bacia":"total","metodo_area_bacia":"interse??o geom?trica em EPSG:5880","metodo_na_bacia":"ponto_representativo_grade_2022_within_bacia","pop_n_validos":1,"pop_n_total":1,"pop_completude":1.0,"dom_n_validos":1,"dom_n_total":1,"dom_completude":1.0},"geometry":{"type":"Polygon","coordinates":[[[-51.730820672068816,-29.132597990110288],[-51.7309013950943,-29.123283055186896],[-51.7209496475895,-29.123207336688925],[-51.72086857056256,-29.132522264892884],[-51.730820672068816,-29.132597990110288]]]}},{"type":"Feature","properties":{"id_grade":"1KME5229N8102","pop":4,"dom":3,"universo_dom":"domicilios_ocupados_grade_ibge_2022","na_bacia":1,"area_pct_bacia":100.0,"metodo_recorte_bacia":"ponto_representativo_grade_2022; area_pct_geometrica","status_borda_bacia":"total","metodo_area_bacia":"interse??o geom?trica em EPSG:5880","metodo_na_bacia":"ponto_representativo_grade_2022_within_bacia","pop_n_validos":1,"pop_n_total":1,"pop_completude":1.0,"dom_n_validos":1,"dom_n_total":1,"dom_completude":1.0},"geometry":{"type":"Polygon","coordinates":[[[-51.72086857056256,-29.132522264892884],[-51.7209496475895,-29.123207336688925],[-51.710997905852786,-29.12313128687379],[-51.71091647482499,-29.132446208328897],[-51.72086857056256,-29.132522264892884]]]}},{"type":"Feature","properties":{"id_grade":"1KME5230N8102","pop":13,"dom":5,"universo_dom":"domicilios_ocupados_grade_ibge_2022","na_bacia":1,"area_pct_bacia":100.0,"metodo_recorte_bacia":"ponto_representativo_grade_2022; area_pct_geometrica","status_borda_bacia":"total","metodo_area_bacia":"interse??o geom?trica em EPSG:5880","metodo_na_bacia":"ponto_representativo_grade_2022_within_bacia","pop_n_validos":1,"pop_n_total":1,"pop_completude":1.0,"dom_n_validos":1,"dom_n_total":1,"dom_completude":1.0},"geometry":{"type":"Polygon","coordinates":[[[-51.71091647482499,-29.132446208328897],[-51.710997905852786,-29.12313128687379],[-51.70104616990933,-29.12305490574261],[-51.70096438488131,-29.13236982041972],[-51.71091647482499,-29.132446208328897]]]}},{"type":"Feature","properties":{"id_grade":"1KME5231N8102","pop":10,"dom":3,"universo_dom":"domicilios_ocupados_grade_ibge_2022","na_bacia":1,"area_pct_bacia":100.0,"metodo_recorte_bacia":"ponto_representativo_grade_2022; area_pct_geometrica","status_borda_bacia":"total","metodo_area_bacia":"interse??o geom?trica em EPSG:5880","metodo_na_bacia":"ponto_representativo_grade_2022_within_bacia","pop_n_validos":1,"pop_n_total":1,"pop_completude":1.0,"dom_n_validos":1,"dom_n_total":1,"dom_completude":1.0},"geometry":{"type":"Polygon","coordinates":[[[-51.70096438488131,-29.13236982041972],[-51.70104616990933,-29.12305490574261],[-51.691094439784315,-29.122978193295552],[-51.69101230075669,-29.132293101165093],[-51.70096438488131,-29.13236982041972]]]}},{"type":"Feature","properties":{"id_grade":"1KME5229N8103","pop":11,"dom":5,"universo_dom":"domicilios_ocupados_grade_ibge_2022","na_bacia":1,"area_pct_bacia":100.0,"metodo_recorte_bacia":"ponto_representativo_grade_2022; area_pct_geometrica","status_borda_bacia":"total","metodo_area_bacia":"interse??o geom?trica em EPSG:5880","metodo_na_bacia":"ponto_representativo_grade_2022_within_bacia","pop_n_validos":1,"pop_n_total":1,"pop_completude":1.0,"dom_n_validos":1,"dom_n_total":1,"dom_completude":1.0},"geometry":{"type":"Polygon","coordinates":[[[-51.7209496475895,-29.123207336688925],[-51.72103071884837,-29.11389290350043],[-51.71107933108732,-29.113816860430695],[-51.710997905852786,-29.12313128687379],[-51.7209496475895,-29.123207336688925]]]}},{"type":"Feature","properties":{"id_grade":"1KME5230N8103","pop":7,"dom":3,"universo_dom":"domicilios_ocupados_grade_ibge_2022","na_bacia":1,"area_pct_bacia":100.0,"metodo_recorte_bacia":"ponto_representativo_grade_2022; area_pct_geometrica","status_borda_bacia":"total","metodo_area_bacia":"interse??o geom?trica em EPSG:5880","metodo_na_bacia":"ponto_representativo_grade_2022_within_bacia","pop_n_validos":1,"pop_n_total":1,"pop_completude":1.0,"dom_n_validos":1,"dom_n_total":1,"dom_completude":1.0},"geometry":{"type":"Polygon","coordinates":[[[-51.710997905852786,-29.12313128687379],[-51.71107933108732,-29.113816860430695],[-51.70112794911891,-29.113740486074114],[-51.70104616990933,-29.12305490574261],[-51.710997905852786,-29.12313128687379]]]}},{"type":"Feature","properties":{"id_grade":"1KME5231N8103","pop":36,"dom":10,"universo_dom":"domicilios_ocupados_grade_ibge_2022","na_bacia":1,"area_pct_bacia":100.0,"metodo_recorte_bacia":"ponto_representativo_grade_2022; area_pct_geometrica","status_borda_bacia":"total","metodo_area_bacia":"interse??o geom?trica em EPSG:5880","metodo_na_bacia":"ponto_representativo_grade_2022_within_bacia","pop_n_validos":1,"pop_n_total":1,"pop_completude":1.0,"dom_n_validos":1,"dom_n_total":1,"dom_completude":1.0},"geometry":{"type":"Polygon","coordinates":[[[-51.70104616990933,-29.12305490574261],[-51.70112794911891,-29.113740486074114],[-51.69117657296833,-29.113663780431107],[-51.691094439784315,-29.122978193295552],[-51.70104616990933,-29.12305490574261]]]}},{"type":"Feature","properties":{"id_grade":"1KME5229N8104","pop":18,"dom":7,"universo_dom":"domicilios_ocupados_grade_ibge_2022","na_bacia":1,"area_pct_bacia":100.0,"metodo_recorte_bacia":"ponto_representativo_grade_2022; area_pct_geometrica","status_borda_bacia":"total","metodo_area_bacia":"interse??o geom?trica em EPSG:5880","metodo_na_bacia":"ponto_representativo_grade_2022_within_bacia","pop_n_validos":1,"pop_n_total":1,"pop_completude":1.0,"dom_n_validos":1,"dom_n_total":1,"dom_completude":1.0},"geometry":{"type":"Polygon","coordinates":[[[-51.72103071884837,-29.11389290350043],[-51.72111178433976,-29.10457896495042],[-51.71116075052921,-29.104502928622356],[-51.71107933108732,-29.113816860430695],[-51.72103071884837,-29.11389290350043]]]}},{"type":"Feature","properties":{"id_grade":"1KME5230N8104","pop":4,"dom":2,"universo_dom":"domicilios_ocupados_grade_ibge_2022","na_bacia":1,"area_pct_bacia":100.0,"metodo_recorte_bacia":"ponto_representativo_grade_2022; area_pct_geometrica","status_borda_bacia":"total","metodo_area_bacia":"interse??o geom?trica em EPSG:5880","metodo_na_bacia":"ponto_representativo_grade_2022_within_bacia","pop_n_validos":1,"pop_n_total":1,"pop_completude":1.0,"dom_n_validos":1,"dom_n_total":1,"dom_completude":1.0},"geometry":{"type":"Polygon","coordinates":[[[-51.71107933108732,-29.113816860430695],[-51.71116075052921,-29.104502928622356],[-51.701209722510676,-29.104426561036764],[-51.70112794911891,-29.113740486074114],[-51.71107933108732,-29.113816860430695]]]}},{"type":"Feature","properties":{"id_grade":"1KME5231N8104","pop":24,"dom":7,"universo_dom":"domicilios_ocupados_grade_ibge_2022","na_bacia":1,"area_pct_bacia":100.0,"metodo_recorte_bacia":"ponto_representativo_grade_2022; area_pct_geometrica","status_borda_bacia":"total","metodo_area_bacia":"interse??o geom?trica em EPSG:5880","metodo_na_bacia":"ponto_representativo_grade_2022_within_bacia","pop_n_validos":1,"pop_n_total":1,"pop_completude":1.0,"dom_n_validos":1,"dom_n_total":1,"dom_completude":1.0},"geometry":{"type":"Polygon","coordinates":[[[-51.70112794911891,-29.113740486074114],[-51.701209722510676,-29.104426561036764],[-51.69125870030935,-29.104349862194315],[-51.69117657296833,-29.113663780431107],[-51.70112794911891,-29.113740486074114]]]}},{"type":"Feature","properties":{"id_grade":"1KME5229N8105","pop":3,"dom":1,"universo_dom":"domicilios_ocupados_grade_ibge_2022","na_bacia":1,"area_pct_bacia":100.0,"metodo_recorte_bacia":"ponto_representativo_grade_2022; area_pct_geometrica","status_borda_bacia":"total","metodo_area_bacia":"interse??o geom?trica em EPSG:5880","metodo_na_bacia":"ponto_representativo_grade_2022_within_bacia","pop_n_validos":1,"pop_n_total":1,"pop_completude":1.0,"dom_n_validos":1,"dom_n_total":1,"dom_completude":1.0},"geometry":{"type":"Polygon","coordinates":[[[-51.72111178433976,-29.10457896495042],[-51.72119284406432,-29.095265520661407],[-51.711242164179076,-29.09518949107132],[-51.71116075052921,-29.104502928622356],[-51.72111178433976,-29.10457896495042]]]}},{"type":"Feature","properties":{"id_grade":"1KME5230N8105","pop":5,"dom":2,"universo_dom":"domicilios_ocupados_grade_ibge_2022","na_bacia":1,"area_pct_bacia":100.0,"metodo_recorte_bacia":"ponto_representativo_grade_2022; area_pct_geometrica","status_borda_bacia":"total","metodo_area_bacia":"interse??o geom?trica em EPSG:5880","metodo_na_bacia":"ponto_representativo_grade_2022_within_bacia","pop_n_validos":1,"pop_n_total":1,"pop_completude":1.0,"dom_n_validos":1,"dom_n_total":1,"dom_completude":1.0},"geometry":{"type":"Polygon","coordinates":[[[-51.71116075052921,-29.104502928622356],[-51.711242164179076,-29.09518949107132],[-51.70129149008524,-29.09511313025318],[-51.701209722510676,-29.104426561036764],[-51.71116075052921,-29.104502928622356]]]}},{"type":"Feature","properties":{"id_grade":"1KME5231N8105","pop":7,"dom":4,"universo_dom":"domicilios_ocupados_grade_ibge_2022","na_bacia":1,"area_pct_bacia":100.0,"metodo_recorte_bacia":"ponto_representativo_grade_2022; area_pct_geometrica","status_borda_bacia":"total","metodo_area_bacia":"interse??o geom?trica em EPSG:5880","metodo_na_bacia":"ponto_representativo_grade_2022_within_bacia","pop_n_validos":1,"pop_n_total":1,"pop_completude":1.0,"dom_n_validos":1,"dom_n_total":1,"dom_completude":1.0},"geometry":{"type":"Polygon","coordinates":[[[-51.701209722510676,-29.104426561036764],[-51.70129149008524,-29.09511313025318],[-51.691340821807984,-29.095036438207433],[-51.69125870030935,-29.104349862194315],[-51.701209722510676,-29.104426561036764]]]}},{"type":"Feature","properties":{"id_grade":"1KME5228N8106","pop":2,"dom":1,"universo_dom":"domicilios_ocupados_grade_ibge_2022","na_bacia":1,"area_pct_bacia":100.0,"metodo_recorte_bacia":"ponto_representativo_grade_2022; area_pct_geometrica","status_borda_bacia":"total","metodo_area_bacia":"interse??o geom?trica em EPSG:5880","metodo_na_bacia":"ponto_representativo_grade_2022_within_bacia","pop_n_validos":1,"pop_n_total":1,"pop_completude":1.0,"dom_n_validos":1,"dom_n_total":1,"dom_completude":1.0},"geometry":{"type":"Polygon","coordinates":[[[-51.731143529715794,-29.09534121902213],[-51.73122422977336,-29.086028261911608],[-51.72127389802264,-29.08595257025609],[-51.72119284406432,-29.095265520661407],[-51.731143529715794,-29.09534121902213]]]}},{"type":"Feature","properties":{"id_grade":"1KME5228N8107","pop":29,"dom":11,"universo_dom":"domicilios_ocupados_grade_ibge_2022","na_bacia":1,"area_pct_bacia":100.0,"metodo_recorte_bacia":"ponto_representativo_grade_2022; area_pct_geometrica","status_borda_bacia":"total","metodo_area_bacia":"interse??o geom?trica em EPSG:5880","metodo_na_bacia":"ponto_representativo_grade_2022_within_bacia","pop_n_validos":1,"pop_n_total":1,"pop_completude":1.0,"dom_n_validos":1,"dom_n_total":1,"dom_completude":1.0},"geometry":{"type":"Polygon","coordinates":[[[-51.73122422977336,-29.086028261911608],[-51.73130492409047,-29.07671579831203],[-51.72135494621534,-29.07664011335811],[-51.72127389802264,-29.08595257025609],[-51.73122422977336,-29.086028261911608]]]}},{"type":"Feature","properties":{"id_grade":"200ME52254N80962","pop":5,"dom":1,"universo_dom":"domicilios_ocupados_grade_ibge_2022","na_bacia":1,"area_pct_bacia":100.0,"metodo_recorte_bacia":"ponto_representativo_grade_2022; area_pct_geometrica","status_borda_bacia":"total","metodo_area_bacia":"interse??o geom?trica em EPSG:5880","metodo_na_bacia":"ponto_representativo_grade_2022_within_bacia","pop_n_validos":1,"pop_n_total":1,"pop_completude":1.0,"dom_n_validos":1,"dom_n_total":1,"dom_completude":1.0},"geometry":{"type":"Polygon","coordinates":[[[-51.75621722814253,-29.18869345523864],[-51.75623319560543,-29.186829829732805],[-51.7542423609961,-29.18681487580585],[-51.75422637914403,-29.188678501311777],[-51.75621722814253,-29.18869345523864]]]}},{"type":"Feature","properties":{"id_grade":"200ME52258N80962","pop":4,"dom":1,"universo_dom":"domicilios_ocupados_grade_ibge_2022","na_bacia":1,"area_pct_bacia":100.0,"metodo_recorte_bacia":"ponto_representativo_grade_2022; area_pct_geometrica","status_borda_bacia":"total","metodo_area_bacia":"interse??o geom?trica em EPSG:5880","metodo_na_bacia":"ponto_representativo_grade_2022_within_bacia","pop_n_validos":1,"pop_n_total":1,"pop_completude":1.0,"dom_n_validos":1,"dom_n_total":1,"dom_completude":1.0},"geometry":{"type":"Polygon","coordinates":[[[-51.7522355310449,-29.188663533895],[-51.75225152728609,-29.18679990838899],[-51.750260692676754,-29.18678492748236],[-51.75024468294572,-29.188648552988322],[-51.7522355310449,-29.188663533895]]]}},{"type":"Feature","properties":{"id_grade":"200ME52252N80964","pop":2,"dom":1,"universo_dom":"domicilios_ocupados_grade_ibge_2022","na_bacia":1,"area_pct_bacia":100.0,"metodo_recorte_bacia":"ponto_representativo_grade_2022; area_pct_geometrica","status_borda_bacia":"total","metodo_area_bacia":"interse??o geom?trica em EPSG:5880","metodo_na_bacia":"ponto_representativo_grade_2022_within_bacia","pop_n_validos":1,"pop_n_total":1,"pop_completude":1.0,"dom_n_validos":1,"dom_n_total":1,"dom_completude":1.0},"geometry":{"type":"Polygon","coordinates":[[[-51.75822403021476,-29.186844770169948],[-51.75823998328855,-29.184981163549782],[-51.75624916306839,-29.184966223112642],[-51.75623319560543,-29.186829829732805],[-51.75822403021476,-29.186844770169948]]]}},{"type":"Feature","properties":{"id_grade":"200ME52268N80984","pop":2,"dom":1,"universo_dom":"domicilios_ocupados_grade_ibge_2022","na_bacia":1,"area_pct_bacia":100.0,"metodo_recorte_bacia":"ponto_representativo_grade_2022; area_pct_geometrica","status_borda_bacia":"total","metodo_area_bacia":"interse??o geom?trica em EPSG:5880","metodo_na_bacia":"ponto_representativo_grade_2022_within_bacia","pop_n_validos":1,"pop_n_total":1,"pop_completude":1.0,"dom_n_validos":1,"dom_n_total":1,"dom_completude":1.0},"geometry":{"type":"Polygon","coordinates":[[[-51.74245801632435,-29.168089727259062],[-51.742474080914064,-29.166226322087038],[-51.740483403686085,-29.166211278227884],[-51.740467324707254,-29.168074683399922],[-51.74245801632435,-29.168089727259062]]]}},{"type":"Feature","properties":{"id_grade":"200ME52266N80986","pop":4,"dom":2,"universo_dom":"domicilios_ocupados_grade_ibge_2022","na_bacia":1,"area_pct_bacia":100.0,"metodo_recorte_bacia":"ponto_representativo_grade_2022; area_pct_geometrica","status_borda_bacia":"total","metodo_area_bacia":"interse??o geom?trica em EPSG:5880","metodo_na_bacia":"ponto_representativo_grade_2022_within_bacia","pop_n_validos":1,"pop_n_total":1,"pop_completude":1.0,"dom_n_validos":1,"dom_n_total":1,"dom_completude":1.0},"geometry":{"type":"Polygon","coordinates":[[[-51.744464758142044,-29.166241352456424],[-51.74448080744326,-29.16437796706945],[-51.74249014460445,-29.16436293670006],[-51.742474080914064,-29.166226322087038],[-51.744464758142044,-29.166241352456424]]]}},{"type":"Feature","properties":{"id_grade":"200ME52266N80988","pop":2,"dom":1,"universo_dom":"domicilios_ocupados_grade_ibge_2022","na_bacia":1,"area_pct_bacia":100.0,"metodo_recorte_bacia":"ponto_representativo_grade_2022; area_pct_geometrica","status_borda_bacia":"total","metodo_area_bacia":"interse??o geom?trica em EPSG:5880","metodo_na_bacia":"ponto_representativo_grade_2022_within_bacia","pop_n_validos":1,"pop_n_total":1,"pop_completude":1.0,"dom_n_validos":1,"dom_n_total":1,"dom_completude":1.0},"geometry":{"type":"Polygon","coordinates":[[[-51.74448080744326,-29.16437796706945],[-51.74449685764382,-29.16251460146767],[-51.74250620919418,-29.162499571098312],[-51.74249014460445,-29.16436293670006],[-51.74448080744326,-29.16437796706945]]]}},{"type":"Feature","properties":{"id_grade":"200ME52268N80988","pop":2,"dom":1,"universo_dom":"domicilios_ocupados_grade_ibge_2022","na_bacia":1,"area_pct_bacia":100.0,"metodo_recorte_bacia":"ponto_representativo_grade_2022; area_pct_geometrica","status_borda_bacia":"total","metodo_area_bacia":"interse??o geom?trica em EPSG:5880","metodo_na_bacia":"ponto_representativo_grade_2022_within_bacia","pop_n_validos":1,"pop_n_total":1,"pop_completude":1.0,"dom_n_validos":1,"dom_n_total":1,"dom_completude":1.0},"geometry":{"type":"Polygon","coordinates":[[[-51.74249014460445,-29.16436293670006],[-51.74250620919418,-29.162499571098312],[-51.740515559845164,-29.162484528138418],[-51.740499481765646,-29.164347893740253],[-51.74249014460445,-29.16436293670006]]]}},{"type":"Feature","properties":{"id_grade":"200ME52276N80972","pop":3,"dom":1,"universo_dom":"domicilios_ocupados_grade_ibge_2022","na_bacia":1,"area_pct_bacia":100.0,"metodo_recorte_bacia":"ponto_representativo_grade_2022; area_pct_geometrica","status_borda_bacia":"total","metodo_area_bacia":"interse??o geom?trica em EPSG:5880","metodo_na_bacia":"ponto_representativo_grade_2022_within_bacia","pop_n_validos":1,"pop_n_total":1,"pop_completude":1.0,"dom_n_validos":1,"dom_n_total":1,"dom_completude":1.0},"geometry":{"type":"Polygon","coordinates":[[[-51.73439852147453,-29.17921031380491],[-51.73441464362089,-29.177346790821638],[-51.73242388275594,-29.177331692103856],[-51.73240774622048,-29.179195215087073],[-51.73439852147453,-29.17921031380491]]]}},{"type":"Feature","properties":{"id_grade":"200ME52278N80972","pop":9,"dom":4,"universo_dom":"domicilios_ocupados_grade_ibge_2022","na_bacia":1,"area_pct_bacia":100.0,"metodo_recorte_bacia":"ponto_representativo_grade_2022; area_pct_geometrica","status_borda_bacia":"total","metodo_area_bacia":"interse??o geom?trica em EPSG:5880","metodo_na_bacia":"ponto_representativo_grade_2022_within_bacia","pop_n_validos":1,"pop_n_total":1,"pop_completude":1.0,"dom_n_validos":1,"dom_n_total":1,"dom_completude":1.0},"geometry":{"type":"Polygon","coordinates":[[[-51.73240774622048,-29.179195215087073],[-51.73242388275594,-29.177331692103856],[-51.730433121891,-29.177316579896242],[-51.73041697096642,-29.17918010287938],[-51.73240774622048,-29.179195215087073]]]}},{"type":"Feature","properties":{"id_grade":"200ME52276N80974","pop":10,"dom":4,"universo_dom":"domicilios_ocupados_grade_ibge_2022","na_bacia":1,"area_pct_bacia":100.0,"metodo_recorte_bacia":"ponto_representativo_grade_2022; area_pct_geometrica","status_borda_bacia":"total","metodo_area_bacia":"interse??o geom?trica em EPSG:5880","metodo_na_bacia":"ponto_representativo_grade_2022_within_bacia","pop_n_validos":1,"pop_n_total":1,"pop_completude":1.0,"dom_n_validos":1,"dom_n_total":1,"dom_completude":1.0},"geometry":{"type":"Polygon","coordinates":[[[-51.73441464362089,-29.177346790821638],[-51.73443076576717,-29.175483286724344],[-51.7324400192914,-29.17546818890573],[-51.73242388275594,-29.177331692103856],[-51.73441464362089,-29.177346790821638]]]}},{"type":"Feature","properties":{"id_grade":"200ME52274N80976","pop":9,"dom":4,"universo_dom":"domicilios_ocupados_grade_ibge_2022","na_bacia":1,"area_pct_bacia":100.0,"metodo_recorte_bacia":"ponto_representativo_grade_2022; area_pct_geometrica","status_borda_bacia":"total","metodo_area_bacia":"interse??o geom?trica em EPSG:5880","metodo_na_bacia":"ponto_representativo_grade_2022_within_bacia","pop_n_validos":1,"pop_n_total":1,"pop_completude":1.0,"dom_n_validos":1,"dom_n_total":1,"dom_completude":1.0},"geometry":{"type":"Polygon","coordinates":[[[-51.73642151314226,-29.17549837195224],[-51.73643762089944,-29.17363488763991],[-51.73444688791352,-29.173619803311233],[-51.73443076576717,-29.175483286724344],[-51.73642151314226,-29.17549837195224]]]}},{"type":"Feature","properties":{"id_grade":"200ME52276N80976","pop":23,"dom":12,"universo_dom":"domicilios_ocupados_grade_ibge_2022","na_bacia":1,"area_pct_bacia":100.0,"metodo_recorte_bacia":"ponto_representativo_grade_2022; area_pct_geometrica","status_borda_bacia":"total","metodo_area_bacia":"interse??o geom?trica em EPSG:5880","metodo_na_bacia":"ponto_representativo_grade_2022_within_bacia","pop_n_validos":1,"pop_n_total":1,"pop_completude":1.0,"dom_n_validos":1,"dom_n_total":1,"dom_completude":1.0},"geometry":{"type":"Polygon","coordinates":[[[-51.73443076576717,-29.175483286724344],[-51.73444688791352,-29.173619803311233],[-51.73245615492755,-29.173604705492714],[-51.7324400192914,-29.17546818890573],[-51.73443076576717,-29.175483286724344]]]}},{"type":"Feature","properties":{"id_grade":"200ME52278N80976","pop":3,"dom":1,"universo_dom":"domicilios_ocupados_grade_ibge_2022","na_bacia":1,"area_pct_bacia":100.0,"metodo_recorte_bacia":"ponto_representativo_grade_2022; area_pct_geometrica","status_borda_bacia":"total","metodo_area_bacia":"interse??o geom?trica em EPSG:5880","metodo_na_bacia":"ponto_representativo_grade_2022_within_bacia","pop_n_validos":1,"pop_n_total":1,"pop_completude":1.0,"dom_n_validos":1,"dom_n_total":1,"dom_completude":1.0},"geometry":{"type":"Polygon","coordinates":[[[-51.7324400192914,-29.17546818890573],[-51.73245615492755,-29.173604705492714],[-51.73046542284095,-29.173589594184353],[-51.73044927191632,-29.175453077597385],[-51.7324400192914,-29.17546818890573]]]}},{"type":"Feature","properties":{"id_grade":"200ME52274N80978","pop":50,"dom":24,"universo_dom":"domicilios_ocupados_grade_ibge_2022","na_bacia":1,"area_pct_bacia":100.0,"metodo_recorte_bacia":"ponto_representativo_grade_2022; area_pct_geometrica","status_borda_bacia":"total","metodo_area_bacia":"interse??o geom?trica em EPSG:5880","metodo_na_bacia":"ponto_representativo_grade_2022_within_bacia","pop_n_validos":1,"pop_n_total":1,"pop_completude":1.0,"dom_n_validos":1,"dom_n_total":1,"dom_completude":1.0},"geometry":{"type":"Polygon","coordinates":[[[-51.73643762089944,-29.17363488763991],[-51.736453728656606,-29.171771424011943],[-51.73446301005981,-29.171756339683267],[-51.73444688791352,-29.173619803311233],[-51.73643762089944,-29.17363488763991]]]}},{"type":"Feature","properties":{"id_grade":"200ME52276N80978","pop":57,"dom":21,"universo_dom":"domicilios_ocupados_grade_ibge_2022","na_bacia":1,"area_pct_bacia":100.0,"metodo_recorte_bacia":"ponto_representativo_grade_2022; area_pct_geometrica","status_borda_bacia":"total","metodo_area_bacia":"interse??o geom?trica em EPSG:5880","metodo_na_bacia":"ponto_representativo_grade_2022_within_bacia","pop_n_validos":1,"pop_n_total":1,"pop_completude":1.0,"dom_n_validos":1,"dom_n_total":1,"dom_completude":1.0},"geometry":{"type":"Polygon","coordinates":[[[-51.73444688791352,-29.173619803311233],[-51.73446301005981,-29.171756339683267],[-51.73247229146301,-29.171741241864805],[-51.73245615492755,-29.173604705492714],[-51.73444688791352,-29.173619803311233]]]}},{"type":"Feature","properties":{"id_grade":"200ME52278N80978","pop":21,"dom":9,"universo_dom":"domicilios_ocupados_grade_ibge_2022","na_bacia":1,"area_pct_bacia":100.0,"metodo_recorte_bacia":"ponto_representativo_grade_2022; area_pct_geometrica","status_borda_bacia":"total","metodo_area_bacia":"interse??o geom?trica em EPSG:5880","metodo_na_bacia":"ponto_representativo_grade_2022_within_bacia","pop_n_validos":1,"pop_n_total":1,"pop_completude":1.0,"dom_n_validos":1,"dom_n_total":1,"dom_completude":1.0},"geometry":{"type":"Polygon","coordinates":[[[-51.73245615492755,-29.173604705492714],[-51.73247229146301,-29.171741241864805],[-51.73048157286627,-29.171726130556397],[-51.73046542284095,-29.173589594184353],[-51.73245615492755,-29.173604705492714]]]}},{"type":"Feature","properties":{"id_grade":"200ME52270N80980","pop":5,"dom":2,"universo_dom":"domicilios_ocupados_grade_ibge_2022","na_bacia":1,"area_pct_bacia":100.0,"metodo_recorte_bacia":"ponto_representativo_grade_2022; area_pct_geometrica","status_borda_bacia":"total","metodo_area_bacia":"interse??o geom?trica em EPSG:5880","metodo_na_bacia":"ponto_representativo_grade_2022_within_bacia","pop_n_validos":1,"pop_n_total":1,"pop_completude":1.0,"dom_n_validos":1,"dom_n_total":1,"dom_completude":1.0},"geometry":{"type":"Polygon","coordinates":[[[-51.74043516674948,-29.17180155309918],[-51.740451245728366,-29.169938108356952],[-51.73846054062142,-29.169923051007967],[-51.738444447253414,-29.171786494850792],[-51.74043516674948,-29.17180155309918]]]}},{"type":"Feature","properties":{"id_grade":"200ME52272N80980","pop":18,"dom":6,"universo_dom":"domicilios_ocupados_grade_ibge_2022","na_bacia":1,"area_pct_bacia":100.0,"metodo_recorte_bacia":"ponto_representativo_grade_2022; area_pct_geometrica","status_borda_bacia":"total","metodo_area_bacia":"interse??o geom?trica em EPSG:5880","metodo_na_bacia":"ponto_representativo_grade_2022_within_bacia","pop_n_validos":1,"pop_n_total":1,"pop_completude":1.0,"dom_n_validos":1,"dom_n_total":1,"dom_completude":1.0},"geometry":{"type":"Polygon","coordinates":[[[-51.738444447253414,-29.171786494850792],[-51.73846054062142,-29.169923051007967],[-51.73646983551447,-29.16990798016911],[-51.736453728656606,-29.171771424011943],[-51.738444447253414,-29.171786494850792]]]}},{"type":"Feature","properties":{"id_grade":"200ME52274N80980","pop":44,"dom":22,"universo_dom":"domicilios_ocupados_grade_ibge_2022","na_bacia":1,"area_pct_bacia":100.0,"metodo_recorte_bacia":"ponto_representativo_grade_2022; area_pct_geometrica","status_borda_bacia":"total","metodo_area_bacia":"interse??o geom?trica em EPSG:5880","metodo_na_bacia":"ponto_representativo_grade_2022_within_bacia","pop_n_validos":1,"pop_n_total":1,"pop_completude":1.0,"dom_n_validos":1,"dom_n_total":1,"dom_completude":1.0},"geometry":{"type":"Polygon","coordinates":[[[-51.736453728656606,-29.171771424011943],[-51.73646983551447,-29.16990798016911],[-51.73447913130684,-29.169892895840423],[-51.73446301005981,-29.171756339683267],[-51.736453728656606,-29.171771424011943]]]}},{"type":"Feature","properties":{"id_grade":"200ME52276N80980","pop":4,"dom":3,"universo_dom":"domicilios_ocupados_grade_ibge_2022","na_bacia":1,"area_pct_bacia":100.0,"metodo_recorte_bacia":"ponto_representativo_grade_2022; area_pct_geometrica","status_borda_bacia":"total","metodo_area_bacia":"interse??o geom?trica em EPSG:5880","metodo_na_bacia":"ponto_representativo_grade_2022_within_bacia","pop_n_validos":1,"pop_n_total":1,"pop_completude":1.0,"dom_n_validos":1,"dom_n_total":1,"dom_completude":1.0},"geometry":{"type":"Polygon","coordinates":[[[-51.73446301005981,-29.171756339683267],[-51.73447913130684,-29.169892895840423],[-51.73248842709921,-29.169877798021826],[-51.73247229146301,-29.171741241864805],[-51.73446301005981,-29.171756339683267]]]}},{"type":"Feature","properties":{"id_grade":"200ME52278N80980","pop":8,"dom":4,"universo_dom":"domicilios_ocupados_grade_ibge_2022","na_bacia":1,"area_pct_bacia":100.0,"metodo_recorte_bacia":"ponto_representativo_grade_2022; area_pct_geometrica","status_borda_bacia":"total","metodo_area_bacia":"interse??o geom?trica em EPSG:5880","metodo_na_bacia":"ponto_representativo_grade_2022_within_bacia","pop_n_validos":1,"pop_n_total":1,"pop_completude":1.0,"dom_n_validos":1,"dom_n_total":1,"dom_completude":1.0},"geometry":{"type":"Polygon","coordinates":[[[-51.73247229146301,-29.171741241864805],[-51.73248842709921,-29.169877798021826],[-51.730497722891585,-29.16986268761299],[-51.73048157286627,-29.171726130556397],[-51.73247229146301,-29.171741241864805]]]}},{"type":"Feature","properties":{"id_grade":"200ME52270N80982","pop":10,"dom":4,"universo_dom":"domicilios_ocupados_grade_ibge_2022","na_bacia":1,"area_pct_bacia":100.0,"metodo_recorte_bacia":"ponto_representativo_grade_2022; area_pct_geometrica","status_borda_bacia":"total","metodo_area_bacia":"interse??o geom?trica em EPSG:5880","metodo_na_bacia":"ponto_representativo_grade_2022_within_bacia","pop_n_validos":1,"pop_n_total":1,"pop_completude":1.0,"dom_n_validos":1,"dom_n_total":1,"dom_completude":1.0},"geometry":{"type":"Polygon","coordinates":[[[-51.740451245728366,-29.169938108356952],[-51.740467324707254,-29.168074683399922],[-51.73847663398942,-29.168059626050933],[-51.73846054062142,-29.169923051007967],[-51.740451245728366,-29.169938108356952]]]}},{"type":"Feature","properties":{"id_grade":"200ME52272N80982","pop":58,"dom":24,"universo_dom":"domicilios_ocupados_grade_ibge_2022","na_bacia":1,"area_pct_bacia":100.0,"metodo_recorte_bacia":"ponto_representativo_grade_2022; area_pct_geometrica","status_borda_bacia":"total","metodo_area_bacia":"interse??o geom?trica em EPSG:5880","metodo_na_bacia":"ponto_representativo_grade_2022_within_bacia","pop_n_validos":1,"pop_n_total":1,"pop_completude":1.0,"dom_n_validos":1,"dom_n_total":1,"dom_completude":1.0},"geometry":{"type":"Polygon","coordinates":[[[-51.73846054062142,-29.169923051007967],[-51.73847663398942,-29.168059626050933],[-51.736485943271646,-29.168044555212045],[-51.73646983551447,-29.16990798016911],[-51.73846054062142,-29.169923051007967]]]}},{"type":"Feature","properties":{"id_grade":"200ME52274N80982","pop":11,"dom":6,"universo_dom":"domicilios_ocupados_grade_ibge_2022","na_bacia":1,"area_pct_bacia":100.0,"metodo_recorte_bacia":"ponto_representativo_grade_2022; area_pct_geometrica","status_borda_bacia":"total","metodo_area_bacia":"interse??o geom?trica em EPSG:5880","metodo_na_bacia":"ponto_representativo_grade_2022_within_bacia","pop_n_validos":1,"pop_n_total":1,"pop_completude":1.0,"dom_n_validos":1,"dom_n_total":1,"dom_completude":1.0},"geometry":{"type":"Polygon","coordinates":[[[-51.73646983551447,-29.16990798016911],[-51.736485943271646,-29.168044555212045],[-51.73449525255381,-29.16802947178258],[-51.73447913130684,-29.169892895840423],[-51.73646983551447,-29.16990798016911]]]}},{"type":"Feature","properties":{"id_grade":"200ME52278N80982","pop":20,"dom":6,"universo_dom":"domicilios_ocupados_grade_ibge_2022","na_bacia":1,"area_pct_bacia":100.0,"metodo_recorte_bacia":"ponto_representativo_grade_2022; area_pct_geometrica","status_borda_bacia":"total","metodo_area_bacia":"interse??o geom?trica em EPSG:5880","metodo_na_bacia":"ponto_representativo_grade_2022_within_bacia","pop_n_validos":1,"pop_n_total":1,"pop_completude":1.0,"dom_n_validos":1,"dom_n_total":1,"dom_completude":1.0},"geometry":{"type":"Polygon","coordinates":[[[-51.73248842709921,-29.169877798021826],[-51.73250456183604,-29.168014374863382],[-51.730513872017525,-29.16799926445445],[-51.730497722891585,-29.16986268761299],[-51.73248842709921,-29.169877798021826]]]}},{"type":"Feature","properties":{"id_grade":"200ME52272N80984","pop":14,"dom":8,"universo_dom":"domicilios_ocupados_grade_ibge_2022","na_bacia":1,"area_pct_bacia":100.0,"metodo_recorte_bacia":"ponto_representativo_grade_2022; area_pct_geometrica","status_borda_bacia":"total","metodo_area_bacia":"interse??o geom?trica em EPSG:5880","metodo_na_bacia":"ponto_representativo_grade_2022_within_bacia","pop_n_validos":1,"pop_n_total":1,"pop_completude":1.0,"dom_n_validos":1,"dom_n_total":1,"dom_completude":1.0},"geometry":{"type":"Polygon","coordinates":[[[-51.73847663398942,-29.168059626050933],[-51.738492726458105,-29.16619622177812],[-51.73650205012944,-29.166181150939334],[-51.736485943271646,-29.168044555212045],[-51.73847663398942,-29.168059626050933]]]}},{"type":"Feature","properties":{"id_grade":"200ME52274N80984","pop":17,"dom":7,"universo_dom":"domicilios_ocupados_grade_ibge_2022","na_bacia":1,"area_pct_bacia":100.0,"metodo_recorte_bacia":"ponto_representativo_grade_2022; area_pct_geometrica","status_borda_bacia":"total","metodo_area_bacia":"interse??o geom?trica em EPSG:5880","metodo_na_bacia":"ponto_representativo_grade_2022_within_bacia","pop_n_validos":1,"pop_n_total":1,"pop_completude":1.0,"dom_n_validos":1,"dom_n_total":1,"dom_completude":1.0},"geometry":{"type":"Polygon","coordinates":[[[-51.736485943271646,-29.168044555212045],[-51.73650205012944,-29.166181150939334],[-51.734511373800835,-29.166166067509923],[-51.73449525255381,-29.16802947178258],[-51.736485943271646,-29.168044555212045]]]}},{"type":"Feature","properties":{"id_grade":"200ME52276N80984","pop":7,"dom":3,"universo_dom":"domicilios_ocupados_grade_ibge_2022","na_bacia":1,"area_pct_bacia":100.0,"metodo_recorte_bacia":"ponto_representativo_grade_2022; area_pct_geometrica","status_borda_bacia":"total","metodo_area_bacia":"interse??o geom?trica em EPSG:5880","metodo_na_bacia":"ponto_representativo_grade_2022_within_bacia","pop_n_validos":1,"pop_n_total":1,"pop_completude":1.0,"dom_n_validos":1,"dom_n_total":1,"dom_completude":1.0},"geometry":{"type":"Polygon","coordinates":[[[-51.73449525255381,-29.16802947178258],[-51.734511373800835,-29.166166067509923],[-51.73252069747218,-29.16615097059075],[-51.73250456183604,-29.168014374863382],[-51.73449525255381,-29.16802947178258]]]}},{"type":"Feature","properties":{"id_grade":"200ME52272N80986","pop":16,"dom":6,"universo_dom":"domicilios_ocupados_grade_ibge_2022","na_bacia":1,"area_pct_bacia":100.0,"metodo_recorte_bacia":"ponto_representativo_grade_2022; area_pct_geometrica","status_borda_bacia":"total","metodo_area_bacia":"interse??o geom?trica em EPSG:5880","metodo_na_bacia":"ponto_representativo_grade_2022_within_bacia","pop_n_validos":1,"pop_n_total":1,"pop_completude":1.0,"dom_n_validos":1,"dom_n_total":1,"dom_completude":1.0},"geometry":{"type":"Polygon","coordinates":[[[-51.738492726458105,-29.16619622177812],[-51.73850881892679,-29.16433283639123],[-51.7365181569873,-29.164317766451724],[-51.73650205012944,-29.166181150939334],[-51.738492726458105,-29.16619622177812]]]}},{"type":"Feature","properties":{"id_grade":"200ME52274N80986","pop":6,"dom":2,"universo_dom":"domicilios_ocupados_grade_ibge_2022","na_bacia":1,"area_pct_bacia":100.0,"metodo_recorte_bacia":"ponto_representativo_grade_2022; area_pct_geometrica","status_borda_bacia":"total","metodo_area_bacia":"interse??o geom?trica em EPSG:5880","metodo_na_bacia":"ponto_representativo_grade_2022_within_bacia","pop_n_validos":1,"pop_n_total":1,"pop_completude":1.0,"dom_n_validos":1,"dom_n_total":1,"dom_completude":1.0},"geometry":{"type":"Polygon","coordinates":[[[-51.73650205012944,-29.166181150939334],[-51.7365181569873,-29.164317766451724],[-51.7345274941485,-29.164302683022335],[-51.734511373800835,-29.166166067509923],[-51.73650205012944,-29.166181150939334]]]}},{"type":"Feature","properties":{"id_grade":"200ME52272N80988","pop":2,"dom":1,"universo_dom":"domicilios_ocupados_grade_ibge_2022","na_bacia":1,"area_pct_bacia":100.0,"metodo_recorte_bacia":"ponto_representativo_grade_2022; area_pct_geometrica","status_borda_bacia":"total","metodo_area_bacia":"interse??o geom?trica em EPSG:5880","metodo_na_bacia":"ponto_representativo_grade_2022_within_bacia","pop_n_validos":1,"pop_n_total":1,"pop_completude":1.0,"dom_n_validos":1,"dom_n_total":1,"dom_completude":1.0},"geometry":{"type":"Polygon","coordinates":[[[-51.73850881892679,-29.16433283639123],[-51.73852491139553,-29.162469471688723],[-51.73653426294584,-29.162454401749137],[-51.7365181569873,-29.164317766451724],[-51.73850881892679,-29.16433283639123]]]}},{"type":"Feature","properties":{"id_grade":"200ME52286N80976","pop":2,"dom":1,"universo_dom":"domicilios_ocupados_grade_ibge_2022","na_bacia":1,"area_pct_bacia":100.0,"metodo_recorte_bacia":"ponto_representativo_grade_2022; area_pct_geometrica","status_borda_bacia":"total","metodo_area_bacia":"interse??o geom?trica em EPSG:5880","metodo_na_bacia":"ponto_representativo_grade_2022_within_bacia","pop_n_validos":1,"pop_n_total":1,"pop_completude":1.0,"dom_n_validos":1,"dom_n_total":1,"dom_completude":1.0},"geometry":{"type":"Polygon","coordinates":[[[-51.724477033388325,-29.175407663632654],[-51.7244932265811,-29.17354418111903],[-51.7225024944945,-29.173529016750717],[-51.722486287811876,-29.17539249926438],[-51.724477033388325,-29.175407663632654]]]}},{"type":"Feature","properties":{"id_grade":"200ME52280N80978","pop":19,"dom":8,"universo_dom":"domicilios_ocupados_grade_ibge_2022","na_bacia":1,"area_pct_bacia":100.0,"metodo_recorte_bacia":"ponto_representativo_grade_2022; area_pct_geometrica","status_borda_bacia":"total","metodo_area_bacia":"interse??o geom?trica em EPSG:5880","metodo_na_bacia":"ponto_representativo_grade_2022_within_bacia","pop_n_validos":1,"pop_n_total":1,"pop_completude":1.0,"dom_n_validos":1,"dom_n_total":1,"dom_completude":1.0},"geometry":{"type":"Polygon","coordinates":[[[-51.73046542284095,-29.173589594184353],[-51.73048157286627,-29.171726130556397],[-51.72849085426947,-29.17171100665762],[-51.728474689855034,-29.17357446938628],[-51.73046542284095,-29.173589594184353]]]}},{"type":"Feature","properties":{"id_grade":"200ME52282N80978","pop":87,"dom":33,"universo_dom":"domicilios_ocupados_grade_ibge_2022","na_bacia":1,"area_pct_bacia":100.0,"metodo_recorte_bacia":"ponto_representativo_grade_2022; area_pct_geometrica","status_borda_bacia":"total","metodo_area_bacia":"interse??o geom?trica em EPSG:5880","metodo_na_bacia":"ponto_representativo_grade_2022_within_bacia","pop_n_validos":1,"pop_n_total":1,"pop_completude":1.0,"dom_n_validos":1,"dom_n_total":1,"dom_completude":1.0},"geometry":{"type":"Polygon","coordinates":[[[-51.728474689855034,-29.17357446938628],[-51.72849085426947,-29.17171100665762],[-51.726500136571985,-29.17169586926889],[-51.72648395776838,-29.1735593319975],[-51.728474689855034,-29.17357446938628]]]}},{"type":"Feature","properties":{"id_grade":"200ME52284N80978","pop":32,"dom":14,"universo_dom":"domicilios_ocupados_grade_ibge_2022","na_bacia":1,"area_pct_bacia":100.0,"metodo_recorte_bacia":"ponto_representativo_grade_2022; area_pct_geometrica","status_borda_bacia":"total","metodo_area_bacia":"interse??o geom?trica em EPSG:5880","metodo_na_bacia":"ponto_representativo_grade_2022_within_bacia","pop_n_validos":1,"pop_n_total":1,"pop_completude":1.0,"dom_n_validos":1,"dom_n_total":1,"dom_completude":1.0},"geometry":{"type":"Polygon","coordinates":[[[-51.72648395776838,-29.1735593319975],[-51.726500136571985,-29.17169586926889],[-51.72450941887456,-29.17168071839036],[-51.7244932265811,-29.17354418111903],[-51.72648395776838,-29.1735593319975]]]}},{"type":"Feature","properties":{"id_grade":"200ME52286N80978","pop":6,"dom":4,"universo_dom":"domicilios_ocupados_grade_ibge_2022","na_bacia":1,"area_pct_bacia":100.0,"metodo_recorte_bacia":"ponto_representativo_grade_2022; area_pct_geometrica","status_borda_bacia":"total","metodo_area_bacia":"interse??o geom?trica em EPSG:5880","metodo_na_bacia":"ponto_representativo_grade_2022_within_bacia","pop_n_validos":1,"pop_n_total":1,"pop_completude":1.0,"dom_n_validos":1,"dom_n_total":1,"dom_completude":1.0},"geometry":{"type":"Polygon","coordinates":[[[-51.7244932265811,-29.17354418111903],[-51.72450941887456,-29.17168071839036],[-51.72251870117709,-29.171665554921425],[-51.7225024944945,-29.173529016750717],[-51.7244932265811,-29.17354418111903]]]}},{"type":"Feature","properties":{"id_grade":"200ME52288N80978","pop":13,"dom":5,"universo_dom":"domicilios_ocupados_grade_ibge_2022","na_bacia":1,"area_pct_bacia":100.0,"metodo_recorte_bacia":"ponto_representativo_grade_2022; area_pct_geometrica","status_borda_bacia":"total","metodo_area_bacia":"interse??o geom?trica em EPSG:5880","metodo_na_bacia":"ponto_representativo_grade_2022_within_bacia","pop_n_validos":1,"pop_n_total":1,"pop_completude":1.0,"dom_n_validos":1,"dom_n_total":1,"dom_completude":1.0},"geometry":{"type":"Polygon","coordinates":[[[-51.7225024944945,-29.173529016750717],[-51.72251870117709,-29.171665554921425],[-51.72052798437891,-29.17165037706315],[-51.720511763307165,-29.17351383979177],[-51.7225024944945,-29.173529016750717]]]}},{"type":"Feature","properties":{"id_grade":"200ME52280N80980","pop":3,"dom":1,"universo_dom":"domicilios_ocupados_grade_ibge_2022","na_bacia":1,"area_pct_bacia":100.0,"metodo_recorte_bacia":"ponto_representativo_grade_2022; area_pct_geometrica","status_borda_bacia":"total","metodo_area_bacia":"interse??o geom?trica em EPSG:5880","metodo_na_bacia":"ponto_representativo_grade_2022_within_bacia","pop_n_validos":1,"pop_n_total":1,"pop_completude":1.0,"dom_n_validos":1,"dom_n_total":1,"dom_completude":1.0},"geometry":{"type":"Polygon","coordinates":[[[-51.73048157286627,-29.171726130556397],[-51.730497722891585,-29.16986268761299],[-51.7285070186839,-29.169847563713976],[-51.72849085426947,-29.17171100665762],[-51.73048157286627,-29.171726130556397]]]}},{"type":"Feature","properties":{"id_grade":"200ME52286N80990","pop":3,"dom":1,"universo_dom":"domicilios_ocupados_grade_ibge_2022","na_bacia":1,"area_pct_bacia":100.0,"metodo_recorte_bacia":"ponto_representativo_grade_2022; area_pct_geometrica","status_borda_bacia":"total","metodo_area_bacia":"interse??o geom?trica em EPSG:5880","metodo_na_bacia":"ponto_representativo_grade_2022_within_bacia","pop_n_validos":1,"pop_n_total":1,"pop_completude":1.0,"dom_n_validos":1,"dom_n_total":1,"dom_completude":1.0},"geometry":{"type":"Polygon","coordinates":[[[-51.7245903785431,-29.162363704221544],[-51.72460656993724,-29.160500361102784],[-51.722615936776045,-29.160485198533017],[-51.722599731892046,-29.162348541651834],[-51.7245903785431,-29.162363704221544]]]}},{"type":"Feature","properties":{"id_grade":"200ME52290N80972","pop":7,"dom":2,"universo_dom":"domicilios_ocupados_grade_ibge_2022","na_bacia":1,"area_pct_bacia":100.0,"metodo_recorte_bacia":"ponto_representativo_grade_2022; area_pct_geometrica","status_borda_bacia":"total","metodo_area_bacia":"interse??o geom?trica em EPSG:5880","metodo_na_bacia":"ponto_representativo_grade_2022_within_bacia","pop_n_validos":1,"pop_n_total":1,"pop_completude":1.0,"dom_n_validos":1,"dom_n_total":1,"dom_completude":1.0},"geometry":{"type":"Polygon","coordinates":[[[-51.720463099192614,-29.17910434399022],[-51.72047932026436,-29.177240822805757],[-51.718488561198114,-29.177225631457738],[-51.71847232483787,-29.17908915264223],[-51.720463099192614,-29.17910434399022]]]}},{"type":"Feature","properties":{"id_grade":"200ME52292N80974","pop":29,"dom":11,"universo_dom":"domicilios_ocupados_grade_ibge_2022","na_bacia":1,"area_pct_bacia":100.0,"metodo_recorte_bacia":"ponto_representativo_grade_2022; area_pct_geometrica","status_borda_bacia":"total","metodo_area_bacia":"interse??o geom?trica em EPSG:5880","metodo_na_bacia":"ponto_representativo_grade_2022_within_bacia","pop_n_validos":1,"pop_n_total":1,"pop_completude":1.0,"dom_n_validos":1,"dom_n_total":1,"dom_completude":1.0},"geometry":{"type":"Polygon","coordinates":[[[-51.718488561198114,-29.177225631457738],[-51.718504796658976,-29.175362130058215],[-51.71651405108252,-29.175346926119698],[-51.71649780213182,-29.177210426619876],[-51.718488561198114,-29.177225631457738]]]}},{"type":"Feature","properties":{"id_grade":"200ME52290N80976","pop":15,"dom":5,"universo_dom":"domicilios_ocupados_grade_ibge_2022","na_bacia":1,"area_pct_bacia":100.0,"metodo_recorte_bacia":"ponto_representativo_grade_2022; area_pct_geometrica","status_borda_bacia":"total","metodo_area_bacia":"interse??o geom?trica em EPSG:5880","metodo_na_bacia":"ponto_representativo_grade_2022_within_bacia","pop_n_validos":1,"pop_n_total":1,"pop_completude":1.0,"dom_n_validos":1,"dom_n_total":1,"dom_completude":1.0},"geometry":{"type":"Polygon","coordinates":[[[-51.720495542235426,-29.17537732140626],[-51.720511763307165,-29.17351383979177],[-51.718521032119895,-29.173498648443907],[-51.718504796658976,-29.175362130058215],[-51.720495542235426,-29.17537732140626]]]}},{"type":"Feature","properties":{"id_grade":"200ME52292N80976","pop":4,"dom":1,"universo_dom":"domicilios_ocupados_grade_ibge_2022","na_bacia":1,"area_pct_bacia":100.0,"metodo_recorte_bacia":"ponto_representativo_grade_2022; area_pct_geometrica","status_borda_bacia":"total","metodo_area_bacia":"interse??o geom?trica em EPSG:5880","metodo_na_bacia":"ponto_representativo_grade_2022_within_bacia","pop_n_validos":1,"pop_n_total":1,"pop_completude":1.0,"dom_n_validos":1,"dom_n_total":1,"dom_completude":1.0},"geometry":{"type":"Polygon","coordinates":[[[-51.718504796658976,-29.175362130058215],[-51.718521032119895,-29.173498648443907],[-51.71653030093262,-29.173483444505308],[-51.71651405108252,-29.175346926119698],[-51.718504796658976,-29.175362130058215]]]}},{"type":"Feature","properties":{"id_grade":"200ME52292N80980","pop":2,"dom":1,"universo_dom":"domicilios_ocupados_grade_ibge_2022","na_bacia":1,"area_pct_bacia":100.0,"metodo_recorte_bacia":"ponto_representativo_grade_2022; area_pct_geometrica","status_borda_bacia":"total","metodo_area_bacia":"interse??o geom?trica em EPSG:5880","metodo_na_bacia":"ponto_representativo_grade_2022_within_bacia","pop_n_validos":1,"pop_n_total":1,"pop_completude":1.0,"dom_n_validos":1,"dom_n_total":1,"dom_completude":1.0},"geometry":{"type":"Polygon","coordinates":[[[-51.71853726668149,-29.17163518661451],[-51.71855350214235,-29.16977174546965],[-51.716562798834055,-29.169756541531125],[-51.716546549883326,-29.171619983575397],[-51.71853726668149,-29.17163518661451]]]}},{"type":"Feature","properties":{"id_grade":"200ME52298N81062","pop":1,"dom":1,"universo_dom":"domicilios_ocupados_grade_ibge_2022","na_bacia":1,"area_pct_bacia":100.0,"metodo_recorte_bacia":"ponto_representativo_grade_2022; area_pct_geometrica","status_borda_bacia":"total","metodo_area_bacia":"interse??o geom?trica em EPSG:5880","metodo_na_bacia":"ponto_representativo_grade_2022_within_bacia","pop_n_validos":1,"pop_n_total":1,"pop_completude":1.0,"dom_n_validos":1,"dom_n_total":1,"dom_completude":1.0},"geometry":{"type":"Polygon","coordinates":[[[-51.713232299930674,-29.09520472331934],[-51.71324856776715,-29.09334209516152],[-51.71125844632019,-29.09332686244469],[-51.711242164094536,-29.095189491501724],[-51.713232299930674,-29.09520472331934]]]}},{"type":"Feature","properties":{"id_grade":"200ME52294N81066","pop":5,"dom":1,"universo_dom":"domicilios_ocupados_grade_ibge_2022","na_bacia":1,"area_pct_bacia":100.0,"metodo_recorte_bacia":"ponto_representativo_grade_2022; area_pct_geometrica","status_borda_bacia":"total","metodo_area_bacia":"interse??o geom?trica em EPSG:5880","metodo_na_bacia":"ponto_representativo_grade_2022_within_bacia","pop_n_validos":1,"pop_n_total":1,"pop_completude":1.0,"dom_n_validos":1,"dom_n_total":1,"dom_completude":1.0},"geometry":{"type":"Polygon","coordinates":[[[-51.717245050618544,-29.091509909954272],[-51.71726128967674,-29.08964732046732],[-51.71527119610875,-29.089632115629648],[-51.71525494266143,-29.091494705116514],[-51.717245050618544,-29.091509909954272]]]}},{"type":"Feature","properties":{"id_grade":"200ME52292N81074","pop":3,"dom":1,"universo_dom":"domicilios_ocupados_grade_ibge_2022","na_bacia":1,"area_pct_bacia":100.0,"metodo_recorte_bacia":"ponto_representativo_grade_2022; area_pct_geometrica","status_borda_bacia":"total","metodo_area_bacia":"interse??o geom?trica em EPSG:5880","metodo_na_bacia":"ponto_representativo_grade_2022_within_bacia","pop_n_validos":1,"pop_n_total":1,"pop_completude":1.0,"dom_n_validos":1,"dom_n_total":1,"dom_completude":1.0},"geometry":{"type":"Polygon","coordinates":[[[-51.719300056352495,-29.084074861165867],[-51.71931628102152,-29.08221235081932],[-51.717326243211524,-29.08219716037058],[-51.71731000505264,-29.084059670717195],[-51.719300056352495,-29.084074861165867]]]}},{"type":"Feature","properties":{"id_grade":"200ME52290N81078","pop":3,"dom":2,"universo_dom":"domicilios_ocupados_grade_ibge_2022","na_bacia":1,"area_pct_bacia":100.0,"metodo_recorte_bacia":"ponto_representativo_grade_2022; area_pct_geometrica","status_borda_bacia":"total","metodo_area_bacia":"interse??o geom?trica em EPSG:5880","metodo_na_bacia":"ponto_representativo_grade_2022_within_bacia","pop_n_validos":1,"pop_n_total":1,"pop_completude":1.0,"dom_n_validos":1,"dom_n_total":1,"dom_completude":1.0},"geometry":{"type":"Polygon","coordinates":[[[-51.72132252731273,-29.08036503721669],[-51.721338736693326,-29.078502565540926],[-51.71934872766161,-29.078487388581983],[-51.719332504791225,-29.080349859358424],[-51.72132252731273,-29.08036503721669]]]}}]}
