{"type":"FeatureCollection","name":"4317558","crs":{"type":"name","properties":{"name":"urn:ogc:def:crs:OGC:1.3:CRS84"}},"features":[{"type":"Feature","properties":{"id_grade":"200ME51974N81750","pop":2,"dom":1,"universo_dom":"domicilios_ocupados_grade_ibge_2022","na_bacia":1,"area_pct_bacia":100.0,"metodo_recorte_bacia":"ponto_representativo_grade_2022; area_pct_geometrica"},"geometry":{"type":"Polygon","coordinates":[[[-52.040432685952695,-28.457884717959566],[-52.04044659228652,-28.456028669291012],[-52.038461294194704,-28.456015661878457],[-52.03844737377276,-28.457871710323364],[-52.040432685952695,-28.457884717959566]]]}},{"type":"Feature","properties":{"id_grade":"1KME5195N8165","pop":34,"dom":14,"universo_dom":"domicilios_ocupados_grade_ibge_2022","na_bacia":1,"area_pct_bacia":100.0,"metodo_recorte_bacia":"ponto_representativo_grade_2022; area_pct_geometrica"},"geometry":{"type":"Polygon","coordinates":[[[-52.063583081990735,-28.549009312348414],[-52.06365181421348,-28.53972463580318],[-52.05372214310704,-28.539660207340614],[-52.053653058445384,-28.548944878324367],[-52.063583081990735,-28.549009312348414]]]}},{"type":"Feature","properties":{"id_grade":"1KME5196N8165","pop":8,"dom":4,"universo_dom":"domicilios_ocupados_grade_ibge_2022","na_bacia":1,"area_pct_bacia":100.0,"metodo_recorte_bacia":"ponto_representativo_grade_2022; area_pct_geometrica"},"geometry":{"type":"Polygon","coordinates":[[[-52.053653058445384,-28.548944878324367],[-52.05372214310704,-28.539660207340614],[-52.04379247690459,-28.539595449360114],[-52.04372303980456,-28.548880114753246],[-52.053653058445384,-28.548944878324367]]]}},{"type":"Feature","properties":{"id_grade":"1KME5194N8166","pop":21,"dom":6,"universo_dom":"domicilios_ocupados_grade_ibge_2022","na_bacia":1,"area_pct_bacia":100.0,"metodo_recorte_bacia":"ponto_representativo_grade_2022; area_pct_geometrica"},"geometry":{"type":"Polygon","coordinates":[[[-52.07358149019892,-28.53978873474631],[-52.07364986512827,-28.530504524400218],[-52.063720541557245,-28.530440430987383],[-52.06365181421348,-28.53972463580318],[-52.07358149019892,-28.53978873474631]]]}},{"type":"Feature","properties":{"id_grade":"1KME5195N8166","pop":3,"dom":1,"universo_dom":"domicilios_ocupados_grade_ibge_2022","na_bacia":1,"area_pct_bacia":100.0,"metodo_recorte_bacia":"ponto_representativo_grade_2022; area_pct_geometrica"},"geometry":{"type":"Polygon","coordinates":[[[-52.06365181421348,-28.53972463580318],[-52.063720541557245,-28.530440430987383],[-52.05379122286469,-28.53037600808408],[-52.05372214310704,-28.539660207340614],[-52.06365181421348,-28.53972463580318]]]}},{"type":"Feature","properties":{"id_grade":"1KME5196N8166","pop":6,"dom":1,"universo_dom":"domicilios_ocupados_grade_ibge_2022","na_bacia":1,"area_pct_bacia":100.0,"metodo_recorte_bacia":"ponto_representativo_grade_2022; area_pct_geometrica"},"geometry":{"type":"Polygon","coordinates":[[[-52.05372214310704,-28.539660207340614],[-52.05379122286469,-28.53037600808408],[-52.0438619090756,-28.530311255690847],[-52.04379247690459,-28.539595449360114],[-52.05372214310704,-28.539660207340614]]]}},{"type":"Feature","properties":{"id_grade":"1KME5197N8166","pop":21,"dom":7,"universo_dom":"domicilios_ocupados_grade_ibge_2022","na_bacia":1,"area_pct_bacia":100.0,"metodo_recorte_bacia":"ponto_representativo_grade_2022; area_pct_geometrica"},"geometry":{"type":"Polygon","coordinates":[[[-52.04379247690459,-28.539595449360114],[-52.0438619090756,-28.530311255690847],[-52.03393260021502,-28.53024617380787],[-52.03386281563116,-28.53953036186145],[-52.04379247690459,-28.539595449360114]]]}},{"type":"Feature","properties":{"id_grade":"1KME5198N8166","pop":25,"dom":9,"universo_dom":"domicilios_ocupados_grade_ibge_2022","na_bacia":1,"area_pct_bacia":100.0,"metodo_recorte_bacia":"ponto_representativo_grade_2022; area_pct_geometrica"},"geometry":{"type":"Polygon","coordinates":[[[-52.03386281563116,-28.53953036186145],[-52.03393260021502,-28.53024617380787],[-52.02400329630794,-28.53018076243614],[-52.02393315931176,-28.53946494484568],[-52.03386281563116,-28.53953036186145]]]}},{"type":"Feature","properties":{"id_grade":"1KME5192N8167","pop":2,"dom":1,"universo_dom":"domicilios_ocupados_grade_ibge_2022","na_bacia":1,"area_pct_bacia":100.0,"metodo_recorte_bacia":"ponto_representativo_grade_2022; area_pct_geometrica"},"geometry":{"type":"Polygon","coordinates":[[[-52.093508526805664,-28.53063172275095],[-52.093576192101224,-28.52134797280216],[-52.083647211238734,-28.52128454384338],[-52.083579193552744,-28.530568288321533],[-52.093508526805664,-28.53063172275095]]]}},{"type":"Feature","properties":{"id_grade":"1KME5193N8167","pop":2,"dom":1,"universo_dom":"domicilios_ocupados_grade_ibge_2022","na_bacia":1,"area_pct_bacia":100.0,"metodo_recorte_bacia":"ponto_representativo_grade_2022; area_pct_geometrica"},"geometry":{"type":"Polygon","coordinates":[[[-52.083579193552744,-28.530568288321533],[-52.083647211238734,-28.52128454384338],[-52.07371823520417,-28.52122078542109],[-52.07364986512827,-28.530504524400218],[-52.083579193552744,-28.530568288321533]]]}},{"type":"Feature","properties":{"id_grade":"1KME5194N8167","pop":8,"dom":2,"universo_dom":"domicilios_ocupados_grade_ibge_2022","na_bacia":1,"area_pct_bacia":100.0,"metodo_recorte_bacia":"ponto_representativo_grade_2022; area_pct_geometrica"},"geometry":{"type":"Polygon","coordinates":[[[-52.07364986512827,-28.530504524400218],[-52.07371823520417,-28.52122078542109],[-52.06378926402254,-28.521156697536068],[-52.063720541557245,-28.530440430987383],[-52.07364986512827,-28.530504524400218]]]}},{"type":"Feature","properties":{"id_grade":"1KME5196N8167","pop":7,"dom":2,"universo_dom":"domicilios_ocupados_grade_ibge_2022","na_bacia":1,"area_pct_bacia":100.0,"metodo_recorte_bacia":"ponto_representativo_grade_2022; area_pct_geometrica"},"geometry":{"type":"Polygon","coordinates":[[[-52.05379122286469,-28.53037600808408],[-52.053860297718856,-28.521092280188796],[-52.043931336318124,-28.521027533379854],[-52.0438619090756,-28.530311255690847],[-52.05379122286469,-28.53037600808408]]]}},{"type":"Feature","properties":{"id_grade":"1KME5198N8167","pop":31,"dom":11,"universo_dom":"domicilios_ocupados_grade_ibge_2022","na_bacia":1,"area_pct_bacia":100.0,"metodo_recorte_bacia":"ponto_representativo_grade_2022; area_pct_geometrica"},"geometry":{"type":"Polygon","coordinates":[[[-52.03393260021502,-28.53024617380787],[-52.03400237984537,-28.520962457109718],[-52.02407342832559,-28.520897051379425],[-52.02400329630794,-28.53018076243614],[-52.03393260021502,-28.53024617380787]]]}},{"type":"Feature","properties":{"id_grade":"1KME5199N8167","pop":23,"dom":7,"universo_dom":"domicilios_ocupados_grade_ibge_2022","na_bacia":1,"area_pct_bacia":100.0,"metodo_recorte_bacia":"ponto_representativo_grade_2022; area_pct_geometrica"},"geometry":{"type":"Polygon","coordinates":[[[-52.02400329630794,-28.53018076243614],[-52.02407342832559,-28.520897051379425],[-52.014144481783795,-28.52083131618907],[-52.01407399737936,-28.530115021576197],[-52.02400329630794,-28.53018076243614]]]}},{"type":"Feature","properties":{"id_grade":"1KME5201N8167","pop":4,"dom":1,"universo_dom":"domicilios_ocupados_grade_ibge_2022","na_bacia":1,"area_pct_bacia":100.0,"metodo_recorte_bacia":"ponto_representativo_grade_2022; area_pct_geometrica"},"geometry":{"type":"Polygon","coordinates":[[[-52.00414470345434,-28.530048951228537],[-52.004215540245,-28.520765251539476],[-51.99428660373421,-28.520698857431217],[-51.99421541455784,-28.52998255139401],[-52.00414470345434,-28.530048951228537]]]}},{"type":"Feature","properties":{"id_grade":"1KME5202N8167","pop":6,"dom":2,"universo_dom":"domicilios_ocupados_grade_ibge_2022","na_bacia":1,"area_pct_bacia":100.0,"metodo_recorte_bacia":"ponto_representativo_grade_2022; area_pct_geometrica"},"geometry":{"type":"Polygon","coordinates":[[[-51.99421541455784,-28.52998255139401],[-51.99428660373421,-28.520698857431217],[-51.984357672276445,-28.52063213386488],[-51.984286130714914,-28.529915822072766],[-51.99421541455784,-28.52998255139401]]]}},{"type":"Feature","properties":{"id_grade":"1KME5192N8168","pop":10,"dom":3,"universo_dom":"domicilios_ocupados_grade_ibge_2022","na_bacia":1,"area_pct_bacia":100.0,"metodo_recorte_bacia":"ponto_representativo_grade_2022; area_pct_geometrica"},"geometry":{"type":"Polygon","coordinates":[[[-52.093576192101224,-28.52134797280216],[-52.09364385259387,-28.51206469386082],[-52.08371522409679,-28.512001270370263],[-52.083647211238734,-28.52128454384338],[-52.093576192101224,-28.52134797280216]]]}},{"type":"Feature","properties":{"id_grade":"1KME5193N8168","pop":15,"dom":6,"universo_dom":"domicilios_ocupados_grade_ibge_2022","na_bacia":1,"area_pct_bacia":100.0,"metodo_recorte_bacia":"ponto_representativo_grade_2022; area_pct_geometrica"},"geometry":{"type":"Polygon","coordinates":[[[-52.083647211238734,-28.52128454384338],[-52.08371522409679,-28.512001270370263],[-52.07378660042713,-28.511937517444366],[-52.07371823520417,-28.52122078542109],[-52.083647211238734,-28.52128454384338]]]}},{"type":"Feature","properties":{"id_grade":"1KME5194N8168","pop":23,"dom":9,"universo_dom":"domicilios_ocupados_grade_ibge_2022","na_bacia":1,"area_pct_bacia":100.0,"metodo_recorte_bacia":"ponto_representativo_grade_2022; area_pct_geometrica"},"geometry":{"type":"Polygon","coordinates":[[[-52.07371823520417,-28.52122078542109],[-52.07378660042713,-28.511937517444366],[-52.063857981609885,-28.51187343508412],[-52.06378926402254,-28.521156697536068],[-52.07371823520417,-28.52122078542109]]]}},{"type":"Feature","properties":{"id_grade":"1KME5195N8168","pop":12,"dom":5,"universo_dom":"domicilios_ocupados_grade_ibge_2022","na_bacia":1,"area_pct_bacia":100.0,"metodo_recorte_bacia":"ponto_representativo_grade_2022; area_pct_geometrica"},"geometry":{"type":"Polygon","coordinates":[[[-52.06378926402254,-28.521156697536068],[-52.063857981609885,-28.51187343508412],[-52.053929367670065,-28.51180902328976],[-52.053860297718856,-28.521092280188796],[-52.06378926402254,-28.521156697536068]]]}},{"type":"Feature","properties":{"id_grade":"1KME5196N8168","pop":11,"dom":3,"universo_dom":"domicilios_ocupados_grade_ibge_2022","na_bacia":1,"area_pct_bacia":100.0,"metodo_recorte_bacia":"ponto_representativo_grade_2022; area_pct_geometrica"},"geometry":{"type":"Polygon","coordinates":[[[-52.053860297718856,-28.521092280188796],[-52.053929367670065,-28.51180902328976],[-52.04400075863268,-28.511744282062644],[-52.043931336318124,-28.521027533379854],[-52.053860297718856,-28.521092280188796]]]}},{"type":"Feature","properties":{"id_grade":"1KME5197N8168","pop":13,"dom":5,"universo_dom":"domicilios_ocupados_grade_ibge_2022","na_bacia":1,"area_pct_bacia":100.0,"metodo_recorte_bacia":"ponto_representativo_grade_2022; area_pct_geometrica"},"geometry":{"type":"Polygon","coordinates":[[[-52.043931336318124,-28.521027533379854],[-52.04400075863268,-28.511744282062644],[-52.03407215452274,-28.511679211402512],[-52.03400237984537,-28.520962457109718],[-52.043931336318124,-28.521027533379854]]]}},{"type":"Feature","properties":{"id_grade":"1KME5198N8168","pop":28,"dom":7,"universo_dom":"domicilios_ocupados_grade_ibge_2022","na_bacia":1,"area_pct_bacia":100.0,"metodo_recorte_bacia":"ponto_representativo_grade_2022; area_pct_geometrica"},"geometry":{"type":"Polygon","coordinates":[[[-52.03400237984537,-28.520962457109718],[-52.03407215452274,-28.511679211402512],[-52.02414355536526,-28.511613811310276],[-52.02407342832559,-28.520897051379425],[-52.03400237984537,-28.520962457109718]]]}},{"type":"Feature","properties":{"id_grade":"1KME5199N8168","pop":20,"dom":6,"universo_dom":"domicilios_ocupados_grade_ibge_2022","na_bacia":1,"area_pct_bacia":100.0,"metodo_recorte_bacia":"ponto_representativo_grade_2022; area_pct_geometrica"},"geometry":{"type":"Polygon","coordinates":[[[-52.02407342832559,-28.520897051379425],[-52.02414355536526,-28.511613811310276],[-52.014214961185225,-28.511548081786415],[-52.014144481783795,-28.52083131618907],[-52.02407342832559,-28.520897051379425]]]}},{"type":"Feature","properties":{"id_grade":"1KME5200N8168","pop":20,"dom":8,"universo_dom":"domicilios_ocupados_grade_ibge_2022","na_bacia":1,"area_pct_bacia":100.0,"metodo_recorte_bacia":"ponto_representativo_grade_2022; area_pct_geometrica"},"geometry":{"type":"Polygon","coordinates":[[[-52.014144481783795,-28.52083131618907],[-52.014214961185225,-28.511548081786415],[-52.004286372007655,-28.51148202283204],[-52.004215540245,-28.520765251539476],[-52.014144481783795,-28.52083131618907]]]}},{"type":"Feature","properties":{"id_grade":"1KME5201N8168","pop":21,"dom":7,"universo_dom":"domicilios_ocupados_grade_ibge_2022","na_bacia":1,"area_pct_bacia":100.0,"metodo_recorte_bacia":"ponto_representativo_grade_2022; area_pct_geometrica"},"geometry":{"type":"Polygon","coordinates":[[[-52.004215540245,-28.520765251539476],[-52.004286372007655,-28.51148202283204],[-51.99435778785756,-28.51141563444715],[-51.99428660373421,-28.520698857431217],[-52.004215540245,-28.520765251539476]]]}},{"type":"Feature","properties":{"id_grade":"1KME5202N8168","pop":47,"dom":13,"universo_dom":"domicilios_ocupados_grade_ibge_2022","na_bacia":1,"area_pct_bacia":100.0,"metodo_recorte_bacia":"ponto_representativo_grade_2022; area_pct_geometrica"},"geometry":{"type":"Polygon","coordinates":[[[-51.99428660373421,-28.520698857431217],[-51.99435778785756,-28.51141563444715],[-51.98442920875995,-28.511348916632684],[-51.984357672276445,-28.52063213386488],[-51.99428660373421,-28.520698857431217]]]}},{"type":"Feature","properties":{"id_grade":"1KME5203N8168","pop":42,"dom":12,"universo_dom":"domicilios_ocupados_grade_ibge_2022","na_bacia":1,"area_pct_bacia":100.0,"metodo_recorte_bacia":"ponto_representativo_grade_2022; area_pct_geometrica"},"geometry":{"type":"Polygon","coordinates":[[[-51.984357672276445,-28.52063213386488],[-51.98442920875995,-28.511348916632684],[-51.97450063473982,-28.511281869389094],[-51.9744287458967,-28.52056508084106],[-51.984357672276445,-28.52063213386488]]]}},{"type":"Feature","properties":{"id_grade":"1KME5204N8168","pop":24,"dom":7,"universo_dom":"domicilios_ocupados_grade_ibge_2022","na_bacia":1,"area_pct_bacia":100.0,"metodo_recorte_bacia":"ponto_representativo_grade_2022; area_pct_geometrica"},"geometry":{"type":"Polygon","coordinates":[[[-51.9744287458967,-28.52056508084106],[-51.97450063473982,-28.511281869389094],[-51.96457206582218,-28.511214492717098],[-51.96449982461999,-28.520497698360806],[-51.9744287458967,-28.52056508084106]]]}},{"type":"Feature","properties":{"id_grade":"1KME5205N8168","pop":8,"dom":2,"universo_dom":"domicilios_ocupados_grade_ibge_2022","na_bacia":1,"area_pct_bacia":100.0,"metodo_recorte_bacia":"ponto_representativo_grade_2022; area_pct_geometrica"},"geometry":{"type":"Polygon","coordinates":[[[-51.96449982461999,-28.520497698360806],[-51.96457206582218,-28.511214492717098],[-51.95464350203204,-28.511146786617342],[-51.954570908471325,-28.52042998642392],[-51.96449982461999,-28.520497698360806]]]}},{"type":"Feature","properties":{"id_grade":"1KME5207N8168","pop":7,"dom":3,"universo_dom":"domicilios_ocupados_grade_ibge_2022","na_bacia":1,"area_pct_bacia":100.0,"metodo_recorte_bacia":"ponto_representativo_grade_2022; area_pct_geometrica"},"geometry":{"type":"Polygon","coordinates":[[[-51.94464199747572,-28.520361945031585],[-51.944714943394416,-28.51107875109045],[-51.9347863899343,-28.511010386136547],[-51.93471309165819,-28.520293574184272],[-51.94464199747572,-28.520361945031585]]]}},{"type":"Feature","properties":{"id_grade":"1KME5192N8169","pop":5,"dom":2,"universo_dom":"domicilios_ocupados_grade_ibge_2022","na_bacia":1,"area_pct_bacia":100.0,"metodo_recorte_bacia":"ponto_representativo_grade_2022; area_pct_geometrica"},"geometry":{"type":"Polygon","coordinates":[[[-52.09364385259387,-28.51206469386082],[-52.093711508284116,-28.502781885563174],[-52.083783232127445,-28.50271846753744],[-52.08371522409679,-28.512001270370263],[-52.09364385259387,-28.51206469386082]]]}},{"type":"Feature","properties":{"id_grade":"1KME5194N8169","pop":6,"dom":1,"universo_dom":"domicilios_ocupados_grade_ibge_2022","na_bacia":1,"area_pct_bacia":100.0,"metodo_recorte_bacia":"ponto_representativo_grade_2022; area_pct_geometrica"},"geometry":{"type":"Polygon","coordinates":[[[-52.07378660042713,-28.511937517444366],[-52.073854960797675,-28.502654720105152],[-52.063926694319804,-28.502590643266704],[-52.063857981609885,-28.51187343508412],[-52.07378660042713,-28.511937517444366]]]}},{"type":"Feature","properties":{"id_grade":"1KME5195N8169","pop":5,"dom":3,"universo_dom":"domicilios_ocupados_grade_ibge_2022","na_bacia":1,"area_pct_bacia":100.0,"metodo_recorte_bacia":"ponto_representativo_grade_2022; area_pct_geometrica"},"geometry":{"type":"Polygon","coordinates":[[[-52.063857981609885,-28.51187343508412],[-52.063926694319804,-28.502590643266704],[-52.05399843271884,-28.502526237022774],[-52.053929367670065,-28.51180902328976],[-52.063857981609885,-28.51187343508412]]]}},{"type":"Feature","properties":{"id_grade":"1KME5196N8169","pop":6,"dom":2,"universo_dom":"domicilios_ocupados_grade_ibge_2022","na_bacia":1,"area_pct_bacia":100.0,"metodo_recorte_bacia":"ponto_representativo_grade_2022; area_pct_geometrica"},"geometry":{"type":"Polygon","coordinates":[[[-52.053929367670065,-28.51180902328976],[-52.05399843271884,-28.502526237022774],[-52.044070176019794,-28.502461501373727],[-52.04400075863268,-28.511744282062644],[-52.053929367670065,-28.51180902328976]]]}},{"type":"Feature","properties":{"id_grade":"1KME5197N8169","pop":10,"dom":3,"universo_dom":"domicilios_ocupados_grade_ibge_2022","na_bacia":1,"area_pct_bacia":100.0,"metodo_recorte_bacia":"ponto_representativo_grade_2022; area_pct_geometrica"},"geometry":{"type":"Polygon","coordinates":[[[-52.04400075863268,-28.511744282062644],[-52.044070176019794,-28.502461501373727],[-52.03414192424766,-28.50239643632067],[-52.03407215452274,-28.511679211402512],[-52.04400075863268,-28.511744282062644]]]}},{"type":"Feature","properties":{"id_grade":"1KME5203N8169","pop":5,"dom":2,"universo_dom":"domicilios_ocupados_grade_ibge_2022","na_bacia":1,"area_pct_bacia":100.0,"metodo_recorte_bacia":"ponto_representativo_grade_2022; area_pct_geometrica"},"geometry":{"type":"Polygon","coordinates":[[[-51.98442920875995,-28.511348916632684],[-51.98450074016596,-28.502066170010966],[-51.97457251848044,-28.501999128544526],[-51.97450063473982,-28.511281869389094],[-51.98442920875995,-28.511348916632684]]]}},{"type":"Feature","properties":{"id_grade":"1KME5204N8169","pop":39,"dom":10,"universo_dom":"domicilios_ocupados_grade_ibge_2022","na_bacia":1,"area_pct_bacia":100.0,"metodo_recorte_bacia":"ponto_representativo_grade_2022; area_pct_geometrica"},"geometry":{"type":"Polygon","coordinates":[[[-51.97450063473982,-28.511281869389094],[-51.97457251848044,-28.501999128544526],[-51.96464430189687,-28.50193175767828],[-51.96457206582218,-28.511214492717098],[-51.97450063473982,-28.511281869389094]]]}},{"type":"Feature","properties":{"id_grade":"1KME5205N8169","pop":12,"dom":2,"universo_dom":"domicilios_ocupados_grade_ibge_2022","na_bacia":1,"area_pct_bacia":100.0,"metodo_recorte_bacia":"ponto_representativo_grade_2022; area_pct_geometrica"},"geometry":{"type":"Polygon","coordinates":[[[-51.96457206582218,-28.511214492717098],[-51.96464430189687,-28.50193175767828],[-51.95471609044025,-28.5018640574121],[-51.95464350203204,-28.511146786617342],[-51.96457206582218,-28.511214492717098]]]}},{"type":"Feature","properties":{"id_grade":"1KME5206N8169","pop":10,"dom":5,"universo_dom":"domicilios_ocupados_grade_ibge_2022","na_bacia":1,"area_pct_bacia":100.0,"metodo_recorte_bacia":"ponto_representativo_grade_2022; area_pct_geometrica"},"geometry":{"type":"Polygon","coordinates":[[[-51.95464350203204,-28.511146786617342],[-51.95471609044025,-28.5018640574121],[-51.94478788413559,-28.501796027747524],[-51.944714943394416,-28.51107875109045],[-51.95464350203204,-28.511146786617342]]]}},{"type":"Feature","properties":{"id_grade":"1KME5208N8169","pop":2,"dom":1,"universo_dom":"domicilios_ocupados_grade_ibge_2022","na_bacia":1,"area_pct_bacia":100.0,"metodo_recorte_bacia":"ponto_representativo_grade_2022; area_pct_geometrica"},"geometry":{"type":"Polygon","coordinates":[[[-51.9347863899343,-28.511010386136547],[-51.9348596830079,-28.501727668684463],[-51.92493148708217,-28.501658980224065],[-51.924857841676705,-28.51094169175719],[-51.9347863899343,-28.511010386136547]]]}},{"type":"Feature","properties":{"id_grade":"1KME5209N8169","pop":3,"dom":1,"universo_dom":"domicilios_ocupados_grade_ibge_2022","na_bacia":1,"area_pct_bacia":100.0,"metodo_recorte_bacia":"ponto_representativo_grade_2022; area_pct_geometrica"},"geometry":{"type":"Polygon","coordinates":[[[-51.924857841676705,-28.51094169175719],[-51.92493148708217,-28.501658980224065],[-51.91500329638341,-28.501589962366356],[-51.91492929864664,-28.51087266795218],[-51.924857841676705,-28.51094169175719]]]}},{"type":"Feature","properties":{"id_grade":"1KME5192N8170","pop":15,"dom":6,"universo_dom":"domicilios_ocupados_grade_ibge_2022","na_bacia":1,"area_pct_bacia":100.0,"metodo_recorte_bacia":"ponto_representativo_grade_2022; area_pct_geometrica"},"geometry":{"type":"Polygon","coordinates":[[[-52.093711508284116,-28.502781885563174],[-52.09377915917246,-28.49349954754394],[-52.083851235331196,-28.493436134980655],[-52.083783232127445,-28.50271846753744],[-52.093711508284116,-28.502781885563174]]]}},{"type":"Feature","properties":{"id_grade":"1KME5193N8170","pop":5,"dom":1,"universo_dom":"domicilios_ocupados_grade_ibge_2022","na_bacia":1,"area_pct_bacia":100.0,"metodo_recorte_bacia":"ponto_representativo_grade_2022; area_pct_geometrica"},"geometry":{"type":"Polygon","coordinates":[[[-52.083783232127445,-28.50271846753744],[-52.083851235331196,-28.493436134980655],[-52.07392331631631,-28.493372393038552],[-52.073854960797675,-28.502654720105152],[-52.083783232127445,-28.50271846753744]]]}},{"type":"Feature","properties":{"id_grade":"1KME5194N8170","pop":15,"dom":4,"universo_dom":"domicilios_ocupados_grade_ibge_2022","na_bacia":1,"area_pct_bacia":100.0,"metodo_recorte_bacia":"ponto_representativo_grade_2022; area_pct_geometrica"},"geometry":{"type":"Polygon","coordinates":[[[-52.073854960797675,-28.502654720105152],[-52.07392331631631,-28.493372393038552],[-52.06399540215281,-28.493308321719173],[-52.063926694319804,-28.502590643266704],[-52.073854960797675,-28.502654720105152]]]}},{"type":"Feature","properties":{"id_grade":"1KME5195N8170","pop":21,"dom":7,"universo_dom":"domicilios_ocupados_grade_ibge_2022","na_bacia":1,"area_pct_bacia":100.0,"metodo_recorte_bacia":"ponto_representativo_grade_2022; area_pct_geometrica"},"geometry":{"type":"Polygon","coordinates":[[[-52.063926694319804,-28.502590643266704],[-52.06399540215281,-28.493308321719173],[-52.054067492865705,-28.493243921022664],[-52.05399843271884,-28.502526237022774],[-52.063926694319804,-28.502590643266704]]]}},{"type":"Feature","properties":{"id_grade":"1KME5196N8170","pop":3,"dom":1,"universo_dom":"domicilios_ocupados_grade_ibge_2022","na_bacia":1,"area_pct_bacia":100.0,"metodo_recorte_bacia":"ponto_representativo_grade_2022; area_pct_geometrica"},"geometry":{"type":"Polygon","coordinates":[[[-52.05399843271884,-28.502526237022774],[-52.054067492865705,-28.493243921022664],[-52.04413958847999,-28.493179190949117],[-52.044070176019794,-28.502461501373727],[-52.05399843271884,-28.502526237022774]]]}},{"type":"Feature","properties":{"id_grade":"1KME5197N8170","pop":4,"dom":1,"universo_dom":"domicilios_ocupados_grade_ibge_2022","na_bacia":1,"area_pct_bacia":100.0,"metodo_recorte_bacia":"ponto_representativo_grade_2022; area_pct_geometrica"},"geometry":{"type":"Polygon","coordinates":[[[-52.044070176019794,-28.502461501373727],[-52.04413958847999,-28.493179190949117],[-52.03421168902067,-28.493114131500022],[-52.03414192424766,-28.50239643632067],[-52.044070176019794,-28.502461501373727]]]}},{"type":"Feature","properties":{"id_grade":"1KME5201N8170","pop":21,"dom":8,"universo_dom":"domicilios_ocupados_grade_ibge_2022","na_bacia":1,"area_pct_bacia":100.0,"metodo_recorte_bacia":"ponto_representativo_grade_2022; area_pct_geometrica"},"geometry":{"type":"Polygon","coordinates":[[[-52.00435719874284,-28.502199264741282],[-52.00442802045108,-28.492916976902855],[-51.99450014094735,-28.492850599955666],[-51.99442896692843,-28.50213288207683],[-52.00435719874284,-28.502199264741282]]]}},{"type":"Feature","properties":{"id_grade":"1KME5202N8170","pop":25,"dom":8,"universo_dom":"domicilios_ocupados_grade_ibge_2022","na_bacia":1,"area_pct_bacia":100.0,"metodo_recorte_bacia":"ponto_representativo_grade_2022; area_pct_geometrica"},"geometry":{"type":"Polygon","coordinates":[[[-51.99442896692843,-28.50213288207683],[-51.99450014094735,-28.492850599955666],[-51.98457226649503,-28.492783893635686],[-51.98450074016596,-28.502066170010966],[-51.99442896692843,-28.50213288207683]]]}},{"type":"Feature","properties":{"id_grade":"1KME5203N8170","pop":17,"dom":6,"universo_dom":"domicilios_ocupados_grade_ibge_2022","na_bacia":1,"area_pct_bacia":100.0,"metodo_recorte_bacia":"ponto_representativo_grade_2022; area_pct_geometrica"},"geometry":{"type":"Polygon","coordinates":[[[-51.98450074016596,-28.502066170010966],[-51.98457226649503,-28.492783893635686],[-51.97464439711912,-28.492716857943357],[-51.97457251848044,-28.501999128544526],[-51.98450074016596,-28.502066170010966]]]}},{"type":"Feature","properties":{"id_grade":"1KME5204N8170","pop":7,"dom":3,"universo_dom":"domicilios_ocupados_grade_ibge_2022","na_bacia":1,"area_pct_bacia":100.0,"metodo_recorte_bacia":"ponto_representativo_grade_2022; area_pct_geometrica"},"geometry":{"type":"Polygon","coordinates":[[[-51.97457251848044,-28.501999128544526],[-51.97464439711912,-28.492716857943357],[-51.9647165328446,-28.492649492879323],[-51.96464430189687,-28.50193175767828],[-51.97457251848044,-28.501999128544526]]]}},{"type":"Feature","properties":{"id_grade":"1KME5206N8170","pop":10,"dom":2,"universo_dom":"domicilios_ocupados_grade_ibge_2022","na_bacia":1,"area_pct_bacia":100.0,"metodo_recorte_bacia":"ponto_representativo_grade_2022; area_pct_geometrica"},"geometry":{"type":"Polygon","coordinates":[[[-51.95471609044025,-28.5018640574121],[-51.9547886736965,-28.49258179844432],[-51.944860819699805,-28.49251377463832],[-51.94478788413559,-28.501796027747524],[-51.95471609044025,-28.5018640574121]]]}},{"type":"Feature","properties":{"id_grade":"1KME5207N8170","pop":2,"dom":1,"universo_dom":"domicilios_ocupados_grade_ibge_2022","na_bacia":1,"area_pct_bacia":100.0,"metodo_recorte_bacia":"ponto_representativo_grade_2022; area_pct_geometrica"},"geometry":{"type":"Polygon","coordinates":[[[-51.94478788413559,-28.501796027747524],[-51.944860819699805,-28.49251377463832],[-51.93493297087952,-28.492445421463117],[-51.9348596830079,-28.501727668684463],[-51.94478788413559,-28.501796027747524]]]}},{"type":"Feature","properties":{"id_grade":"1KME5208N8170","pop":7,"dom":3,"universo_dom":"domicilios_ocupados_grade_ibge_2022","na_bacia":1,"area_pct_bacia":100.0,"metodo_recorte_bacia":"ponto_representativo_grade_2022; area_pct_geometrica"},"geometry":{"type":"Polygon","coordinates":[[[-51.9348596830079,-28.501727668684463],[-51.93493297087952,-28.492445421463117],[-51.925005127260654,-28.492376738918235],[-51.92493148708217,-28.501658980224065],[-51.9348596830079,-28.501727668684463]]]}},{"type":"Feature","properties":{"id_grade":"1KME5209N8170","pop":4,"dom":1,"universo_dom":"domicilios_ocupados_grade_ibge_2022","na_bacia":1,"area_pct_bacia":100.0,"metodo_recorte_bacia":"ponto_representativo_grade_2022; area_pct_geometrica"},"geometry":{"type":"Polygon","coordinates":[[[-51.92493148708217,-28.501658980224065],[-51.925005127260654,-28.492376738918235],[-51.915077288868204,-28.492307727004917],[-51.91500329638341,-28.501589962366356],[-51.92493148708217,-28.501658980224065]]]}},{"type":"Feature","properties":{"id_grade":"1KME5195N8171","pop":5,"dom":3,"universo_dom":"domicilios_ocupados_grade_ibge_2022","na_bacia":1,"area_pct_bacia":100.0,"metodo_recorte_bacia":"ponto_representativo_grade_2022; area_pct_geometrica"},"geometry":{"type":"Polygon","coordinates":[[[-52.06399540215281,-28.493308321719173],[-52.06406410510944,-28.484026470077207],[-52.054136548111174,-28.483962074924698],[-52.054067492865705,-28.493243921022664],[-52.06399540215281,-28.493308321719173]]]}},{"type":"Feature","properties":{"id_grade":"1KME5196N8171","pop":23,"dom":9,"universo_dom":"domicilios_ocupados_grade_ibge_2022","na_bacia":1,"area_pct_bacia":100.0,"metodo_recorte_bacia":"ponto_representativo_grade_2022; area_pct_geometrica"},"geometry":{"type":"Polygon","coordinates":[[[-52.054067492865705,-28.493243921022664],[-52.054136548111174,-28.483962074924698],[-52.04420899601379,-28.483897350424236],[-52.04413958847999,-28.493179190949117],[-52.054067492865705,-28.493243921022664]]]}},{"type":"Feature","properties":{"id_grade":"1KME5201N8171","pop":5,"dom":1,"universo_dom":"domicilios_ocupados_grade_ibge_2022","na_bacia":1,"area_pct_bacia":100.0,"metodo_recorte_bacia":"ponto_representativo_grade_2022; area_pct_geometrica"},"geometry":{"type":"Polygon","coordinates":[[[-52.00442802045108,-28.492916976902855],[-52.00449883713292,-28.48363515895183],[-51.994571309914875,-28.483568787718983],[-51.99450014094735,-28.492850599955666],[-52.00442802045108,-28.492916976902855]]]}},{"type":"Feature","properties":{"id_grade":"1KME5202N8171","pop":7,"dom":2,"universo_dom":"domicilios_ocupados_grade_ibge_2022","na_bacia":1,"area_pct_bacia":100.0,"metodo_recorte_bacia":"ponto_representativo_grade_2022; area_pct_geometrica"},"geometry":{"type":"Polygon","coordinates":[[[-51.99450014094735,-28.492850599955666],[-51.994571309914875,-28.483568787718983],[-51.98464378774769,-28.48350208714184],[-51.98457226649503,-28.492783893635686],[-51.99450014094735,-28.492850599955666]]]}},{"type":"Feature","properties":{"id_grade":"1KME5203N8171","pop":19,"dom":5,"universo_dom":"domicilios_ocupados_grade_ibge_2022","na_bacia":1,"area_pct_bacia":100.0,"metodo_recorte_bacia":"ponto_representativo_grade_2022; area_pct_geometrica"},"geometry":{"type":"Polygon","coordinates":[[[-51.98457226649503,-28.492783893635686],[-51.98464378774769,-28.48350208714184],[-51.97471627065637,-28.48343505722056],[-51.97464439711912,-28.492716857943357],[-51.98457226649503,-28.492783893635686]]]}},{"type":"Feature","properties":{"id_grade":"1KME5204N8171","pop":5,"dom":2,"universo_dom":"domicilios_ocupados_grade_ibge_2022","na_bacia":1,"area_pct_bacia":100.0,"metodo_recorte_bacia":"ponto_representativo_grade_2022; area_pct_geometrica"},"geometry":{"type":"Polygon","coordinates":[[[-51.97464439711912,-28.492716857943357],[-51.97471627065637,-28.48343505722056],[-51.964788758665925,-28.483367697956016],[-51.9647165328446,-28.492649492879323],[-51.97464439711912,-28.492716857943357]]]}},{"type":"Feature","properties":{"id_grade":"1KME5206N8171","pop":19,"dom":6,"universo_dom":"domicilios_ocupados_grade_ibge_2022","na_bacia":1,"area_pct_bacia":100.0,"metodo_recorte_bacia":"ponto_representativo_grade_2022; area_pct_geometrica"},"geometry":{"type":"Polygon","coordinates":[[[-51.9547886736965,-28.49258179844432],[-51.95486125180133,-28.483300009348486],[-51.94493375008761,-28.48323199139888],[-51.944860819699805,-28.49251377463832],[-51.9547886736965,-28.49258179844432]]]}},{"type":"Feature","properties":{"id_grade":"1KME5207N8171","pop":2,"dom":1,"universo_dom":"domicilios_ocupados_grade_ibge_2022","na_bacia":1,"area_pct_bacia":100.0,"metodo_recorte_bacia":"ponto_representativo_grade_2022; area_pct_geometrica"},"geometry":{"type":"Polygon","coordinates":[[[-51.944860819699805,-28.49251377463832],[-51.94493375008761,-28.48323199139888],[-51.93500625354974,-28.483163644107893],[-51.93493297087952,-28.492445421463117],[-51.944860819699805,-28.49251377463832]]]}},{"type":"Feature","properties":{"id_grade":"1KME5195N8172","pop":6,"dom":4,"universo_dom":"domicilios_ocupados_grade_ibge_2022","na_bacia":1,"area_pct_bacia":100.0,"metodo_recorte_bacia":"ponto_representativo_grade_2022; area_pct_geometrica"},"geometry":{"type":"Polygon","coordinates":[[[-52.06406410510944,-28.484026470077207],[-52.06413280319019,-28.474745087976135],[-52.05420559845578,-28.47468069836506],[-52.054136548111174,-28.483962074924698],[-52.06406410510944,-28.484026470077207]]]}},{"type":"Feature","properties":{"id_grade":"1KME5197N8172","pop":3,"dom":1,"universo_dom":"domicilios_ocupados_grade_ibge_2022","na_bacia":1,"area_pct_bacia":100.0,"metodo_recorte_bacia":"ponto_representativo_grade_2022; area_pct_geometrica"},"geometry":{"type":"Polygon","coordinates":[[[-52.04420899601379,-28.483897350424236],[-52.04427839862173,-28.474615979434283],[-52.034351203713,-28.47455093118439],[-52.03428144884227,-28.483832296576185],[-52.04420899601379,-28.483897350424236]]]}},{"type":"Feature","properties":{"id_grade":"1KME5198N8172","pop":22,"dom":9,"universo_dom":"domicilios_ocupados_grade_ibge_2022","na_bacia":1,"area_pct_bacia":100.0,"metodo_recorte_bacia":"ponto_representativo_grade_2022; area_pct_geometrica"},"geometry":{"type":"Polygon","coordinates":[[[-52.03428144884227,-28.483832296576185],[-52.034351203713,-28.47455093118439],[-52.02442401375463,-28.474485553615562],[-52.02435390662162,-28.483766913380762],[-52.03428144884227,-28.483832296576185]]]}},{"type":"Feature","properties":{"id_grade":"1KME5199N8172","pop":2,"dom":1,"universo_dom":"domicilios_ocupados_grade_ibge_2022","na_bacia":1,"area_pct_bacia":100.0,"metodo_recorte_bacia":"ponto_representativo_grade_2022; area_pct_geometrica"},"geometry":{"type":"Polygon","coordinates":[[[-52.02435390662162,-28.483766913380762],[-52.02442401375463,-28.474485553615562],[-52.0144968287716,-28.474419846728683],[-52.014426369376835,-28.483701200839118],[-52.02435390662162,-28.483766913380762]]]}},{"type":"Feature","properties":{"id_grade":"1KME5201N8172","pop":3,"dom":1,"universo_dom":"domicilios_ocupados_grade_ibge_2022","na_bacia":1,"area_pct_bacia":100.0,"metodo_recorte_bacia":"ponto_representativo_grade_2022; area_pct_geometrica"},"geometry":{"type":"Polygon","coordinates":[[[-52.00449883713292,-28.48363515895183],[-52.0045696487889,-28.474353810524317],[-51.99464247383153,-28.474287445002957],[-51.994571309914875,-28.483568787718983],[-52.00449883713292,-28.48363515895183]]]}},{"type":"Feature","properties":{"id_grade":"1KME5202N8172","pop":4,"dom":2,"universo_dom":"domicilios_ocupados_grade_ibge_2022","na_bacia":1,"area_pct_bacia":100.0,"metodo_recorte_bacia":"ponto_representativo_grade_2022; area_pct_geometrica"},"geometry":{"type":"Polygon","coordinates":[[[-51.994571309914875,-28.483568787718983],[-51.99464247383153,-28.474287445002957],[-51.984715303924496,-28.474220750165383],[-51.98464378774769,-28.48350208714184],[-51.994571309914875,-28.483568787718983]]]}},{"type":"Feature","properties":{"id_grade":"1KME5203N8172","pop":8,"dom":3,"universo_dom":"domicilios_ocupados_grade_ibge_2022","na_bacia":1,"area_pct_bacia":100.0,"metodo_recorte_bacia":"ponto_representativo_grade_2022; area_pct_geometrica"},"geometry":{"type":"Polygon","coordinates":[[[-51.98464378774769,-28.48350208714184],[-51.984715303924496,-28.474220750165383],[-51.97478813909278,-28.474153726012133],[-51.97471627065637,-28.48343505722056],[-51.98464378774769,-28.48350208714184]]]}},{"type":"Feature","properties":{"id_grade":"1KME5204N8172","pop":10,"dom":4,"universo_dom":"domicilios_ocupados_grade_ibge_2022","na_bacia":1,"area_pct_bacia":100.0,"metodo_recorte_bacia":"ponto_representativo_grade_2022; area_pct_geometrica"},"geometry":{"type":"Polygon","coordinates":[[[-51.97471627065637,-28.48343505722056],[-51.97478813909278,-28.474153726012133],[-51.96486097936139,-28.47408637254379],[-51.964788758665925,-28.483367697956016],[-51.97471627065637,-28.48343505722056]]]}},{"type":"Feature","properties":{"id_grade":"1KME5205N8172","pop":1,"dom":1,"universo_dom":"domicilios_ocupados_grade_ibge_2022","na_bacia":1,"area_pct_bacia":100.0,"metodo_recorte_bacia":"ponto_representativo_grade_2022; area_pct_geometrica"},"geometry":{"type":"Polygon","coordinates":[[[-51.964788758665925,-28.483367697956016],[-51.96486097936139,-28.47408637254379],[-51.95493382475531,-28.47401868976102],[-51.95486125180133,-28.483300009348486],[-51.964788758665925,-28.483367697956016]]]}},{"type":"Feature","properties":{"id_grade":"1KME5206N8172","pop":4,"dom":2,"universo_dom":"domicilios_ocupados_grade_ibge_2022","na_bacia":1,"area_pct_bacia":100.0,"metodo_recorte_bacia":"ponto_representativo_grade_2022; area_pct_geometrica"},"geometry":{"type":"Polygon","coordinates":[[[-51.95486125180133,-28.483300009348486],[-51.95493382475531,-28.47401868976102],[-51.945006675299545,-28.473950677664384],[-51.94493375008761,-28.48323199139888],[-51.95486125180133,-28.483300009348486]]]}},{"type":"Feature","properties":{"id_grade":"1KME5207N8172","pop":13,"dom":4,"universo_dom":"domicilios_ocupados_grade_ibge_2022","na_bacia":1,"area_pct_bacia":100.0,"metodo_recorte_bacia":"ponto_representativo_grade_2022; area_pct_geometrica"},"geometry":{"type":"Polygon","coordinates":[[[-51.94493375008761,-28.48323199139888],[-51.945006675299545,-28.473950677664384],[-51.93507953101909,-28.473882336254572],[-51.93500625354974,-28.483163644107893],[-51.94493375008761,-28.48323199139888]]]}},{"type":"Feature","properties":{"id_grade":"1KME5208N8172","pop":7,"dom":3,"universo_dom":"domicilios_ocupados_grade_ibge_2022","na_bacia":1,"area_pct_bacia":100.0,"metodo_recorte_bacia":"ponto_representativo_grade_2022; area_pct_geometrica"},"geometry":{"type":"Polygon","coordinates":[[[-51.93500625354974,-28.483163644107893],[-51.93507953101909,-28.473882336254572],[-51.92515239193895,-28.473813665532294],[-51.925078762212735,-28.483094967475736],[-51.93500625354974,-28.483163644107893]]]}},{"type":"Feature","properties":{"id_grade":"1KME5195N8173","pop":6,"dom":2,"universo_dom":"domicilios_ocupados_grade_ibge_2022","na_bacia":1,"area_pct_bacia":100.0,"metodo_recorte_bacia":"ponto_representativo_grade_2022; area_pct_geometrica"},"geometry":{"type":"Polygon","coordinates":[[[-52.06413280319019,-28.474745087976135],[-52.06420149639559,-28.465464175052052],[-52.05427464390004,-28.465399790979774],[-52.05420559845578,-28.47468069836506],[-52.06413280319019,-28.474745087976135]]]}},{"type":"Feature","properties":{"id_grade":"1KME5196N8173","pop":5,"dom":1,"universo_dom":"domicilios_ocupados_grade_ibge_2022","na_bacia":1,"area_pct_bacia":100.0,"metodo_recorte_bacia":"ponto_representativo_grade_2022; area_pct_geometrica"},"geometry":{"type":"Polygon","coordinates":[[[-52.05420559845578,-28.47468069836506],[-52.05427464390004,-28.465399790979774],[-52.04434779630431,-28.465335077616018],[-52.04427839862173,-28.474615979434283],[-52.05420559845578,-28.47468069836506]]]}},{"type":"Feature","properties":{"id_grade":"1KME5200N8173","pop":5,"dom":2,"universo_dom":"domicilios_ocupados_grade_ibge_2022","na_bacia":1,"area_pct_bacia":100.0,"metodo_recorte_bacia":"ponto_representativo_grade_2022; area_pct_geometrica"},"geometry":{"type":"Polygon","coordinates":[[[-52.0144968287716,-28.474419846728683],[-52.01456728316602,-28.465138961780465],[-52.00464045541955,-28.46507293125608],[-52.0045696487889,-28.474353810524317],[-52.0144968287716,-28.474419846728683]]]}},{"type":"Feature","properties":{"id_grade":"1KME5201N8173","pop":2,"dom":1,"universo_dom":"domicilios_ocupados_grade_ibge_2022","na_bacia":1,"area_pct_bacia":100.0,"metodo_recorte_bacia":"ponto_representativo_grade_2022; area_pct_geometrica"},"geometry":{"type":"Polygon","coordinates":[[[-52.0045696487889,-28.474353810524317],[-52.00464045541955,-28.46507293125608],[-51.99471363269787,-28.4650065714433],[-51.99464247383153,-28.474287445002957],[-52.0045696487889,-28.474353810524317]]]}},{"type":"Feature","properties":{"id_grade":"1KME5202N8173","pop":4,"dom":1,"universo_dom":"domicilios_ocupados_grade_ibge_2022","na_bacia":1,"area_pct_bacia":100.0,"metodo_recorte_bacia":"ponto_representativo_grade_2022; area_pct_geometrica"},"geometry":{"type":"Polygon","coordinates":[[[-51.99464247383153,-28.474287445002957],[-51.99471363269787,-28.4650065714433],[-51.98478681502597,-28.464939882342126],[-51.984715303924496,-28.474220750165383],[-51.99464247383153,-28.474287445002957]]]}},{"type":"Feature","properties":{"id_grade":"1KME5205N8173","pop":2,"dom":1,"universo_dom":"domicilios_ocupados_grade_ibge_2022","na_bacia":1,"area_pct_bacia":100.0,"metodo_recorte_bacia":"ponto_representativo_grade_2022; area_pct_geometrica"},"geometry":{"type":"Polygon","coordinates":[[[-51.96486097936139,-28.47408637254379],[-51.964933194931525,-28.464805516278908],[-51.95500639255897,-28.464737839317802],[-51.95493382475531,-28.47401868976102],[-51.96486097936139,-28.47408637254379]]]}},{"type":"Feature","properties":{"id_grade":"1KME5199N8174","pop":7,"dom":3,"universo_dom":"domicilios_ocupados_grade_ibge_2022","na_bacia":1,"area_pct_bacia":100.0,"metodo_recorte_bacia":"ponto_representativo_grade_2022; area_pct_geometrica"},"geometry":{"type":"Polygon","coordinates":[[[-52.02449411591231,-28.465204663015527],[-52.024564213095175,-28.45592424121694],[-52.01463773256065,-28.45585854563074],[-52.01456728316602,-28.465138961780465],[-52.02449411591231,-28.465204663015527]]]}},{"type":"Feature","properties":{"id_grade":"1KME5200N8174","pop":19,"dom":5,"universo_dom":"domicilios_ocupados_grade_ibge_2022","na_bacia":1,"area_pct_bacia":100.0,"metodo_recorte_bacia":"ponto_representativo_grade_2022; area_pct_geometrica"},"geometry":{"type":"Polygon","coordinates":[[[-52.01456728316602,-28.465138961780465],[-52.01463773256065,-28.45585854563074],[-52.00471125702539,-28.455792520783305],[-52.00464045541955,-28.46507293125608],[-52.01456728316602,-28.465138961780465]]]}},{"type":"Feature","properties":{"id_grade":"1KME5201N8174","pop":8,"dom":3,"universo_dom":"domicilios_ocupados_grade_ibge_2022","na_bacia":1,"area_pct_bacia":100.0,"metodo_recorte_bacia":"ponto_representativo_grade_2022; area_pct_geometrica"},"geometry":{"type":"Polygon","coordinates":[[[-52.00464045541955,-28.46507293125608],[-52.00471125702539,-28.455792520783305],[-51.9947847865144,-28.45572616667574],[-51.99471363269787,-28.4650065714433],[-52.00464045541955,-28.46507293125608]]]}},{"type":"Feature","properties":{"id_grade":"1KME5202N8174","pop":22,"dom":9,"universo_dom":"domicilios_ocupados_grade_ibge_2022","na_bacia":1,"area_pct_bacia":100.0,"metodo_recorte_bacia":"ponto_representativo_grade_2022; area_pct_geometrica"},"geometry":{"type":"Polygon","coordinates":[[[-51.99471363269787,-28.4650065714433],[-51.9947847865144,-28.45572616667574],[-51.984858321052656,-28.455659483308473],[-51.98478681502597,-28.464939882342126],[-51.99471363269787,-28.4650065714433]]]}},{"type":"Feature","properties":{"id_grade":"1KME5199N8175","pop":2,"dom":1,"universo_dom":"domicilios_ocupados_grade_ibge_2022","na_bacia":1,"area_pct_bacia":100.0,"metodo_recorte_bacia":"ponto_representativo_grade_2022; area_pct_geometrica"},"geometry":{"type":"Polygon","coordinates":[[[-52.024564213095175,-28.45592424121694],[-52.02463430530376,-28.446644287856035],[-52.014708176956,-28.446578597915714],[-52.01463773256065,-28.45585854563074],[-52.024564213095175,-28.45592424121694]]]}},{"type":"Feature","properties":{"id_grade":"1KME5200N8175","pop":14,"dom":4,"universo_dom":"domicilios_ocupados_grade_ibge_2022","na_bacia":1,"area_pct_bacia":100.0,"metodo_recorte_bacia":"ponto_representativo_grade_2022; area_pct_geometrica"},"geometry":{"type":"Polygon","coordinates":[[[-52.01463773256065,-28.45585854563074],[-52.014708176956,-28.446578597915714],[-52.00478205360698,-28.44651257874209],[-52.00471125702539,-28.455792520783305],[-52.01463773256065,-28.45585854563074]]]}},{"type":"Feature","properties":{"id_grade":"1KME5201N8175","pop":19,"dom":8,"universo_dom":"domicilios_ocupados_grade_ibge_2022","na_bacia":1,"area_pct_bacia":100.0,"metodo_recorte_bacia":"ponto_representativo_grade_2022; area_pct_geometrica"},"geometry":{"type":"Polygon","coordinates":[[[-52.00471125702539,-28.455792520783305],[-52.00478205360698,-28.44651257874209],[-51.994855935281684,-28.44644623033705],[-51.9947847865144,-28.45572616667574],[-52.00471125702539,-28.455792520783305]]]}},{"type":"Feature","properties":{"id_grade":"1KME5202N8175","pop":14,"dom":5,"universo_dom":"domicilios_ocupados_grade_ibge_2022","na_bacia":1,"area_pct_bacia":100.0,"metodo_recorte_bacia":"ponto_representativo_grade_2022; area_pct_geometrica"},"geometry":{"type":"Polygon","coordinates":[[[-51.9947847865144,-28.45572616667574],[-51.994855935281684,-28.44644623033705],[-51.98492982200511,-28.446379552700535],[-51.984858321052656,-28.455659483308473],[-51.9947847865144,-28.45572616667574]]]}},{"type":"Feature","properties":{"id_grade":"1KME5203N8175","pop":2,"dom":1,"universo_dom":"domicilios_ocupados_grade_ibge_2022","na_bacia":1,"area_pct_bacia":100.0,"metodo_recorte_bacia":"ponto_representativo_grade_2022; area_pct_geometrica"},"geometry":{"type":"Polygon","coordinates":[[[-51.984858321052656,-28.455659483308473],[-51.98492982200511,-28.446379552700535],[-51.97500371380223,-28.446312545833074],[-51.97493186066517,-28.45559247068195],[-51.984858321052656,-28.455659483308473]]]}},{"type":"Feature","properties":{"id_grade":"1KME5201N8176","pop":6,"dom":3,"universo_dom":"domicilios_ocupados_grade_ibge_2022","na_bacia":1,"area_pct_bacia":100.0,"metodo_recorte_bacia":"ponto_representativo_grade_2022; area_pct_geometrica"},"geometry":{"type":"Polygon","coordinates":[[[-52.00478205360698,-28.44651257874209],[-52.004852845164834,-28.437233104769415],[-51.99492707900026,-28.43716676206351],[-51.994855935281684,-28.44644623033705],[-52.00478205360698,-28.44651257874209]]]}},{"type":"Feature","properties":{"id_grade":"1KME5202N8176","pop":16,"dom":6,"universo_dom":"domicilios_ocupados_grade_ibge_2022","na_bacia":1,"area_pct_bacia":100.0,"metodo_recorte_bacia":"ponto_representativo_grade_2022; area_pct_geometrica"},"geometry":{"type":"Polygon","coordinates":[[[-51.994855935281684,-28.44644623033705],[-51.99492707900026,-28.43716676206351],[-51.98500131788385,-28.437100090154456],[-51.98492982200511,-28.446379552700535],[-51.994855935281684,-28.44644623033705]]]}},{"type":"Feature","properties":{"id_grade":"200ME51970N81734","pop":1,"dom":1,"universo_dom":"domicilios_ocupados_grade_ibge_2022","na_bacia":1,"area_pct_bacia":100.0,"metodo_recorte_bacia":"ponto_representativo_grade_2022; area_pct_geometrica"},"geometry":{"type":"Polygon","coordinates":[[[-52.0442922783659,-28.472759761453784],[-52.044306158502366,-28.470903562549328],[-52.04232074680499,-28.470890579936306],[-52.04230685317868,-28.472746778840776],[-52.0442922783659,-28.472759761453784]]]}},{"type":"Feature","properties":{"id_grade":"200ME51970N81736","pop":14,"dom":3,"universo_dom":"domicilios_ocupados_grade_ibge_2022","na_bacia":1,"area_pct_bacia":100.0,"metodo_recorte_bacia":"ponto_representativo_grade_2022; area_pct_geometrica"},"geometry":{"type":"Polygon","coordinates":[[[-52.044306158502366,-28.470903562549328],[-52.04432003773951,-28.46904738163131],[-52.04233464043125,-28.469034399018284],[-52.04232074680499,-28.470890579936306],[-52.044306158502366,-28.470903562549328]]]}},{"type":"Feature","properties":{"id_grade":"200ME51986N81692","pop":4,"dom":2,"universo_dom":"domicilios_ocupados_grade_ibge_2022","na_bacia":1,"area_pct_bacia":100.0,"metodo_recorte_bacia":"ponto_representativo_grade_2022; area_pct_geometrica"},"geometry":{"type":"Polygon","coordinates":[[[-52.02811499461126,-28.51164001117744],[-52.02812899076026,-28.509783419269343],[-52.02614328588391,-28.509770326039636],[-52.02612927444642,-28.51162691794782],[-52.02811499461126,-28.51164001117744]]]}},{"type":"Feature","properties":{"id_grade":"200ME51988N81692","pop":5,"dom":2,"universo_dom":"domicilios_ocupados_grade_ibge_2022","na_bacia":1,"area_pct_bacia":100.0,"metodo_recorte_bacia":"ponto_representativo_grade_2022; area_pct_geometrica"},"geometry":{"type":"Polygon","coordinates":[[[-52.02612927444642,-28.51162691794782],[-52.02614328588391,-28.509770326039636],[-52.02415758010818,-28.509757220219527],[-52.0241435551809,-28.51161381122836],[-52.02612927444642,-28.51162691794782]]]}},{"type":"Feature","properties":{"id_grade":"200ME51986N81694","pop":2,"dom":1,"universo_dom":"domicilios_ocupados_grade_ibge_2022","na_bacia":1,"area_pct_bacia":100.0,"metodo_recorte_bacia":"ponto_representativo_grade_2022; area_pct_geometrica"},"geometry":{"type":"Polygon","coordinates":[[[-52.02812899076026,-28.509783419269343],[-52.02814298780863,-28.507926845347587],[-52.02615729642207,-28.507913753017228],[-52.02614328588391,-28.509770326039636],[-52.02812899076026,-28.509783419269343]]]}},{"type":"Feature","properties":{"id_grade":"200ME51988N81694","pop":9,"dom":2,"universo_dom":"domicilios_ocupados_grade_ibge_2022","na_bacia":1,"area_pct_bacia":100.0,"metodo_recorte_bacia":"ponto_representativo_grade_2022; area_pct_geometrica"},"geometry":{"type":"Polygon","coordinates":[[[-52.02614328588391,-28.509770326039636],[-52.02615729642207,-28.507913753017228],[-52.02417160503552,-28.507900647197097],[-52.02415758010818,-28.509757220219527],[-52.02614328588391,-28.509770326039636]]]}},{"type":"Feature","properties":{"id_grade":"200ME51988N81698","pop":17,"dom":6,"universo_dom":"domicilios_ocupados_grade_ibge_2022","na_bacia":1,"area_pct_bacia":100.0,"metodo_recorte_bacia":"ponto_representativo_grade_2022; area_pct_geometrica"},"geometry":{"type":"Polygon","coordinates":[[[-52.02617130606086,-28.506057198880587],[-52.02618531659903,-28.504200663629682],[-52.0241996530915,-28.50418755780949],[-52.02418562906348,-28.506044093060304],[-52.02617130606086,-28.506057198880587]]]}},{"type":"Feature","properties":{"id_grade":"200ME51980N81700","pop":8,"dom":3,"universo_dom":"domicilios_ocupados_grade_ibge_2022","na_bacia":1,"area_pct_bacia":100.0,"metodo_recorte_bacia":"ponto_representativo_grade_2022; area_pct_geometrica"},"geometry":{"type":"Polygon","coordinates":[[[-52.0341279706293,-28.504252953810784],[-52.03414192451016,-28.502396436546274],[-52.03215627449242,-28.502383383786082],[-52.03214230712172,-28.50423990105049],[-52.0341279706293,-28.504252953810784]]]}},{"type":"Feature","properties":{"id_grade":"200ME51982N81700","pop":6,"dom":3,"universo_dom":"domicilios_ocupados_grade_ibge_2022","na_bacia":1,"area_pct_bacia":100.0,"metodo_recorte_bacia":"ponto_representativo_grade_2022; area_pct_geometrica"},"geometry":{"type":"Polygon","coordinates":[[[-52.03214230712172,-28.50423990105049],[-52.03215627449242,-28.502383383786082],[-52.03017062447469,-28.502370318435403],[-52.03015664361419,-28.504226834800562],[-52.03214230712172,-28.50423990105049]]]}},{"type":"Feature","properties":{"id_grade":"200ME51988N81700","pop":3,"dom":1,"universo_dom":"domicilios_ocupados_grade_ibge_2022","na_bacia":1,"area_pct_bacia":100.0,"metodo_recorte_bacia":"ponto_representativo_grade_2022; area_pct_geometrica"},"geometry":{"type":"Polygon","coordinates":[[[-52.02618531659903,-28.504200663629682],[-52.02619932623787,-28.502344147264544],[-52.02421367711946,-28.50233104144432],[-52.0241996530915,-28.50418755780949],[-52.02618531659903,-28.504200663629682]]]}},{"type":"Feature","properties":{"id_grade":"200ME51982N81702","pop":9,"dom":4,"universo_dom":"domicilios_ocupados_grade_ibge_2022","na_bacia":1,"area_pct_bacia":100.0,"metodo_recorte_bacia":"ponto_representativo_grade_2022; area_pct_geometrica"},"geometry":{"type":"Polygon","coordinates":[[[-52.03215627449242,-28.502383383786082],[-52.03217024186313,-28.500526885407385],[-52.03018460623457,-28.500513820056693],[-52.03017062447469,-28.502370318435403],[-52.03215627449242,-28.502383383786082]]]}},{"type":"Feature","properties":{"id_grade":"200ME51988N81702","pop":8,"dom":4,"universo_dom":"domicilios_ocupados_grade_ibge_2022","na_bacia":1,"area_pct_bacia":100.0,"metodo_recorte_bacia":"ponto_representativo_grade_2022; area_pct_geometrica"},"geometry":{"type":"Polygon","coordinates":[[[-52.02619932623787,-28.502344147264544],[-52.02621333587672,-28.500487649785182],[-52.024227701147424,-28.50047454486427],[-52.02421367711946,-28.50233104144432],[-52.02619932623787,-28.502344147264544]]]}},{"type":"Feature","properties":{"id_grade":"200ME51980N81704","pop":4,"dom":1,"universo_dom":"domicilios_ocupados_grade_ibge_2022","na_bacia":1,"area_pct_bacia":100.0,"metodo_recorte_bacia":"ponto_representativo_grade_2022; area_pct_geometrica"},"geometry":{"type":"Polygon","coordinates":[[[-52.034155877491685,-28.50053993816759],[-52.034169830473274,-28.498683457775275],[-52.03218420923383,-28.498670405914552],[-52.03217024186313,-28.500526885407385],[-52.034155877491685,-28.50053993816759]]]}},{"type":"Feature","properties":{"id_grade":"200ME51986N81704","pop":24,"dom":7,"universo_dom":"domicilios_ocupados_grade_ibge_2022","na_bacia":1,"area_pct_bacia":100.0,"metodo_recorte_bacia":"ponto_representativo_grade_2022; area_pct_geometrica"},"geometry":{"type":"Polygon","coordinates":[[[-52.02819897150528,-28.500500741216175],[-52.02821296675495,-28.498644262622605],[-52.026227345515565,-28.49863117029217],[-52.02621333587672,-28.500487649785182],[-52.02819897150528,-28.500500741216175]]]}},{"type":"Feature","properties":{"id_grade":"200ME51988N81704","pop":40,"dom":15,"universo_dom":"domicilios_ocupados_grade_ibge_2022","na_bacia":1,"area_pct_bacia":100.0,"metodo_recorte_bacia":"ponto_representativo_grade_2022; area_pct_geometrica"},"geometry":{"type":"Polygon","coordinates":[[[-52.02621333587672,-28.500487649785182],[-52.026227345515565,-28.49863117029217],[-52.02424172517544,-28.498618065371435],[-52.024227701147424,-28.50047454486427],[-52.02621333587672,-28.500487649785182]]]}},{"type":"Feature","properties":{"id_grade":"200ME51986N81706","pop":36,"dom":13,"universo_dom":"domicilios_ocupados_grade_ibge_2022","na_bacia":1,"area_pct_bacia":100.0,"metodo_recorte_bacia":"ponto_representativo_grade_2022; area_pct_geometrica"},"geometry":{"type":"Polygon","coordinates":[[[-52.02821296675495,-28.498644262622605],[-52.028226962004624,-28.496787802015387],[-52.026241355154355,-28.496774710584354],[-52.026227345515565,-28.49863117029217],[-52.02821296675495,-28.498644262622605]]]}},{"type":"Feature","properties":{"id_grade":"200ME51988N81706","pop":54,"dom":19,"universo_dom":"domicilios_ocupados_grade_ibge_2022","na_bacia":1,"area_pct_bacia":100.0,"metodo_recorte_bacia":"ponto_representativo_grade_2022; area_pct_geometrica"},"geometry":{"type":"Polygon","coordinates":[[[-52.026227345515565,-28.49863117029217],[-52.026241355154355,-28.496774710584354],[-52.024255748304086,-28.49676160566361],[-52.02424172517544,-28.498618065371435],[-52.026227345515565,-28.49863117029217]]]}},{"type":"Feature","properties":{"id_grade":"200ME51986N81708","pop":47,"dom":16,"universo_dom":"domicilios_ocupados_grade_ibge_2022","na_bacia":1,"area_pct_bacia":100.0,"metodo_recorte_bacia":"ponto_representativo_grade_2022; area_pct_geometrica"},"geometry":{"type":"Polygon","coordinates":[[[-52.028226962004624,-28.496787802015387],[-52.028240957254354,-28.49493136029397],[-52.02625536389388,-28.494918268863046],[-52.026241355154355,-28.496774710584354],[-52.028226962004624,-28.496787802015387]]]}},{"type":"Feature","properties":{"id_grade":"200ME51988N81708","pop":65,"dom":33,"universo_dom":"domicilios_ocupados_grade_ibge_2022","na_bacia":1,"area_pct_bacia":100.0,"metodo_recorte_bacia":"ponto_representativo_grade_2022; area_pct_geometrica"},"geometry":{"type":"Polygon","coordinates":[[[-52.026241355154355,-28.496774710584354],[-52.02625536389388,-28.494918268863046],[-52.024269771432785,-28.49490516484143],[-52.024255748304086,-28.49676160566361],[-52.026241355154355,-28.496774710584354]]]}},{"type":"Feature","properties":{"id_grade":"200ME51984N81710","pop":2,"dom":1,"universo_dom":"domicilios_ocupados_grade_ibge_2022","na_bacia":1,"area_pct_bacia":100.0,"metodo_recorte_bacia":"ponto_representativo_grade_2022; area_pct_geometrica"},"geometry":{"type":"Polygon","coordinates":[[[-52.03022654971545,-28.494944438235223],[-52.03024053057601,-28.493088015399575],[-52.02825495160471,-28.49307493745835],[-52.028240957254354,-28.49493136029397],[-52.03022654971545,-28.494944438235223]]]}},{"type":"Feature","properties":{"id_grade":"200ME51986N81710","pop":45,"dom":18,"universo_dom":"domicilios_ocupados_grade_ibge_2022","na_bacia":1,"area_pct_bacia":100.0,"metodo_recorte_bacia":"ponto_representativo_grade_2022; area_pct_geometrica"},"geometry":{"type":"Polygon","coordinates":[[[-52.028240957254354,-28.49493136029397],[-52.02825495160471,-28.49307493745835],[-52.02626937263341,-28.493061846926647],[-52.02625536389388,-28.494918268863046],[-52.028240957254354,-28.49493136029397]]]}},{"type":"Feature","properties":{"id_grade":"200ME51988N81710","pop":104,"dom":40,"universo_dom":"domicilios_ocupados_grade_ibge_2022","na_bacia":1,"area_pct_bacia":100.0,"metodo_recorte_bacia":"ponto_representativo_grade_2022; area_pct_geometrica"},"geometry":{"type":"Polygon","coordinates":[[[-52.02625536389388,-28.494918268863046],[-52.02626937263341,-28.493061846926647],[-52.02428379456143,-28.493048742905106],[-52.024269771432785,-28.49490516484143],[-52.02625536389388,-28.494918268863046]]]}},{"type":"Feature","properties":{"id_grade":"200ME51988N81712","pop":31,"dom":13,"universo_dom":"domicilios_ocupados_grade_ibge_2022","na_bacia":1,"area_pct_bacia":100.0,"metodo_recorte_bacia":"ponto_representativo_grade_2022; area_pct_geometrica"},"geometry":{"type":"Polygon","coordinates":[[[-52.02626937263341,-28.493061846926647],[-52.02628338137294,-28.491205442976693],[-52.02429781769007,-28.491192338955226],[-52.02428379456143,-28.493048742905106],[-52.02626937263341,-28.493061846926647]]]}},{"type":"Feature","properties":{"id_grade":"200ME51986N81716","pop":1,"dom":1,"universo_dom":"domicilios_ocupados_grade_ibge_2022","na_bacia":1,"area_pct_bacia":100.0,"metodo_recorte_bacia":"ponto_representativo_grade_2022; area_pct_geometrica"},"geometry":{"type":"Polygon","coordinates":[[[-52.028282941204736,-28.48936214844431],[-52.02829693465576,-28.487505782266023],[-52.02631139885193,-28.487492691734296],[-52.02629739011241,-28.48934905791261],[-52.028282941204736,-28.48936214844431]]]}},{"type":"Feature","properties":{"id_grade":"200ME51988N81716","pop":11,"dom":5,"universo_dom":"domicilios_ocupados_grade_ibge_2022","na_bacia":1,"area_pct_bacia":100.0,"metodo_recorte_bacia":"ponto_representativo_grade_2022; area_pct_geometrica"},"geometry":{"type":"Polygon","coordinates":[[[-52.02629739011241,-28.48934905791261],[-52.02631139885193,-28.487492691734296],[-52.02432586214877,-28.48747958861202],[-52.02431183991945,-28.489335954790434],[-52.02629739011241,-28.48934905791261]]]}},{"type":"Feature","properties":{"id_grade":"200ME51986N81718","pop":2,"dom":2,"universo_dom":"domicilios_ocupados_grade_ibge_2022","na_bacia":1,"area_pct_bacia":100.0,"metodo_recorte_bacia":"ponto_representativo_grade_2022; area_pct_geometrica"},"geometry":{"type":"Polygon","coordinates":[[[-52.02829693465576,-28.487505782266023],[-52.028310929006125,-28.48564943497342],[-52.026325406692145,-28.485636344441662],[-52.02631139885193,-28.487492691734296],[-52.02829693465576,-28.487505782266023]]]}},{"type":"Feature","properties":{"id_grade":"200ME51988N81718","pop":7,"dom":3,"universo_dom":"domicilios_ocupados_grade_ibge_2022","na_bacia":1,"area_pct_bacia":100.0,"metodo_recorte_bacia":"ponto_representativo_grade_2022; area_pct_geometrica"},"geometry":{"type":"Polygon","coordinates":[[[-52.02631139885193,-28.487492691734296],[-52.026325406692145,-28.485636344441662],[-52.0243398843781,-28.48562324131954],[-52.02432586214877,-28.48747958861202],[-52.02631139885193,-28.487492691734296]]]}},{"type":"Feature","properties":{"id_grade":"200ME51980N81736","pop":5,"dom":1,"universo_dom":"domicilios_ocupados_grade_ibge_2022","na_bacia":1,"area_pct_bacia":100.0,"metodo_recorte_bacia":"ponto_representativo_grade_2022; area_pct_geometrica"},"geometry":{"type":"Polygon","coordinates":[[[-52.03437910451202,-28.470838516384394],[-52.03439305389628,-28.468982337264972],[-52.03240765838666,-28.468969289001457],[-52.03239369371398,-28.470825468120886],[-52.03437910451202,-28.470838516384394]]]}},{"type":"Feature","properties":{"id_grade":"200ME51982N81736","pop":2,"dom":1,"universo_dom":"domicilios_ocupados_grade_ibge_2022","na_bacia":1,"area_pct_bacia":100.0,"metodo_recorte_bacia":"ponto_representativo_grade_2022; area_pct_geometrica"},"geometry":{"type":"Polygon","coordinates":[[[-52.03239369371398,-28.470825468120886],[-52.03240765838666,-28.468969289001457],[-52.030422261977776,-28.468956227248054],[-52.03040828381518,-28.470812405468138],[-52.03239369371398,-28.470825468120886]]]}},{"type":"Feature","properties":{"id_grade":"200ME51980N81738","pop":2,"dom":2,"universo_dom":"domicilios_ocupados_grade_ibge_2022","na_bacia":1,"area_pct_bacia":100.0,"metodo_recorte_bacia":"ponto_representativo_grade_2022; area_pct_geometrica"},"geometry":{"type":"Polygon","coordinates":[[[-52.03439305389628,-28.468982337264972],[-52.03440700417986,-28.467126177031368],[-52.032421622160086,-28.46711312876782],[-52.03240765838666,-28.468969289001457],[-52.03439305389628,-28.468982337264972]]]}},{"type":"Feature","properties":{"id_grade":"200ME51982N81738","pop":8,"dom":2,"universo_dom":"domicilios_ocupados_grade_ibge_2022","na_bacia":1,"area_pct_bacia":100.0,"metodo_recorte_bacia":"ponto_representativo_grade_2022; area_pct_geometrica"},"geometry":{"type":"Polygon","coordinates":[[[-52.03240765838666,-28.468969289001457],[-52.032421622160086,-28.46711312876782],[-52.03043624014032,-28.467100067014464],[-52.030422261977776,-28.468956227248054],[-52.03240765838666,-28.468969289001457]]]}},{"type":"Feature","properties":{"id_grade":"200ME51980N81740","pop":13,"dom":6,"universo_dom":"domicilios_ocupados_grade_ibge_2022","na_bacia":1,"area_pct_bacia":100.0,"metodo_recorte_bacia":"ponto_representativo_grade_2022; area_pct_geometrica"},"geometry":{"type":"Polygon","coordinates":[[[-52.03440700417986,-28.467126177031368],[-52.0344209535641,-28.465270034784236],[-52.03243558593351,-28.465256986520682],[-52.032421622160086,-28.46711312876782],[-52.03440700417986,-28.467126177031368]]]}},{"type":"Feature","properties":{"id_grade":"200ME51982N81740","pop":16,"dom":6,"universo_dom":"domicilios_ocupados_grade_ibge_2022","na_bacia":1,"area_pct_bacia":100.0,"metodo_recorte_bacia":"ponto_representativo_grade_2022; area_pct_geometrica"},"geometry":{"type":"Polygon","coordinates":[[[-52.032421622160086,-28.46711312876782],[-52.03243558593351,-28.465256986520682],[-52.03045021830292,-28.46524392566657],[-52.03043624014032,-28.467100067014464],[-52.032421622160086,-28.46711312876782]]]}},{"type":"Feature","properties":{"id_grade":"200ME51980N81742","pop":17,"dom":6,"universo_dom":"domicilios_ocupados_grade_ibge_2022","na_bacia":1,"area_pct_bacia":100.0,"metodo_recorte_bacia":"ponto_representativo_grade_2022; area_pct_geometrica"},"geometry":{"type":"Polygon","coordinates":[[[-52.0344209535641,-28.465270034784236],[-52.03443490294836,-28.46341391232219],[-52.03244954880756,-28.463400864058606],[-52.03243558593351,-28.465256986520682],[-52.0344209535641,-28.465270034784236]]]}},{"type":"Feature","properties":{"id_grade":"200ME51982N81742","pop":1,"dom":1,"universo_dom":"domicilios_ocupados_grade_ibge_2022","na_bacia":1,"area_pct_bacia":100.0,"metodo_recorte_bacia":"ponto_representativo_grade_2022; area_pct_geometrica"},"geometry":{"type":"Polygon","coordinates":[[[-52.03243558593351,-28.465256986520682],[-52.03244954880756,-28.463400864058606],[-52.03046419556615,-28.46338780320446],[-52.03045021830292,-28.46524392566657],[-52.03243558593351,-28.465256986520682]]]}},{"type":"Feature","properties":{"id_grade":"200ME51984N81748","pop":6,"dom":1,"universo_dom":"domicilios_ocupados_grade_ibge_2022","na_bacia":1,"area_pct_bacia":100.0,"metodo_recorte_bacia":"ponto_representativo_grade_2022; area_pct_geometrica"},"geometry":{"type":"Polygon","coordinates":[[[-52.03049215009258,-28.459675614038257],[-52.030506127355864,-28.45781954823354],[-52.028520815483205,-28.45780647478894],[-52.02850682473013,-28.45966254059374],[-52.03049215009258,-28.459675614038257]]]}},{"type":"Feature","properties":{"id_grade":"200ME51990N81692","pop":3,"dom":1,"universo_dom":"domicilios_ocupados_grade_ibge_2022","na_bacia":1,"area_pct_bacia":100.0,"metodo_recorte_bacia":"ponto_representativo_grade_2022; area_pct_geometrica"},"geometry":{"type":"Polygon","coordinates":[[[-52.0241435551809,-28.51161381122836],[-52.02415758010818,-28.509757220219527],[-52.022171875231834,-28.509744100010145],[-52.02215783591538,-28.5116006919184],[-52.0241435551809,-28.51161381122836]]]}},{"type":"Feature","properties":{"id_grade":"200ME51990N81694","pop":7,"dom":2,"universo_dom":"domicilios_ocupados_grade_ibge_2022","na_bacia":1,"area_pct_bacia":100.0,"metodo_recorte_bacia":"ponto_representativo_grade_2022; area_pct_geometrica"},"geometry":{"type":"Polygon","coordinates":[[[-52.02415758010818,-28.509757220219527],[-52.02417160503552,-28.507900647197097],[-52.02218591364897,-28.50788752788709],[-52.022171875231834,-28.509744100010145],[-52.02415758010818,-28.509757220219527]]]}},{"type":"Feature","properties":{"id_grade":"200ME51992N81696","pop":1,"dom":1,"universo_dom":"domicilios_ocupados_grade_ibge_2022","na_bacia":1,"area_pct_bacia":100.0,"metodo_recorte_bacia":"ponto_representativo_grade_2022; area_pct_geometrica"},"geometry":{"type":"Polygon","coordinates":[[[-52.02218591364897,-28.50788752788709],[-52.0221999520661,-28.50603097464972],[-52.020214275068724,-28.50601784184981],[-52.02020022316174,-28.507874395986544],[-52.02218591364897,-28.50788752788709]]]}},{"type":"Feature","properties":{"id_grade":"200ME51990N81698","pop":7,"dom":3,"universo_dom":"domicilios_ocupados_grade_ibge_2022","na_bacia":1,"area_pct_bacia":100.0,"metodo_recorte_bacia":"ponto_representativo_grade_2022; area_pct_geometrica"},"geometry":{"type":"Polygon","coordinates":[[[-52.02418562906348,-28.506044093060304],[-52.0241996530915,-28.50418755780949],[-52.02221399048324,-28.504174439398785],[-52.0221999520661,-28.50603097464972],[-52.02418562906348,-28.506044093060304]]]}},{"type":"Feature","properties":{"id_grade":"200ME51990N81700","pop":15,"dom":5,"universo_dom":"domicilios_ocupados_grade_ibge_2022","na_bacia":1,"area_pct_bacia":100.0,"metodo_recorte_bacia":"ponto_representativo_grade_2022; area_pct_geometrica"},"geometry":{"type":"Polygon","coordinates":[[[-52.0241996530915,-28.50418755780949],[-52.02421367711946,-28.50233104144432],[-52.02222802890038,-28.5023179230337],[-52.02221399048324,-28.504174439398785],[-52.0241996530915,-28.50418755780949]]]}},{"type":"Feature","properties":{"id_grade":"200ME51994N81700","pop":3,"dom":1,"universo_dom":"domicilios_ocupados_grade_ibge_2022","na_bacia":1,"area_pct_bacia":100.0,"metodo_recorte_bacia":"ponto_representativo_grade_2022; area_pct_geometrica"},"geometry":{"type":"Polygon","coordinates":[[[-52.020228327874975,-28.50416130749833],[-52.02024237978196,-28.50230479203245],[-52.01825673156288,-28.502291646642103],[-52.01824266526677,-28.50414816300729],[-52.020228327874975,-28.50416130749833]]]}},{"type":"Feature","properties":{"id_grade":"200ME51990N81704","pop":2,"dom":2,"universo_dom":"domicilios_ocupados_grade_ibge_2022","na_bacia":1,"area_pct_bacia":100.0,"metodo_recorte_bacia":"ponto_representativo_grade_2022; area_pct_geometrica"},"geometry":{"type":"Polygon","coordinates":[[[-52.024227701147424,-28.50047454486427],[-52.02424172517544,-28.498618065371435],[-52.022256103936,-28.49860494785996],[-52.02224206641819,-28.500461426453626],[-52.024227701147424,-28.50047454486427]]]}},{"type":"Feature","properties":{"id_grade":"200ME51998N81704","pop":2,"dom":1,"universo_dom":"domicilios_ocupados_grade_ibge_2022","na_bacia":1,"area_pct_bacia":100.0,"metodo_recorte_bacia":"ponto_representativo_grade_2022; area_pct_geometrica"},"geometry":{"type":"Polygon","coordinates":[[[-52.01628516402906,-28.50042199298054],[-52.01629924381501,-28.498565515286234],[-52.01431362437421,-28.498552343815525],[-52.01429953019914,-28.500408821509804],[-52.01628516402906,-28.50042199298054]]]}},{"type":"Feature","properties":{"id_grade":"200ME51990N81706","pop":10,"dom":3,"universo_dom":"domicilios_ocupados_grade_ibge_2022","na_bacia":1,"area_pct_bacia":100.0,"metodo_recorte_bacia":"ponto_representativo_grade_2022; area_pct_geometrica"},"geometry":{"type":"Polygon","coordinates":[[[-52.02424172517544,-28.498618065371435],[-52.024255748304086,-28.49676160566361],[-52.02227014145382,-28.496748488152107],[-52.022256103936,-28.49860494785996],[-52.02424172517544,-28.498618065371435]]]}},{"type":"Feature","properties":{"id_grade":"200ME51990N81708","pop":30,"dom":14,"universo_dom":"domicilios_ocupados_grade_ibge_2022","na_bacia":1,"area_pct_bacia":100.0,"metodo_recorte_bacia":"ponto_representativo_grade_2022; area_pct_geometrica"},"geometry":{"type":"Polygon","coordinates":[[[-52.024255748304086,-28.49676160566361],[-52.024269771432785,-28.49490516484143],[-52.022284178971624,-28.494892047330122],[-52.02227014145382,-28.496748488152107],[-52.024255748304086,-28.49676160566361]]]}},{"type":"Feature","properties":{"id_grade":"200ME51992N81708","pop":4,"dom":1,"universo_dom":"domicilios_ocupados_grade_ibge_2022","na_bacia":1,"area_pct_bacia":100.0,"metodo_recorte_bacia":"ponto_representativo_grade_2022; area_pct_geometrica"},"geometry":{"type":"Polygon","coordinates":[[[-52.02227014145382,-28.496748488152107],[-52.022284178971624,-28.494892047330122],[-52.020298586510535,-28.494878916328897],[-52.02028453550287,-28.496735357150875],[-52.02227014145382,-28.496748488152107]]]}},{"type":"Feature","properties":{"id_grade":"200ME51996N81708","pop":11,"dom":3,"universo_dom":"domicilios_ocupados_grade_ibge_2022","na_bacia":1,"area_pct_bacia":100.0,"metodo_recorte_bacia":"ponto_representativo_grade_2022; area_pct_geometrica"},"geometry":{"type":"Polygon","coordinates":[[[-52.01829892955191,-28.496722213559213],[-52.0183129949487,-28.4948657727372],[-52.016327403386924,-28.494852615655645],[-52.01631332360097,-28.49670905557841],[-52.01829892955191,-28.496722213559213]]]}},{"type":"Feature","properties":{"id_grade":"200ME51998N81708","pop":5,"dom":1,"universo_dom":"domicilios_ocupados_grade_ibge_2022","na_bacia":1,"area_pct_bacia":100.0,"metodo_recorte_bacia":"ponto_representativo_grade_2022; area_pct_geometrica"},"geometry":{"type":"Polygon","coordinates":[[[-52.01631332360097,-28.49670905557841],[-52.016327403386924,-28.494852615655645],[-52.01434181182509,-28.494839445983573],[-52.01432771765001,-28.496695885906416],[-52.01631332360097,-28.49670905557841]]]}},{"type":"Feature","properties":{"id_grade":"200ME51990N81710","pop":68,"dom":23,"universo_dom":"domicilios_ocupados_grade_ibge_2022","na_bacia":1,"area_pct_bacia":100.0,"metodo_recorte_bacia":"ponto_representativo_grade_2022; area_pct_geometrica"},"geometry":{"type":"Polygon","coordinates":[[[-52.024269771432785,-28.49490516484143],[-52.02428379456143,-28.493048742905106],[-52.022298216489446,-28.49303562539378],[-52.022284178971624,-28.494892047330122],[-52.024269771432785,-28.49490516484143]]]}},{"type":"Feature","properties":{"id_grade":"200ME51992N81710","pop":29,"dom":9,"universo_dom":"domicilios_ocupados_grade_ibge_2022","na_bacia":1,"area_pct_bacia":100.0,"metodo_recorte_bacia":"ponto_representativo_grade_2022; area_pct_geometrica"},"geometry":{"type":"Polygon","coordinates":[[[-52.022284178971624,-28.494892047330122],[-52.022298216489446,-28.49303562539378],[-52.020312638417465,-28.493022495291903],[-52.020298586510535,-28.494878916328897],[-52.022284178971624,-28.494892047330122]]]}},{"type":"Feature","properties":{"id_grade":"200ME51994N81710","pop":2,"dom":1,"universo_dom":"domicilios_ocupados_grade_ibge_2022","na_bacia":1,"area_pct_bacia":100.0,"metodo_recorte_bacia":"ponto_representativo_grade_2022; area_pct_geometrica"},"geometry":{"type":"Polygon","coordinates":[[[-52.020298586510535,-28.494878916328897],[-52.020312638417465,-28.493022495291903],[-52.01832706034554,-28.493009351700188],[-52.0183129949487,-28.4948657727372],[-52.020298586510535,-28.494878916328897]]]}},{"type":"Feature","properties":{"id_grade":"200ME51996N81710","pop":2,"dom":1,"universo_dom":"domicilios_ocupados_grade_ibge_2022","na_bacia":1,"area_pct_bacia":100.0,"metodo_recorte_bacia":"ponto_representativo_grade_2022; area_pct_geometrica"},"geometry":{"type":"Polygon","coordinates":[[[-52.0183129949487,-28.4948657727372],[-52.01832706034554,-28.493009351700188],[-52.01634148227356,-28.492996194618627],[-52.016327403386924,-28.494852615655645],[-52.0183129949487,-28.4948657727372]]]}},{"type":"Feature","properties":{"id_grade":"200ME51990N81712","pop":100,"dom":32,"universo_dom":"domicilios_ocupados_grade_ibge_2022","na_bacia":1,"area_pct_bacia":100.0,"metodo_recorte_bacia":"ponto_representativo_grade_2022; area_pct_geometrica"},"geometry":{"type":"Polygon","coordinates":[[[-52.02428379456143,-28.493048742905106],[-52.02429781769007,-28.491192338955226],[-52.02231225310794,-28.491179222343202],[-52.022298216489446,-28.49303562539378],[-52.02428379456143,-28.493048742905106]]]}},{"type":"Feature","properties":{"id_grade":"200ME51992N81712","pop":24,"dom":9,"universo_dom":"domicilios_ocupados_grade_ibge_2022","na_bacia":1,"area_pct_bacia":100.0,"metodo_recorte_bacia":"ponto_representativo_grade_2022; area_pct_geometrica"},"geometry":{"type":"Polygon","coordinates":[[[-52.022298216489446,-28.49303562539378],[-52.02231225310794,-28.491179222343202],[-52.02032668942513,-28.491166092241333],[-52.020312638417465,-28.493022495291903],[-52.022298216489446,-28.49303562539378]]]}},{"type":"Feature","properties":{"id_grade":"200ME51990N81714","pop":3,"dom":1,"universo_dom":"domicilios_ocupados_grade_ibge_2022","na_bacia":1,"area_pct_bacia":100.0,"metodo_recorte_bacia":"ponto_representativo_grade_2022; area_pct_geometrica"},"geometry":{"type":"Polygon","coordinates":[[[-52.02429781769007,-28.491192338955226],[-52.02431183991945,-28.489335954790434],[-52.02232628972644,-28.48932283817843],[-52.02231225310794,-28.491179222343202],[-52.02429781769007,-28.491192338955226]]]}},{"type":"Feature","properties":{"id_grade":"200ME51996N81718","pop":2,"dom":1,"universo_dom":"domicilios_ocupados_grade_ibge_2022","na_bacia":1,"area_pct_bacia":100.0,"metodo_recorte_bacia":"ponto_representativo_grade_2022; area_pct_geometrica"},"geometry":{"type":"Polygon","coordinates":[[[-52.01836925473725,-28.487440199205803],[-52.01838331923477,-28.485583852812475],[-52.016397797820055,-28.48557069663034],[-52.016383719832795,-28.487427043023544],[-52.01836925473725,-28.487440199205803]]]}},{"type":"Feature","properties":{"id_grade":"200ME52030N81734","pop":3,"dom":1,"universo_dom":"domicilios_ocupados_grade_ibge_2022","na_bacia":1,"area_pct_bacia":100.0,"metodo_recorte_bacia":"ponto_representativo_grade_2022; area_pct_geometrica"},"geometry":{"type":"Polygon","coordinates":[[[-51.98472960638617,-28.4723645390921],[-51.984743909203985,-28.470508346482983],[-51.98275850380185,-28.47049496906752],[-51.982744187494234,-28.472351160777436],[-51.98472960638617,-28.4723645390921]]]}},{"type":"Feature","properties":{"id_grade":"200ME52032N81738","pop":7,"dom":3,"universo_dom":"domicilios_ocupados_grade_ibge_2022","na_bacia":1,"area_pct_bacia":100.0,"metodo_recorte_bacia":"ponto_representativo_grade_2022; area_pct_geometrica"},"geometry":{"type":"Polygon","coordinates":[[[-51.98277282010951,-28.46863879534403],[-51.98278713641718,-28.466782640506498],[-51.98080175979334,-28.466769250500484],[-51.98078742909656,-28.468625404438825],[-51.98277282010951,-28.46863879534403]]]}},{"type":"Feature","properties":{"id_grade":"200ME52036N81746","pop":3,"dom":1,"universo_dom":"domicilios_ocupados_grade_ibge_2022","na_bacia":1,"area_pct_bacia":100.0,"metodo_recorte_bacia":"ponto_representativo_grade_2022; area_pct_geometrica"},"geometry":{"type":"Polygon","coordinates":[[[-51.97885941483008,-28.46118749670554],[-51.9788737581174,-28.4593314174109],[-51.976888438150866,-28.45931800132464],[-51.976874080474374,-28.46117407972],[-51.97885941483008,-28.46118749670554]]]}},{"type":"Feature","properties":{"id_grade":"200ME52036N81748","pop":1,"dom":1,"universo_dom":"domicilios_ocupados_grade_ibge_2022","na_bacia":1,"area_pct_bacia":100.0,"metodo_recorte_bacia":"ponto_representativo_grade_2022; area_pct_geometrica"},"geometry":{"type":"Polygon","coordinates":[[[-51.9788737581174,-28.4593314174109],[-51.97888810140472,-28.457475357002096],[-51.97690279492798,-28.45746194091579],[-51.976888438150866,-28.45931800132464],[-51.9788737581174,-28.4593314174109]]]}},{"type":"Feature","properties":{"id_grade":"200ME52044N81734","pop":2,"dom":1,"universo_dom":"domicilios_ocupados_grade_ibge_2022","na_bacia":1,"area_pct_bacia":100.0,"metodo_recorte_bacia":"ponto_representativo_grade_2022; area_pct_geometrica"},"geometry":{"type":"Polygon","coordinates":[[[-51.97083167594104,-28.472270614796965],[-51.970846076784994,-28.47041442398648],[-51.968860673181496,-28.47040095394089],[-51.968846257948435,-28.47225714385205],[-51.97083167594104,-28.472270614796965]]]}},{"type":"Feature","properties":{"id_grade":"200ME52046N81734","pop":6,"dom":1,"universo_dom":"domicilios_ocupados_grade_ibge_2022","na_bacia":1,"area_pct_bacia":100.0,"metodo_recorte_bacia":"ponto_representativo_grade_2022; area_pct_geometrica"},"geometry":{"type":"Polygon","coordinates":[[[-51.968846257948435,-28.47225714385205],[-51.968860673181496,-28.47040095394089],[-51.966875269578,-28.47038747040535],[-51.96686083995575,-28.472243660316614],[-51.968846257948435,-28.47225714385205]]]}},{"type":"Feature","properties":{"id_grade":"200ME52040N81744","pop":3,"dom":2,"universo_dom":"domicilios_ocupados_grade_ibge_2022","na_bacia":1,"area_pct_bacia":100.0,"metodo_recorte_bacia":"ponto_representativo_grade_2022; area_pct_geometrica"},"geometry":{"type":"Polygon","coordinates":[[[-51.97487437405306,-28.463016747424884],[-51.97488874611872,-28.461160650143864],[-51.97290341266233,-28.46114720797723],[-51.97288902710687,-28.463003305258333],[-51.97487437405306,-28.463016747424884]]]}},{"type":"Feature","properties":{"id_grade":"200ME52042N81744","pop":16,"dom":5,"universo_dom":"domicilios_ocupados_grade_ibge_2022","na_bacia":1,"area_pct_bacia":100.0,"metodo_recorte_bacia":"ponto_representativo_grade_2022; area_pct_geometrica"},"geometry":{"type":"Polygon","coordinates":[[[-51.97288902710687,-28.463003305258333],[-51.97290341266233,-28.46114720797723],[-51.970918079205944,-28.461133751421514],[-51.97090367926137,-28.462989848702556],[-51.97288902710687,-28.463003305258333]]]}},{"type":"Feature","properties":{"id_grade":"200ME52040N81746","pop":10,"dom":4,"universo_dom":"domicilios_ocupados_grade_ibge_2022","na_bacia":1,"area_pct_bacia":100.0,"metodo_recorte_bacia":"ponto_representativo_grade_2022; area_pct_geometrica"},"geometry":{"type":"Polygon","coordinates":[[[-51.97488874611872,-28.461160650143864],[-51.97490311818432,-28.45930457174853],[-51.97291779821779,-28.459291129581906],[-51.97290341266233,-28.46114720797723],[-51.97488874611872,-28.461160650143864]]]}},{"type":"Feature","properties":{"id_grade":"200ME52042N81750","pop":3,"dom":1,"universo_dom":"domicilios_ocupados_grade_ibge_2022","na_bacia":1,"area_pct_bacia":100.0,"metodo_recorte_bacia":"ponto_representativo_grade_2022; area_pct_geometrica"},"geometry":{"type":"Polygon","coordinates":[[[-51.972932183773196,-28.45743506917309],[-51.972946569328656,-28.455579028549284],[-51.9709612781404,-28.455565573792132],[-51.97094687819583,-28.457421614415885],[-51.972932183773196,-28.45743506917309]]]}},{"type":"Feature","properties":{"id_grade":"200ME52054N81702","pop":3,"dom":1,"universo_dom":"domicilios_ocupados_grade_ibge_2022","na_bacia":1,"area_pct_bacia":100.0,"metodo_recorte_bacia":"ponto_representativo_grade_2022; area_pct_geometrica"},"geometry":{"type":"Polygon","coordinates":[[[-51.960673016846215,-28.501904716929072],[-51.960687491434555,-28.50004822664424],[-51.95870186300055,-28.500034687350855],[-51.95868737402304,-28.50189117673635],[-51.960673016846215,-28.501904716929072]]]}},{"type":"Feature","properties":{"id_grade":"200ME52052N81704","pop":5,"dom":1,"universo_dom":"domicilios_ocupados_grade_ibge_2022","na_bacia":1,"area_pct_bacia":100.0,"metodo_recorte_bacia":"ponto_representativo_grade_2022; area_pct_geometrica"},"geometry":{"type":"Polygon","coordinates":[[[-51.962673119868555,-28.500061753347183],[-51.962687580067715,-28.498205281948177],[-51.960701966022896,-28.498191756144607],[-51.960687491434555,-28.50004822664424],[-51.962673119868555,-28.500061753347183]]]}},{"type":"Feature","properties":{"id_grade":"200ME52054N81708","pop":4,"dom":1,"universo_dom":"domicilios_ocupados_grade_ibge_2022","na_bacia":1,"area_pct_bacia":100.0,"metodo_recorte_bacia":"ponto_representativo_grade_2022; area_pct_geometrica"},"geometry":{"type":"Polygon","coordinates":[[[-51.96071644061118,-28.496335303631316],[-51.9607309143002,-28.494478869104416],[-51.95874532903366,-28.49446533071038],[-51.958730840056205,-28.4963217634386],[-51.96071644061118,-28.496335303631316]]]}},{"type":"Feature","properties":{"id_grade":"200ME52056N81708","pop":10,"dom":4,"universo_dom":"domicilios_ocupados_grade_ibge_2022","na_bacia":1,"area_pct_bacia":100.0,"metodo_recorte_bacia":"ponto_representativo_grade_2022; area_pct_geometrica"},"geometry":{"type":"Polygon","coordinates":[[[-51.958730840056205,-28.4963217634386],[-51.95874532903366,-28.49446533071038],[-51.956759742867796,-28.49445177792716],[-51.9567452404005,-28.49630821155465],[-51.958730840056205,-28.4963217634386]]]}},{"type":"Feature","properties":{"id_grade":"200ME52054N81710","pop":2,"dom":1,"universo_dom":"domicilios_ocupados_grade_ibge_2022","na_bacia":1,"area_pct_bacia":100.0,"metodo_recorte_bacia":"ponto_representativo_grade_2022; area_pct_geometrica"},"geometry":{"type":"Polygon","coordinates":[[[-51.9607309143002,-28.494478869104416],[-51.96074538888854,-28.492622454362742],[-51.95875981711186,-28.49260891596865],[-51.95874532903366,-28.49446533071038],[-51.9607309143002,-28.494478869104416]]]}},{"type":"Feature","properties":{"id_grade":"200ME52056N81710","pop":2,"dom":1,"universo_dom":"domicilios_ocupados_grade_ibge_2022","na_bacia":1,"area_pct_bacia":100.0,"metodo_recorte_bacia":"ponto_representativo_grade_2022; area_pct_geometrica"},"geometry":{"type":"Polygon","coordinates":[[[-51.95874532903366,-28.49446533071038],[-51.95875981711186,-28.49260891596865],[-51.95677424533511,-28.49259536408479],[-51.956759742867796,-28.49445177792716],[-51.95874532903366,-28.49446533071038]]]}},{"type":"Feature","properties":{"id_grade":"200ME52058N81710","pop":4,"dom":1,"universo_dom":"domicilios_ocupados_grade_ibge_2022","na_bacia":1,"area_pct_bacia":100.0,"metodo_recorte_bacia":"ponto_representativo_grade_2022; area_pct_geometrica"},"geometry":{"type":"Polygon","coordinates":[[[-51.956759742867796,-28.49445177792716],[-51.95677424533511,-28.49259536408479],[-51.95478867355837,-28.49258179871105],[-51.954774157601264,-28.49443821255339],[-51.956759742867796,-28.49445177792716]]]}},{"type":"Feature","properties":{"id_grade":"200ME52054N81712","pop":1,"dom":1,"universo_dom":"domicilios_ocupados_grade_ibge_2022","na_bacia":1,"area_pct_bacia":100.0,"metodo_recorte_bacia":"ponto_representativo_grade_2022; area_pct_geometrica"},"geometry":{"type":"Polygon","coordinates":[[[-51.96074538888854,-28.492622454362742],[-51.96075986257756,-28.490766058506754],[-51.958774304290664,-28.490752520112686],[-51.95875981711186,-28.49260891596865],[-51.96074538888854,-28.492622454362742]]]}},{"type":"Feature","properties":{"id_grade":"200ME52052N81716","pop":3,"dom":2,"universo_dom":"domicilios_ocupados_grade_ibge_2022","na_bacia":1,"area_pct_bacia":100.0,"metodo_recorte_bacia":"ponto_representativo_grade_2022; area_pct_geometrica"},"geometry":{"type":"Polygon","coordinates":[[[-51.9627598801643,-28.48892320644078],[-51.96277433856482,-28.487066847457015],[-51.960788809056226,-28.487053322552814],[-51.96077433626658,-28.488909681536548],[-51.9627598801643,-28.48892320644078]]]}},{"type":"Feature","properties":{"id_grade":"200ME52050N81718","pop":2,"dom":1,"universo_dom":"domicilios_ocupados_grade_ibge_2022","na_bacia":1,"area_pct_bacia":100.0,"metodo_recorte_bacia":"ponto_representativo_grade_2022; area_pct_geometrica"},"geometry":{"type":"Polygon","coordinates":[[[-51.96475986897275,-28.487080359770733],[-51.964774313883424,-28.485224019672703],[-51.962788797864675,-28.485210507358957],[-51.96277433856482,-28.487066847457015],[-51.96475986897275,-28.487080359770733]]]}}]}