{"type":"FeatureCollection","name":"4321626","crs":{"type":"name","properties":{"name":"urn:ogc:def:crs:OGC:1.3:CRS84"}},"features":[{"type":"Feature","properties":{"id_grade":"1KME5194N8078","pop":5,"dom":3,"universo_dom":"domicilios_ocupados_grade_ibge_2022","na_bacia":1,"area_pct_bacia":100.0,"metodo_recorte_bacia":"ponto_representativo_grade_2022; area_pct_geometrica"},"geometry":{"type":"Polygon","coordinates":[[[-52.06754542938916,-29.35868851736895],[-52.06761423345462,-29.34936137455453],[-52.05765380136251,-29.34929678311305],[-52.057584642671024,-29.358623920134068],[-52.06754542938916,-29.35868851736895]]]}},{"type":"Feature","properties":{"id_grade":"1KME5195N8078","pop":44,"dom":17,"universo_dom":"domicilios_ocupados_grade_ibge_2022","na_bacia":1,"area_pct_bacia":100.0,"metodo_recorte_bacia":"ponto_representativo_grade_2022; area_pct_geometrica"},"geometry":{"type":"Polygon","coordinates":[[[-52.057584642671024,-29.358623920134068],[-52.05765380136251,-29.34929678311305],[-52.047693374194864,-29.349231859622392],[-52.047623860877884,-29.358558990820132],[-52.057584642671024,-29.358623920134068]]]}},{"type":"Feature","properties":{"id_grade":"1KME5194N8079","pop":48,"dom":17,"universo_dom":"domicilios_ocupados_grade_ibge_2022","na_bacia":1,"area_pct_bacia":100.0,"metodo_recorte_bacia":"ponto_representativo_grade_2022; area_pct_geometrica"},"geometry":{"type":"Polygon","coordinates":[[[-52.06761423345462,-29.34936137455453],[-52.06768303262087,-29.34003473599169],[-52.057722955129535,-29.339970150340637],[-52.05765380136251,-29.34929678311305],[-52.06761423345462,-29.34936137455453]]]}},{"type":"Feature","properties":{"id_grade":"1KME5195N8079","pop":13,"dom":7,"universo_dom":"domicilios_ocupados_grade_ibge_2022","na_bacia":1,"area_pct_bacia":100.0,"metodo_recorte_bacia":"ponto_representativo_grade_2022; area_pct_geometrica"},"geometry":{"type":"Polygon","coordinates":[[[-52.05765380136251,-29.34929678311305],[-52.057722955129535,-29.339970150340637],[-52.04776288256214,-29.339905232670056],[-52.047693374194864,-29.349231859622392],[-52.05765380136251,-29.34929678311305]]]}},{"type":"Feature","properties":{"id_grade":"1KME5196N8079","pop":26,"dom":10,"universo_dom":"domicilios_ocupados_grade_ibge_2022","na_bacia":1,"area_pct_bacia":100.0,"metodo_recorte_bacia":"ponto_representativo_grade_2022; area_pct_geometrica"},"geometry":{"type":"Polygon","coordinates":[[[-52.047693374194864,-29.349231859622392],[-52.04776288256214,-29.339905232670056],[-52.03780281494393,-29.339839982980582],[-52.037732951976935,-29.349166604082946],[-52.047693374194864,-29.349231859622392]]]}},{"type":"Feature","properties":{"id_grade":"1KME5196N8080","pop":36,"dom":13,"universo_dom":"domicilios_ocupados_grade_ibge_2022","na_bacia":1,"area_pct_bacia":100.0,"metodo_recorte_bacia":"ponto_representativo_grade_2022; area_pct_geometrica"},"geometry":{"type":"Polygon","coordinates":[[[-52.04776288256214,-29.339905232670056],[-52.04783238598022,-29.330579109580924],[-52.03787267293649,-29.3305138657382],[-52.03780281494393,-29.339839982980582],[-52.04776288256214,-29.339905232670056]]]}},{"type":"Feature","properties":{"id_grade":"1KME5192N8081","pop":42,"dom":14,"universo_dom":"domicilios_ocupados_grade_ibge_2022","na_bacia":1,"area_pct_bacia":100.0,"metodo_recorte_bacia":"ponto_representativo_grade_2022; area_pct_geometrica"},"geometry":{"type":"Polygon","coordinates":[[[-52.08767128738928,-29.330836765053675],[-52.08773936765652,-29.321511122367752],[-52.077779989520955,-29.3214472122101],[-52.07771155470238,-29.330772849171385],[-52.08767128738928,-29.330836765053675]]]}},{"type":"Feature","properties":{"id_grade":"1KME5196N8081","pop":19,"dom":5,"universo_dom":"domicilios_ocupados_grade_ibge_2022","na_bacia":1,"area_pct_bacia":100.0,"metodo_recorte_bacia":"ponto_representativo_grade_2022; area_pct_geometrica"},"geometry":{"type":"Polygon","coordinates":[[[-52.04783238598022,-29.330579109580924],[-52.04790188444965,-29.32125348997221],[-52.03794252595515,-29.321188251973222],[-52.03787267293649,-29.3305138657382],[-52.04783238598022,-29.330579109580924]]]}},{"type":"Feature","properties":{"id_grade":"1KME5191N8082","pop":41,"dom":13,"universo_dom":"domicilios_ocupados_grade_ibge_2022","na_bacia":1,"area_pct_bacia":100.0,"metodo_recorte_bacia":"ponto_representativo_grade_2022; area_pct_geometrica"},"geometry":{"type":"Polygon","coordinates":[[[-52.097698750639246,-29.321574700563126],[-52.09776647153272,-29.31224955529598],[-52.08780744307659,-29.31218598279273],[-52.08773936765652,-29.321511122367752],[-52.097698750639246,-29.321574700563126]]]}},{"type":"Feature","properties":{"id_grade":"1KME5192N8082","pop":10,"dom":4,"universo_dom":"domicilios_ocupados_grade_ibge_2022","na_bacia":1,"area_pct_bacia":100.0,"metodo_recorte_bacia":"ponto_representativo_grade_2022; area_pct_geometrica"},"geometry":{"type":"Polygon","coordinates":[[[-52.08773936765652,-29.321511122367752],[-52.08780744307659,-29.31218598279273],[-52.077848419467124,-29.312122078356854],[-52.077779989520955,-29.3214472122101],[-52.08773936765652,-29.321511122367752]]]}},{"type":"Feature","properties":{"id_grade":"1KME5196N8082","pop":8,"dom":3,"universo_dom":"domicilios_ocupados_grade_ibge_2022","na_bacia":1,"area_pct_bacia":100.0,"metodo_recorte_bacia":"ponto_representativo_grade_2022; area_pct_geometrica"},"geometry":{"type":"Polygon","coordinates":[[[-52.04790188444965,-29.32125348997221],[-52.04797137797096,-29.311928373462543],[-52.038012374000445,-29.311863141304134],[-52.03794252595515,-29.321188251973222],[-52.04790188444965,-29.32125348997221]]]}},{"type":"Feature","properties":{"id_grade":"1KME5192N8083","pop":34,"dom":15,"universo_dom":"domicilios_ocupados_grade_ibge_2022","na_bacia":1,"area_pct_bacia":100.0,"metodo_recorte_bacia":"ponto_representativo_grade_2022; area_pct_geometrica"},"geometry":{"type":"Polygon","coordinates":[[[-52.08780744307659,-29.31218598279273],[-52.087875513650026,-29.302861345946916],[-52.0779168445414,-29.302797447229707],[-52.077848419467124,-29.312122078356854],[-52.08780744307659,-29.31218598279273]]]}},{"type":"Feature","properties":{"id_grade":"1KME5196N8083","pop":2,"dom":1,"universo_dom":"domicilios_ocupados_grade_ibge_2022","na_bacia":1,"area_pct_bacia":100.0,"metodo_recorte_bacia":"ponto_representativo_grade_2022; area_pct_geometrica"},"geometry":{"type":"Polygon","coordinates":[[[-52.04797137797096,-29.311928373462543],[-52.04804086654466,-29.30260375966991],[-52.038082217072905,-29.302538533349033],[-52.038012374000445,-29.311863141304134],[-52.04797137797096,-29.311928373462543]]]}},{"type":"Feature","properties":{"id_grade":"1KME5190N8084","pop":15,"dom":6,"universo_dom":"domicilios_ocupados_grade_ibge_2022","na_bacia":1,"area_pct_bacia":100.0,"metodo_recorte_bacia":"ponto_representativo_grade_2022; area_pct_geometrica"},"geometry":{"type":"Polygon","coordinates":[[[-52.10779286638042,-29.302988147672547],[-52.107860223154944,-29.293664001831775],[-52.097901898855945,-29.293600772576866],[-52.097834187604775,-29.302924912761217],[-52.10779286638042,-29.302988147672547]]]}},{"type":"Feature","properties":{"id_grade":"1KME5191N8084","pop":44,"dom":19,"universo_dom":"domicilios_ocupados_grade_ibge_2022","na_bacia":1,"area_pct_bacia":100.0,"metodo_recorte_bacia":"ponto_representativo_grade_2022; area_pct_geometrica"},"geometry":{"type":"Polygon","coordinates":[[[-52.097834187604775,-29.302924912761217],[-52.097901898855945,-29.293600772576866],[-52.087943579377324,-29.293537211448783],[-52.087875513650026,-29.302861345946916],[-52.097834187604775,-29.302924912761217]]]}},{"type":"Feature","properties":{"id_grade":"1KME5192N8084","pop":17,"dom":8,"universo_dom":"domicilios_ocupados_grade_ibge_2022","na_bacia":1,"area_pct_bacia":100.0,"metodo_recorte_bacia":"ponto_representativo_grade_2022; area_pct_geometrica"},"geometry":{"type":"Polygon","coordinates":[[[-52.087875513650026,-29.302861345946916],[-52.087943579377324,-29.293537211448783],[-52.07798526474432,-29.293473318447237],[-52.0779168445414,-29.302797447229707],[-52.087875513650026,-29.302861345946916]]]}},{"type":"Feature","properties":{"id_grade":"1KME5189N8085","pop":70,"dom":24,"universo_dom":"domicilios_ocupados_grade_ibge_2022","na_bacia":1,"area_pct_bacia":100.0,"metodo_recorte_bacia":"ponto_representativo_grade_2022; area_pct_geometrica"},"geometry":{"type":"Polygon","coordinates":[[[-52.11781855224908,-29.293726899213006],[-52.11788554977653,-29.28440324972078],[-52.10792757513432,-29.284340357963632],[-52.107860223154944,-29.293664001831775],[-52.11781855224908,-29.293726899213006]]]}},{"type":"Feature","properties":{"id_grade":"1KME5190N8085","pop":43,"dom":20,"universo_dom":"domicilios_ocupados_grade_ibge_2022","na_bacia":1,"area_pct_bacia":100.0,"metodo_recorte_bacia":"ponto_representativo_grade_2022; area_pct_geometrica"},"geometry":{"type":"Polygon","coordinates":[[[-52.107860223154944,-29.293664001831775],[-52.10792757513432,-29.284340357963632],[-52.097969605286735,-29.284277134362306],[-52.097901898855945,-29.293600772576866],[-52.107860223154944,-29.293664001831775]]]}},{"type":"Feature","properties":{"id_grade":"1KME5191N8085","pop":2,"dom":1,"universo_dom":"domicilios_ocupados_grade_ibge_2022","na_bacia":1,"area_pct_bacia":100.0,"metodo_recorte_bacia":"ponto_representativo_grade_2022; area_pct_geometrica"},"geometry":{"type":"Polygon","coordinates":[[[-52.097901898855945,-29.293600772576866],[-52.097969605286735,-29.284277134362306],[-52.08801164025902,-29.284213578916937],[-52.087943579377324,-29.293537211448783],[-52.097901898855945,-29.293600772576866]]]}},{"type":"Feature","properties":{"id_grade":"1KME5192N8085","pop":2,"dom":1,"universo_dom":"domicilios_ocupados_grade_ibge_2022","na_bacia":1,"area_pct_bacia":100.0,"metodo_recorte_bacia":"ponto_representativo_grade_2022; area_pct_geometrica"},"geometry":{"type":"Polygon","coordinates":[[[-52.087943579377324,-29.293537211448783],[-52.08801164025902,-29.284213578916937],[-52.078053680076394,-29.28414969162833],[-52.07798526474432,-29.293473318447237],[-52.087943579377324,-29.293537211448783]]]}},{"type":"Feature","properties":{"id_grade":"1KME5193N8085","pop":2,"dom":2,"universo_dom":"domicilios_ocupados_grade_ibge_2022","na_bacia":1,"area_pct_bacia":100.0,"metodo_recorte_bacia":"ponto_representativo_grade_2022; area_pct_geometrica"},"geometry":{"type":"Polygon","coordinates":[[[-52.07798526474432,-29.293473318447237],[-52.078053680076394,-29.28414969162833],[-52.06809572476409,-29.284085472497402],[-52.06802695498216,-29.29340909357394],[-52.07798526474432,-29.293473318447237]]]}},{"type":"Feature","properties":{"id_grade":"1KME5196N8085","pop":12,"dom":6,"universo_dom":"domicilios_ocupados_grade_ibge_2022","na_bacia":1,"area_pct_bacia":100.0,"metodo_recorte_bacia":"ponto_representativo_grade_2022; area_pct_geometrica"},"geometry":{"type":"Polygon","coordinates":[[[-52.04811035017129,-29.29327964821284],[-52.04817982885139,-29.283956038709796],[-52.038221888301436,-29.283890824054705],[-52.03815205517306,-29.29321442772648],[-52.04811035017129,-29.29327964821284]]]}},{"type":"Feature","properties":{"id_grade":"1KME5189N8086","pop":30,"dom":14,"universo_dom":"domicilios_ocupados_grade_ibge_2022","na_bacia":1,"area_pct_bacia":100.0,"metodo_recorte_bacia":"ponto_representativo_grade_2022; area_pct_geometrica"},"geometry":{"type":"Polygon","coordinates":[[[-52.11788554977653,-29.28440324972078],[-52.11795254253458,-29.27508010182296],[-52.10799492231906,-29.275017215686468],[-52.10792757513432,-29.284340357963632],[-52.11788554977653,-29.28440324972078]]]}},{"type":"Feature","properties":{"id_grade":"1KME5190N8086","pop":3,"dom":1,"universo_dom":"domicilios_ocupados_grade_ibge_2022","na_bacia":1,"area_pct_bacia":100.0,"metodo_recorte_bacia":"ponto_representativo_grade_2022; area_pct_geometrica"},"geometry":{"type":"Polygon","coordinates":[[[-52.10792757513432,-29.284340357963632],[-52.10799492231906,-29.275017215686468],[-52.098037306897666,-29.274953997735363],[-52.097969605286735,-29.284277134362306],[-52.10792757513432,-29.284340357963632]]]}},{"type":"Feature","properties":{"id_grade":"1KME5191N8086","pop":7,"dom":2,"universo_dom":"domicilios_ocupados_grade_ibge_2022","na_bacia":1,"area_pct_bacia":100.0,"metodo_recorte_bacia":"ponto_representativo_grade_2022; area_pct_geometrica"},"geometry":{"type":"Polygon","coordinates":[[[-52.097969605286735,-29.284277134362306],[-52.098037306897666,-29.274953997735363],[-52.088079696295615,-29.27489044797017],[-52.08801164025902,-29.284213578916937],[-52.097969605286735,-29.284277134362306]]]}},{"type":"Feature","properties":{"id_grade":"1KME5193N8086","pop":4,"dom":1,"universo_dom":"domicilios_ocupados_grade_ibge_2022","na_bacia":1,"area_pct_bacia":100.0,"metodo_recorte_bacia":"ponto_representativo_grade_2022; area_pct_geometrica"},"geometry":{"type":"Polygon","coordinates":[[[-52.078053680076394,-29.28414969162833],[-52.078122090538145,-29.27482656639133],[-52.06816448965047,-29.274762352999456],[-52.06809572476409,-29.284085472497402],[-52.078053680076394,-29.28414969162833]]]}},{"type":"Feature","properties":{"id_grade":"1KME5196N8086","pop":2,"dom":1,"universo_dom":"domicilios_ocupados_grade_ibge_2022","na_bacia":1,"area_pct_bacia":100.0,"metodo_recorte_bacia":"ponto_representativo_grade_2022; area_pct_geometrica"},"geometry":{"type":"Polygon","coordinates":[[[-52.04817982885139,-29.283956038709796],[-52.04824930258546,-29.274632930779863],[-52.03829171645857,-29.274567721952977],[-52.038221888301436,-29.283890824054705],[-52.04817982885139,-29.283956038709796]]]}},{"type":"Feature","properties":{"id_grade":"1KME5187N8087","pop":37,"dom":14,"universo_dom":"domicilios_ocupados_grade_ibge_2022","na_bacia":1,"area_pct_bacia":100.0,"metodo_recorte_bacia":"ponto_representativo_grade_2022; area_pct_geometrica"},"geometry":{"type":"Polygon","coordinates":[[[-52.13786779724707,-29.275204878648925],[-52.137934076431755,-29.265882220817183],[-52.12797680110616,-29.265820003870623],[-52.127910167519,-29.275142656143597],[-52.13786779724707,-29.275204878648925]]]}},{"type":"Feature","properties":{"id_grade":"1KME5188N8087","pop":28,"dom":10,"universo_dom":"domicilios_ocupados_grade_ibge_2022","na_bacia":1,"area_pct_bacia":100.0,"metodo_recorte_bacia":"ponto_representativo_grade_2022; area_pct_geometrica"},"geometry":{"type":"Polygon","coordinates":[[[-52.127910167519,-29.275142656143597],[-52.12797680110616,-29.265820003870623],[-52.118019530523725,-29.265757455137994],[-52.11795254253458,-29.27508010182296],[-52.127910167519,-29.275142656143597]]]}},{"type":"Feature","properties":{"id_grade":"1KME5189N8087","pop":18,"dom":8,"universo_dom":"domicilios_ocupados_grade_ibge_2022","na_bacia":1,"area_pct_bacia":100.0,"metodo_recorte_bacia":"ponto_representativo_grade_2022; area_pct_geometrica"},"geometry":{"type":"Polygon","coordinates":[[[-52.11795254253458,-29.27508010182296],[-52.118019530523725,-29.265757455137994],[-52.10806226470967,-29.265694574619484],[-52.10799492231906,-29.275017215686468],[-52.11795254253458,-29.27508010182296]]]}},{"type":"Feature","properties":{"id_grade":"1KME5195N8087","pop":13,"dom":4,"universo_dom":"domicilios_ocupados_grade_ibge_2022","na_bacia":1,"area_pct_bacia":100.0,"metodo_recorte_bacia":"ponto_representativo_grade_2022; area_pct_geometrica"},"geometry":{"type":"Polygon","coordinates":[[[-52.05820689365784,-29.274697807795448],[-52.058276008048075,-29.26537519526188],[-52.048318771374056,-29.265310324041675],[-52.04824930258546,-29.274632930779863],[-52.05820689365784,-29.274697807795448]]]}},{"type":"Feature","properties":{"id_grade":"1KME5187N8088","pop":11,"dom":6,"universo_dom":"domicilios_ocupados_grade_ibge_2022","na_bacia":1,"area_pct_bacia":100.0,"metodo_recorte_bacia":"ponto_representativo_grade_2022; area_pct_geometrica"},"geometry":{"type":"Polygon","coordinates":[[[-52.137934076431755,-29.265882220817183],[-52.13800035089851,-29.256560063823812],[-52.128043429950175,-29.256497852433064],[-52.12797680110616,-29.265820003870623],[-52.137934076431755,-29.265882220817183]]]}},{"type":"Feature","properties":{"id_grade":"1KME5188N8088","pop":26,"dom":12,"universo_dom":"domicilios_ocupados_grade_ibge_2022","na_bacia":1,"area_pct_bacia":100.0,"metodo_recorte_bacia":"ponto_representativo_grade_2022; area_pct_geometrica"},"geometry":{"type":"Polygon","coordinates":[[[-52.12797680110616,-29.265820003870623],[-52.128043429950175,-29.256497852433064],[-52.118086513744494,-29.256435309285557],[-52.118019530523725,-29.265757455137994],[-52.12797680110616,-29.265820003870623]]]}},{"type":"Feature","properties":{"id_grade":"1KME5189N8088","pop":12,"dom":5,"universo_dom":"domicilios_ocupados_grade_ibge_2022","na_bacia":1,"area_pct_bacia":100.0,"metodo_recorte_bacia":"ponto_representativo_grade_2022; area_pct_geometrica"},"geometry":{"type":"Polygon","coordinates":[[[-52.118019530523725,-29.265757455137994],[-52.118086513744494,-29.256435309285557],[-52.1081296023067,-29.256372434381976],[-52.10806226470967,-29.265694574619484],[-52.118019530523725,-29.265757455137994]]]}},{"type":"Feature","properties":{"id_grade":"1KME5194N8088","pop":3,"dom":1,"universo_dom":"domicilios_ocupados_grade_ibge_2022","na_bacia":1,"area_pct_bacia":100.0,"metodo_recorte_bacia":"ponto_representativo_grade_2022; area_pct_geometrica"},"geometry":{"type":"Polygon","coordinates":[[[-52.06823324964183,-29.265439734700166],[-52.06830200473866,-29.2561176172181],[-52.05834511751858,-29.25605308354283],[-52.058276008048075,-29.26537519526188],[-52.06823324964183,-29.265439734700166]]]}},{"type":"Feature","properties":{"id_grade":"1KME5195N8088","pop":47,"dom":14,"universo_dom":"domicilios_ocupados_grade_ibge_2022","na_bacia":1,"area_pct_bacia":100.0,"metodo_recorte_bacia":"ponto_representativo_grade_2022; area_pct_geometrica"},"geometry":{"type":"Polygon","coordinates":[[[-52.058276008048075,-29.26537519526188],[-52.05834511751858,-29.25605308354283],[-52.048388235217686,-29.25598821811522],[-52.048318771374056,-29.265310324041675],[-52.058276008048075,-29.26537519526188]]]}},{"type":"Feature","properties":{"id_grade":"1KME5196N8088","pop":14,"dom":5,"universo_dom":"domicilios_ocupados_grade_ibge_2022","na_bacia":1,"area_pct_bacia":100.0,"metodo_recorte_bacia":"ponto_representativo_grade_2022; area_pct_geometrica"},"geometry":{"type":"Polygon","coordinates":[[[-52.048318771374056,-29.265310324041675],[-52.048388235217686,-29.25598821811522],[-52.038431357861235,-29.255923020935644],[-52.038361539644995,-29.26524512104005],[-52.048318771374056,-29.265310324041675]]]}},{"type":"Feature","properties":{"id_grade":"1KME5185N8089","pop":34,"dom":12,"universo_dom":"domicilios_ocupados_grade_ibge_2022","na_bacia":1,"area_pct_bacia":100.0,"metodo_recorte_bacia":"ponto_representativo_grade_2022; area_pct_geometrica"},"geometry":{"type":"Polygon","coordinates":[[[-52.15791420692224,-29.256683491332947],[-52.15797976796598,-29.24736182378074],[-52.14802319196105,-29.247300281398836],[-52.14795727656426,-29.256621943457507],[-52.15791420692224,-29.256683491332947]]]}},{"type":"Feature","properties":{"id_grade":"1KME5186N8089","pop":27,"dom":9,"universo_dom":"domicilios_ocupados_grade_ibge_2022","na_bacia":1,"area_pct_bacia":100.0,"metodo_recorte_bacia":"ponto_representativo_grade_2022; area_pct_geometrica"},"geometry":{"type":"Polygon","coordinates":[[[-52.14795727656426,-29.256621943457507],[-52.14802319196105,-29.247300281398836],[-52.13806662064783,-29.247238407288304],[-52.13800035089851,-29.256560063823812],[-52.14795727656426,-29.256621943457507]]]}},{"type":"Feature","properties":{"id_grade":"1KME5187N8089","pop":1,"dom":1,"universo_dom":"domicilios_ocupados_grade_ibge_2022","na_bacia":1,"area_pct_bacia":100.0,"metodo_recorte_bacia":"ponto_representativo_grade_2022; area_pct_geometrica"},"geometry":{"type":"Polygon","coordinates":[[[-52.13800035089851,-29.256560063823812],[-52.13806662064783,-29.247238407288304],[-52.12811005405153,-29.247176201450152],[-52.128043429950175,-29.256497852433064],[-52.13800035089851,-29.256560063823812]]]}},{"type":"Feature","properties":{"id_grade":"1KME5188N8089","pop":26,"dom":9,"universo_dom":"domicilios_ocupados_grade_ibge_2022","na_bacia":1,"area_pct_bacia":100.0,"metodo_recorte_bacia":"ponto_representativo_grade_2022; area_pct_geometrica"},"geometry":{"type":"Polygon","coordinates":[[[-52.128043429950175,-29.256497852433064],[-52.12811005405153,-29.247176201450152],[-52.118153492197386,-29.24711366388498],[-52.118086513744494,-29.256435309285557],[-52.128043429950175,-29.256497852433064]]]}},{"type":"Feature","properties":{"id_grade":"1KME5189N8089","pop":5,"dom":2,"universo_dom":"domicilios_ocupados_grade_ibge_2022","na_bacia":1,"area_pct_bacia":100.0,"metodo_recorte_bacia":"ponto_representativo_grade_2022; area_pct_geometrica"},"geometry":{"type":"Polygon","coordinates":[[[-52.118086513744494,-29.256435309285557],[-52.118153492197386,-29.24711366388498],[-52.1081969351106,-29.2470507945932],[-52.1081296023067,-29.256372434381976],[-52.118086513744494,-29.256435309285557]]]}},{"type":"Feature","properties":{"id_grade":"1KME5185N8090","pop":51,"dom":22,"universo_dom":"domicilios_ocupados_grade_ibge_2022","na_bacia":1,"area_pct_bacia":100.0,"metodo_recorte_bacia":"ponto_representativo_grade_2022; area_pct_geometrica"},"geometry":{"type":"Polygon","coordinates":[[[-52.15797976796598,-29.24736182378074],[-52.158045324343234,-29.238040656311806],[-52.148089102666134,-29.237979119420235],[-52.14802319196105,-29.247300281398836],[-52.15797976796598,-29.24736182378074]]]}},{"type":"Feature","properties":{"id_grade":"1KME5186N8090","pop":11,"dom":3,"universo_dom":"domicilios_ocupados_grade_ibge_2022","na_bacia":1,"area_pct_bacia":100.0,"metodo_recorte_bacia":"ponto_representativo_grade_2022; area_pct_geometrica"},"geometry":{"type":"Polygon","coordinates":[[[-52.14802319196105,-29.247300281398836],[-52.148089102666134,-29.237979119420235],[-52.13813288568022,-29.237917250830026],[-52.13806662064783,-29.247238407288304],[-52.14802319196105,-29.247300281398836]]]}},{"type":"Feature","properties":{"id_grade":"1KME5187N8090","pop":7,"dom":3,"universo_dom":"domicilios_ocupados_grade_ibge_2022","na_bacia":1,"area_pct_bacia":100.0,"metodo_recorte_bacia":"ponto_representativo_grade_2022; area_pct_geometrica"},"geometry":{"type":"Polygon","coordinates":[[[-52.13806662064783,-29.247238407288304],[-52.13813288568022,-29.237917250830026],[-52.12817667341074,-29.237855050541594],[-52.12811005405153,-29.247176201450152],[-52.13806662064783,-29.247238407288304]]]}},{"type":"Feature","properties":{"id_grade":"1KME5188N8090","pop":14,"dom":6,"universo_dom":"domicilios_ocupados_grade_ibge_2022","na_bacia":1,"area_pct_bacia":100.0,"metodo_recorte_bacia":"ponto_representativo_grade_2022; area_pct_geometrica"},"geometry":{"type":"Polygon","coordinates":[[[-52.12811005405153,-29.247176201450152],[-52.12817667341074,-29.237855050541594],[-52.1182204658829,-29.237792518555857],[-52.118153492197386,-29.24711366388498],[-52.12811005405153,-29.247176201450152]]]}},{"type":"Feature","properties":{"id_grade":"1KME5189N8090","pop":12,"dom":5,"universo_dom":"domicilios_ocupados_grade_ibge_2022","na_bacia":1,"area_pct_bacia":100.0,"metodo_recorte_bacia":"ponto_representativo_grade_2022; area_pct_geometrica"},"geometry":{"type":"Polygon","coordinates":[[[-52.118153492197386,-29.24711366388498],[-52.1182204658829,-29.237792518555857],[-52.108264263121924,-29.23772965487313],[-52.1081969351106,-29.2470507945932],[-52.118153492197386,-29.24711366388498]]]}},{"type":"Feature","properties":{"id_grade":"1KME5186N8091","pop":4,"dom":1,"universo_dom":"domicilios_ocupados_grade_ibge_2022","na_bacia":1,"area_pct_bacia":100.0,"metodo_recorte_bacia":"ponto_representativo_grade_2022; area_pct_geometrica"},"geometry":{"type":"Polygon","coordinates":[[[-52.148089102666134,-29.237979119420235],[-52.148155008679986,-29.228658457142153],[-52.13819914599619,-29.22859659406907],[-52.13813288568022,-29.237917250830026],[-52.148089102666134,-29.237979119420235]]]}},{"type":"Feature","properties":{"id_grade":"1KME5187N8091","pop":32,"dom":9,"universo_dom":"domicilios_ocupados_grade_ibge_2022","na_bacia":1,"area_pct_bacia":100.0,"metodo_recorte_bacia":"ponto_representativo_grade_2022; area_pct_geometrica"},"geometry":{"type":"Polygon","coordinates":[[[-52.13813288568022,-29.237917250830026],[-52.13819914599619,-29.22859659406907],[-52.128243288028315,-29.228534399327597],[-52.12817667341074,-29.237855050541594],[-52.13813288568022,-29.237917250830026]]]}},{"type":"Feature","properties":{"id_grade":"1KME5188N8091","pop":24,"dom":9,"universo_dom":"domicilios_ocupados_grade_ibge_2022","na_bacia":1,"area_pct_bacia":100.0,"metodo_recorte_bacia":"ponto_representativo_grade_2022; area_pct_geometrica"},"geometry":{"type":"Polygon","coordinates":[[[-52.12817667341074,-29.237855050541594],[-52.128243288028315,-29.228534399327597],[-52.11828743480157,-29.228471872918096],[-52.1182204658829,-29.237792518555857],[-52.12817667341074,-29.237855050541594]]]}},{"type":"Feature","properties":{"id_grade":"1KME5184N8092","pop":20,"dom":7,"universo_dom":"domicilios_ocupados_grade_ibge_2022","na_bacia":1,"area_pct_bacia":100.0,"metodo_recorte_bacia":"ponto_representativo_grade_2022; area_pct_geometrica"},"geometry":{"type":"Polygon","coordinates":[[[-52.16806674809449,-29.228781188279584],[-52.168131940862374,-29.21946101438151],[-52.158176423100265,-29.21939982010278],[-52.158110876054494,-29.228719988545723],[-52.16806674809449,-29.228781188279584]]]}},{"type":"Feature","properties":{"id_grade":"1KME5187N8092","pop":3,"dom":1,"universo_dom":"domicilios_ocupados_grade_ibge_2022","na_bacia":1,"area_pct_bacia":100.0,"metodo_recorte_bacia":"ponto_representativo_grade_2022; area_pct_geometrica"},"geometry":{"type":"Polygon","coordinates":[[[-52.13819914599619,-29.22859659406907],[-52.138265401596236,-29.219276436625325],[-52.12830989790475,-29.2192142474278],[-52.128243288028315,-29.228534399327597],[-52.13819914599619,-29.22859659406907]]]}},{"type":"Feature","properties":{"id_grade":"1KME5188N8092","pop":30,"dom":9,"universo_dom":"domicilios_ocupados_grade_ibge_2022","na_bacia":1,"area_pct_bacia":100.0,"metodo_recorte_bacia":"ponto_representativo_grade_2022; area_pct_geometrica"},"geometry":{"type":"Polygon","coordinates":[[[-52.128243288028315,-29.228534399327597],[-52.12830989790475,-29.2192142474278],[-52.11835439895389,-29.2191517265919],[-52.11828743480157,-29.228471872918096],[-52.128243288028315,-29.228534399327597]]]}},{"type":"Feature","properties":{"id_grade":"1KME5185N8093","pop":1,"dom":1,"universo_dom":"domicilios_ocupados_grade_ibge_2022","na_bacia":1,"area_pct_bacia":100.0,"metodo_recorte_bacia":"ponto_representativo_grade_2022; area_pct_geometrica"},"geometry":{"type":"Polygon","coordinates":[[[-52.158176423100265,-29.21939982010278],[-52.15824196548104,-29.21008015060338],[-52.14828680663611,-29.210018630166243],[-52.148220910003154,-29.219338294183725],[-52.158176423100265,-29.21939982010278]]]}},{"type":"Feature","properties":{"id_grade":"200ME51868N80886","pop":4,"dom":1,"universo_dom":"domicilios_ocupados_grade_ibge_2022","na_bacia":1,"area_pct_bacia":100.0,"metodo_recorte_bacia":"ponto_representativo_grade_2022; area_pct_geometrica"},"geometry":{"type":"Polygon","coordinates":[[[-52.13995201417407,-29.262165701186145],[-52.139965254892566,-29.260301269887652],[-52.137973842019164,-29.260288866438003],[-52.13796058691151,-29.26215329773641],[-52.13995201417407,-29.262165701186145]]]}},{"type":"Feature","properties":{"id_grade":"200ME51868N80888","pop":11,"dom":4,"universo_dom":"domicilios_ocupados_grade_ibge_2022","na_bacia":1,"area_pct_bacia":100.0,"metodo_recorte_bacia":"ponto_representativo_grade_2022; area_pct_geometrica"},"geometry":{"type":"Polygon","coordinates":[[[-52.139965254892566,-29.260301269887652],[-52.13997849561105,-29.258436857474944],[-52.13798709622745,-29.258424454924622],[-52.137973842019164,-29.260288866438003],[-52.139965254892566,-29.260301269887652]]]}},{"type":"Feature","properties":{"id_grade":"200ME51918N80818","pop":5,"dom":3,"universo_dom":"domicilios_ocupados_grade_ibge_2022","na_bacia":1,"area_pct_bacia":100.0,"metodo_recorte_bacia":"ponto_representativo_grade_2022; area_pct_geometrica"},"geometry":{"type":"Polygon","coordinates":[[[-52.08970404060892,-29.325254061825415],[-52.08971764195559,-29.323388953337496],[-52.08772575154216,-29.323376210843435],[-52.087712135806385,-29.325241319331386],[-52.08970404060892,-29.325254061825415]]]}},{"type":"Feature","properties":{"id_grade":"200ME51916N80820","pop":9,"dom":4,"universo_dom":"domicilios_ocupados_grade_ibge_2022","na_bacia":1,"area_pct_bacia":100.0,"metodo_recorte_bacia":"ponto_representativo_grade_2022; area_pct_geometrica"},"geometry":{"type":"Polygon","coordinates":[[[-52.09170953326833,-29.323401682341693],[-52.09172312022577,-29.321536593638807],[-52.089731244201516,-29.321523864634628],[-52.08971764195559,-29.323388953337496],[-52.09170953326833,-29.323401682341693]]]}},{"type":"Feature","properties":{"id_grade":"200ME51918N80820","pop":2,"dom":1,"universo_dom":"domicilios_ocupados_grade_ibge_2022","na_bacia":1,"area_pct_bacia":100.0,"metodo_recorte_bacia":"ponto_representativo_grade_2022; area_pct_geometrica"},"geometry":{"type":"Polygon","coordinates":[[[-52.08971764195559,-29.323388953337496],[-52.089731244201516,-29.321523864634628],[-52.08773936727795,-29.321511122140542],[-52.08772575154216,-29.323376210843435],[-52.08971764195559,-29.323388953337496]]]}},{"type":"Feature","properties":{"id_grade":"200ME51930N80814","pop":2,"dom":1,"universo_dom":"domicilios_ocupados_grade_ibge_2022","na_bacia":1,"area_pct_bacia":100.0,"metodo_recorte_bacia":"ponto_representativo_grade_2022; area_pct_geometrica"},"geometry":{"type":"Polygon","coordinates":[[[-52.07772524182639,-29.32890768174407],[-52.077738929507966,-29.327042533685933],[-52.07574701121553,-29.327029711152232],[-52.0757333100442,-29.328894858311],[-52.07772524182639,-29.32890768174407]]]}},{"type":"Feature","properties":{"id_grade":"200ME51930N80816","pop":7,"dom":3,"universo_dom":"domicilios_ocupados_grade_ibge_2022","na_bacia":1,"area_pct_bacia":100.0,"metodo_recorte_bacia":"ponto_representativo_grade_2022; area_pct_geometrica"},"geometry":{"type":"Polygon","coordinates":[[[-52.077738929507966,-29.327042533685933],[-52.077752616290184,-29.32517740631226],[-52.07576071238691,-29.325164584677772],[-52.07574701121553,-29.327029711152232],[-52.077738929507966,-29.327042533685933]]]}},{"type":"Feature","properties":{"id_grade":"200ME51932N80816","pop":6,"dom":3,"universo_dom":"domicilios_ocupados_grade_ibge_2022","na_bacia":1,"area_pct_bacia":100.0,"metodo_recorte_bacia":"ponto_representativo_grade_2022; area_pct_geometrica"},"geometry":{"type":"Polygon","coordinates":[[[-52.07574701121553,-29.327029711152232],[-52.07576071238691,-29.325164584677772],[-52.073768809383004,-29.32515174865427],[-52.073755093822456,-29.327016876027997],[-52.07574701121553,-29.327029711152232]]]}},{"type":"Feature","properties":{"id_grade":"200ME51934N80816","pop":5,"dom":2,"universo_dom":"domicilios_ocupados_grade_ibge_2022","na_bacia":1,"area_pct_bacia":100.0,"metodo_recorte_bacia":"ponto_representativo_grade_2022; area_pct_geometrica"},"geometry":{"type":"Polygon","coordinates":[[[-52.073755093822456,-29.327016876027997],[-52.073768809383004,-29.32515174865427],[-52.07177690637906,-29.325138900040074],[-52.071763177328705,-29.327004026514587],[-52.073755093822456,-29.327016876027997]]]}},{"type":"Feature","properties":{"id_grade":"200ME51936N80816","pop":3,"dom":1,"universo_dom":"domicilios_ocupados_grade_ibge_2022","na_bacia":1,"area_pct_bacia":100.0,"metodo_recorte_bacia":"ponto_representativo_grade_2022; area_pct_geometrica"},"geometry":{"type":"Polygon","coordinates":[[[-52.071763177328705,-29.327004026514587],[-52.07177690637906,-29.325138900040074],[-52.06978500337516,-29.32512603793623],[-52.06977125993563,-29.32699116441069],[-52.071763177328705,-29.327004026514587]]]}},{"type":"Feature","properties":{"id_grade":"200ME51938N80816","pop":5,"dom":2,"universo_dom":"domicilios_ocupados_grade_ibge_2022","na_bacia":1,"area_pct_bacia":100.0,"metodo_recorte_bacia":"ponto_representativo_grade_2022; area_pct_geometrica"},"geometry":{"type":"Polygon","coordinates":[[[-52.06977125993563,-29.32699116441069],[-52.06978500337516,-29.32512603793623],[-52.06779310127059,-29.32511316234253],[-52.06777934344188,-29.32697828881697],[-52.06977125993563,-29.32699116441069]]]}},{"type":"Feature","properties":{"id_grade":"200ME51936N80818","pop":2,"dom":1,"universo_dom":"domicilios_ocupados_grade_ibge_2022","na_bacia":1,"area_pct_bacia":100.0,"metodo_recorte_bacia":"ponto_representativo_grade_2022; area_pct_geometrica"},"geometry":{"type":"Polygon","coordinates":[[[-52.07177690637906,-29.325138900040074],[-52.071790635429466,-29.32327379335084],[-52.06979874681468,-29.323260931246853],[-52.06978500337516,-29.32512603793623],[-52.07177690637906,-29.325138900040074]]]}},{"type":"Feature","properties":{"id_grade":"200ME51938N80818","pop":2,"dom":1,"universo_dom":"domicilios_ocupados_grade_ibge_2022","na_bacia":1,"area_pct_bacia":100.0,"metodo_recorte_bacia":"ponto_representativo_grade_2022; area_pct_geometrica"},"geometry":{"type":"Polygon","coordinates":[[[-52.06978500337516,-29.32512603793623],[-52.06979874681468,-29.323260931246853],[-52.06780685909922,-29.323248055653167],[-52.06779310127059,-29.32511316234253],[-52.06978500337516,-29.32512603793623]]]}},{"type":"Feature","properties":{"id_grade":"200ME51938N80822","pop":7,"dom":2,"universo_dom":"domicilios_ocupados_grade_ibge_2022","na_bacia":1,"area_pct_bacia":100.0,"metodo_recorte_bacia":"ponto_representativo_grade_2022; area_pct_geometrica"},"geometry":{"type":"Polygon","coordinates":[[[-52.06981249025421,-29.32139584524201],[-52.06982623369368,-29.319530779022216],[-52.067834373857245,-29.319517904327792],[-52.06782061602854,-29.321382969648372],[-52.06981249025421,-29.32139584524201]]]}},{"type":"Feature","properties":{"id_grade":"200ME51946N80812","pop":4,"dom":2,"universo_dom":"domicilios_ocupados_grade_ibge_2022","na_bacia":1,"area_pct_bacia":100.0,"metodo_recorte_bacia":"ponto_representativo_grade_2022; area_pct_geometrica"},"geometry":{"type":"Polygon","coordinates":[[[-52.06177599286775,-29.33066989340087],[-52.061789792964525,-29.328804727356253],[-52.05979786298092,-29.328791798702525],[-52.059784048494976,-29.330656963847822],[-52.06177599286775,-29.33066989340087]]]}},{"type":"Feature","properties":{"id_grade":"200ME51946N80814","pop":8,"dom":2,"universo_dom":"domicilios_ocupados_grade_ibge_2022","na_bacia":1,"area_pct_bacia":100.0,"metodo_recorte_bacia":"ponto_representativo_grade_2022; area_pct_geometrica"},"geometry":{"type":"Polygon","coordinates":[[[-52.061789792964525,-29.328804727356253],[-52.06180359396063,-29.326939581996047],[-52.0598116783662,-29.32692665334237],[-52.05979786298092,-29.328791798702525],[-52.061789792964525,-29.328804727356253]]]}},{"type":"Feature","properties":{"id_grade":"200ME51948N80814","pop":4,"dom":2,"universo_dom":"domicilios_ocupados_grade_ibge_2022","na_bacia":1,"area_pct_bacia":100.0,"metodo_recorte_bacia":"ponto_representativo_grade_2022; area_pct_geometrica"},"geometry":{"type":"Polygon","coordinates":[[[-52.05979786298092,-29.328791798702525],[-52.0598116783662,-29.32692665334237],[-52.05781976187246,-29.326913711198706],[-52.05780593299739,-29.328778855659564],[-52.05979786298092,-29.328791798702525]]]}},{"type":"Feature","properties":{"id_grade":"200ME51940N80816","pop":3,"dom":1,"universo_dom":"domicilios_ocupados_grade_ibge_2022","na_bacia":1,"area_pct_bacia":100.0,"metodo_recorte_bacia":"ponto_representativo_grade_2022; area_pct_geometrica"},"geometry":{"type":"Polygon","coordinates":[[[-52.06777934344188,-29.32697828881697],[-52.06779310127059,-29.32511316234253],[-52.06580119826662,-29.32510027325898],[-52.065787426948134,-29.326965399733325],[-52.06777934344188,-29.32697828881697]]]}},{"type":"Feature","properties":{"id_grade":"200ME51948N80816","pop":4,"dom":2,"universo_dom":"domicilios_ocupados_grade_ibge_2022","na_bacia":1,"area_pct_bacia":100.0,"metodo_recorte_bacia":"ponto_representativo_grade_2022; area_pct_geometrica"},"geometry":{"type":"Polygon","coordinates":[[[-52.0598116783662,-29.32692665334237],[-52.05982549285215,-29.325061527767232],[-52.05783359074758,-29.32504858562369],[-52.05781976187246,-29.326913711198706],[-52.0598116783662,-29.32692665334237]]]}},{"type":"Feature","properties":{"id_grade":"200ME51940N80818","pop":12,"dom":5,"universo_dom":"domicilios_ocupados_grade_ibge_2022","na_bacia":1,"area_pct_bacia":100.0,"metodo_recorte_bacia":"ponto_representativo_grade_2022; area_pct_geometrica"},"geometry":{"type":"Polygon","coordinates":[[[-52.06779310127059,-29.32511316234253],[-52.06780685909922,-29.323248055653167],[-52.06581497048444,-29.323235167468958],[-52.06580119826662,-29.32510027325898],[-52.06779310127059,-29.32511316234253]]]}},{"type":"Feature","properties":{"id_grade":"200ME51942N80818","pop":4,"dom":1,"universo_dom":"domicilios_ocupados_grade_ibge_2022","na_bacia":1,"area_pct_bacia":100.0,"metodo_recorte_bacia":"ponto_representativo_grade_2022; area_pct_geometrica"},"geometry":{"type":"Polygon","coordinates":[[[-52.06580119826662,-29.32510027325898],[-52.06581497048444,-29.323235167468958],[-52.06382308276903,-29.323222265794882],[-52.06380929616205,-29.325087371584885],[-52.06580119826662,-29.32510027325898]]]}},{"type":"Feature","properties":{"id_grade":"200ME51948N80818","pop":18,"dom":7,"universo_dom":"domicilios_ocupados_grade_ibge_2022","na_bacia":1,"area_pct_bacia":100.0,"metodo_recorte_bacia":"ponto_representativo_grade_2022; area_pct_geometrica"},"geometry":{"type":"Polygon","coordinates":[[[-52.05982549285215,-29.325061527767232],[-52.0598393073381,-29.323196422876627],[-52.0578474196227,-29.323183480733032],[-52.05783359074758,-29.32504858562369],[-52.05982549285215,-29.325061527767232]]]}},{"type":"Feature","properties":{"id_grade":"200ME51940N80820","pop":7,"dom":4,"universo_dom":"domicilios_ocupados_grade_ibge_2022","na_bacia":1,"area_pct_bacia":100.0,"metodo_recorte_bacia":"ponto_representativo_grade_2022; area_pct_geometrica"},"geometry":{"type":"Polygon","coordinates":[[[-52.06780685909922,-29.323248055653167],[-52.06782061602854,-29.321382969648372],[-52.06582874180293,-29.321370081464035],[-52.06581497048444,-29.323235167468958],[-52.06780685909922,-29.323248055653167]]]}},{"type":"Feature","properties":{"id_grade":"200ME51942N80820","pop":26,"dom":10,"universo_dom":"domicilios_ocupados_grade_ibge_2022","na_bacia":1,"area_pct_bacia":100.0,"metodo_recorte_bacia":"ponto_representativo_grade_2022; area_pct_geometrica"},"geometry":{"type":"Polygon","coordinates":[[[-52.06581497048444,-29.323235167468958],[-52.06582874180293,-29.321370081464035],[-52.063836868476635,-29.321357180689294],[-52.06382308276903,-29.323222265794882],[-52.06581497048444,-29.323235167468958]]]}},{"type":"Feature","properties":{"id_grade":"200ME51944N80820","pop":7,"dom":3,"universo_dom":"domicilios_ocupados_grade_ibge_2022","na_bacia":1,"area_pct_bacia":100.0,"metodo_recorte_bacia":"ponto_representativo_grade_2022; area_pct_geometrica"},"geometry":{"type":"Polygon","coordinates":[[[-52.06382308276903,-29.323222265794882],[-52.063836868476635,-29.321357180689294],[-52.06184499425103,-29.32134426552541],[-52.06183119505357,-29.323209350630957],[-52.06382308276903,-29.323222265794882]]]}},{"type":"Feature","properties":{"id_grade":"200ME51946N80820","pop":12,"dom":5,"universo_dom":"domicilios_ocupados_grade_ibge_2022","na_bacia":1,"area_pct_bacia":100.0,"metodo_recorte_bacia":"ponto_representativo_grade_2022; area_pct_geometrica"},"geometry":{"type":"Polygon","coordinates":[[[-52.06183119505357,-29.323209350630957],[-52.06184499425103,-29.32134426552541],[-52.05985312092474,-29.321331337770992],[-52.0598393073381,-29.323196422876627],[-52.06183119505357,-29.323209350630957]]]}},{"type":"Feature","properties":{"id_grade":"200ME51948N80820","pop":6,"dom":3,"universo_dom":"domicilios_ocupados_grade_ibge_2022","na_bacia":1,"area_pct_bacia":100.0,"metodo_recorte_bacia":"ponto_representativo_grade_2022; area_pct_geometrica"},"geometry":{"type":"Polygon","coordinates":[[[-52.0598393073381,-29.323196422876627],[-52.05985312092474,-29.321331337770992],[-52.05786124759845,-29.321318395627433],[-52.0578474196227,-29.323183480733032],[-52.0598393073381,-29.323196422876627]]]}},{"type":"Feature","properties":{"id_grade":"200ME51940N80822","pop":7,"dom":3,"universo_dom":"domicilios_ocupados_grade_ibge_2022","na_bacia":1,"area_pct_bacia":100.0,"metodo_recorte_bacia":"ponto_representativo_grade_2022; area_pct_geometrica"},"geometry":{"type":"Polygon","coordinates":[[[-52.06782061602854,-29.321382969648372],[-52.067834373857245,-29.319517904327792],[-52.065842514020744,-29.319505016143562],[-52.06582874180293,-29.321370081464035],[-52.06782061602854,-29.321382969648372]]]}},{"type":"Feature","properties":{"id_grade":"200ME51942N80822","pop":62,"dom":22,"universo_dom":"domicilios_ocupados_grade_ibge_2022","na_bacia":1,"area_pct_bacia":100.0,"metodo_recorte_bacia":"ponto_representativo_grade_2022; area_pct_geometrica"},"geometry":{"type":"Polygon","coordinates":[[[-52.06582874180293,-29.321370081464035],[-52.065842514020744,-29.319505016143562],[-52.06385065418431,-29.319492114469522],[-52.063836868476635,-29.321357180689294],[-52.06582874180293,-29.321370081464035]]]}},{"type":"Feature","properties":{"id_grade":"200ME51944N80822","pop":16,"dom":5,"universo_dom":"domicilios_ocupados_grade_ibge_2022","na_bacia":1,"area_pct_bacia":100.0,"metodo_recorte_bacia":"ponto_representativo_grade_2022; area_pct_geometrica"},"geometry":{"type":"Polygon","coordinates":[[[-52.063836868476635,-29.321357180689294],[-52.06385065418431,-29.319492114469522],[-52.06185879434781,-29.319479200204825],[-52.06184499425103,-29.32134426552541],[-52.063836868476635,-29.321357180689294]]]}},{"type":"Feature","properties":{"id_grade":"200ME51946N80822","pop":2,"dom":1,"universo_dom":"domicilios_ocupados_grade_ibge_2022","na_bacia":1,"area_pct_bacia":100.0,"metodo_recorte_bacia":"ponto_representativo_grade_2022; area_pct_geometrica"},"geometry":{"type":"Polygon","coordinates":[[[-52.06184499425103,-29.32134426552541],[-52.06185879434781,-29.319479200204825],[-52.05986693541069,-29.31946627245043],[-52.05985312092474,-29.321331337770992],[-52.06184499425103,-29.32134426552541]]]}},{"type":"Feature","properties":{"id_grade":"200ME51940N80824","pop":8,"dom":3,"universo_dom":"domicilios_ocupados_grade_ibge_2022","na_bacia":1,"area_pct_bacia":100.0,"metodo_recorte_bacia":"ponto_representativo_grade_2022; area_pct_geometrica"},"geometry":{"type":"Polygon","coordinates":[[[-52.067834373857245,-29.319517904327792],[-52.06784813078656,-29.317652858792304],[-52.06585628533924,-29.31763997060816],[-52.065842514020744,-29.319505016143562],[-52.067834373857245,-29.319517904327792]]]}},{"type":"Feature","properties":{"id_grade":"200ME51942N80824","pop":34,"dom":14,"universo_dom":"domicilios_ocupados_grade_ibge_2022","na_bacia":1,"area_pct_bacia":100.0,"metodo_recorte_bacia":"ponto_representativo_grade_2022; area_pct_geometrica"},"geometry":{"type":"Polygon","coordinates":[[[-52.065842514020744,-29.319505016143562],[-52.06585628533924,-29.31763997060816],[-52.063864438992596,-29.317627069833303],[-52.06385065418431,-29.319492114469522],[-52.065842514020744,-29.319505016143562]]]}},{"type":"Feature","properties":{"id_grade":"200ME51944N80824","pop":35,"dom":13,"universo_dom":"domicilios_ocupados_grade_ibge_2022","na_bacia":1,"area_pct_bacia":100.0,"metodo_recorte_bacia":"ponto_representativo_grade_2022; area_pct_geometrica"},"geometry":{"type":"Polygon","coordinates":[[[-52.06385065418431,-29.319492114469522],[-52.063864438992596,-29.317627069833303],[-52.061872594444644,-29.317614155568773],[-52.06185879434781,-29.319479200204825],[-52.06385065418431,-29.319492114469522]]]}},{"type":"Feature","properties":{"id_grade":"200ME51946N80824","pop":25,"dom":9,"universo_dom":"domicilios_ocupados_grade_ibge_2022","na_bacia":1,"area_pct_bacia":100.0,"metodo_recorte_bacia":"ponto_representativo_grade_2022; area_pct_geometrica"},"geometry":{"type":"Polygon","coordinates":[[[-52.06185879434781,-29.319479200204825],[-52.061872594444644,-29.317614155568773],[-52.05988074899733,-29.31760122781436],[-52.05986693541069,-29.31946627245043],[-52.06185879434781,-29.319479200204825]]]}},{"type":"Feature","properties":{"id_grade":"200ME51940N80826","pop":4,"dom":1,"universo_dom":"domicilios_ocupados_grade_ibge_2022","na_bacia":1,"area_pct_bacia":100.0,"metodo_recorte_bacia":"ponto_representativo_grade_2022; area_pct_geometrica"},"geometry":{"type":"Polygon","coordinates":[[[-52.06784813078656,-29.317652858792304],[-52.06786188771588,-29.315787833042023],[-52.06587005575841,-29.315774945757116],[-52.06585628533924,-29.31763997060816],[-52.06784813078656,-29.317652858792304]]]}},{"type":"Feature","properties":{"id_grade":"200ME51942N80826","pop":4,"dom":3,"universo_dom":"domicilios_ocupados_grade_ibge_2022","na_bacia":1,"area_pct_bacia":100.0,"metodo_recorte_bacia":"ponto_representativo_grade_2022; area_pct_geometrica"},"geometry":{"type":"Polygon","coordinates":[[[-52.06585628533924,-29.31763997060816],[-52.06587005575841,-29.315774945757116],[-52.063878224700254,-29.31576204408304],[-52.063864438992596,-29.317627069833303],[-52.06585628533924,-29.31763997060816]]]}},{"type":"Feature","properties":{"id_grade":"200ME51944N80826","pop":15,"dom":6,"universo_dom":"domicilios_ocupados_grade_ibge_2022","na_bacia":1,"area_pct_bacia":100.0,"metodo_recorte_bacia":"ponto_representativo_grade_2022; area_pct_geometrica"},"geometry":{"type":"Polygon","coordinates":[[[-52.063864438992596,-29.317627069833303],[-52.063878224700254,-29.31576204408304],[-52.06188639364211,-29.31574913071777],[-52.061872594444644,-29.317614155568773],[-52.063864438992596,-29.317627069833303]]]}},{"type":"Feature","properties":{"id_grade":"200ME51946N80826","pop":23,"dom":8,"universo_dom":"domicilios_ocupados_grade_ibge_2022","na_bacia":1,"area_pct_bacia":100.0,"metodo_recorte_bacia":"ponto_representativo_grade_2022; area_pct_geometrica"},"geometry":{"type":"Polygon","coordinates":[[[-52.061872594444644,-29.317614155568773],[-52.06188639364211,-29.31574913071777],[-52.059894562583956,-29.315736202963343],[-52.05988074899733,-29.31760122781436],[-52.061872594444644,-29.317614155568773]]]}},{"type":"Feature","properties":{"id_grade":"200ME51948N80826","pop":2,"dom":1,"universo_dom":"domicilios_ocupados_grade_ibge_2022","na_bacia":1,"area_pct_bacia":100.0,"metodo_recorte_bacia":"ponto_representativo_grade_2022; area_pct_geometrica"},"geometry":{"type":"Polygon","coordinates":[[[-52.05988074899733,-29.31760122781436],[-52.059894562583956,-29.315736202963343],[-52.057902731525814,-29.3157232626184],[-52.05788890444932,-29.317588286570185],[-52.05988074899733,-29.31760122781436]]]}},{"type":"Feature","properties":{"id_grade":"200ME51942N80828","pop":6,"dom":2,"universo_dom":"domicilios_ocupados_grade_ibge_2022","na_bacia":1,"area_pct_bacia":100.0,"metodo_recorte_bacia":"ponto_representativo_grade_2022; area_pct_geometrica"},"geometry":{"type":"Polygon","coordinates":[[[-52.06587005575841,-29.315774945757116],[-52.06588382707691,-29.31390993979185],[-52.0638920095086,-29.31389703901709],[-52.063878224700254,-29.31576204408304],[-52.06587005575841,-29.315774945757116]]]}},{"type":"Feature","properties":{"id_grade":"200ME51944N80828","pop":14,"dom":6,"universo_dom":"domicilios_ocupados_grade_ibge_2022","na_bacia":1,"area_pct_bacia":100.0,"metodo_recorte_bacia":"ponto_representativo_grade_2022; area_pct_geometrica"},"geometry":{"type":"Polygon","coordinates":[[[-52.063878224700254,-29.31576204408304],[-52.0638920095086,-29.31389703901709],[-52.06190019283957,-29.313884125651892],[-52.06188639364211,-29.31574913071777],[-52.063878224700254,-29.31576204408304]]]}},{"type":"Feature","properties":{"id_grade":"200ME51946N80828","pop":25,"dom":10,"universo_dom":"domicilios_ocupados_grade_ibge_2022","na_bacia":1,"area_pct_bacia":100.0,"metodo_recorte_bacia":"ponto_representativo_grade_2022; area_pct_geometrica"},"geometry":{"type":"Polygon","coordinates":[[[-52.06188639364211,-29.31574913071777],[-52.06190019283957,-29.313884125651892],[-52.05990837617059,-29.3138711987968],[-52.059894562583956,-29.315736202963343],[-52.06188639364211,-29.31574913071777]]]}},{"type":"Feature","properties":{"id_grade":"200ME51948N80828","pop":23,"dom":9,"universo_dom":"domicilios_ocupados_grade_ibge_2022","na_bacia":1,"area_pct_bacia":100.0,"metodo_recorte_bacia":"ponto_representativo_grade_2022; area_pct_geometrica"},"geometry":{"type":"Polygon","coordinates":[[[-52.059894562583956,-29.315736202963343],[-52.05990837617059,-29.3138711987968],[-52.057916559501564,-29.313858257552557],[-52.057902731525814,-29.3157232626184],[-52.059894562583956,-29.315736202963343]]]}},{"type":"Feature","properties":{"id_grade":"200ME51944N80830","pop":26,"dom":11,"universo_dom":"domicilios_ocupados_grade_ibge_2022","na_bacia":1,"area_pct_bacia":100.0,"metodo_recorte_bacia":"ponto_representativo_grade_2022; area_pct_geometrica"},"geometry":{"type":"Polygon","coordinates":[[[-52.0638920095086,-29.31389703901709],[-52.063905794316895,-29.312032054635537],[-52.061913992037034,-29.31201914127037],[-52.06190019283957,-29.313884125651892],[-52.0638920095086,-29.31389703901709]]]}},{"type":"Feature","properties":{"id_grade":"200ME51946N80830","pop":3,"dom":1,"universo_dom":"domicilios_ocupados_grade_ibge_2022","na_bacia":1,"area_pct_bacia":100.0,"metodo_recorte_bacia":"ponto_representativo_grade_2022; area_pct_geometrica"},"geometry":{"type":"Polygon","coordinates":[[[-52.06190019283957,-29.313884125651892],[-52.061913992037034,-29.31201914127037],[-52.05992218885791,-29.312006213515833],[-52.05990837617059,-29.3138711987968],[-52.06190019283957,-29.313884125651892]]]}},{"type":"Feature","properties":{"id_grade":"200ME51948N80830","pop":16,"dom":6,"universo_dom":"domicilios_ocupados_grade_ibge_2022","na_bacia":1,"area_pct_bacia":100.0,"metodo_recorte_bacia":"ponto_representativo_grade_2022; area_pct_geometrica"},"geometry":{"type":"Polygon","coordinates":[[[-52.05990837617059,-29.3138711987968],[-52.05992218885791,-29.312006213515833],[-52.05793038657806,-29.311993274070307],[-52.057916559501564,-29.313858257552557],[-52.05990837617059,-29.3138711987968]]]}},{"type":"Feature","properties":{"id_grade":"200ME51942N80832","pop":3,"dom":1,"universo_dom":"domicilios_ocupados_grade_ibge_2022","na_bacia":1,"area_pct_bacia":100.0,"metodo_recorte_bacia":"ponto_representativo_grade_2022; area_pct_geometrica"},"geometry":{"type":"Polygon","coordinates":[[[-52.065897597496075,-29.31204495451103],[-52.06591136791525,-29.310179989914552],[-52.06391957912525,-29.31016709003915],[-52.063905794316895,-29.312032054635537],[-52.065897597496075,-29.31204495451103]]]}},{"type":"Feature","properties":{"id_grade":"200ME51944N80832","pop":35,"dom":13,"universo_dom":"domicilios_ocupados_grade_ibge_2022","na_bacia":1,"area_pct_bacia":100.0,"metodo_recorte_bacia":"ponto_representativo_grade_2022; area_pct_geometrica"},"geometry":{"type":"Polygon","coordinates":[[[-52.063905794316895,-29.312032054635537],[-52.06391957912525,-29.31016709003915],[-52.06192779033523,-29.310154176673834],[-52.061913992037034,-29.31201914127037],[-52.063905794316895,-29.312032054635537]]]}},{"type":"Feature","properties":{"id_grade":"200ME51948N80832","pop":13,"dom":6,"universo_dom":"domicilios_ocupados_grade_ibge_2022","na_bacia":1,"area_pct_bacia":100.0,"metodo_recorte_bacia":"ponto_representativo_grade_2022; area_pct_geometrica"},"geometry":{"type":"Polygon","coordinates":[[[-52.05992218885791,-29.312006213515833],[-52.05993600244449,-29.310141249818813],[-52.05794421365448,-29.31012830947382],[-52.05793038657806,-29.311993274070307],[-52.05992218885791,-29.312006213515833]]]}},{"type":"Feature","properties":{"id_grade":"200ME51944N80834","pop":7,"dom":3,"universo_dom":"domicilios_ocupados_grade_ibge_2022","na_bacia":1,"area_pct_bacia":100.0,"metodo_recorte_bacia":"ponto_representativo_grade_2022; area_pct_geometrica"},"geometry":{"type":"Polygon","coordinates":[[[-52.06391957912525,-29.31016709003915],[-52.06393336393352,-29.308302145227817],[-52.06194158953269,-29.308289231862492],[-52.06192779033523,-29.310154176673834],[-52.06391957912525,-29.31016709003915]]]}},{"type":"Feature","properties":{"id_grade":"200ME51946N80834","pop":16,"dom":7,"universo_dom":"domicilios_ocupados_grade_ibge_2022","na_bacia":1,"area_pct_bacia":100.0,"metodo_recorte_bacia":"ponto_representativo_grade_2022; area_pct_geometrica"},"geometry":{"type":"Polygon","coordinates":[[[-52.06192779033523,-29.310154176673834],[-52.06194158953269,-29.308289231862492],[-52.05994981513181,-29.30827630500748],[-52.05993600244449,-29.310141249818813],[-52.06192779033523,-29.310154176673834]]]}},{"type":"Feature","properties":{"id_grade":"200ME51948N80834","pop":13,"dom":4,"universo_dom":"domicilios_ocupados_grade_ibge_2022","na_bacia":1,"area_pct_bacia":100.0,"metodo_recorte_bacia":"ponto_representativo_grade_2022; area_pct_geometrica"},"geometry":{"type":"Polygon","coordinates":[[[-52.05993600244449,-29.310141249818813],[-52.05994981513181,-29.30827630500748],[-52.057958040730966,-29.30826336556177],[-52.05794421365448,-29.31012830947382],[-52.05993600244449,-29.310141249818813]]]}},{"type":"Feature","properties":{"id_grade":"200ME51944N80836","pop":18,"dom":7,"universo_dom":"domicilios_ocupados_grade_ibge_2022","na_bacia":1,"area_pct_bacia":100.0,"metodo_recorte_bacia":"ponto_representativo_grade_2022; area_pct_geometrica"},"geometry":{"type":"Polygon","coordinates":[[[-52.06393336393352,-29.308302145227817],[-52.063947147842555,-29.306437220201463],[-52.06195538783084,-29.306424307735558],[-52.06194158953269,-29.308289231862492],[-52.06393336393352,-29.308302145227817]]]}},{"type":"Feature","properties":{"id_grade":"200ME51946N80836","pop":7,"dom":2,"universo_dom":"domicilios_ocupados_grade_ibge_2022","na_bacia":1,"area_pct_bacia":100.0,"metodo_recorte_bacia":"ponto_representativo_grade_2022; area_pct_geometrica"},"geometry":{"type":"Polygon","coordinates":[[[-52.06194158953269,-29.308289231862492],[-52.06195538783084,-29.306424307735558],[-52.059963627819116,-29.306411380880505],[-52.05994981513181,-29.30827630500748],[-52.06194158953269,-29.308289231862492]]]}},{"type":"Feature","properties":{"id_grade":"200ME51948N80836","pop":18,"dom":6,"universo_dom":"domicilios_ocupados_grade_ibge_2022","na_bacia":1,"area_pct_bacia":100.0,"metodo_recorte_bacia":"ponto_representativo_grade_2022; area_pct_geometrica"},"geometry":{"type":"Polygon","coordinates":[[[-52.05994981513181,-29.30827630500748],[-52.059963627819116,-29.306411380880505],[-52.057971867807396,-29.30639844143497],[-52.057958040730966,-29.30826336556177],[-52.05994981513181,-29.30827630500748]]]}},{"type":"Feature","properties":{"id_grade":"200ME51944N80838","pop":11,"dom":5,"universo_dom":"domicilios_ocupados_grade_ibge_2022","na_bacia":1,"area_pct_bacia":100.0,"metodo_recorte_bacia":"ponto_representativo_grade_2022; area_pct_geometrica"},"geometry":{"type":"Polygon","coordinates":[[[-52.063947147842555,-29.306437220201463],[-52.06396093175158,-29.304572315859655],[-52.06196918612898,-29.30455940339367],[-52.06195538783084,-29.306424307735558],[-52.063947147842555,-29.306437220201463]]]}},{"type":"Feature","properties":{"id_grade":"200ME51946N80838","pop":3,"dom":1,"universo_dom":"domicilios_ocupados_grade_ibge_2022","na_bacia":1,"area_pct_bacia":100.0,"metodo_recorte_bacia":"ponto_representativo_grade_2022; area_pct_geometrica"},"geometry":{"type":"Polygon","coordinates":[[[-52.06195538783084,-29.306424307735558],[-52.06196918612898,-29.30455940339367],[-52.05997744050643,-29.30454647743793],[-52.059963627819116,-29.306411380880505],[-52.06195538783084,-29.306424307735558]]]}},{"type":"Feature","properties":{"id_grade":"200ME51948N80838","pop":4,"dom":1,"universo_dom":"domicilios_ocupados_grade_ibge_2022","na_bacia":1,"area_pct_bacia":100.0,"metodo_recorte_bacia":"ponto_representativo_grade_2022; area_pct_geometrica"},"geometry":{"type":"Polygon","coordinates":[[[-52.059963627819116,-29.306411380880505],[-52.05997744050643,-29.30454647743793],[-52.05798569488388,-29.30453353799233],[-52.057971867807396,-29.30639844143497],[-52.059963627819116,-29.306411380880505]]]}},{"type":"Feature","properties":{"id_grade":"200ME51946N80840","pop":18,"dom":6,"universo_dom":"domicilios_ocupados_grade_ibge_2022","na_bacia":1,"area_pct_bacia":100.0,"metodo_recorte_bacia":"ponto_representativo_grade_2022; area_pct_geometrica"},"geometry":{"type":"Polygon","coordinates":[[[-52.06196918612898,-29.30455940339367],[-52.061982984427175,-29.30269451883687],[-52.059991252294424,-29.302681592881147],[-52.05997744050643,-29.30454647743793],[-52.06196918612898,-29.30455940339367]]]}},{"type":"Feature","properties":{"id_grade":"200ME51948N80840","pop":1,"dom":1,"universo_dom":"domicilios_ocupados_grade_ibge_2022","na_bacia":1,"area_pct_bacia":100.0,"metodo_recorte_bacia":"ponto_representativo_grade_2022; area_pct_geometrica"},"geometry":{"type":"Polygon","coordinates":[[[-52.05997744050643,-29.30454647743793],[-52.059991252294424,-29.302681592881147],[-52.05799952106099,-29.30266865433491],[-52.05798569488388,-29.30453353799233],[-52.05997744050643,-29.30454647743793]]]}},{"type":"Feature","properties":{"id_grade":"200ME51946N80842","pop":22,"dom":10,"universo_dom":"domicilios_ocupados_grade_ibge_2022","na_bacia":1,"area_pct_bacia":100.0,"metodo_recorte_bacia":"ponto_representativo_grade_2022; area_pct_geometrica"},"geometry":{"type":"Polygon","coordinates":[[[-52.061982984427175,-29.30269451883687],[-52.061996781826,-29.30082965496458],[-52.06000506408242,-29.300816729008798],[-52.059991252294424,-29.302681592881147],[-52.061982984427175,-29.30269451883687]]]}},{"type":"Feature","properties":{"id_grade":"200ME51946N80844","pop":20,"dom":7,"universo_dom":"domicilios_ocupados_grade_ibge_2022","na_bacia":1,"area_pct_bacia":100.0,"metodo_recorte_bacia":"ponto_representativo_grade_2022; area_pct_geometrica"},"geometry":{"type":"Polygon","coordinates":[[[-52.061996781826,-29.30082965496458],[-52.062010579224825,-29.298964810877347],[-52.06001887676973,-29.298951885820824],[-52.06000506408242,-29.300816729008798],[-52.061996781826,-29.30082965496458]]]}},{"type":"Feature","properties":{"id_grade":"200ME51948N80844","pop":4,"dom":2,"universo_dom":"domicilios_ocupados_grade_ibge_2022","na_bacia":1,"area_pct_bacia":100.0,"metodo_recorte_bacia":"ponto_representativo_grade_2022; area_pct_geometrica"},"geometry":{"type":"Polygon","coordinates":[[[-52.06000506408242,-29.300816729008798],[-52.06001887676973,-29.298951885820824],[-52.05802717341526,-29.29893894727455],[-52.05801334723816,-29.300803790462506],[-52.06000506408242,-29.300816729008798]]]}},{"type":"Feature","properties":{"id_grade":"200ME51946N80846","pop":18,"dom":7,"universo_dom":"domicilios_ocupados_grade_ibge_2022","na_bacia":1,"area_pct_bacia":100.0,"metodo_recorte_bacia":"ponto_representativo_grade_2022; area_pct_geometrica"},"geometry":{"type":"Polygon","coordinates":[[[-52.062010579224825,-29.298964810877347],[-52.06202437752295,-29.297099986575038],[-52.06003268765834,-29.29708706151865],[-52.06001887676973,-29.298951885820824],[-52.062010579224825,-29.298964810877347]]]}},{"type":"Feature","properties":{"id_grade":"200ME51946N80848","pop":7,"dom":2,"universo_dom":"domicilios_ocupados_grade_ibge_2022","na_bacia":1,"area_pct_bacia":100.0,"metodo_recorte_bacia":"ponto_representativo_grade_2022; area_pct_geometrica"},"geometry":{"type":"Polygon","coordinates":[[[-52.06202437752295,-29.297099986575038],[-52.06203817402246,-29.295235182957374],[-52.060046499446344,-29.295222257900857],[-52.06003268765834,-29.29708706151865],[-52.06202437752295,-29.297099986575038]]]}},{"type":"Feature","properties":{"id_grade":"200ME51944N80850","pop":2,"dom":1,"universo_dom":"domicilios_ocupados_grade_ibge_2022","na_bacia":1,"area_pct_bacia":100.0,"metodo_recorte_bacia":"ponto_representativo_grade_2022; area_pct_geometrica"},"geometry":{"type":"Polygon","coordinates":[[[-52.0640298494979,-29.29524809452384],[-52.0640436325076,-29.293383310691258],[-52.06205197142128,-29.293370399124512],[-52.06203817402246,-29.295235182957374],[-52.0640298494979,-29.29524809452384]]]}},{"type":"Feature","properties":{"id_grade":"200ME51946N80850","pop":27,"dom":10,"universo_dom":"domicilios_ocupados_grade_ibge_2022","na_bacia":1,"area_pct_bacia":100.0,"metodo_recorte_bacia":"ponto_representativo_grade_2022; area_pct_geometrica"},"geometry":{"type":"Polygon","coordinates":[[[-52.06203817402246,-29.295235182957374],[-52.06205197142128,-29.293370399124512],[-52.06006031033502,-29.29335747496744],[-52.060046499446344,-29.295222257900857],[-52.06203817402246,-29.295235182957374]]]}},{"type":"Feature","properties":{"id_grade":"200ME51948N80850","pop":43,"dom":18,"universo_dom":"domicilios_ocupados_grade_ibge_2022","na_bacia":1,"area_pct_bacia":100.0,"metodo_recorte_bacia":"ponto_representativo_grade_2022; area_pct_geometrica"},"geometry":{"type":"Polygon","coordinates":[[[-52.060046499446344,-29.295222257900857],[-52.06006031033502,-29.29335747496744],[-52.058068650148066,-29.293344536421145],[-52.058054824870226,-29.295209320253953],[-52.060046499446344,-29.295222257900857]]]}},{"type":"Feature","properties":{"id_grade":"200ME51946N80852","pop":8,"dom":4,"universo_dom":"domicilios_ocupados_grade_ibge_2022","na_bacia":1,"area_pct_bacia":100.0,"metodo_recorte_bacia":"ponto_representativo_grade_2022; area_pct_geometrica"},"geometry":{"type":"Polygon","coordinates":[[[-52.06205197142128,-29.293370399124512],[-52.062065767920785,-29.291505635976208],[-52.06007412212301,-29.291492710919854],[-52.06006031033502,-29.29335747496744],[-52.06205197142128,-29.293370399124512]]]}},{"type":"Feature","properties":{"id_grade":"200ME51948N80852","pop":11,"dom":3,"universo_dom":"domicilios_ocupados_grade_ibge_2022","na_bacia":1,"area_pct_bacia":100.0,"metodo_recorte_bacia":"ponto_representativo_grade_2022; area_pct_geometrica"},"geometry":{"type":"Polygon","coordinates":[[[-52.06006031033502,-29.29335747496744],[-52.06007412212301,-29.291492710919854],[-52.05808247542586,-29.291479773272968],[-52.058068650148066,-29.293344536421145],[-52.06006031033502,-29.29335747496744]]]}},{"type":"Feature","properties":{"id_grade":"200ME51946N80854","pop":3,"dom":1,"universo_dom":"domicilios_ocupados_grade_ibge_2022","na_bacia":1,"area_pct_bacia":100.0,"metodo_recorte_bacia":"ponto_representativo_grade_2022; area_pct_geometrica"},"geometry":{"type":"Polygon","coordinates":[[[-52.062065767920785,-29.291505635976208],[-52.062079565319664,-29.28964089171378],[-52.06008793301163,-29.289627967556576],[-52.06007412212301,-29.291492710919854],[-52.062065767920785,-29.291505635976208]]]}},{"type":"Feature","properties":{"id_grade":"200ME51948N80854","pop":2,"dom":1,"universo_dom":"domicilios_ocupados_grade_ibge_2022","na_bacia":1,"area_pct_bacia":100.0,"metodo_recorte_bacia":"ponto_representativo_grade_2022; area_pct_geometrica"},"geometry":{"type":"Polygon","coordinates":[[[-52.06007412212301,-29.291492710919854],[-52.06008793301163,-29.289627967556576],[-52.058096300703646,-29.289615030808967],[-52.05808247542586,-29.291479773272968],[-52.06007412212301,-29.291492710919854]]]}},{"type":"Feature","properties":{"id_grade":"200ME51946N80858","pop":7,"dom":3,"universo_dom":"domicilios_ocupados_grade_ibge_2022","na_bacia":1,"area_pct_bacia":100.0,"metodo_recorte_bacia":"ponto_representativo_grade_2022; area_pct_geometrica"},"geometry":{"type":"Polygon","coordinates":[[[-52.062093361819166,-29.287776168135604],[-52.062107157419355,-29.28591146524192],[-52.06011555388966,-29.28589854108481],[-52.060101743000985,-29.287763244877794],[-52.062093361819166,-29.287776168135604]]]}},{"type":"Feature","properties":{"id_grade":"200ME51946N80860","pop":2,"dom":1,"universo_dom":"domicilios_ocupados_grade_ibge_2022","na_bacia":1,"area_pct_bacia":100.0,"metodo_recorte_bacia":"ponto_representativo_grade_2022; area_pct_geometrica"},"geometry":{"type":"Polygon","coordinates":[[[-52.062107157419355,-29.28591146524192],[-52.06212095391885,-29.284046782133277],[-52.06012936387902,-29.28403385797613],[-52.06011555388966,-29.28589854108481],[-52.062107157419355,-29.28591146524192]]]}},{"type":"Feature","properties":{"id_grade":"200ME51946N80862","pop":2,"dom":1,"universo_dom":"domicilios_ocupados_grade_ibge_2022","na_bacia":1,"area_pct_bacia":100.0,"metodo_recorte_bacia":"ponto_representativo_grade_2022; area_pct_geometrica"},"geometry":{"type":"Polygon","coordinates":[[[-52.06212095391885,-29.284046782133277],[-52.062134749519025,-29.282182118809665],[-52.06014317386831,-29.2821691955519],[-52.06012936387902,-29.28403385797613],[-52.06212095391885,-29.284046782133277]]]}},{"type":"Feature","properties":{"id_grade":"200ME51948N80864","pop":5,"dom":2,"universo_dom":"domicilios_ocupados_grade_ibge_2022","na_bacia":1,"area_pct_bacia":100.0,"metodo_recorte_bacia":"ponto_representativo_grade_2022; area_pct_geometrica"},"geometry":{"type":"Polygon","coordinates":[[[-52.06014317386831,-29.2821691955519],[-52.06015698385767,-29.280304552013448],[-52.05816542259612,-29.280291616165133],[-52.05815159821765,-29.28215625880427],[-52.06014317386831,-29.2821691955519]]]}},{"type":"Feature","properties":{"id_grade":"200ME51948N80866","pop":6,"dom":3,"universo_dom":"domicilios_ocupados_grade_ibge_2022","na_bacia":1,"area_pct_bacia":100.0,"metodo_recorte_bacia":"ponto_representativo_grade_2022; area_pct_geometrica"},"geometry":{"type":"Polygon","coordinates":[[[-52.06015698385767,-29.280304552013448],[-52.06017079384702,-29.27843992915934],[-52.058179246075326,-29.278426993311],[-52.05816542259612,-29.280291616165133],[-52.06015698385767,-29.280304552013448]]]}},{"type":"Feature","properties":{"id_grade":"200ME51948N80868","pop":4,"dom":2,"universo_dom":"domicilios_ocupados_grade_ibge_2022","na_bacia":1,"area_pct_bacia":100.0,"metodo_recorte_bacia":"ponto_representativo_grade_2022; area_pct_geometrica"},"geometry":{"type":"Polygon","coordinates":[[[-52.06017079384702,-29.27843992915934],[-52.060184602937056,-29.27657532609035],[-52.0581930704538,-29.27656239024209],[-52.058179246075326,-29.278426993311],[-52.06017079384702,-29.27843992915934]]]}},{"type":"Feature","properties":{"id_grade":"200ME51950N80840","pop":1,"dom":1,"universo_dom":"domicilios_ocupados_grade_ibge_2022","na_bacia":1,"area_pct_bacia":100.0,"metodo_recorte_bacia":"ponto_representativo_grade_2022; area_pct_geometrica"},"geometry":{"type":"Polygon","coordinates":[[[-52.05798569488388,-29.30453353799233],[-52.05799952106099,-29.30266865433491],[-52.05600778982762,-29.30265570139946],[-52.055993949261335,-29.304520585056935],[-52.05798569488388,-29.30453353799233]]]}},{"type":"Feature","properties":{"id_grade":"200ME51950N80842","pop":5,"dom":2,"universo_dom":"domicilios_ocupados_grade_ibge_2022","na_bacia":1,"area_pct_bacia":100.0,"metodo_recorte_bacia":"ponto_representativo_grade_2022; area_pct_geometrica"},"geometry":{"type":"Polygon","coordinates":[[[-52.05799952106099,-29.30266865433491],[-52.05801334723816,-29.300803790462506],[-52.05602163039389,-29.300790838426405],[-52.05600778982762,-29.30265570139946],[-52.05799952106099,-29.30266865433491]]]}},{"type":"Feature","properties":{"id_grade":"200ME51950N80844","pop":5,"dom":3,"universo_dom":"domicilios_ocupados_grade_ibge_2022","na_bacia":1,"area_pct_bacia":100.0,"metodo_recorte_bacia":"ponto_representativo_grade_2022; area_pct_geometrica"},"geometry":{"type":"Polygon","coordinates":[[[-52.05801334723816,-29.300803790462506],[-52.05802717341526,-29.29893894727455],[-52.05603547006086,-29.298925995238474],[-52.05602163039389,-29.300790838426405],[-52.05801334723816,-29.300803790462506]]]}},{"type":"Feature","properties":{"id_grade":"200ME51952N80844","pop":12,"dom":5,"universo_dom":"domicilios_ocupados_grade_ibge_2022","na_bacia":1,"area_pct_bacia":100.0,"metodo_recorte_bacia":"ponto_representativo_grade_2022; area_pct_geometrica"},"geometry":{"type":"Polygon","coordinates":[[[-52.05602163039389,-29.300790838426405],[-52.05603547006086,-29.298925995238474],[-52.05404376760578,-29.298913029712505],[-52.054029913549634,-29.300777872900422],[-52.05602163039389,-29.300790838426405]]]}},{"type":"Feature","properties":{"id_grade":"200ME51950N80846","pop":6,"dom":1,"universo_dom":"domicilios_ocupados_grade_ibge_2022","na_bacia":1,"area_pct_bacia":100.0,"metodo_recorte_bacia":"ponto_representativo_grade_2022; area_pct_geometrica"},"geometry":{"type":"Polygon","coordinates":[[[-52.05802717341526,-29.29893894727455],[-52.058040998693116,-29.297074123871656],[-52.056049310627145,-29.297061171835615],[-52.05603547006086,-29.298925995238474],[-52.05802717341526,-29.29893894727455]]]}},{"type":"Feature","properties":{"id_grade":"200ME51952N80846","pop":5,"dom":3,"universo_dom":"domicilios_ocupados_grade_ibge_2022","na_bacia":1,"area_pct_bacia":100.0,"metodo_recorte_bacia":"ponto_representativo_grade_2022; area_pct_geometrica"},"geometry":{"type":"Polygon","coordinates":[[[-52.05603547006086,-29.298925995238474],[-52.056049310627145,-29.297061171835615],[-52.05405762166185,-29.297048207208974],[-52.05404376760578,-29.298913029712505],[-52.05603547006086,-29.298925995238474]]]}},{"type":"Feature","properties":{"id_grade":"200ME51950N80848","pop":1,"dom":1,"universo_dom":"domicilios_ocupados_grade_ibge_2022","na_bacia":1,"area_pct_bacia":100.0,"metodo_recorte_bacia":"ponto_representativo_grade_2022; area_pct_geometrica"},"geometry":{"type":"Polygon","coordinates":[[[-52.058040998693116,-29.297074123871656],[-52.058054824870226,-29.295209320253953],[-52.05606315029411,-29.29519636911705],[-52.056049310627145,-29.297061171835615],[-52.058040998693116,-29.297074123871656]]]}},{"type":"Feature","properties":{"id_grade":"200ME51952N80848","pop":17,"dom":6,"universo_dom":"domicilios_ocupados_grade_ibge_2022","na_bacia":1,"area_pct_bacia":100.0,"metodo_recorte_bacia":"ponto_representativo_grade_2022; area_pct_geometrica"},"geometry":{"type":"Polygon","coordinates":[[[-52.056049310627145,-29.297061171835615],[-52.05606315029411,-29.29519636911705],[-52.05407147571798,-29.29518340359118],[-52.05405762166185,-29.297048207208974],[-52.056049310627145,-29.297061171835615]]]}},{"type":"Feature","properties":{"id_grade":"200ME51954N80848","pop":2,"dom":1,"universo_dom":"domicilios_ocupados_grade_ibge_2022","na_bacia":1,"area_pct_bacia":100.0,"metodo_recorte_bacia":"ponto_representativo_grade_2022; area_pct_geometrica"},"geometry":{"type":"Polygon","coordinates":[[[-52.05405762166185,-29.297048207208974],[-52.05407147571798,-29.29518340359118],[-52.05207980114187,-29.295170426374057],[-52.05206593359594,-29.29703522909252],[-52.05405762166185,-29.297048207208974]]]}},{"type":"Feature","properties":{"id_grade":"200ME51950N80850","pop":18,"dom":6,"universo_dom":"domicilios_ocupados_grade_ibge_2022","na_bacia":1,"area_pct_bacia":100.0,"metodo_recorte_bacia":"ponto_representativo_grade_2022; area_pct_geometrica"},"geometry":{"type":"Polygon","coordinates":[[[-52.058054824870226,-29.295209320253953],[-52.058068650148066,-29.293344536421145],[-52.05607698996107,-29.293331585284363],[-52.05606315029411,-29.29519636911705],[-52.058054824870226,-29.295209320253953]]]}},{"type":"Feature","properties":{"id_grade":"200ME51952N80850","pop":19,"dom":9,"universo_dom":"domicilios_ocupados_grade_ibge_2022","na_bacia":1,"area_pct_bacia":100.0,"metodo_recorte_bacia":"ponto_representativo_grade_2022; area_pct_geometrica"},"geometry":{"type":"Polygon","coordinates":[[[-52.05606315029411,-29.29519636911705],[-52.05607698996107,-29.293331585284363],[-52.05408532977412,-29.29331862155705],[-52.05407147571798,-29.29518340359118],[-52.05606315029411,-29.29519636911705]]]}},{"type":"Feature","properties":{"id_grade":"200ME51954N80850","pop":6,"dom":3,"universo_dom":"domicilios_ocupados_grade_ibge_2022","na_bacia":1,"area_pct_bacia":100.0,"metodo_recorte_bacia":"ponto_representativo_grade_2022; area_pct_geometrica"},"geometry":{"type":"Polygon","coordinates":[[[-52.05407147571798,-29.29518340359118],[-52.05408532977412,-29.29331862155705],[-52.05209366958712,-29.293305643440593],[-52.05207980114187,-29.295170426374057],[-52.05407147571798,-29.29518340359118]]]}},{"type":"Feature","properties":{"id_grade":"200ME51954N80852","pop":1,"dom":1,"universo_dom":"domicilios_ocupados_grade_ibge_2022","na_bacia":1,"area_pct_bacia":100.0,"metodo_recorte_bacia":"ponto_representativo_grade_2022; area_pct_geometrica"},"geometry":{"type":"Polygon","coordinates":[[[-52.05408532977412,-29.29331862155705],[-52.054099182930884,-29.29145385840875],[-52.05210753713311,-29.29144088119172],[-52.05209366958712,-29.293305643440593],[-52.05408532977412,-29.29331862155705]]]}},{"type":"Feature","properties":{"id_grade":"200ME51956N80852","pop":21,"dom":6,"universo_dom":"domicilios_ocupados_grade_ibge_2022","na_bacia":1,"area_pct_bacia":100.0,"metodo_recorte_bacia":"ponto_representativo_grade_2022; area_pct_geometrica"},"geometry":{"type":"Polygon","coordinates":[[[-52.05209366958712,-29.293305643440593],[-52.05210753713311,-29.29144088119172],[-52.05011589133528,-29.291427890484695],[-52.05010200940018,-29.293292652733697],[-52.05209366958712,-29.293305643440593]]]}},{"type":"Feature","properties":{"id_grade":"200ME51958N80852","pop":8,"dom":3,"universo_dom":"domicilios_ocupados_grade_ibge_2022","na_bacia":1,"area_pct_bacia":100.0,"metodo_recorte_bacia":"ponto_representativo_grade_2022; area_pct_geometrica"},"geometry":{"type":"Polygon","coordinates":[[[-52.05010200940018,-29.293292652733697],[-52.05011589133528,-29.291427890484695],[-52.04812424643677,-29.291414886287946],[-52.04811035011255,-29.29327964853691],[-52.05010200940018,-29.293292652733697]]]}}]}