{"type":"FeatureCollection","name":"4300703","crs":{"type":"name","properties":{"name":"urn:ogc:def:crs:OGC:1.3:CRS84"}},"features":[{"type":"Feature","properties":{"setor":"430070305000001","pop":818,"sigilo_pop":false,"dom":342,"sigilo_dom":0,"mulheres":440,"sigilo_mulheres":0,"c0_4":45,"sigilo_c0_4":0,"c5_9":50,"sigilo_c5_9":0,"i60_69":81,"sigilo_i60_69":0,"i70m":66,"sigilo_i70m":0,"indigenas":0,"sigilo_indigenas":0,"pretos_pardos":87,"sigilo_pretos_pardos":0,"dom_ocupados":305,"sigilo_dom_ocupados":0,"dom_agua":305,"sigilo_dom_agua":0,"dom_esgoto":null,"sigilo_dom_esgoto":1,"renda_resp":2810.28,"sigilo_renda_resp":0,"n_resp":305,"sigilo_n_resp":0,"dens":1626.8,"sigilo_dens":false,"na_bacia":1,"area_pct_bacia":100.0,"metodo_recorte_bacia":"ponto_representativo_setor_2022; area_pct_geometrica","pop_n_validos":1,"pop_n_total":1,"pop_completude":1.0,"dom_n_validos":1,"dom_n_total":1,"dom_completude":1.0,"dom_ocupados_n_validos":1,"dom_ocupados_n_total":1,"dom_ocupados_completude":1.0,"mulheres_n_validos":1,"mulheres_n_total":1,"mulheres_completude":1.0,"c0_4_n_validos":1,"c0_4_n_total":1,"c0_4_completude":1.0,"c5_9_n_validos":1,"c5_9_n_total":1,"c5_9_completude":1.0,"i60_69_n_validos":1,"i60_69_n_total":1,"i60_69_completude":1.0,"i70m_n_validos":1,"i70m_n_total":1,"i70m_completude":1.0,"indigenas_n_validos":1,"indigenas_n_total":1,"indigenas_completude":1.0,"pretos_pardos_n_validos":1,"pretos_pardos_n_total":1,"pretos_pardos_completude":1.0,"dom_agua_n_validos":1,"dom_agua_n_total":1,"dom_agua_completude":1.0,"dom_esgoto_n_validos":0,"dom_esgoto_n_total":1,"dom_esgoto_completude":0.0,"n_resp_n_validos":1,"n_resp_n_total":1,"n_resp_completude":1.0,"renda_resp_n_validos":1,"renda_resp_n_total":1,"renda_resp_completude":1.0,"dens_n_validos":1,"dens_n_total":1,"dens_completude":1.0,"status_borda_bacia":"total","metodo_area_bacia":"interse??o geom?trica em EPSG:5880","metodo_na_bacia":"ponto_representativo_setor_2022_within_bacia","municipio":"Anta Gorda","cod_mun":"4300703","mun_pct_na_bacia":100.0,"mun_pop_total":5957,"mun_pop_na_bacia":5957.0,"mun_ubs_iede":2,"mun_hospitais_iede":1,"mun_escolas_iede":8,"mun_bombeiros_iede":null,"mun_servicos_cobertura":"cadastro_IEDE_parcial_nao_inventario","mun_icm_faixa":"C","mun_icm_pontos":11,"mun_icm_prioritario":"sim","mun_ubs_iede_status":"published","mun_hospitais_iede_status":"published","mun_escolas_iede_status":"published","mun_bombeiros_iede_status":"unknown"},"geometry":{"type":"Polygon","coordinates":[[[-52.01011989999995,-28.968796799999947],[-52.0108843,-28.972275599999936],[-52.01141889999997,-28.972622799999954],[-52.011504799999955,-28.973099899999962],[-52.01118189999994,-28.973676],[-52.02091689999998,-28.973391],[-52.02120419999995,-28.969722],[-52.02019519999994,-28.969555199999945],[-52.018574599999965,-28.96822859999999],[-52.01820259999993,-28.968183599999975],[-52.01711549999993,-28.96861759999997],[-52.01623949999998,-28.96856979999995],[-52.01546889999997,-28.96908839999998],[-52.01409969999998,-28.969325],[-52.013773,-28.969480299999926],[-52.01355849999993,-28.970011499999934],[-52.01304219999997,-28.97002439999994],[-52.012931899999955,-28.969430299999953],[-52.012501,-28.969061699999926],[-52.01011989999995,-28.968796799999947]]]}},{"type":"Feature","properties":{"setor":"430070305000002","pop":569,"sigilo_pop":false,"dom":278,"sigilo_dom":0,"mulheres":303,"sigilo_mulheres":0,"c0_4":26,"sigilo_c0_4":0,"c5_9":26,"sigilo_c5_9":0,"i60_69":49,"sigilo_i60_69":0,"i70m":82,"sigilo_i70m":0,"indigenas":0,"sigilo_indigenas":0,"pretos_pardos":35,"sigilo_pretos_pardos":0,"dom_ocupados":244,"sigilo_dom_ocupados":0,"dom_agua":243,"sigilo_dom_agua":0,"dom_esgoto":56,"sigilo_dom_esgoto":0,"renda_resp":3187.79,"sigilo_renda_resp":0,"n_resp":244,"sigilo_n_resp":0,"dens":2158.7,"sigilo_dens":false,"na_bacia":1,"area_pct_bacia":100.0,"metodo_recorte_bacia":"ponto_representativo_setor_2022; area_pct_geometrica","pop_n_validos":1,"pop_n_total":1,"pop_completude":1.0,"dom_n_validos":1,"dom_n_total":1,"dom_completude":1.0,"dom_ocupados_n_validos":1,"dom_ocupados_n_total":1,"dom_ocupados_completude":1.0,"mulheres_n_validos":1,"mulheres_n_total":1,"mulheres_completude":1.0,"c0_4_n_validos":1,"c0_4_n_total":1,"c0_4_completude":1.0,"c5_9_n_validos":1,"c5_9_n_total":1,"c5_9_completude":1.0,"i60_69_n_validos":1,"i60_69_n_total":1,"i60_69_completude":1.0,"i70m_n_validos":1,"i70m_n_total":1,"i70m_completude":1.0,"indigenas_n_validos":1,"indigenas_n_total":1,"indigenas_completude":1.0,"pretos_pardos_n_validos":1,"pretos_pardos_n_total":1,"pretos_pardos_completude":1.0,"dom_agua_n_validos":1,"dom_agua_n_total":1,"dom_agua_completude":1.0,"dom_esgoto_n_validos":1,"dom_esgoto_n_total":1,"dom_esgoto_completude":1.0,"n_resp_n_validos":1,"n_resp_n_total":1,"n_resp_completude":1.0,"renda_resp_n_validos":1,"renda_resp_n_total":1,"renda_resp_completude":1.0,"dens_n_validos":1,"dens_n_total":1,"dens_completude":1.0,"status_borda_bacia":"total","metodo_area_bacia":"interse??o geom?trica em EPSG:5880","metodo_na_bacia":"ponto_representativo_setor_2022_within_bacia","municipio":"Anta Gorda","cod_mun":"4300703","mun_pct_na_bacia":100.0,"mun_pop_total":5957,"mun_pop_na_bacia":5957.0,"mun_ubs_iede":2,"mun_hospitais_iede":1,"mun_escolas_iede":8,"mun_bombeiros_iede":null,"mun_servicos_cobertura":"cadastro_IEDE_parcial_nao_inventario","mun_icm_faixa":"C","mun_icm_pontos":11,"mun_icm_prioritario":"sim","mun_ubs_iede_status":"published","mun_hospitais_iede_status":"published","mun_escolas_iede_status":"published","mun_bombeiros_iede_status":"unknown"},"geometry":{"type":"Polygon","coordinates":[[[-52.00364849999995,-28.969512899999984],[-52.00462709999994,-28.973281399999966],[-52.00453769999996,-28.975065],[-52.004885899999984,-28.975357799999987],[-52.007183,-28.975483699999977],[-52.007145599999944,-28.97411989999994],[-52.01118189999994,-28.973676],[-52.011422299999936,-28.973395499999977],[-52.01137939999995,-28.972451199999952],[-52.0108843,-28.972275599999936],[-52.010537599999964,-28.970694599999945],[-52.00524829999994,-28.97160329999997],[-52.00466229999995,-28.969128699999953],[-52.00427519999994,-28.968713],[-52.00364849999995,-28.969512899999984]]]}},{"type":"Feature","properties":{"setor":"430070305000003","pop":343,"sigilo_pop":false,"dom":128,"sigilo_dom":0,"mulheres":156,"sigilo_mulheres":0,"c0_4":21,"sigilo_c0_4":0,"c5_9":20,"sigilo_c5_9":0,"i60_69":53,"sigilo_i60_69":0,"i70m":50,"sigilo_i70m":0,"indigenas":0,"sigilo_indigenas":0,"pretos_pardos":null,"sigilo_pretos_pardos":1,"dom_ocupados":106,"sigilo_dom_ocupados":0,"dom_agua":69,"sigilo_dom_agua":0,"dom_esgoto":0,"sigilo_dom_esgoto":0,"renda_resp":5165.43,"sigilo_renda_resp":0,"n_resp":106,"sigilo_n_resp":0,"dens":17.2,"sigilo_dens":false,"na_bacia":1,"area_pct_bacia":100.0,"metodo_recorte_bacia":"ponto_representativo_setor_2022; area_pct_geometrica","pop_n_validos":1,"pop_n_total":1,"pop_completude":1.0,"dom_n_validos":1,"dom_n_total":1,"dom_completude":1.0,"dom_ocupados_n_validos":1,"dom_ocupados_n_total":1,"dom_ocupados_completude":1.0,"mulheres_n_validos":1,"mulheres_n_total":1,"mulheres_completude":1.0,"c0_4_n_validos":1,"c0_4_n_total":1,"c0_4_completude":1.0,"c5_9_n_validos":1,"c5_9_n_total":1,"c5_9_completude":1.0,"i60_69_n_validos":1,"i60_69_n_total":1,"i60_69_completude":1.0,"i70m_n_validos":1,"i70m_n_total":1,"i70m_completude":1.0,"indigenas_n_validos":1,"indigenas_n_total":1,"indigenas_completude":1.0,"pretos_pardos_n_validos":0,"pretos_pardos_n_total":1,"pretos_pardos_completude":0.0,"dom_agua_n_validos":1,"dom_agua_n_total":1,"dom_agua_completude":1.0,"dom_esgoto_n_validos":1,"dom_esgoto_n_total":1,"dom_esgoto_completude":1.0,"n_resp_n_validos":1,"n_resp_n_total":1,"n_resp_completude":1.0,"renda_resp_n_validos":1,"renda_resp_n_total":1,"renda_resp_completude":1.0,"dens_n_validos":1,"dens_n_total":1,"dens_completude":1.0,"status_borda_bacia":"total","metodo_area_bacia":"interse??o geom?trica em EPSG:5880","metodo_na_bacia":"ponto_representativo_setor_2022_within_bacia","municipio":"Anta Gorda","cod_mun":"4300703","mun_pct_na_bacia":100.0,"mun_pop_total":5957,"mun_pop_na_bacia":5957.0,"mun_ubs_iede":2,"mun_hospitais_iede":1,"mun_escolas_iede":8,"mun_bombeiros_iede":null,"mun_servicos_cobertura":"cadastro_IEDE_parcial_nao_inventario","mun_icm_faixa":"C","mun_icm_pontos":11,"mun_icm_prioritario":"sim","mun_ubs_iede_status":"published","mun_hospitais_iede_status":"published","mun_escolas_iede_status":"published","mun_bombeiros_iede_status":"unknown"},"geometry":{"type":"Polygon","coordinates":[[[-52.06825809999997,-28.9235475],[-52.06591229999998,-28.923995799999936],[-52.064354,-28.923656699999977],[-52.06435149999998,-28.924777399999968],[-52.063468,-28.92552239999997],[-52.06286079999995,-28.925544499999948],[-52.061890799999965,-28.92441859999997],[-52.05973459999996,-28.924489799999947],[-52.05936679999997,-28.92409779999997],[-52.055492799999975,-28.922643399999966],[-52.05250259999996,-28.922052199999943],[-52.05144969999998,-28.921399299999955],[-52.051129499999945,-28.920675699999947],[-52.05067769999994,-28.920501799999947],[-52.05012439999996,-28.92059249999994],[-52.048782599999974,-28.921344599999934],[-52.047176099999945,-28.922632099999937],[-52.046288699999934,-28.92218229999997],[-52.04459039999995,-28.922109],[-52.04377869999996,-28.92248929999994],[-52.042776499999945,-28.922557],[-52.04168779999998,-28.923484399999946],[-52.03999019999997,-28.923514],[-52.03732519999994,-28.922625299999943],[-52.03549,-28.921253399999948],[-52.032797,-28.92194989999996],[-52.032071499999965,-28.921880399999953],[-52.03153779999997,-28.92148929999996],[-52.030931,-28.920051],[-52.03004989999994,-28.91984519999993],[-52.028899499999966,-28.919906],[-52.02892779999996,-28.919696499999933],[-52.0280327,-28.919201199999968],[-52.02731249999994,-28.918347899999965],[-52.025273599999935,-28.916784599999964],[-52.024387099999956,-28.915680899999987],[-52.02371389999996,-28.915445],[-52.02348249999994,-28.91549159999994],[-52.02405179999993,-28.91590969999993],[-52.02495249999998,-28.91767039999996],[-52.02484709999994,-28.919653899999958],[-52.02367749999996,-28.921030299999977],[-52.02394659999993,-28.924204799999984],[-52.02260739999996,-28.924935699999928],[-52.02019109999998,-28.925628699999944],[-52.02027019999997,-28.923626899999924],[-52.020003299999985,-28.923288599999974],[-52.01803249999995,-28.92325769999995],[-52.016961799999926,-28.92491959999995],[-52.016468799999984,-28.924863099999968],[-52.01588339999995,-28.924074599999983],[-52.01531589999996,-28.92372829999994],[-52.014474099999966,-28.923660199999965],[-52.01208969999993,-28.924217499999948],[-52.0110112,-28.923508799999976],[-52.01008789999998,-28.9232742],[-52.009888699999976,-28.92292279999998],[-52.00905059999996,-28.922902899999936],[-52.008685499999956,-28.922294099999917],[-52.007607,-28.923592599999935],[-52.007394499999975,-28.924178],[-52.00642349999998,-28.92446649999994],[-52.006489399999964,-28.92488289999994],[-52.00705359999995,-28.925177299999984],[-52.00832619999994,-28.927052799999956],[-52.00828259999997,-28.927335899999946],[-52.00737389999995,-28.928069799999932],[-52.00714059999996,-28.929508799999955],[-52.005779099999984,-28.9299789],[-52.003895299999954,-28.93012179999994],[-52.002560499999966,-28.929873099999956],[-52.00176349999998,-28.930159499999945],[-51.999482599999965,-28.932162299999955],[-51.998539299999955,-28.933465899999923],[-51.99896169999994,-28.934417499999924],[-51.99863509999995,-28.935827],[-51.99901,-28.93802719999997],[-51.998905399999956,-28.938814199999975],[-52.000018299999965,-28.940674699999935],[-51.99899279999994,-28.943145699999967],[-51.997305099999956,-28.94418269999994],[-51.997253,-28.944766499999968],[-51.99989579999993,-28.94856109999994],[-51.999905,-28.949146099999947],[-52.00071359999998,-28.949815],[-52.00118479999998,-28.95068969999994],[-51.99884889999998,-28.95144689999994],[-51.99711119999995,-28.95271479999997],[-51.996898699999974,-28.95302889999993],[-51.99674829999998,-28.954806299999976],[-51.997658099999974,-28.95596939999997],[-51.99801139999994,-28.957146299999966],[-51.999056799999956,-28.95874289999994],[-52.00067149999995,-28.962360699999977],[-52.002552,-28.965139699999956],[-52.00355,-28.964627699999927],[-52.003809099999955,-28.965212099999977],[-52.00452909999995,-28.964409099999962],[-52.00790089999998,-28.962166],[-52.00839789999998,-28.961688499999976],[-52.009157499999965,-28.96023189999994],[-52.010937499999955,-28.958874299999934],[-52.01194559999993,-28.958439199999923],[-52.012742299999964,-28.958590699999938],[-52.01387329999995,-28.959316599999966],[-52.016917,-28.960662599999964],[-52.01830529999995,-28.96163469999993],[-52.02081389999995,-28.9610696],[-52.02162789999994,-28.960986799999937],[-52.022791899999966,-28.961297199999933],[-52.025305199999934,-28.960734099999968],[-52.02735149999995,-28.961077699999972],[-52.027746199999974,-28.960534299999946],[-52.02843879999994,-28.960107399999973],[-52.030006,-28.959676],[-52.03039719999998,-28.959184099999952],[-52.03196049999997,-28.95931349999995],[-52.03303949999997,-28.957502599999955],[-52.03359969999997,-28.957044],[-52.033875199999954,-28.95514719999994],[-52.03445379999994,-28.954533099999917],[-52.03442029999997,-28.95346939999995],[-52.03522809999998,-28.95203679999998],[-52.03496889999997,-28.951535],[-52.034235499999966,-28.951408],[-52.03365659999997,-28.951032399999967],[-52.03422,-28.950272799999937],[-52.033469699999955,-28.949834099999975],[-52.033226799999966,-28.948976],[-52.03377179999995,-28.94767689999997],[-52.03664889999993,-28.94518449999998],[-52.03609379999995,-28.944027599999963],[-52.036165599999954,-28.943722899999948],[-52.037044899999955,-28.94316539999994],[-52.03717809999995,-28.942045899999975],[-52.037443899999964,-28.941701499999958],[-52.038540599999976,-28.940978699999953],[-52.03936169999997,-28.9411],[-52.04411279999994,-28.939745899999934],[-52.04669259999998,-28.93969329999993],[-52.05046949999996,-28.940779],[-52.05123329999998,-28.9407265],[-52.05306,-28.940053399999954],[-52.05389669999993,-28.939451899999934],[-52.05551939999999,-28.93878819999997],[-52.05569529999997,-28.937750299999944],[-52.058341,-28.93644259999995],[-52.05896459999997,-28.935771499999916],[-52.059975,-28.935297899999966],[-52.06207759999995,-28.935762799999967],[-52.063383399999964,-28.936388799999982],[-52.063968699999975,-28.936280899999936],[-52.06477249999995,-28.935705899999963],[-52.0662066,-28.935573],[-52.06780949999996,-28.934971599999976],[-52.068687099999984,-28.92613779999994],[-52.068137399999955,-28.926156899999967],[-52.06825809999997,-28.9235475]]]}},{"type":"Feature","properties":{"setor":"430070305000004","pop":335,"sigilo_pop":false,"dom":174,"sigilo_dom":0,"mulheres":160,"sigilo_mulheres":0,"c0_4":13,"sigilo_c0_4":0,"c5_9":null,"sigilo_c5_9":1,"i60_69":54,"sigilo_i60_69":0,"i70m":46,"sigilo_i70m":0,"indigenas":0,"sigilo_indigenas":0,"pretos_pardos":19,"sigilo_pretos_pardos":0,"dom_ocupados":111,"sigilo_dom_ocupados":0,"dom_agua":86,"sigilo_dom_agua":0,"dom_esgoto":0,"sigilo_dom_esgoto":0,"renda_resp":4784.04,"sigilo_renda_resp":0,"n_resp":111,"sigilo_n_resp":0,"dens":15.2,"sigilo_dens":false,"na_bacia":1,"area_pct_bacia":100.0,"metodo_recorte_bacia":"ponto_representativo_setor_2022; area_pct_geometrica","pop_n_validos":1,"pop_n_total":1,"pop_completude":1.0,"dom_n_validos":1,"dom_n_total":1,"dom_completude":1.0,"dom_ocupados_n_validos":1,"dom_ocupados_n_total":1,"dom_ocupados_completude":1.0,"mulheres_n_validos":1,"mulheres_n_total":1,"mulheres_completude":1.0,"c0_4_n_validos":1,"c0_4_n_total":1,"c0_4_completude":1.0,"c5_9_n_validos":0,"c5_9_n_total":1,"c5_9_completude":0.0,"i60_69_n_validos":1,"i60_69_n_total":1,"i60_69_completude":1.0,"i70m_n_validos":1,"i70m_n_total":1,"i70m_completude":1.0,"indigenas_n_validos":1,"indigenas_n_total":1,"indigenas_completude":1.0,"pretos_pardos_n_validos":1,"pretos_pardos_n_total":1,"pretos_pardos_completude":1.0,"dom_agua_n_validos":1,"dom_agua_n_total":1,"dom_agua_completude":1.0,"dom_esgoto_n_validos":1,"dom_esgoto_n_total":1,"dom_esgoto_completude":1.0,"n_resp_n_validos":1,"n_resp_n_total":1,"n_resp_completude":1.0,"renda_resp_n_validos":1,"renda_resp_n_total":1,"renda_resp_completude":1.0,"dens_n_validos":1,"dens_n_total":1,"dens_completude":1.0,"status_borda_bacia":"total","metodo_area_bacia":"interse??o geom?trica em EPSG:5880","metodo_na_bacia":"ponto_representativo_setor_2022_within_bacia","municipio":"Anta Gorda","cod_mun":"4300703","mun_pct_na_bacia":100.0,"mun_pop_total":5957,"mun_pop_na_bacia":5957.0,"mun_ubs_iede":2,"mun_hospitais_iede":1,"mun_escolas_iede":8,"mun_bombeiros_iede":null,"mun_servicos_cobertura":"cadastro_IEDE_parcial_nao_inventario","mun_icm_faixa":"C","mun_icm_pontos":11,"mun_icm_prioritario":"sim","mun_ubs_iede_status":"published","mun_hospitais_iede_status":"published","mun_escolas_iede_status":"published","mun_bombeiros_iede_status":"unknown"},"geometry":{"type":"Polygon","coordinates":[[[-51.96136949999993,-28.927807],[-51.96324869999995,-28.92944179999995],[-51.963570799999964,-28.929961199999983],[-51.96375459999995,-28.93135909999996],[-51.96443579999993,-28.931902599999944],[-51.965566,-28.933658],[-51.96653949999995,-28.934257299999956],[-51.96791829999995,-28.937684499999936],[-51.96842549999997,-28.939852199999958],[-51.968782,-28.940288699999936],[-51.96879949999993,-28.94094109999997],[-51.97200669999995,-28.94603059999997],[-51.97946389999998,-28.950094],[-51.98135769999994,-28.952557499999948],[-51.98286669999993,-28.95318029999993],[-51.98692049999995,-28.956236199999985],[-51.99801139999994,-28.957146299999966],[-51.997658099999974,-28.95596939999997],[-51.99674829999998,-28.954806299999976],[-51.996898699999974,-28.95302889999993],[-51.99884889999998,-28.95144689999994],[-52.00118479999998,-28.95068969999994],[-52.00071359999998,-28.949815],[-51.999905,-28.949146099999947],[-51.99989579999993,-28.94856109999994],[-51.997253,-28.944766499999968],[-51.997305099999956,-28.94418269999994],[-51.99899279999994,-28.943145699999967],[-52.000018299999965,-28.940674699999935],[-51.998905399999956,-28.938814199999975],[-51.99901,-28.93802719999997],[-51.99863509999995,-28.935827],[-51.99896169999994,-28.934417499999924],[-51.998539299999955,-28.933465899999923],[-51.9986512,-28.933175499999948],[-52.00047889999997,-28.93117079999996],[-52.00176349999998,-28.930159499999945],[-52.002560499999966,-28.929873099999956],[-52.003895299999954,-28.93012179999994],[-52.00695049999996,-28.92971639999995],[-52.00737389999995,-28.928069799999932],[-52.00828259999997,-28.927335899999946],[-52.00832619999994,-28.927052799999956],[-52.00705359999995,-28.925177299999984],[-52.006489399999964,-28.92488289999994],[-52.00642349999998,-28.92446649999994],[-52.007394499999975,-28.924178],[-52.007607,-28.923592599999935],[-52.008685499999956,-28.922294099999917],[-52.00905059999996,-28.922902899999936],[-52.009888699999976,-28.92292279999998],[-52.01008789999998,-28.9232742],[-52.0110112,-28.923508799999976],[-52.01208969999993,-28.924217499999948],[-52.014474099999966,-28.923660199999965],[-52.01531589999996,-28.92372829999994],[-52.01665379999998,-28.924937599999968],[-52.017176,-28.924773499999958],[-52.01803249999995,-28.92325769999995],[-52.020003299999985,-28.923288599999974],[-52.02027019999997,-28.923626899999924],[-52.02019109999998,-28.925628699999944],[-52.02260739999996,-28.924935699999928],[-52.02394659999993,-28.924204799999984],[-52.02367749999996,-28.921030299999977],[-52.02484709999994,-28.919653899999958],[-52.02501969999997,-28.91808589999994],[-52.02405179999993,-28.91590969999993],[-52.02348249999994,-28.91549159999994],[-52.024387099999956,-28.915680899999987],[-52.025273599999935,-28.916784599999964],[-52.02731249999994,-28.918347899999965],[-52.0280327,-28.919201199999968],[-52.02892779999996,-28.919696499999933],[-52.029180699999976,-28.918836499999944],[-52.028234899999966,-28.91680109999992],[-52.02695289999997,-28.91618979999998],[-52.02606429999997,-28.915107099999947],[-52.025921399999966,-28.913163799999953],[-52.024410699999976,-28.912706],[-52.024054499999984,-28.91206149999993],[-52.02342339999996,-28.9120607],[-52.021950699999934,-28.91133939999997],[-52.02099539999995,-28.909874799999958],[-52.020554799999964,-28.909653799999937],[-52.01826719999997,-28.90986609999994],[-52.017414699999954,-28.909137199999982],[-52.01697559999997,-28.909069],[-52.015898,-28.90952519999996],[-52.01496919999993,-28.90847869999993],[-52.01302649999996,-28.908506799999948],[-52.01200439999997,-28.90789349999993],[-52.01059539999994,-28.907683099999936],[-52.010130499999946,-28.90738179999994],[-52.01023849999996,-28.904964099999965],[-52.009635199999934,-28.90366489999996],[-52.009085,-28.90348109999997],[-52.008044,-28.90362809999993],[-52.00700789999996,-28.904135299999954],[-52.005052199999966,-28.904616399999945],[-52.00322479999994,-28.90451879999995],[-52.00288809999995,-28.90428269999996],[-52.00278389999994,-28.903693599999944],[-52.00207829999994,-28.902791],[-52.00034789999995,-28.902537799999948],[-51.998039099999964,-28.90314439999997],[-51.996122,-28.903208499999934],[-51.992826,-28.902929499999964],[-51.98730239999998,-28.90180619999995],[-51.98224849999997,-28.900416499999956],[-51.98118079999995,-28.900515699999964],[-51.980213599999956,-28.900764799999926],[-51.981391,-28.904175899999913],[-51.980478699999935,-28.91123869999996],[-51.97964729999996,-28.912165899999923],[-51.97863149999995,-28.912517199999975],[-51.97698909999996,-28.913920599999987],[-51.97392009999999,-28.91747],[-51.97108869999994,-28.922001599999916],[-51.97025479999996,-28.922920699999967],[-51.969239899999934,-28.923002399999966],[-51.968659799999955,-28.92233409999994],[-51.96889059999995,-28.919895299999947],[-51.96752029999993,-28.916415199999964],[-51.968793199999936,-28.909726],[-51.968555099999946,-28.907028499999978],[-51.96704949999997,-28.90571879999993],[-51.96519089999998,-28.906298199999977],[-51.960044599999954,-28.909163199999963],[-51.958215199999984,-28.911239099999918],[-51.956717,-28.91545149999995],[-51.957216399999936,-28.917315599999945],[-51.95999179999995,-28.919553199999942],[-51.96505519999993,-28.924471299999933],[-51.965253599999976,-28.92538339999993],[-51.96407649999998,-28.925750899999965],[-51.96136949999993,-28.927807]]]}},{"type":"Feature","properties":{"setor":"430070305000005","pop":144,"sigilo_pop":false,"dom":96,"sigilo_dom":0,"mulheres":63,"sigilo_mulheres":0,"c0_4":null,"sigilo_c0_4":1,"c5_9":0,"sigilo_c5_9":0,"i60_69":38,"sigilo_i60_69":0,"i70m":25,"sigilo_i70m":0,"indigenas":0,"sigilo_indigenas":0,"pretos_pardos":8,"sigilo_pretos_pardos":0,"dom_ocupados":55,"sigilo_dom_ocupados":0,"dom_agua":43,"sigilo_dom_agua":0,"dom_esgoto":0,"sigilo_dom_esgoto":0,"renda_resp":7599.85,"sigilo_renda_resp":0,"n_resp":55,"sigilo_n_resp":0,"dens":4.4,"sigilo_dens":false,"na_bacia":1,"area_pct_bacia":100.0,"metodo_recorte_bacia":"ponto_representativo_setor_2022; area_pct_geometrica","pop_n_validos":1,"pop_n_total":1,"pop_completude":1.0,"dom_n_validos":1,"dom_n_total":1,"dom_completude":1.0,"dom_ocupados_n_validos":1,"dom_ocupados_n_total":1,"dom_ocupados_completude":1.0,"mulheres_n_validos":1,"mulheres_n_total":1,"mulheres_completude":1.0,"c0_4_n_validos":0,"c0_4_n_total":1,"c0_4_completude":0.0,"c5_9_n_validos":1,"c5_9_n_total":1,"c5_9_completude":1.0,"i60_69_n_validos":1,"i60_69_n_total":1,"i60_69_completude":1.0,"i70m_n_validos":1,"i70m_n_total":1,"i70m_completude":1.0,"indigenas_n_validos":1,"indigenas_n_total":1,"indigenas_completude":1.0,"pretos_pardos_n_validos":1,"pretos_pardos_n_total":1,"pretos_pardos_completude":1.0,"dom_agua_n_validos":1,"dom_agua_n_total":1,"dom_agua_completude":1.0,"dom_esgoto_n_validos":1,"dom_esgoto_n_total":1,"dom_esgoto_completude":1.0,"n_resp_n_validos":1,"n_resp_n_total":1,"n_resp_completude":1.0,"renda_resp_n_validos":1,"renda_resp_n_total":1,"renda_resp_completude":1.0,"dens_n_validos":1,"dens_n_total":1,"dens_completude":1.0,"status_borda_bacia":"total","metodo_area_bacia":"interse??o geom?trica em EPSG:5880","metodo_na_bacia":"ponto_representativo_setor_2022_within_bacia","municipio":"Anta Gorda","cod_mun":"4300703","mun_pct_na_bacia":100.0,"mun_pop_total":5957,"mun_pop_na_bacia":5957.0,"mun_ubs_iede":2,"mun_hospitais_iede":1,"mun_escolas_iede":8,"mun_bombeiros_iede":null,"mun_servicos_cobertura":"cadastro_IEDE_parcial_nao_inventario","mun_icm_faixa":"C","mun_icm_pontos":11,"mun_icm_prioritario":"sim","mun_ubs_iede_status":"published","mun_hospitais_iede_status":"published","mun_escolas_iede_status":"published","mun_bombeiros_iede_status":"unknown"},"geometry":{"type":"Polygon","coordinates":[[[-51.94399459999993,-28.908132199999958],[-51.94383809999994,-28.916968899999965],[-51.94516919999995,-28.922772699999935],[-51.942956099999954,-28.924703799999975],[-51.932953199999986,-28.928166],[-51.93052549999993,-28.927977599999966],[-51.928033599999935,-28.926472299999958],[-51.92368559999995,-28.92207189999993],[-51.91956979999997,-28.920939],[-51.91631069999994,-28.924157],[-51.913860399999976,-28.9275173],[-51.91325079999996,-28.932168499999925],[-51.917194199999976,-28.933212599999923],[-51.919587,-28.934362599999925],[-51.921936,-28.93723009999997],[-51.92343429999993,-28.941807499999978],[-51.92284629999995,-28.94420379999998],[-51.92085579999997,-28.945837799999932],[-51.91363179999996,-28.947892],[-51.91001669999997,-28.949793899999975],[-51.9083682,-28.95173019999993],[-51.90805249999994,-28.955210699999956],[-51.90939589999993,-28.96124509999992],[-51.90750449999996,-28.963539599999926],[-51.906512,-28.96532],[-51.907352399999986,-28.96601219999997],[-51.908900899999935,-28.96576839999994],[-51.91242159999996,-28.961748399999987],[-51.912988199999965,-28.959375099999935],[-51.91310539999995,-28.956642699999964],[-51.914238299999965,-28.953366799999973],[-51.91626509999998,-28.9519653],[-51.919052599999986,-28.95198129999994],[-51.922263499999985,-28.952869899999943],[-51.92361569999998,-28.953858199999956],[-51.92463019999996,-28.957160299999927],[-51.92504829999995,-28.959710399999956],[-51.92430309999998,-28.96225569999995],[-51.921329699999944,-28.964304499999965],[-51.91389289999995,-28.966670799999974],[-51.907731199999944,-28.970014599999953],[-51.90594949999996,-28.97167329999996],[-51.90721,-28.973799099999948],[-51.908353499999976,-28.974172899999935],[-51.91471389999998,-28.974710099999974],[-51.91905409999998,-28.973839699999928],[-51.92271039999998,-28.974156],[-51.923503299999936,-28.974716799999946],[-51.923825299999976,-28.97571459999994],[-51.92482559999997,-28.976846899999938],[-51.925073099999956,-28.978197499999965],[-51.92484489999999,-28.979593899999934],[-51.923924,-28.980697799999984],[-51.922346,-28.981752399999937],[-51.911649899999986,-28.98341179999994],[-51.909314799999954,-28.984583399999963],[-51.90696639999993,-28.98657979999996],[-51.90611349999995,-28.988063799999967],[-51.906857,-28.990967399999924],[-51.90852509999996,-28.992141],[-51.91271219999994,-28.99418349999995],[-51.91556049999997,-28.993508399999936],[-51.91837859999998,-28.993597399999942],[-51.92502019999995,-28.99134049999998],[-51.92933879999998,-28.9901379],[-51.930655299999955,-28.990823699999968],[-51.930470299999975,-28.98961759999997],[-51.931163,-28.987635499999953],[-51.93315929999994,-28.98509149999994],[-51.9365112,-28.983254599999952],[-51.93832889999994,-28.982743099999944],[-51.93906339999995,-28.982226499999964],[-51.939383,-28.982117599999977],[-51.94030129999993,-28.98246939999996],[-51.94033079999998,-28.98140879999993],[-51.93906519999996,-28.979711899999987],[-51.94041789999994,-28.978279099999952],[-51.94123159999998,-28.976118],[-51.94258149999996,-28.974703399999942],[-51.94239289999996,-28.973012699999977],[-51.94264169999997,-28.972521199999957],[-51.943874799999946,-28.972185199999956],[-51.94435219999997,-28.971180799999964],[-51.946508,-28.970863699999928],[-51.94788049999994,-28.969797699999962],[-51.94847179999993,-28.96894859999998],[-51.95122459999993,-28.968902399999937],[-51.95189049999994,-28.968249599999975],[-51.952450099999965,-28.968116299999966],[-51.95539839999997,-28.96819619999996],[-51.95855289999998,-28.96674849999994],[-51.959968599999975,-28.966336499999958],[-51.96251349999995,-28.96628169999996],[-51.965144099999975,-28.96462749999995],[-51.966153099999985,-28.96454909999993],[-51.96797329999998,-28.963665799999944],[-51.97010739999996,-28.962168099999936],[-51.97202719999996,-28.96148059999996],[-51.975749,-28.960856799999945],[-51.97625819999996,-28.960179399999955],[-51.97705249999996,-28.960075399999944],[-51.97835989999999,-28.960585399999957],[-51.97882879999998,-28.96026809999995],[-51.98026519999996,-28.960033899999925],[-51.98131579999995,-28.960333099999946],[-51.982133499999975,-28.959211399999962],[-51.981676299999954,-28.957914099999975],[-51.98171119999995,-28.956896799999985],[-51.982536599999946,-28.95574729999993],[-51.982805,-28.954638699999972],[-51.98421659999997,-28.954296299999957],[-51.98286669999993,-28.95318029999993],[-51.980891,-28.952162499999925],[-51.98006859999998,-28.950664399999933],[-51.97946389999998,-28.950094],[-51.97632629999998,-28.948468399999964],[-51.97548939999995,-28.94780429999998],[-51.97250729999996,-28.946378199999966],[-51.971740899999986,-28.9457336],[-51.96879949999993,-28.94094109999997],[-51.968782,-28.940288699999936],[-51.96842549999997,-28.939852199999958],[-51.96791829999995,-28.937684499999936],[-51.96653949999995,-28.934257299999956],[-51.965566,-28.933658],[-51.96443579999993,-28.931902599999944],[-51.96375459999995,-28.93135909999996],[-51.963570799999964,-28.929961199999983],[-51.96324869999995,-28.92944179999995],[-51.96136949999993,-28.927807],[-51.959274799999946,-28.92927459999992],[-51.95393979999995,-28.92921549999994],[-51.951153799999986,-28.926211],[-51.95082919999994,-28.921647599999982],[-51.95186659999996,-28.918054799999943],[-51.95304229999994,-28.911255799999935],[-51.95268469999996,-28.907917599999966],[-51.95070459999994,-28.907198],[-51.94591209999999,-28.90708879999994],[-51.94399459999993,-28.908132199999958]]]}},{"type":"Feature","properties":{"setor":"430070305000006","pop":311,"sigilo_pop":false,"dom":156,"sigilo_dom":0,"mulheres":146,"sigilo_mulheres":0,"c0_4":15,"sigilo_c0_4":0,"c5_9":9,"sigilo_c5_9":0,"i60_69":42,"sigilo_i60_69":0,"i70m":45,"sigilo_i70m":0,"indigenas":0,"sigilo_indigenas":0,"pretos_pardos":5,"sigilo_pretos_pardos":0,"dom_ocupados":106,"sigilo_dom_ocupados":0,"dom_agua":60,"sigilo_dom_agua":0,"dom_esgoto":0,"sigilo_dom_esgoto":0,"renda_resp":7508.55,"sigilo_renda_resp":0,"n_resp":106,"sigilo_n_resp":0,"dens":10.1,"sigilo_dens":false,"na_bacia":1,"area_pct_bacia":100.0,"metodo_recorte_bacia":"ponto_representativo_setor_2022; area_pct_geometrica","pop_n_validos":1,"pop_n_total":1,"pop_completude":1.0,"dom_n_validos":1,"dom_n_total":1,"dom_completude":1.0,"dom_ocupados_n_validos":1,"dom_ocupados_n_total":1,"dom_ocupados_completude":1.0,"mulheres_n_validos":1,"mulheres_n_total":1,"mulheres_completude":1.0,"c0_4_n_validos":1,"c0_4_n_total":1,"c0_4_completude":1.0,"c5_9_n_validos":1,"c5_9_n_total":1,"c5_9_completude":1.0,"i60_69_n_validos":1,"i60_69_n_total":1,"i60_69_completude":1.0,"i70m_n_validos":1,"i70m_n_total":1,"i70m_completude":1.0,"indigenas_n_validos":1,"indigenas_n_total":1,"indigenas_completude":1.0,"pretos_pardos_n_validos":1,"pretos_pardos_n_total":1,"pretos_pardos_completude":1.0,"dom_agua_n_validos":1,"dom_agua_n_total":1,"dom_agua_completude":1.0,"dom_esgoto_n_validos":1,"dom_esgoto_n_total":1,"dom_esgoto_completude":1.0,"n_resp_n_validos":1,"n_resp_n_total":1,"n_resp_completude":1.0,"renda_resp_n_validos":1,"renda_resp_n_total":1,"renda_resp_completude":1.0,"dens_n_validos":1,"dens_n_total":1,"dens_completude":1.0,"status_borda_bacia":"total","metodo_area_bacia":"interse??o geom?trica em EPSG:5880","metodo_na_bacia":"ponto_representativo_setor_2022_within_bacia","municipio":"Anta Gorda","cod_mun":"4300703","mun_pct_na_bacia":100.0,"mun_pop_total":5957,"mun_pop_na_bacia":5957.0,"mun_ubs_iede":2,"mun_hospitais_iede":1,"mun_escolas_iede":8,"mun_bombeiros_iede":null,"mun_servicos_cobertura":"cadastro_IEDE_parcial_nao_inventario","mun_icm_faixa":"C","mun_icm_pontos":11,"mun_icm_prioritario":"sim","mun_ubs_iede_status":"published","mun_hospitais_iede_status":"published","mun_escolas_iede_status":"published","mun_bombeiros_iede_status":"unknown"},"geometry":{"type":"Polygon","coordinates":[[[-51.99198719999998,-28.98394689999998],[-51.99337979999995,-28.983947699999916],[-51.99431479999998,-28.982908499999947],[-51.99367179999996,-28.980864299999954],[-51.99414029999997,-28.979843599999988],[-51.995244499999956,-28.979196599999973],[-51.99658229999994,-28.978890699999965],[-51.99646859999995,-28.978211],[-51.997217399999954,-28.978216199999956],[-51.99759859999995,-28.97754359999992],[-51.9988,-28.976394499999973],[-52.00050189999996,-28.97518269999994],[-51.99942619999997,-28.974985699999923],[-51.999593299999965,-28.97054639999993],[-52.00085939999997,-28.969711399999927],[-52.002207,-28.96958009999997],[-52.00246919999995,-28.966218799999982],[-52.00196119999998,-28.96550079999997],[-52.002552,-28.965139699999956],[-52.00067149999995,-28.962360699999977],[-51.999056799999956,-28.95874289999994],[-51.99801139999994,-28.957146299999966],[-51.98745549999995,-28.956353599999943],[-51.986425299999944,-28.955970599999937],[-51.98421659999997,-28.954296299999957],[-51.983137899999974,-28.954467299999965],[-51.982805,-28.954638699999972],[-51.982536599999946,-28.95574729999993],[-51.98171119999995,-28.956896799999985],[-51.981676299999954,-28.957914099999975],[-51.982133499999975,-28.959211399999962],[-51.98131579999995,-28.960333099999946],[-51.98026519999996,-28.960033899999925],[-51.97882879999998,-28.96026809999995],[-51.97835989999999,-28.960585399999957],[-51.97705249999996,-28.960075399999944],[-51.97625819999996,-28.960179399999955],[-51.975749,-28.960856799999945],[-51.97202719999996,-28.96148059999996],[-51.97010739999996,-28.962168099999936],[-51.96797329999998,-28.963665799999944],[-51.966153099999985,-28.96454909999993],[-51.965144099999975,-28.96462749999995],[-51.96251349999995,-28.96628169999996],[-51.959968599999975,-28.966336499999958],[-51.95855289999998,-28.96674849999994],[-51.95539839999997,-28.96819619999996],[-51.952450099999965,-28.968116299999966],[-51.95189049999994,-28.968249599999975],[-51.95122459999993,-28.968902399999937],[-51.94847179999993,-28.96894859999998],[-51.947180299999964,-28.970474199999966],[-51.94587909999996,-28.971027599999957],[-51.94435219999997,-28.971180799999964],[-51.943874799999946,-28.972185199999956],[-51.94264169999997,-28.972521199999957],[-51.94239289999996,-28.973012699999977],[-51.94258149999996,-28.974703399999942],[-51.94123159999998,-28.976118],[-51.94041789999994,-28.978279099999952],[-51.93906519999996,-28.979711899999987],[-51.94033079999998,-28.98140879999993],[-51.94030129999993,-28.98246939999996],[-51.939383,-28.982117599999977],[-51.93832889999994,-28.982743099999944],[-51.9365112,-28.983254599999952],[-51.933771199999974,-28.98463569999996],[-51.93315929999994,-28.98509149999994],[-51.931163,-28.987635499999953],[-51.930470299999975,-28.98961759999997],[-51.930505699999976,-28.990158799999968],[-51.93188939999993,-28.99431049999998],[-51.92845659999995,-29.000924699999928],[-51.92372389999998,-29.003479],[-51.9226111,-29.00502219999992],[-51.923495399999986,-29.00828449999995],[-51.922074899999984,-29.01319609999996],[-51.91508859999993,-29.015878399999973],[-51.91597649999994,-29.01940789999998],[-51.918325,-29.02285889999996],[-51.918619699999965,-29.023884399999925],[-51.91948409999998,-29.022868499999962],[-51.920168,-29.022781],[-51.92073129999995,-29.022299699999955],[-51.92285689999995,-29.02187],[-51.92367889999997,-29.02103879999993],[-51.924729,-29.021047799999952],[-51.92741119999993,-29.019457499999938],[-51.926815199999965,-29.019047],[-51.92554039999993,-29.01891729999994],[-51.92576419999994,-29.01865249999996],[-51.926865599999985,-29.01822],[-51.929584699999964,-29.017666099999936],[-51.93012859999993,-29.017266899999985],[-51.93284569999997,-29.016911499999928],[-51.93380819999993,-29.017212],[-51.94265519999993,-29.01782049999996],[-51.94408509999994,-29.016658599999968],[-51.94545029999995,-29.01708629999996],[-51.94722129999996,-29.01697],[-51.94885459999994,-29.017293699999982],[-51.949499,-29.017865],[-51.950365799999986,-29.01789809999997],[-51.95282169999996,-29.01859209999996],[-51.953262,-29.019422],[-51.953703699999956,-29.019622699999953],[-51.955842099999984,-29.01882889999996],[-51.957117799999935,-29.018948799999986],[-51.95684669999998,-29.01821029999996],[-51.95708959999997,-29.017972899999958],[-51.961181,-29.016784899999944],[-51.96243869999994,-29.01585489999996],[-51.963408,-29.012873799999966],[-51.96409049999995,-29.011857099999926],[-51.96583889999994,-29.010538699999984],[-51.967348899999934,-29.010156799999947],[-51.96921889999993,-29.00898259999996],[-51.97178309999999,-29.006103299999957],[-51.97254789999994,-28.997378199999954],[-51.974995,-28.994820099999977],[-51.97613889999997,-28.99298309999994],[-51.97972739999995,-28.99193359999998],[-51.9811979,-28.9911936],[-51.98300359999996,-28.989259099999966],[-51.98393639999995,-28.98893409999994],[-51.984001099999944,-28.986710799999955],[-51.98572159999998,-28.986357399999978],[-51.98905419999994,-28.985087599999922],[-51.99160379999994,-28.984815699999956],[-51.99197729999998,-28.98464309999998],[-51.99198719999998,-28.98394689999998]]]}},{"type":"Feature","properties":{"setor":"430070305000007","pop":213,"sigilo_pop":false,"dom":110,"sigilo_dom":0,"mulheres":109,"sigilo_mulheres":0,"c0_4":12,"sigilo_c0_4":0,"c5_9":9,"sigilo_c5_9":0,"i60_69":28,"sigilo_i60_69":0,"i70m":47,"sigilo_i70m":0,"indigenas":0,"sigilo_indigenas":0,"pretos_pardos":7,"sigilo_pretos_pardos":0,"dom_ocupados":89,"sigilo_dom_ocupados":0,"dom_agua":89,"sigilo_dom_agua":0,"dom_esgoto":8,"sigilo_dom_esgoto":0,"renda_resp":2510.28,"sigilo_renda_resp":0,"n_resp":89,"sigilo_n_resp":0,"dens":399.6,"sigilo_dens":false,"na_bacia":1,"area_pct_bacia":100.0,"metodo_recorte_bacia":"ponto_representativo_setor_2022; area_pct_geometrica","pop_n_validos":1,"pop_n_total":1,"pop_completude":1.0,"dom_n_validos":1,"dom_n_total":1,"dom_completude":1.0,"dom_ocupados_n_validos":1,"dom_ocupados_n_total":1,"dom_ocupados_completude":1.0,"mulheres_n_validos":1,"mulheres_n_total":1,"mulheres_completude":1.0,"c0_4_n_validos":1,"c0_4_n_total":1,"c0_4_completude":1.0,"c5_9_n_validos":1,"c5_9_n_total":1,"c5_9_completude":1.0,"i60_69_n_validos":1,"i60_69_n_total":1,"i60_69_completude":1.0,"i70m_n_validos":1,"i70m_n_total":1,"i70m_completude":1.0,"indigenas_n_validos":1,"indigenas_n_total":1,"indigenas_completude":1.0,"pretos_pardos_n_validos":1,"pretos_pardos_n_total":1,"pretos_pardos_completude":1.0,"dom_agua_n_validos":1,"dom_agua_n_total":1,"dom_agua_completude":1.0,"dom_esgoto_n_validos":1,"dom_esgoto_n_total":1,"dom_esgoto_completude":1.0,"n_resp_n_validos":1,"n_resp_n_total":1,"n_resp_completude":1.0,"renda_resp_n_validos":1,"renda_resp_n_total":1,"renda_resp_completude":1.0,"dens_n_validos":1,"dens_n_total":1,"dens_completude":1.0,"status_borda_bacia":"total","metodo_area_bacia":"interse??o geom?trica em EPSG:5880","metodo_na_bacia":"ponto_representativo_setor_2022_within_bacia","municipio":"Anta Gorda","cod_mun":"4300703","mun_pct_na_bacia":100.0,"mun_pop_total":5957,"mun_pop_na_bacia":5957.0,"mun_ubs_iede":2,"mun_hospitais_iede":1,"mun_escolas_iede":8,"mun_bombeiros_iede":null,"mun_servicos_cobertura":"cadastro_IEDE_parcial_nao_inventario","mun_icm_faixa":"C","mun_icm_pontos":11,"mun_icm_prioritario":"sim","mun_ubs_iede_status":"published","mun_hospitais_iede_status":"published","mun_escolas_iede_status":"published","mun_bombeiros_iede_status":"unknown"},"geometry":{"type":"Polygon","coordinates":[[[-51.997173799999985,-28.98575479999994],[-51.996174,-28.983160199999936],[-51.994891,-28.982621],[-51.99431479999998,-28.982908499999947],[-51.99337979999995,-28.983947699999916],[-51.99198719999998,-28.98394689999998],[-51.99197729999998,-28.98464309999998],[-51.99160379999994,-28.984815699999956],[-51.98905419999994,-28.985087599999922],[-51.98572159999998,-28.986357399999978],[-51.984001099999944,-28.986710799999955],[-51.98395629999993,-28.990284099999947],[-51.98871569999994,-28.989087599999955],[-51.992491899999955,-28.98849759999995],[-51.993854899999974,-28.987929799999954],[-51.997173799999985,-28.98575479999994]]]}},{"type":"Feature","properties":{"setor":"430070305000008","pop":538,"sigilo_pop":false,"dom":248,"sigilo_dom":0,"mulheres":255,"sigilo_mulheres":0,"c0_4":19,"sigilo_c0_4":0,"c5_9":29,"sigilo_c5_9":0,"i60_69":84,"sigilo_i60_69":0,"i70m":68,"sigilo_i70m":0,"indigenas":0,"sigilo_indigenas":0,"pretos_pardos":null,"sigilo_pretos_pardos":1,"dom_ocupados":203,"sigilo_dom_ocupados":0,"dom_agua":180,"sigilo_dom_agua":0,"dom_esgoto":13,"sigilo_dom_esgoto":0,"renda_resp":5823.71,"sigilo_renda_resp":0,"n_resp":203,"sigilo_n_resp":0,"dens":24.7,"sigilo_dens":false,"na_bacia":1,"area_pct_bacia":100.0,"metodo_recorte_bacia":"ponto_representativo_setor_2022; area_pct_geometrica","pop_n_validos":1,"pop_n_total":1,"pop_completude":1.0,"dom_n_validos":1,"dom_n_total":1,"dom_completude":1.0,"dom_ocupados_n_validos":1,"dom_ocupados_n_total":1,"dom_ocupados_completude":1.0,"mulheres_n_validos":1,"mulheres_n_total":1,"mulheres_completude":1.0,"c0_4_n_validos":1,"c0_4_n_total":1,"c0_4_completude":1.0,"c5_9_n_validos":1,"c5_9_n_total":1,"c5_9_completude":1.0,"i60_69_n_validos":1,"i60_69_n_total":1,"i60_69_completude":1.0,"i70m_n_validos":1,"i70m_n_total":1,"i70m_completude":1.0,"indigenas_n_validos":1,"indigenas_n_total":1,"indigenas_completude":1.0,"pretos_pardos_n_validos":0,"pretos_pardos_n_total":1,"pretos_pardos_completude":0.0,"dom_agua_n_validos":1,"dom_agua_n_total":1,"dom_agua_completude":1.0,"dom_esgoto_n_validos":1,"dom_esgoto_n_total":1,"dom_esgoto_completude":1.0,"n_resp_n_validos":1,"n_resp_n_total":1,"n_resp_completude":1.0,"renda_resp_n_validos":1,"renda_resp_n_total":1,"renda_resp_completude":1.0,"dens_n_validos":1,"dens_n_total":1,"dens_completude":1.0,"status_borda_bacia":"total","metodo_area_bacia":"interse??o geom?trica em EPSG:5880","metodo_na_bacia":"ponto_representativo_setor_2022_within_bacia","municipio":"Anta Gorda","cod_mun":"4300703","mun_pct_na_bacia":100.0,"mun_pop_total":5957,"mun_pop_na_bacia":5957.0,"mun_ubs_iede":2,"mun_hospitais_iede":1,"mun_escolas_iede":8,"mun_bombeiros_iede":null,"mun_servicos_cobertura":"cadastro_IEDE_parcial_nao_inventario","mun_icm_faixa":"C","mun_icm_pontos":11,"mun_icm_prioritario":"sim","mun_ubs_iede_status":"published","mun_hospitais_iede_status":"published","mun_escolas_iede_status":"published","mun_bombeiros_iede_status":"unknown"},"geometry":{"type":"Polygon","coordinates":[[[-51.99946219999998,-28.98249939999994],[-51.99643909999998,-28.983790299999963],[-51.997173799999985,-28.98575479999994],[-51.993854899999974,-28.987929799999954],[-51.992491899999955,-28.98849759999995],[-51.98871569999994,-28.989087599999955],[-51.98395629999993,-28.990284099999947],[-51.98393639999995,-28.98893409999994],[-51.983384899999976,-28.989090399999952],[-51.980866099999965,-28.99145679999998],[-51.97613889999997,-28.99298309999994],[-51.974995,-28.994820099999977],[-51.97254789999994,-28.997378199999954],[-51.971958399999956,-29.005484699999954],[-51.97142259999998,-29.006636099999973],[-51.96921889999993,-29.00898259999996],[-51.967348899999934,-29.010156799999947],[-51.96583889999994,-29.010538699999984],[-51.96409049999995,-29.011857099999926],[-51.963408,-29.012873799999966],[-51.962786199999975,-29.015167199999958],[-51.961943299999966,-29.016304799999936],[-51.959410099999964,-29.017415899999946],[-51.95708959999997,-29.017972899999958],[-51.95684669999998,-29.01821029999996],[-51.957117799999935,-29.018948799999986],[-51.95788949999997,-29.019210499999925],[-51.95953119999996,-29.02049349999993],[-51.96067929999998,-29.020761],[-51.96309679999996,-29.02015169999993],[-51.96444739999998,-29.019442],[-51.966290199999946,-29.01958869999992],[-51.96679149999994,-29.019907199999984],[-51.96793439999994,-29.019019399999923],[-51.96922239999998,-29.01888279999997],[-51.970547299999964,-29.02011819999996],[-51.97115579999996,-29.02032349999997],[-51.972477499999975,-29.02130729999993],[-51.97278529999994,-29.021794099999962],[-51.973791699999936,-29.022327299999958],[-51.973562499999964,-29.023216599999962],[-51.973857,-29.02377989999996],[-51.97584059999997,-29.023516099999938],[-51.97632189999996,-29.023641399999963],[-51.97708319999998,-29.024299799999934],[-51.977835099999936,-29.025446],[-51.97814789999995,-29.025555799999946],[-51.98086409999996,-29.025388],[-51.984191,-29.023608],[-51.98467079999994,-29.023164499999943],[-51.98621549999996,-29.023072399999933],[-51.98837119999997,-29.024261899999935],[-51.98934679999997,-29.025491499999934],[-51.991693399999974,-29.027007799999982],[-51.994415099999976,-29.026099],[-51.99681049999998,-29.026211599999968],[-51.99724569999995,-29.026058299999928],[-51.99800349999998,-29.02524989999994],[-51.99877779999997,-29.025006499999957],[-51.99965319999995,-29.025287699999964],[-52.000345299999935,-29.026476899999984],[-52.00085389999999,-29.026811499999944],[-52.001892199999986,-29.026216399999946],[-52.00349079999995,-29.02590469999995],[-52.003822399999926,-29.025319899999953],[-52.005008799999985,-29.024909399999956],[-52.006494499999974,-29.025590899999937],[-52.00818169999996,-29.02727649999997],[-52.00962369999996,-29.023653],[-52.009995,-29.023560699999955],[-52.010029299999985,-29.023017099999937],[-52.01076169999993,-29.022698],[-52.01292539999998,-29.020488699999923],[-52.013950799999975,-29.020125899999975],[-52.013656,-29.01802469999994],[-52.012086899999986,-29.016485499999934],[-52.01204179999997,-29.016000099999932],[-52.012221899999986,-29.015598199999946],[-52.013417599999975,-29.01467],[-52.01358609999995,-29.012756399999944],[-52.01394979999997,-29.012220699999943],[-52.01506529999995,-29.011043399999952],[-52.01732829999998,-29.009830299999972],[-52.017724399999956,-29.008724299999983],[-52.01760069999995,-29.007759899999925],[-52.01741529999998,-29.00685469999997],[-52.01692289999994,-29.006524299999967],[-52.01508409999997,-29.00687429999995],[-52.01319309999996,-29.006219499999926],[-52.00469019999997,-28.997160399999924],[-52.00382749999995,-28.99611049999993],[-52.00318539999994,-28.994848599999955],[-52.00154869999995,-28.992967799999988],[-52.00895509999998,-28.993605499999955],[-52.011567,-28.99285849999995],[-52.012579399999936,-28.99177559999998],[-52.01324029999994,-28.991527699999953],[-52.01844909999994,-28.990061899999944],[-52.02057729999996,-28.989655899999942],[-52.022231599999934,-28.989669599999953],[-52.022914399999934,-28.98994129999994],[-52.025303,-28.98907189999995],[-52.027036899999985,-28.987917099999933],[-52.02785049999994,-28.986590099999948],[-52.028696499999974,-28.985796599999965],[-52.032491799999946,-28.984218399999964],[-52.03354849999994,-28.983974299999943],[-52.03453339999999,-28.984280599999973],[-52.037442,-28.984430899999943],[-52.038570799999945,-28.98504169999996],[-52.03885809999997,-28.984976599999978],[-52.039247699999976,-28.98455509999996],[-52.039202399999965,-28.984249799999922],[-52.03864149999998,-28.983887699999972],[-52.03840289999993,-28.983425],[-52.03909589999995,-28.982894299999934],[-52.03911149999993,-28.98204789999994],[-52.03853319999996,-28.98144779999996],[-52.03798089999998,-28.98017969999994],[-52.03664269999996,-28.979606699999984],[-52.035668,-28.979487799999962],[-52.03381729999995,-28.978567399999978],[-52.03165479999996,-28.97660189999994],[-52.02972049999994,-28.97530829999993],[-52.02847529999997,-28.974119199999965],[-52.02748839999998,-28.972205599999924],[-52.027395599999984,-28.971562399999975],[-52.025457499999966,-28.970530299999957],[-52.024778499999975,-28.970467299999935],[-52.02111179999998,-28.971002599999977],[-52.02091689999998,-28.973391],[-52.0116819,-28.973611599999963],[-52.007145599999944,-28.97411989999994],[-52.007183,-28.975483699999977],[-52.004885899999984,-28.975357799999987],[-52.00453769999996,-28.975065],[-52.004593299999954,-28.974231799999988],[-52.00366279999997,-28.974191799999968],[-52.00358589999996,-28.975650399999946],[-52.00292119999995,-28.975640499999937],[-52.002914299999986,-28.977108],[-52.003332899999975,-28.978025099999964],[-52.00185369999996,-28.97962859999996],[-51.99941679999995,-28.979730199999942],[-51.999287299999935,-28.98170139999996],[-51.99946219999998,-28.98249939999994]]]}},{"type":"Feature","properties":{"setor":"430070305000009","pop":283,"sigilo_pop":false,"dom":149,"sigilo_dom":0,"mulheres":133,"sigilo_mulheres":0,"c0_4":11,"sigilo_c0_4":0,"c5_9":10,"sigilo_c5_9":0,"i60_69":54,"sigilo_i60_69":0,"i70m":39,"sigilo_i70m":0,"indigenas":0,"sigilo_indigenas":0,"pretos_pardos":18,"sigilo_pretos_pardos":0,"dom_ocupados":107,"sigilo_dom_ocupados":0,"dom_agua":106,"sigilo_dom_agua":0,"dom_esgoto":null,"sigilo_dom_esgoto":1,"renda_resp":1965.73,"sigilo_renda_resp":0,"n_resp":107,"sigilo_n_resp":0,"dens":9.3,"sigilo_dens":false,"na_bacia":1,"area_pct_bacia":100.0,"metodo_recorte_bacia":"ponto_representativo_setor_2022; area_pct_geometrica","pop_n_validos":1,"pop_n_total":1,"pop_completude":1.0,"dom_n_validos":1,"dom_n_total":1,"dom_completude":1.0,"dom_ocupados_n_validos":1,"dom_ocupados_n_total":1,"dom_ocupados_completude":1.0,"mulheres_n_validos":1,"mulheres_n_total":1,"mulheres_completude":1.0,"c0_4_n_validos":1,"c0_4_n_total":1,"c0_4_completude":1.0,"c5_9_n_validos":1,"c5_9_n_total":1,"c5_9_completude":1.0,"i60_69_n_validos":1,"i60_69_n_total":1,"i60_69_completude":1.0,"i70m_n_validos":1,"i70m_n_total":1,"i70m_completude":1.0,"indigenas_n_validos":1,"indigenas_n_total":1,"indigenas_completude":1.0,"pretos_pardos_n_validos":1,"pretos_pardos_n_total":1,"pretos_pardos_completude":1.0,"dom_agua_n_validos":1,"dom_agua_n_total":1,"dom_agua_completude":1.0,"dom_esgoto_n_validos":0,"dom_esgoto_n_total":1,"dom_esgoto_completude":0.0,"n_resp_n_validos":1,"n_resp_n_total":1,"n_resp_completude":1.0,"renda_resp_n_validos":1,"renda_resp_n_total":1,"renda_resp_completude":1.0,"dens_n_validos":1,"dens_n_total":1,"dens_completude":1.0,"status_borda_bacia":"total","metodo_area_bacia":"interse??o geom?trica em EPSG:5880","metodo_na_bacia":"ponto_representativo_setor_2022_within_bacia","municipio":"Anta Gorda","cod_mun":"4300703","mun_pct_na_bacia":100.0,"mun_pop_total":5957,"mun_pop_na_bacia":5957.0,"mun_ubs_iede":2,"mun_hospitais_iede":1,"mun_escolas_iede":8,"mun_bombeiros_iede":null,"mun_servicos_cobertura":"cadastro_IEDE_parcial_nao_inventario","mun_icm_faixa":"C","mun_icm_pontos":11,"mun_icm_prioritario":"sim","mun_ubs_iede_status":"published","mun_hospitais_iede_status":"published","mun_escolas_iede_status":"published","mun_bombeiros_iede_status":"unknown"},"geometry":{"type":"Polygon","coordinates":[[[-51.918619699999965,-29.023884399999925],[-51.918875,-29.025349699999943],[-51.91785989999995,-29.028465699999973],[-51.9179721,-29.03122519999993],[-51.91746609999995,-29.03409169999998],[-51.916471699999924,-29.036316399999972],[-51.91529449999996,-29.037973299999976],[-51.91326929999997,-29.04166509999992],[-51.91784179999996,-29.049486699999925],[-51.91767749999997,-29.057558099999934],[-51.916666,-29.05995679999994],[-51.91773719999997,-29.06225429999995],[-51.92363149999994,-29.06558529999994],[-51.92634339999996,-29.068387899999948],[-51.92585149999996,-29.074865499999916],[-51.954714199999955,-29.074823],[-51.95514719999994,-29.074511399999952],[-51.95540339999997,-29.07415359999993],[-51.95529769999996,-29.07340359999995],[-51.95285519999993,-29.072512399999937],[-51.952445299999965,-29.071663],[-51.952617799999985,-29.070954899999947],[-51.953036299999944,-29.070477299999933],[-51.954344799999944,-29.069750599999963],[-51.95520229999995,-29.068242],[-51.95560929999993,-29.063585899999957],[-51.956352099999954,-29.06307629999998],[-51.96034629999997,-29.061834199999964],[-51.96226649999995,-29.05842079999997],[-51.96236109999996,-29.057753699999978],[-51.963866699999976,-29.056407099999944],[-51.96455569999995,-29.054773499999957],[-51.965554399999974,-29.053710399999947],[-51.96559049999996,-29.053229],[-51.96490659999995,-29.05223559999995],[-51.96482359999994,-29.05149229999995],[-51.965043,-29.051061199999943],[-51.967616599999985,-29.049382499999975],[-51.96767529999994,-29.048969099999987],[-51.967074699999955,-29.047814799999966],[-51.967064,-29.043212],[-51.96727089999996,-29.0426222],[-51.96770139999996,-29.042371099999965],[-51.96970059999996,-29.042419899999967],[-51.97000459999998,-29.042179699999963],[-51.97001719999997,-29.04168129999993],[-51.96926309999998,-29.040634799999957],[-51.969231,-29.040208],[-51.969628,-29.03943949999996],[-51.970027899999934,-29.039101799999965],[-51.97411439999996,-29.039162799999925],[-51.974356099999966,-29.03872739999997],[-51.974323,-29.037420099999963],[-51.975410099999976,-29.03672549999993],[-51.97692159999997,-29.036642199999964],[-51.97843929999994,-29.037074],[-51.97883239999993,-29.035550099999966],[-51.979264,-29.03504],[-51.98257289999999,-29.033050299999942],[-51.983471899999984,-29.032914899999977],[-51.98455539999998,-29.033271099999983],[-51.98635379999996,-29.033162599999958],[-51.987321399999985,-29.03289649999992],[-51.98781409999999,-29.03237859999996],[-51.988917199999946,-29.031802699999947],[-51.991042499999935,-29.031908399999967],[-51.991273499999984,-29.027141899999943],[-51.991693399999974,-29.027007799999982],[-51.98934679999997,-29.025491499999934],[-51.98837119999997,-29.024261899999935],[-51.98621549999996,-29.023072399999933],[-51.98467079999994,-29.023164499999943],[-51.984191,-29.023608],[-51.98086409999996,-29.025388],[-51.977835099999936,-29.025446],[-51.97708319999998,-29.024299799999934],[-51.97632189999996,-29.023641399999963],[-51.97584059999997,-29.023516099999938],[-51.973857,-29.02377989999996],[-51.973562499999964,-29.023216599999962],[-51.973791699999936,-29.022327299999958],[-51.97278529999994,-29.021794099999962],[-51.972477499999975,-29.02130729999993],[-51.97115579999996,-29.02032349999997],[-51.970547299999964,-29.02011819999996],[-51.96922239999998,-29.01888279999997],[-51.96793439999994,-29.019019399999923],[-51.96679149999994,-29.019907199999984],[-51.966290199999946,-29.01958869999992],[-51.96444739999998,-29.019442],[-51.96309679999996,-29.02015169999993],[-51.96067929999998,-29.020761],[-51.95953119999996,-29.02049349999993],[-51.95755389999994,-29.019043299999957],[-51.955842099999984,-29.01882889999996],[-51.95343859999997,-29.01960429999998],[-51.95282169999996,-29.01859209999996],[-51.950365799999986,-29.01789809999997],[-51.949499,-29.017865],[-51.94885459999994,-29.017293699999982],[-51.94722129999996,-29.01697],[-51.94545029999995,-29.01708629999996],[-51.94408509999994,-29.016658599999968],[-51.94265519999993,-29.01782049999996],[-51.93380819999993,-29.017212],[-51.93284569999997,-29.016911499999928],[-51.93012859999993,-29.017266899999985],[-51.929584699999964,-29.017666099999936],[-51.926865599999985,-29.01822],[-51.92576419999994,-29.01865249999996],[-51.92554039999993,-29.01891729999994],[-51.926815199999965,-29.019047],[-51.92741119999993,-29.019457499999938],[-51.924729,-29.021047799999952],[-51.92367889999997,-29.02103879999993],[-51.92285689999995,-29.02187],[-51.92073129999995,-29.022299699999955],[-51.920168,-29.022781],[-51.91948409999998,-29.022868499999962],[-51.918619699999965,-29.023884399999925]]]}},{"type":"Feature","properties":{"setor":"430070305000010","pop":56,"sigilo_pop":false,"dom":33,"sigilo_dom":0,"mulheres":26,"sigilo_mulheres":0,"c0_4":null,"sigilo_c0_4":1,"c5_9":null,"sigilo_c5_9":1,"i60_69":null,"sigilo_i60_69":1,"i70m":8,"sigilo_i70m":0,"indigenas":0,"sigilo_indigenas":0,"pretos_pardos":3,"sigilo_pretos_pardos":0,"dom_ocupados":20,"sigilo_dom_ocupados":0,"dom_agua":7,"sigilo_dom_agua":0,"dom_esgoto":0,"sigilo_dom_esgoto":0,"renda_resp":2131.6,"sigilo_renda_resp":0,"n_resp":20,"sigilo_n_resp":0,"dens":9.3,"sigilo_dens":false,"na_bacia":1,"area_pct_bacia":100.0,"metodo_recorte_bacia":"ponto_representativo_setor_2022; area_pct_geometrica","pop_n_validos":1,"pop_n_total":1,"pop_completude":1.0,"dom_n_validos":1,"dom_n_total":1,"dom_completude":1.0,"dom_ocupados_n_validos":1,"dom_ocupados_n_total":1,"dom_ocupados_completude":1.0,"mulheres_n_validos":1,"mulheres_n_total":1,"mulheres_completude":1.0,"c0_4_n_validos":0,"c0_4_n_total":1,"c0_4_completude":0.0,"c5_9_n_validos":0,"c5_9_n_total":1,"c5_9_completude":0.0,"i60_69_n_validos":0,"i60_69_n_total":1,"i60_69_completude":0.0,"i70m_n_validos":1,"i70m_n_total":1,"i70m_completude":1.0,"indigenas_n_validos":1,"indigenas_n_total":1,"indigenas_completude":1.0,"pretos_pardos_n_validos":1,"pretos_pardos_n_total":1,"pretos_pardos_completude":1.0,"dom_agua_n_validos":1,"dom_agua_n_total":1,"dom_agua_completude":1.0,"dom_esgoto_n_validos":1,"dom_esgoto_n_total":1,"dom_esgoto_completude":1.0,"n_resp_n_validos":1,"n_resp_n_total":1,"n_resp_completude":1.0,"renda_resp_n_validos":1,"renda_resp_n_total":1,"renda_resp_completude":1.0,"dens_n_validos":1,"dens_n_total":1,"dens_completude":1.0,"status_borda_bacia":"total","metodo_area_bacia":"interse??o geom?trica em EPSG:5880","metodo_na_bacia":"ponto_representativo_setor_2022_within_bacia","municipio":"Anta Gorda","cod_mun":"4300703","mun_pct_na_bacia":100.0,"mun_pop_total":5957,"mun_pop_na_bacia":5957.0,"mun_ubs_iede":2,"mun_hospitais_iede":1,"mun_escolas_iede":8,"mun_bombeiros_iede":null,"mun_servicos_cobertura":"cadastro_IEDE_parcial_nao_inventario","mun_icm_faixa":"C","mun_icm_pontos":11,"mun_icm_prioritario":"sim","mun_ubs_iede_status":"published","mun_hospitais_iede_status":"published","mun_escolas_iede_status":"published","mun_bombeiros_iede_status":"unknown"},"geometry":{"type":"Polygon","coordinates":[[[-51.994415099999976,-29.026099],[-51.991273499999984,-29.027141899999943],[-51.991042499999935,-29.031908399999967],[-51.988917199999946,-29.031802699999947],[-51.98781409999999,-29.03237859999996],[-51.987321399999985,-29.03289649999992],[-51.98635379999996,-29.033162599999958],[-51.98455539999998,-29.033271099999983],[-51.983471899999984,-29.032914899999977],[-51.98257289999999,-29.033050299999942],[-51.979264,-29.03504],[-51.97883239999993,-29.035550099999966],[-51.97843929999994,-29.037074],[-51.97692159999997,-29.036642199999964],[-51.975410099999976,-29.03672549999993],[-51.974323,-29.037420099999963],[-51.974356099999966,-29.03872739999997],[-51.97411439999996,-29.039162799999925],[-52.02109729999995,-29.03967719999998],[-52.02120049999996,-29.038892099999938],[-52.02205249999997,-29.03823739999996],[-52.02256749999998,-29.0380982],[-52.024129099999975,-29.0384],[-52.02471849999995,-29.038058599999943],[-52.025283599999966,-29.03732509999997],[-52.02927829999993,-29.03783989999995],[-52.03003979999995,-29.037346599999978],[-52.030033799999956,-29.035210499999955],[-52.03029939999993,-29.034935299999965],[-52.030681899999934,-29.03476939999997],[-52.03338269999995,-29.034888899999938],[-52.03454019999999,-29.034165599999945],[-52.034090299999946,-29.03309929999994],[-52.03349859999998,-29.032526],[-52.03133249999996,-29.03163789999996],[-52.031073,-29.03027469999995],[-52.02949179999996,-29.029760799999963],[-52.02790439999995,-29.029832799999962],[-52.02771069999994,-29.030251099999933],[-52.02644009999995,-29.030060599999953],[-52.02373369999998,-29.02908539999993],[-52.02092959999994,-29.027458799999977],[-52.02001829999995,-29.027339699999978],[-52.01846629999994,-29.027638399999947],[-52.01774969999997,-29.027421799999946],[-52.01179389999999,-29.02738659999995],[-52.01174269999996,-29.02869119999996],[-52.01069129999997,-29.02861879999994],[-52.009632099999976,-29.027621299999957],[-52.008994599999944,-29.028392499999935],[-52.00801139999999,-29.027595099999928],[-52.00818169999996,-29.02727649999997],[-52.00706039999994,-29.026021299999968],[-52.005008799999985,-29.024909399999956],[-52.003822399999926,-29.025319899999953],[-52.00349079999995,-29.02590469999995],[-52.001892199999986,-29.026216399999946],[-52.00085389999999,-29.026811499999944],[-52.000345299999935,-29.026476899999984],[-51.99965319999995,-29.025287699999964],[-51.99877779999997,-29.025006499999957],[-51.99800349999998,-29.02524989999994],[-51.99724569999995,-29.026058299999928],[-51.99681049999998,-29.026211599999968],[-51.994415099999976,-29.026099]]]}},{"type":"Feature","properties":{"setor":"430070305000011","pop":325,"sigilo_pop":false,"dom":139,"sigilo_dom":0,"mulheres":158,"sigilo_mulheres":0,"c0_4":14,"sigilo_c0_4":0,"c5_9":22,"sigilo_c5_9":0,"i60_69":48,"sigilo_i60_69":0,"i70m":61,"sigilo_i70m":0,"indigenas":null,"sigilo_indigenas":1,"pretos_pardos":22,"sigilo_pretos_pardos":0,"dom_ocupados":120,"sigilo_dom_ocupados":0,"dom_agua":98,"sigilo_dom_agua":0,"dom_esgoto":null,"sigilo_dom_esgoto":1,"renda_resp":6612.58,"sigilo_renda_resp":0,"n_resp":120,"sigilo_n_resp":0,"dens":14.8,"sigilo_dens":false,"na_bacia":1,"area_pct_bacia":100.0,"metodo_recorte_bacia":"ponto_representativo_setor_2022; area_pct_geometrica","pop_n_validos":1,"pop_n_total":1,"pop_completude":1.0,"dom_n_validos":1,"dom_n_total":1,"dom_completude":1.0,"dom_ocupados_n_validos":1,"dom_ocupados_n_total":1,"dom_ocupados_completude":1.0,"mulheres_n_validos":1,"mulheres_n_total":1,"mulheres_completude":1.0,"c0_4_n_validos":1,"c0_4_n_total":1,"c0_4_completude":1.0,"c5_9_n_validos":1,"c5_9_n_total":1,"c5_9_completude":1.0,"i60_69_n_validos":1,"i60_69_n_total":1,"i60_69_completude":1.0,"i70m_n_validos":1,"i70m_n_total":1,"i70m_completude":1.0,"indigenas_n_validos":0,"indigenas_n_total":1,"indigenas_completude":0.0,"pretos_pardos_n_validos":1,"pretos_pardos_n_total":1,"pretos_pardos_completude":1.0,"dom_agua_n_validos":1,"dom_agua_n_total":1,"dom_agua_completude":1.0,"dom_esgoto_n_validos":0,"dom_esgoto_n_total":1,"dom_esgoto_completude":0.0,"n_resp_n_validos":1,"n_resp_n_total":1,"n_resp_completude":1.0,"renda_resp_n_validos":1,"renda_resp_n_total":1,"renda_resp_completude":1.0,"dens_n_validos":1,"dens_n_total":1,"dens_completude":1.0,"status_borda_bacia":"total","metodo_area_bacia":"interse??o geom?trica em EPSG:5880","metodo_na_bacia":"ponto_representativo_setor_2022_within_bacia","municipio":"Anta Gorda","cod_mun":"4300703","mun_pct_na_bacia":100.0,"mun_pop_total":5957,"mun_pop_na_bacia":5957.0,"mun_ubs_iede":2,"mun_hospitais_iede":1,"mun_escolas_iede":8,"mun_bombeiros_iede":null,"mun_servicos_cobertura":"cadastro_IEDE_parcial_nao_inventario","mun_icm_faixa":"C","mun_icm_pontos":11,"mun_icm_prioritario":"sim","mun_ubs_iede_status":"published","mun_hospitais_iede_status":"published","mun_escolas_iede_status":"published","mun_bombeiros_iede_status":"unknown"},"geometry":{"type":"Polygon","coordinates":[[[-52.05785239999995,-29.018818299999964],[-52.057739699999956,-29.018658799999965],[-52.05530759999994,-29.018527899999977],[-52.054846699999985,-29.01749889999996],[-52.055371399999956,-29.01691809999993],[-52.055330699999956,-29.016516],[-52.05292609999998,-29.0157713],[-52.05192069999998,-29.015036499999955],[-52.052488299999936,-29.013362299999976],[-52.05196739999997,-29.01276009999998],[-52.05303989999992,-29.012121],[-52.053355099999976,-29.011303099999967],[-52.05320819999998,-29.01042369999993],[-52.05245529999997,-29.009907199999923],[-52.05243349999996,-29.00968019999994],[-52.05354979999998,-29.009352799999917],[-52.05392709999995,-29.008526699999948],[-52.05416989999997,-29.00844749999994],[-52.05541509999994,-29.00977989999995],[-52.057032399999976,-29.010956599999933],[-52.06042369999995,-29.011237099999967],[-52.061087,-29.010850199999943],[-52.061569799999965,-29.00568259999995],[-52.066909399999986,-29.00614009999997],[-52.06757269999997,-28.99735119999997],[-52.07762989999998,-28.998322],[-52.07841679999996,-28.989312899999955],[-52.07504339999997,-28.98902249999997],[-52.073997099999985,-28.98586269999993],[-52.07192079999999,-28.98608559999996],[-52.071185199999945,-28.98583439999994],[-52.068381,-28.985766299999966],[-52.06739239999997,-28.98620269999997],[-52.065834,-28.985581299999986],[-52.06543179999994,-28.98643509999993],[-52.06622829999998,-28.98803559999993],[-52.06542429999997,-28.98835049999998],[-52.065112,-28.98836649999998],[-52.063849499999954,-28.987171299999943],[-52.06169659999995,-28.986465899999942],[-52.06013279999997,-28.98832969999995],[-52.05837049999997,-28.988407899999963],[-52.05598,-28.988009799999933],[-52.05586919999997,-28.98664969999992],[-52.054690799999946,-28.98605449999997],[-52.053559699999944,-28.98636929999997],[-52.052859599999984,-28.9859441],[-52.05135869999999,-28.986286099999965],[-52.05096309999993,-28.98693039999995],[-52.05006929999996,-28.98628459999998],[-52.048857099999964,-28.986190699999955],[-52.050430699999936,-28.983889799999925],[-52.050065899999936,-28.98347269999994],[-52.04978729999994,-28.983480199999963],[-52.04836049999995,-28.98471069999993],[-52.04677559999993,-28.984524099999927],[-52.046050099999945,-28.984139899999946],[-52.04456219999997,-28.98426379999996],[-52.044278099999985,-28.98513859999997],[-52.04484059999998,-28.986230799999934],[-52.0446515,-28.98688519999996],[-52.043578199999956,-28.987422],[-52.043494,-28.987820499999934],[-52.04295019999995,-28.988242799999973],[-52.042860399999945,-28.98912939999996],[-52.04146009999994,-28.989205199999958],[-52.0411453,-28.98878839999997],[-52.04033009999995,-28.988536399999926],[-52.04021249999994,-28.987595399999964],[-52.03972119999998,-28.987003299999966],[-52.038190099999944,-28.987229],[-52.03833569999995,-28.985468799999975],[-52.038570799999945,-28.98504169999996],[-52.037442,-28.984430899999943],[-52.03453339999999,-28.984280599999973],[-52.03354849999994,-28.983974299999943],[-52.032491799999946,-28.984218399999964],[-52.028696499999974,-28.985796599999965],[-52.02785049999994,-28.986590099999948],[-52.027036899999985,-28.987917099999933],[-52.025303,-28.98907189999995],[-52.022914399999934,-28.98994129999994],[-52.022231599999934,-28.989669599999953],[-52.02057729999996,-28.989655899999942],[-52.01844909999994,-28.990061899999944],[-52.01324029999994,-28.991527699999953],[-52.012579399999936,-28.99177559999998],[-52.011567,-28.99285849999995],[-52.00895509999998,-28.993605499999955],[-52.00154869999995,-28.992967799999988],[-52.00318539999994,-28.994848599999955],[-52.00382749999995,-28.99611049999993],[-52.00469019999997,-28.997160399999924],[-52.01319309999996,-29.006219499999926],[-52.01508409999997,-29.00687429999995],[-52.01692289999994,-29.006524299999967],[-52.01741529999998,-29.00685469999997],[-52.01760069999995,-29.007759899999925],[-52.017724399999956,-29.008724299999983],[-52.01732829999998,-29.009830299999972],[-52.01506529999995,-29.011043399999952],[-52.01394979999997,-29.012220699999943],[-52.01358609999995,-29.012756399999944],[-52.013417599999975,-29.01467],[-52.012221899999986,-29.015598199999946],[-52.01204179999997,-29.016000099999932],[-52.012086899999986,-29.016485499999934],[-52.013656,-29.01802469999994],[-52.013950799999975,-29.020125899999975],[-52.01292539999998,-29.020488699999923],[-52.01076169999993,-29.022698],[-52.010029299999985,-29.023017099999937],[-52.009995,-29.023560699999955],[-52.00962369999996,-29.023653],[-52.00801139999999,-29.027595099999928],[-52.00873489999997,-29.02832679999995],[-52.008994599999944,-29.028392499999935],[-52.009632099999976,-29.027621299999957],[-52.01069129999997,-29.02861879999994],[-52.01174269999996,-29.02869119999996],[-52.01179389999999,-29.02738659999995],[-52.01774969999997,-29.027421799999946],[-52.01846629999994,-29.027638399999947],[-52.02001829999995,-29.027339699999978],[-52.02092959999994,-29.027458799999977],[-52.02373369999998,-29.02908539999993],[-52.02644009999995,-29.030060599999953],[-52.02771069999994,-29.030251099999933],[-52.02790439999995,-29.029832799999962],[-52.02949179999996,-29.029760799999963],[-52.031073,-29.03027469999995],[-52.03133249999996,-29.03163789999996],[-52.03349859999998,-29.032526],[-52.034090299999946,-29.03309929999994],[-52.03454019999999,-29.034165599999945],[-52.035068499999966,-29.029115499999925],[-52.03638029999996,-29.026379799999972],[-52.03652519999997,-29.02431679999996],[-52.03733849999998,-29.023084699999973],[-52.03869069999997,-29.022108399999983],[-52.039263699999935,-29.02075359999998],[-52.03932579999997,-29.01969839999997],[-52.04034839999997,-29.019221],[-52.04148509999994,-29.01778419999993],[-52.04379949999998,-29.017877899999966],[-52.04484569999994,-29.017650299999964],[-52.044902199999974,-29.017928099999935],[-52.04560479999998,-29.018408699999952],[-52.04702269999996,-29.018485],[-52.047222,-29.019794499999932],[-52.04747879999996,-29.020025599999947],[-52.048707,-29.020587699999968],[-52.04980919999996,-29.020600899999977],[-52.05081959999995,-29.021412399999985],[-52.051602799999955,-29.020563199999966],[-52.05242939999994,-29.02020489999995],[-52.05400349999997,-29.019706599999953],[-52.055660099999955,-29.019829],[-52.05614139999995,-29.019520699999934],[-52.05671169999994,-29.019582],[-52.05785239999995,-29.018818299999964]]]}},{"type":"Feature","properties":{"setor":"430070305000012","pop":361,"sigilo_pop":false,"dom":159,"sigilo_dom":0,"mulheres":173,"sigilo_mulheres":0,"c0_4":18,"sigilo_c0_4":0,"c5_9":24,"sigilo_c5_9":0,"i60_69":67,"sigilo_i60_69":0,"i70m":38,"sigilo_i70m":0,"indigenas":0,"sigilo_indigenas":0,"pretos_pardos":29,"sigilo_pretos_pardos":0,"dom_ocupados":122,"sigilo_dom_ocupados":0,"dom_agua":66,"sigilo_dom_agua":0,"dom_esgoto":null,"sigilo_dom_esgoto":1,"renda_resp":5829.51,"sigilo_renda_resp":0,"n_resp":122,"sigilo_n_resp":0,"dens":15.6,"sigilo_dens":false,"na_bacia":1,"area_pct_bacia":100.0,"metodo_recorte_bacia":"ponto_representativo_setor_2022; area_pct_geometrica","pop_n_validos":1,"pop_n_total":1,"pop_completude":1.0,"dom_n_validos":1,"dom_n_total":1,"dom_completude":1.0,"dom_ocupados_n_validos":1,"dom_ocupados_n_total":1,"dom_ocupados_completude":1.0,"mulheres_n_validos":1,"mulheres_n_total":1,"mulheres_completude":1.0,"c0_4_n_validos":1,"c0_4_n_total":1,"c0_4_completude":1.0,"c5_9_n_validos":1,"c5_9_n_total":1,"c5_9_completude":1.0,"i60_69_n_validos":1,"i60_69_n_total":1,"i60_69_completude":1.0,"i70m_n_validos":1,"i70m_n_total":1,"i70m_completude":1.0,"indigenas_n_validos":1,"indigenas_n_total":1,"indigenas_completude":1.0,"pretos_pardos_n_validos":1,"pretos_pardos_n_total":1,"pretos_pardos_completude":1.0,"dom_agua_n_validos":1,"dom_agua_n_total":1,"dom_agua_completude":1.0,"dom_esgoto_n_validos":0,"dom_esgoto_n_total":1,"dom_esgoto_completude":0.0,"n_resp_n_validos":1,"n_resp_n_total":1,"n_resp_completude":1.0,"renda_resp_n_validos":1,"renda_resp_n_total":1,"renda_resp_completude":1.0,"dens_n_validos":1,"dens_n_total":1,"dens_completude":1.0,"status_borda_bacia":"total","metodo_area_bacia":"interse??o geom?trica em EPSG:5880","metodo_na_bacia":"ponto_representativo_setor_2022_within_bacia","municipio":"Anta Gorda","cod_mun":"4300703","mun_pct_na_bacia":100.0,"mun_pop_total":5957,"mun_pop_na_bacia":5957.0,"mun_ubs_iede":2,"mun_hospitais_iede":1,"mun_escolas_iede":8,"mun_bombeiros_iede":null,"mun_servicos_cobertura":"cadastro_IEDE_parcial_nao_inventario","mun_icm_faixa":"C","mun_icm_pontos":11,"mun_icm_prioritario":"sim","mun_ubs_iede_status":"published","mun_hospitais_iede_status":"published","mun_escolas_iede_status":"published","mun_bombeiros_iede_status":"unknown"},"geometry":{"type":"Polygon","coordinates":[[[-52.09116349999994,-28.989728],[-52.09204289999997,-28.980435699999923],[-52.06958879999996,-28.979624299999948],[-52.0708,-28.96078079999995],[-52.06867079999995,-28.96067539999995],[-52.06973209999996,-28.943367199999944],[-52.066999599999974,-28.943122],[-52.06780949999996,-28.934971599999976],[-52.0662066,-28.935573],[-52.06477249999995,-28.935705899999963],[-52.063968699999975,-28.936280899999936],[-52.063383399999964,-28.936388799999982],[-52.06207759999995,-28.935762799999967],[-52.059975,-28.935297899999966],[-52.05896459999997,-28.935771499999916],[-52.058341,-28.93644259999995],[-52.05569529999997,-28.937750299999944],[-52.05551939999999,-28.93878819999997],[-52.05389669999993,-28.939451899999934],[-52.05306,-28.940053399999954],[-52.05123329999998,-28.9407265],[-52.05046949999996,-28.940779],[-52.04669259999998,-28.93969329999993],[-52.04411279999994,-28.939745899999934],[-52.03936169999997,-28.9411],[-52.038540599999976,-28.940978699999953],[-52.038160199999936,-28.94113069999997],[-52.03717809999995,-28.942045899999975],[-52.037044899999955,-28.94316539999994],[-52.036165599999954,-28.943722899999948],[-52.036117899999965,-28.944422499999973],[-52.03664889999993,-28.94518449999998],[-52.03377179999995,-28.94767689999997],[-52.033226799999966,-28.948976],[-52.033469699999955,-28.949834099999975],[-52.03422,-28.950272799999937],[-52.03365659999997,-28.951032399999967],[-52.034235499999966,-28.951408],[-52.03496889999997,-28.951535],[-52.03522809999998,-28.95203679999998],[-52.03442029999997,-28.95346939999995],[-52.03445379999994,-28.954533099999917],[-52.033875199999954,-28.95514719999994],[-52.03359969999997,-28.957044],[-52.03303949999997,-28.957502599999955],[-52.03196049999997,-28.95931349999995],[-52.03039719999998,-28.959184099999952],[-52.030006,-28.959676],[-52.02843879999994,-28.960107399999973],[-52.027746199999974,-28.960534299999946],[-52.02735149999995,-28.961077699999972],[-52.025305199999934,-28.960734099999968],[-52.022791899999966,-28.961297199999933],[-52.02162789999994,-28.960986799999937],[-52.02081389999995,-28.9610696],[-52.01830529999995,-28.96163469999993],[-52.016917,-28.960662599999964],[-52.01387329999995,-28.959316599999966],[-52.012742299999964,-28.958590699999938],[-52.01194559999993,-28.958439199999923],[-52.010937499999955,-28.958874299999934],[-52.009157499999965,-28.96023189999994],[-52.00839789999998,-28.961688499999976],[-52.00790089999998,-28.962166],[-52.00452909999995,-28.964409099999962],[-52.003809099999955,-28.965212099999977],[-52.004258499999935,-28.966232099999964],[-52.004495599999984,-28.967935399999934],[-52.005809599999964,-28.96797239999996],[-52.00635429999994,-28.968481899999972],[-52.00657229999996,-28.969245799999946],[-52.00695829999995,-28.969447499999937],[-52.007646399999935,-28.969278499999987],[-52.00806839999996,-28.968679599999966],[-52.008744299999925,-28.96841739999997],[-52.01038119999998,-28.968883199999933],[-52.012501,-28.969061699999926],[-52.012931899999955,-28.969430299999953],[-52.01304219999997,-28.97002439999994],[-52.01355849999993,-28.970011499999934],[-52.013773,-28.969480299999926],[-52.01409969999998,-28.969325],[-52.01546889999997,-28.96908839999998],[-52.01623949999998,-28.96856979999995],[-52.01771669999993,-28.968489899999952],[-52.01820259999993,-28.968183599999975],[-52.01896789999995,-28.96848739999996],[-52.02019519999994,-28.969555199999945],[-52.02120419999995,-28.969722],[-52.02111179999998,-28.971002599999977],[-52.024778499999975,-28.970467299999935],[-52.025457499999966,-28.970530299999957],[-52.027395599999984,-28.971562399999975],[-52.02748839999998,-28.972205599999924],[-52.02847529999997,-28.974119199999965],[-52.02972049999994,-28.97530829999993],[-52.03165479999996,-28.97660189999994],[-52.03381729999995,-28.978567399999978],[-52.035668,-28.979487799999962],[-52.03664269999996,-28.979606699999984],[-52.03798089999998,-28.98017969999994],[-52.03853319999996,-28.98144779999996],[-52.038948499999954,-28.981706599999935],[-52.039213,-28.982574299999953],[-52.03840289999993,-28.983425],[-52.039247699999976,-28.98455509999996],[-52.03833569999995,-28.985468799999975],[-52.038190099999944,-28.987229],[-52.03972119999998,-28.987003299999966],[-52.04021249999994,-28.987595399999964],[-52.04033009999995,-28.988536399999926],[-52.0411453,-28.98878839999997],[-52.04146009999994,-28.989205199999958],[-52.042860399999945,-28.98912939999996],[-52.04295019999995,-28.988242799999973],[-52.043494,-28.987820499999934],[-52.043578199999956,-28.987422],[-52.0446515,-28.98688519999996],[-52.04484059999998,-28.986230799999934],[-52.044278099999985,-28.98513859999997],[-52.04456219999997,-28.98426379999996],[-52.046050099999945,-28.984139899999946],[-52.04677559999993,-28.984524099999927],[-52.04836049999995,-28.98471069999993],[-52.04978729999994,-28.983480199999963],[-52.050065899999936,-28.98347269999994],[-52.050430699999936,-28.983889799999925],[-52.048857099999964,-28.986190699999955],[-52.05006929999996,-28.98628459999998],[-52.05096309999993,-28.98693039999995],[-52.05135869999999,-28.986286099999965],[-52.052859599999984,-28.9859441],[-52.053559699999944,-28.98636929999997],[-52.054216199999985,-28.986067],[-52.05525469999998,-28.98619389999993],[-52.05586919999997,-28.98664969999992],[-52.055926,-28.98780539999995],[-52.05615049999995,-28.988104899999943],[-52.059167,-28.98846479999998],[-52.06013279999997,-28.98832969999995],[-52.06048419999996,-28.988123399999957],[-52.061433,-28.986604399999976],[-52.06201149999998,-28.986469699999926],[-52.063849499999954,-28.987171299999943],[-52.065112,-28.98836649999998],[-52.06542429999997,-28.98835049999998],[-52.06622829999998,-28.98803559999993],[-52.06543179999994,-28.98643509999993],[-52.065834,-28.985581299999986],[-52.06739239999997,-28.98620269999997],[-52.068381,-28.985766299999966],[-52.071185199999945,-28.98583439999994],[-52.07192079999999,-28.98608559999996],[-52.07365859999993,-28.985796399999963],[-52.074208399999975,-28.986107899999986],[-52.07489,-28.988677099999954],[-52.07504339999997,-28.98902249999997],[-52.075481399999944,-28.989135699999952],[-52.09116349999994,-28.989728]]]}},{"type":"Feature","properties":{"setor":"430070305000013","pop":553,"sigilo_pop":false,"dom":237,"sigilo_dom":0,"mulheres":292,"sigilo_mulheres":0,"c0_4":26,"sigilo_c0_4":0,"c5_9":28,"sigilo_c5_9":0,"i60_69":70,"sigilo_i60_69":0,"i70m":65,"sigilo_i70m":0,"indigenas":0,"sigilo_indigenas":0,"pretos_pardos":44,"sigilo_pretos_pardos":0,"dom_ocupados":221,"sigilo_dom_ocupados":0,"dom_agua":221,"sigilo_dom_agua":0,"dom_esgoto":0,"sigilo_dom_esgoto":0,"renda_resp":2572.8,"sigilo_renda_resp":0,"n_resp":221,"sigilo_n_resp":0,"dens":2222.2,"sigilo_dens":false,"na_bacia":1,"area_pct_bacia":100.0,"metodo_recorte_bacia":"ponto_representativo_setor_2022; area_pct_geometrica","pop_n_validos":1,"pop_n_total":1,"pop_completude":1.0,"dom_n_validos":1,"dom_n_total":1,"dom_completude":1.0,"dom_ocupados_n_validos":1,"dom_ocupados_n_total":1,"dom_ocupados_completude":1.0,"mulheres_n_validos":1,"mulheres_n_total":1,"mulheres_completude":1.0,"c0_4_n_validos":1,"c0_4_n_total":1,"c0_4_completude":1.0,"c5_9_n_validos":1,"c5_9_n_total":1,"c5_9_completude":1.0,"i60_69_n_validos":1,"i60_69_n_total":1,"i60_69_completude":1.0,"i70m_n_validos":1,"i70m_n_total":1,"i70m_completude":1.0,"indigenas_n_validos":1,"indigenas_n_total":1,"indigenas_completude":1.0,"pretos_pardos_n_validos":1,"pretos_pardos_n_total":1,"pretos_pardos_completude":1.0,"dom_agua_n_validos":1,"dom_agua_n_total":1,"dom_agua_completude":1.0,"dom_esgoto_n_validos":1,"dom_esgoto_n_total":1,"dom_esgoto_completude":1.0,"n_resp_n_validos":1,"n_resp_n_total":1,"n_resp_completude":1.0,"renda_resp_n_validos":1,"renda_resp_n_total":1,"renda_resp_completude":1.0,"dens_n_validos":1,"dens_n_total":1,"dens_completude":1.0,"status_borda_bacia":"total","metodo_area_bacia":"interse??o geom?trica em EPSG:5880","metodo_na_bacia":"ponto_representativo_setor_2022_within_bacia","municipio":"Anta Gorda","cod_mun":"4300703","mun_pct_na_bacia":100.0,"mun_pop_total":5957,"mun_pop_na_bacia":5957.0,"mun_ubs_iede":2,"mun_hospitais_iede":1,"mun_escolas_iede":8,"mun_bombeiros_iede":null,"mun_servicos_cobertura":"cadastro_IEDE_parcial_nao_inventario","mun_icm_faixa":"C","mun_icm_pontos":11,"mun_icm_prioritario":"sim","mun_ubs_iede_status":"published","mun_hospitais_iede_status":"published","mun_escolas_iede_status":"published","mun_bombeiros_iede_status":"unknown"},"geometry":{"type":"Polygon","coordinates":[[[-52.00349269999998,-28.969576],[-52.00427519999994,-28.968713],[-52.00466229999995,-28.969128699999953],[-52.00524829999994,-28.97160329999997],[-52.010537599999964,-28.970694599999945],[-52.01011989999995,-28.968796799999947],[-52.008744299999925,-28.96841739999997],[-52.00832459999998,-28.968488199999975],[-52.007646399999935,-28.969278499999987],[-52.00695829999995,-28.969447499999937],[-52.00657229999996,-28.969245799999946],[-52.00635429999994,-28.968481899999972],[-52.005809599999964,-28.96797239999996],[-52.004495599999984,-28.967935399999934],[-52.004258499999935,-28.966232099999964],[-52.00355,-28.964627699999927],[-52.00196119999998,-28.96550079999997],[-52.00246919999995,-28.966218799999982],[-52.002207,-28.96958009999997],[-52.00349269999998,-28.969576]]]}},{"type":"Feature","properties":{"setor":"430070305000014","pop":676,"sigilo_pop":false,"dom":317,"sigilo_dom":0,"mulheres":356,"sigilo_mulheres":0,"c0_4":33,"sigilo_c0_4":0,"c5_9":30,"sigilo_c5_9":0,"i60_69":100,"sigilo_i60_69":0,"i70m":94,"sigilo_i70m":0,"indigenas":0,"sigilo_indigenas":0,"pretos_pardos":25,"sigilo_pretos_pardos":0,"dom_ocupados":270,"sigilo_dom_ocupados":0,"dom_agua":270,"sigilo_dom_agua":0,"dom_esgoto":99,"sigilo_dom_esgoto":0,"renda_resp":2977.78,"sigilo_renda_resp":0,"n_resp":270,"sigilo_n_resp":0,"dens":926.8,"sigilo_dens":false,"na_bacia":1,"area_pct_bacia":100.0,"metodo_recorte_bacia":"ponto_representativo_setor_2022; area_pct_geometrica","pop_n_validos":1,"pop_n_total":1,"pop_completude":1.0,"dom_n_validos":1,"dom_n_total":1,"dom_completude":1.0,"dom_ocupados_n_validos":1,"dom_ocupados_n_total":1,"dom_ocupados_completude":1.0,"mulheres_n_validos":1,"mulheres_n_total":1,"mulheres_completude":1.0,"c0_4_n_validos":1,"c0_4_n_total":1,"c0_4_completude":1.0,"c5_9_n_validos":1,"c5_9_n_total":1,"c5_9_completude":1.0,"i60_69_n_validos":1,"i60_69_n_total":1,"i60_69_completude":1.0,"i70m_n_validos":1,"i70m_n_total":1,"i70m_completude":1.0,"indigenas_n_validos":1,"indigenas_n_total":1,"indigenas_completude":1.0,"pretos_pardos_n_validos":1,"pretos_pardos_n_total":1,"pretos_pardos_completude":1.0,"dom_agua_n_validos":1,"dom_agua_n_total":1,"dom_agua_completude":1.0,"dom_esgoto_n_validos":1,"dom_esgoto_n_total":1,"dom_esgoto_completude":1.0,"n_resp_n_validos":1,"n_resp_n_total":1,"n_resp_completude":1.0,"renda_resp_n_validos":1,"renda_resp_n_total":1,"renda_resp_completude":1.0,"dens_n_validos":1,"dens_n_total":1,"dens_completude":1.0,"status_borda_bacia":"total","metodo_area_bacia":"interse??o geom?trica em EPSG:5880","metodo_na_bacia":"ponto_representativo_setor_2022_within_bacia","municipio":"Anta Gorda","cod_mun":"4300703","mun_pct_na_bacia":100.0,"mun_pop_total":5957,"mun_pop_na_bacia":5957.0,"mun_ubs_iede":2,"mun_hospitais_iede":1,"mun_escolas_iede":8,"mun_bombeiros_iede":null,"mun_servicos_cobertura":"cadastro_IEDE_parcial_nao_inventario","mun_icm_faixa":"C","mun_icm_pontos":11,"mun_icm_prioritario":"sim","mun_ubs_iede_status":"published","mun_hospitais_iede_status":"published","mun_escolas_iede_status":"published","mun_bombeiros_iede_status":"unknown"},"geometry":{"type":"Polygon","coordinates":[[[-51.99643909999998,-28.983790299999963],[-51.99946219999998,-28.98249939999994],[-51.999287299999935,-28.98170139999996],[-51.99941679999995,-28.979730199999942],[-52.00185369999996,-28.97962859999996],[-52.003332899999975,-28.978025099999964],[-52.002914299999986,-28.977108],[-52.00292119999995,-28.975640499999937],[-52.00358589999996,-28.975650399999946],[-52.00366279999997,-28.974191799999968],[-52.004593299999954,-28.974231799999988],[-52.004632199999946,-28.97362349999997],[-52.00364849999995,-28.969512899999984],[-52.00085939999997,-28.969711399999927],[-51.999593299999965,-28.97054639999993],[-51.99942619999997,-28.974985699999923],[-52.00050189999996,-28.97518269999994],[-51.9988,-28.976394499999973],[-51.99759859999995,-28.97754359999992],[-51.997217399999954,-28.978216199999956],[-51.99646859999995,-28.978211],[-51.99658229999994,-28.978890699999965],[-51.994453799999974,-28.979588799999924],[-51.99386219999996,-28.980283499999917],[-51.99367179999996,-28.980864299999954],[-51.99422809999999,-28.98283219999995],[-51.994891,-28.982621],[-51.996174,-28.983160199999936],[-51.99643909999998,-28.983790299999963]]]}},{"type":"Feature","properties":{"setor":"430070310000001","pop":87,"sigilo_pop":false,"dom":44,"sigilo_dom":0,"mulheres":41,"sigilo_mulheres":0,"c0_4":3,"sigilo_c0_4":0,"c5_9":null,"sigilo_c5_9":1,"i60_69":22,"sigilo_i60_69":0,"i70m":13,"sigilo_i70m":0,"indigenas":0,"sigilo_indigenas":0,"pretos_pardos":5,"sigilo_pretos_pardos":0,"dom_ocupados":40,"sigilo_dom_ocupados":0,"dom_agua":40,"sigilo_dom_agua":0,"dom_esgoto":0,"sigilo_dom_esgoto":0,"renda_resp":4016.4,"sigilo_renda_resp":0,"n_resp":40,"sigilo_n_resp":0,"dens":163.8,"sigilo_dens":false,"na_bacia":1,"area_pct_bacia":100.0,"metodo_recorte_bacia":"ponto_representativo_setor_2022; area_pct_geometrica","pop_n_validos":1,"pop_n_total":1,"pop_completude":1.0,"dom_n_validos":1,"dom_n_total":1,"dom_completude":1.0,"dom_ocupados_n_validos":1,"dom_ocupados_n_total":1,"dom_ocupados_completude":1.0,"mulheres_n_validos":1,"mulheres_n_total":1,"mulheres_completude":1.0,"c0_4_n_validos":1,"c0_4_n_total":1,"c0_4_completude":1.0,"c5_9_n_validos":0,"c5_9_n_total":1,"c5_9_completude":0.0,"i60_69_n_validos":1,"i60_69_n_total":1,"i60_69_completude":1.0,"i70m_n_validos":1,"i70m_n_total":1,"i70m_completude":1.0,"indigenas_n_validos":1,"indigenas_n_total":1,"indigenas_completude":1.0,"pretos_pardos_n_validos":1,"pretos_pardos_n_total":1,"pretos_pardos_completude":1.0,"dom_agua_n_validos":1,"dom_agua_n_total":1,"dom_agua_completude":1.0,"dom_esgoto_n_validos":1,"dom_esgoto_n_total":1,"dom_esgoto_completude":1.0,"n_resp_n_validos":1,"n_resp_n_total":1,"n_resp_completude":1.0,"renda_resp_n_validos":1,"renda_resp_n_total":1,"renda_resp_completude":1.0,"dens_n_validos":1,"dens_n_total":1,"dens_completude":1.0,"status_borda_bacia":"total","metodo_area_bacia":"interse??o geom?trica em EPSG:5880","metodo_na_bacia":"ponto_representativo_setor_2022_within_bacia","municipio":"Anta Gorda","cod_mun":"4300703","mun_pct_na_bacia":100.0,"mun_pop_total":5957,"mun_pop_na_bacia":5957.0,"mun_ubs_iede":2,"mun_hospitais_iede":1,"mun_escolas_iede":8,"mun_bombeiros_iede":null,"mun_servicos_cobertura":"cadastro_IEDE_parcial_nao_inventario","mun_icm_faixa":"C","mun_icm_pontos":11,"mun_icm_prioritario":"sim","mun_ubs_iede_status":"published","mun_hospitais_iede_status":"published","mun_escolas_iede_status":"published","mun_bombeiros_iede_status":"unknown"},"geometry":{"type":"Polygon","coordinates":[[[-52.031358099999984,-28.891827799999934],[-52.03135849999995,-28.89628649999997],[-52.03247879999998,-28.895811799999937],[-52.03749179999994,-28.896049099999964],[-52.03843239999998,-28.896435699999977],[-52.041206399999965,-28.896265099999944],[-52.04227459999998,-28.896792099999956],[-52.04226489999997,-28.892353699999948],[-52.04075669999998,-28.8918561],[-52.03751649999999,-28.89147649999995],[-52.03236559999994,-28.89147129999998],[-52.031358099999984,-28.891827799999934]]]}},{"type":"Feature","properties":{"setor":"430070310000002","pop":345,"sigilo_pop":false,"dom":149,"sigilo_dom":0,"mulheres":164,"sigilo_mulheres":0,"c0_4":14,"sigilo_c0_4":0,"c5_9":16,"sigilo_c5_9":0,"i60_69":62,"sigilo_i60_69":0,"i70m":51,"sigilo_i70m":0,"indigenas":0,"sigilo_indigenas":0,"pretos_pardos":6,"sigilo_pretos_pardos":0,"dom_ocupados":116,"sigilo_dom_ocupados":0,"dom_agua":87,"sigilo_dom_agua":0,"dom_esgoto":0,"sigilo_dom_esgoto":0,"renda_resp":5774.66,"sigilo_renda_resp":0,"n_resp":116,"sigilo_n_resp":0,"dens":11.2,"sigilo_dens":false,"na_bacia":1,"area_pct_bacia":100.0,"metodo_recorte_bacia":"ponto_representativo_setor_2022; area_pct_geometrica","pop_n_validos":1,"pop_n_total":1,"pop_completude":1.0,"dom_n_validos":1,"dom_n_total":1,"dom_completude":1.0,"dom_ocupados_n_validos":1,"dom_ocupados_n_total":1,"dom_ocupados_completude":1.0,"mulheres_n_validos":1,"mulheres_n_total":1,"mulheres_completude":1.0,"c0_4_n_validos":1,"c0_4_n_total":1,"c0_4_completude":1.0,"c5_9_n_validos":1,"c5_9_n_total":1,"c5_9_completude":1.0,"i60_69_n_validos":1,"i60_69_n_total":1,"i60_69_completude":1.0,"i70m_n_validos":1,"i70m_n_total":1,"i70m_completude":1.0,"indigenas_n_validos":1,"indigenas_n_total":1,"indigenas_completude":1.0,"pretos_pardos_n_validos":1,"pretos_pardos_n_total":1,"pretos_pardos_completude":1.0,"dom_agua_n_validos":1,"dom_agua_n_total":1,"dom_agua_completude":1.0,"dom_esgoto_n_validos":1,"dom_esgoto_n_total":1,"dom_esgoto_completude":1.0,"n_resp_n_validos":1,"n_resp_n_total":1,"n_resp_completude":1.0,"renda_resp_n_validos":1,"renda_resp_n_total":1,"renda_resp_completude":1.0,"dens_n_validos":1,"dens_n_total":1,"dens_completude":1.0,"status_borda_bacia":"total","metodo_area_bacia":"interse??o geom?trica em EPSG:5880","metodo_na_bacia":"ponto_representativo_setor_2022_within_bacia","municipio":"Anta Gorda","cod_mun":"4300703","mun_pct_na_bacia":100.0,"mun_pop_total":5957,"mun_pop_na_bacia":5957.0,"mun_ubs_iede":2,"mun_hospitais_iede":1,"mun_escolas_iede":8,"mun_bombeiros_iede":null,"mun_servicos_cobertura":"cadastro_IEDE_parcial_nao_inventario","mun_icm_faixa":"C","mun_icm_pontos":11,"mun_icm_prioritario":"sim","mun_ubs_iede_status":"published","mun_hospitais_iede_status":"published","mun_escolas_iede_status":"published","mun_bombeiros_iede_status":"unknown"},"geometry":{"type":"Polygon","coordinates":[[[-52.06825809999997,-28.9235475],[-52.06860159999997,-28.916353099999974],[-52.06653719999997,-28.916245099999966],[-52.06695249999996,-28.90660519999995],[-52.068987799999945,-28.90679469999998],[-52.070743,-28.887064799999965],[-52.077577099999985,-28.887644899999948],[-52.078997199999954,-28.87766419999995],[-52.010037299999965,-28.873142],[-52.009847,-28.87702869999997],[-52.01020509999995,-28.881051399999926],[-52.008862299999976,-28.88350739999993],[-52.00194209999995,-28.88691],[-51.993893799999974,-28.887472399999986],[-51.990011599999946,-28.888501399999925],[-51.98876259999997,-28.889641099999956],[-51.98945369999995,-28.89128409999995],[-51.99439639999998,-28.893071],[-51.99615629999994,-28.89443829999993],[-52.00355509999998,-28.89877],[-52.004457299999956,-28.900819799999965],[-52.00342589999997,-28.902914],[-52.00278389999994,-28.903693599999944],[-52.002689399999944,-28.903981199999976],[-52.00322479999994,-28.90451879999995],[-52.005052199999966,-28.904616399999945],[-52.00700789999996,-28.904135299999954],[-52.008044,-28.90362809999993],[-52.009085,-28.90348109999997],[-52.009635199999934,-28.90366489999996],[-52.01023849999996,-28.904964099999965],[-52.010130499999946,-28.90738179999994],[-52.01059539999994,-28.907683099999936],[-52.01200439999997,-28.90789349999993],[-52.01302649999996,-28.908506799999948],[-52.01496919999993,-28.90847869999993],[-52.015898,-28.90952519999996],[-52.01697559999997,-28.909069],[-52.017414699999954,-28.909137199999982],[-52.01826719999997,-28.90986609999994],[-52.020554799999964,-28.909653799999937],[-52.021392699999986,-28.91026389999996],[-52.021950699999934,-28.91133939999997],[-52.02260279999996,-28.911768499999948],[-52.024054499999984,-28.91206149999993],[-52.024410699999976,-28.912706],[-52.025921399999966,-28.913163799999953],[-52.02606429999997,-28.915107099999947],[-52.02695289999997,-28.91618979999998],[-52.028234899999966,-28.91680109999992],[-52.02907589999996,-28.91831569999994],[-52.029180699999976,-28.918836499999944],[-52.028899499999966,-28.919906],[-52.03004989999994,-28.91984519999993],[-52.030931,-28.920051],[-52.03153779999997,-28.92148929999996],[-52.032071499999965,-28.921880399999953],[-52.032797,-28.92194989999996],[-52.03549,-28.921253399999948],[-52.03732519999994,-28.922625299999943],[-52.038314799999974,-28.923030299999947],[-52.03999019999997,-28.923514],[-52.04133389999998,-28.923545799999932],[-52.04168779999998,-28.923484399999946],[-52.042776499999945,-28.922557],[-52.04377869999996,-28.92248929999994],[-52.04459039999995,-28.922109],[-52.046288699999934,-28.92218229999997],[-52.047176099999945,-28.922632099999937],[-52.048782599999974,-28.921344599999934],[-52.05012439999996,-28.92059249999994],[-52.05067769999994,-28.920501799999947],[-52.051129499999945,-28.920675699999947],[-52.05144969999998,-28.921399299999955],[-52.05250259999996,-28.922052199999943],[-52.055492799999975,-28.922643399999966],[-52.05936679999997,-28.92409779999997],[-52.05973459999996,-28.924489799999947],[-52.061890799999965,-28.92441859999997],[-52.06286079999995,-28.925544499999948],[-52.063468,-28.92552239999997],[-52.06435149999998,-28.924777399999968],[-52.064354,-28.923656699999977],[-52.06591229999998,-28.923995799999936],[-52.06825809999997,-28.9235475]],[[-52.03135849999995,-28.89628649999997],[-52.031358099999984,-28.891827799999934],[-52.03236559999994,-28.89147129999998],[-52.03751649999999,-28.89147649999995],[-52.04075669999998,-28.8918561],[-52.04226489999997,-28.892353699999948],[-52.04227459999998,-28.896792099999956],[-52.041206399999965,-28.896265099999944],[-52.03843239999998,-28.896435699999977],[-52.03749179999994,-28.896049099999964],[-52.03247879999998,-28.895811799999937],[-52.03135849999995,-28.89628649999997]]]}}]}
