{"type":"FeatureCollection","name":"4300059","crs":{"type":"name","properties":{"name":"urn:ogc:def:crs:OGC:1.3:CRS84"}},"features":[{"type":"Feature","properties":{"setor":"430005905000002","pop":145,"sigilo_pop":false,"dom":52,"sigilo_dom":false,"mulheres":73,"sigilo_mulheres":false,"c0_4":9,"sigilo_c0_4":false,"c5_9":7,"sigilo_c5_9":false,"i60_69":20,"sigilo_i60_69":false,"i70m":18,"sigilo_i70m":false,"indigenas":0,"sigilo_indigenas":false,"pretos_pardos":null,"sigilo_pretos_pardos":true,"dom_ocupados":47,"sigilo_dom_ocupados":false,"dom_agua":0,"sigilo_dom_agua":false,"dom_esgoto":0,"sigilo_dom_esgoto":false,"renda_resp":10910.0,"sigilo_renda_resp":false,"n_resp":47,"sigilo_n_resp":false,"dens":7.1,"sigilo_dens":false,"na_bacia":0,"area_pct_bacia":0.0,"metodo_recorte_bacia":"ponto_representativo_setor_2022; area_pct_geometrica"},"geometry":{"type":"Polygon","coordinates":[[[-52.02718889999994,-28.12870859999997],[-52.02557189999994,-28.129656699999945],[-52.02526789999996,-28.130209],[-52.024359199999935,-28.13084359999994],[-52.023165099999964,-28.1313527],[-52.02236739999995,-28.131451899999938],[-52.022015099999976,-28.132016799999963],[-52.022097,-28.13230029999995],[-51.99242839999994,-28.130107],[-51.992657699999945,-28.129581299999977],[-51.990987899999936,-28.1288628],[-51.990428,-28.128138],[-51.990169,-28.129042599999938],[-51.98989389999998,-28.12928349999992],[-51.98946239999998,-28.12905169999993],[-51.98901009999997,-28.12993749999998],[-51.987936699999985,-28.130361299999954],[-51.98728689999996,-28.13095449999997],[-51.987625799999925,-28.131540099999942],[-51.98785989999994,-28.13413089999994],[-51.988096499999976,-28.134328],[-51.98784879999993,-28.135207299999927],[-51.991061599999966,-28.133154399999963],[-51.9910814,-28.132450599999963],[-51.99176279999995,-28.132235899999955],[-51.991923,-28.13253269999995],[-51.991706299999976,-28.134230499999944],[-51.991932099999985,-28.134478099999967],[-51.99185279999995,-28.13502639999996],[-51.992205799999965,-28.135269099999952],[-51.99205309999997,-28.13562959999996],[-51.99232089999999,-28.136274299999954],[-51.992512199999965,-28.136535899999952],[-51.992956599999964,-28.136435199999934],[-51.99419939999995,-28.13709],[-51.99552329999995,-28.13795429999993],[-51.995690399999944,-28.138292099999944],[-51.995717799999966,-28.138616],[-51.994131,-28.139871099999937],[-51.99420849999995,-28.141272899999926],[-51.99500959999995,-28.14198689999995],[-51.994901099999936,-28.142408399999958],[-51.995203799999956,-28.14236149999994],[-51.99528579999998,-28.142539399999976],[-51.99566159999995,-28.142298099999948],[-51.995897799999966,-28.142642799999972],[-51.996213699999934,-28.142621099999925],[-51.99603149999996,-28.14200559999995],[-51.99659959999997,-28.14192329999997],[-51.996728099999984,-28.14253549999995],[-51.99699179999994,-28.14254009999996],[-51.99743309999997,-28.143597299999954],[-51.99693909999996,-28.144138199999922],[-51.997241499999966,-28.145055699999943],[-51.997434699999985,-28.14468209999995],[-51.99714559999996,-28.14429259999997],[-51.99762459999994,-28.144494199999944],[-51.99878639999998,-28.14601579999993],[-51.99894119999993,-28.146589],[-51.99933389999995,-28.14671709999993],[-51.99932629999995,-28.146486],[-52.00103409999997,-28.146898499999956],[-52.00211389999998,-28.147890599999986],[-52.00294529999997,-28.149495399999978],[-52.003587,-28.149966599999967],[-52.00438,-28.15001149999995],[-52.00495209999997,-28.150292399999955],[-52.00573949999995,-28.149841299999935],[-52.00643759999997,-28.14995149999993],[-52.00782209999994,-28.15065539999994],[-52.00842749999998,-28.150538899999958],[-52.008735599999966,-28.150953399999935],[-52.00902029999998,-28.150663699999942],[-52.00885239999997,-28.15033129999994],[-52.009199399999936,-28.149601799999978],[-52.01006159999997,-28.149312299999973],[-52.00959019999994,-28.152809699999967],[-52.01104189999996,-28.153171199999978],[-52.01199859999997,-28.1542272],[-52.02069519999998,-28.16527639999998],[-52.024528,-28.170602699999964],[-52.026855799999964,-28.173294499999944],[-52.028911299999955,-28.16217429999995],[-52.040397299999945,-28.16287289999996],[-52.03979169999997,-28.154652299999942],[-52.038779,-28.15133009999994],[-52.038318199999935,-28.15051809999994],[-52.04345189999997,-28.145987399999967],[-52.048684399999956,-28.144609599999953],[-52.050534099999936,-28.14349789999994],[-52.051169,-28.142318799999938],[-52.05214759999996,-28.141184299999956],[-52.052621,-28.141159899999945],[-52.0530763,-28.139089299999956],[-52.05356879999994,-28.138722499999982],[-52.053934799999986,-28.138039299999946],[-52.053903899999966,-28.137547],[-52.05472229999998,-28.13641839999996],[-52.05479449999996,-28.134998],[-52.05513719999993,-28.13477079999996],[-52.05574109999997,-28.1347689],[-52.05887459999997,-28.13364669999993],[-52.06007609999995,-28.13252439999997],[-52.0629302,-28.13102369999996],[-52.06485909999998,-28.131498599999922],[-52.065431599999954,-28.132285099999926],[-52.06632959999995,-28.132482],[-52.06993309999996,-28.130673799999954],[-52.071446099999946,-28.130608199999987],[-52.071416599999964,-28.129968499999958],[-52.07268259999996,-28.128021499999935],[-52.073197,-28.128013699999943],[-52.07383929999998,-28.127264599999933],[-52.07386309999998,-28.126443499999933],[-52.07360349999993,-28.126141799999964],[-52.07283359999997,-28.126198699999975],[-52.07254629999994,-28.12571269999994],[-52.07307519999995,-28.12431529999999],[-52.07290849999998,-28.12291559999993],[-52.073812499999974,-28.122223499999958],[-52.07633989999994,-28.122127],[-52.04314979999998,-28.117516399999936],[-52.04217449999992,-28.1193057],[-52.041767499999935,-28.12034119999993],[-52.0418289,-28.121250799999917],[-52.041467,-28.121698599999934],[-52.04031459999993,-28.12192689999994],[-52.038806499999964,-28.12176529999994],[-52.03837119999997,-28.122432599999964],[-52.037336,-28.124464899999968],[-52.03747549999997,-28.126135299999927],[-52.03561209999997,-28.129177499999965],[-52.031989299999964,-28.128741599999955],[-52.031273099999964,-28.12837459999998],[-52.02961289999996,-28.12851489999996],[-52.02847889999998,-28.128966099999957],[-52.02718889999994,-28.12870859999997]]]}},{"type":"Feature","properties":{"setor":"430005905000003","pop":298,"sigilo_pop":false,"dom":130,"sigilo_dom":false,"mulheres":147,"sigilo_mulheres":false,"c0_4":10,"sigilo_c0_4":false,"c5_9":13,"sigilo_c5_9":false,"i60_69":44,"sigilo_i60_69":false,"i70m":40,"sigilo_i70m":false,"indigenas":null,"sigilo_indigenas":true,"pretos_pardos":35,"sigilo_pretos_pardos":false,"dom_ocupados":106,"sigilo_dom_ocupados":false,"dom_agua":0,"sigilo_dom_agua":false,"dom_esgoto":0,"sigilo_dom_esgoto":false,"renda_resp":4606.35,"sigilo_renda_resp":false,"n_resp":106,"sigilo_n_resp":false,"dens":7.8,"sigilo_dens":false,"na_bacia":0,"area_pct_bacia":0.0,"metodo_recorte_bacia":"ponto_representativo_setor_2022; area_pct_geometrica"},"geometry":{"type":"Polygon","coordinates":[[[-52.007182199999924,-28.20703619999994],[-52.00512359999993,-28.20715359999997],[-52.00307769999994,-28.20673129999995],[-52.00220369999994,-28.20629369999995],[-52.00167309999994,-28.205611899999948],[-52.00070039999998,-28.203013099999954],[-51.99919909999994,-28.201398399999945],[-51.99880289999993,-28.199746],[-51.99779279999995,-28.19883179999994],[-51.999258,-28.191109099999952],[-52.001400399999966,-28.190839599999947],[-52.00295559999995,-28.189392199999933],[-52.00423529999995,-28.189135299999975],[-52.00596079999997,-28.189760599999936],[-52.006732699999986,-28.189621],[-52.008181,-28.189807499999972],[-52.009268599999984,-28.190304699999952],[-52.009823799999936,-28.190148399999938],[-52.01014239999995,-28.189695099999938],[-52.01051769999999,-28.18772819999998],[-52.01097379999993,-28.1868282],[-52.010959899999925,-28.185358599999965],[-52.0118763,-28.18403309999996],[-52.012107799999974,-28.183043599999955],[-52.013562199999974,-28.18249449999996],[-52.01451559999998,-28.182966499999953],[-52.014986299999975,-28.18292509999996],[-52.016079399999974,-28.18214179999996],[-52.01654459999998,-28.182157799999963],[-52.01709279999994,-28.181511],[-52.01784649999996,-28.181360599999955],[-52.02056589999995,-28.179517],[-52.026712299999986,-28.177758899999954],[-52.02529739999994,-28.17483629999998],[-52.026855799999964,-28.173294499999944],[-52.024528,-28.170602699999964],[-52.02069519999998,-28.16527639999998],[-52.01199859999997,-28.1542272],[-52.01104189999996,-28.153171199999978],[-52.00959019999994,-28.152809699999967],[-52.01006159999997,-28.149312299999973],[-52.009199399999936,-28.149601799999978],[-52.00885239999997,-28.15033129999994],[-52.00902029999998,-28.150663699999942],[-52.008735599999966,-28.150953399999935],[-52.00842749999998,-28.150538899999958],[-52.00782209999994,-28.15065539999994],[-52.00643759999997,-28.14995149999993],[-52.00573949999995,-28.149841299999935],[-52.00495209999997,-28.150292399999955],[-52.00438,-28.15001149999995],[-52.003587,-28.149966599999967],[-52.00294529999997,-28.149495399999978],[-52.00211389999998,-28.147890599999986],[-52.00103409999997,-28.146898499999956],[-51.99932629999995,-28.146486],[-51.99933389999995,-28.14671709999993],[-51.99894119999993,-28.146589],[-51.99878639999998,-28.14601579999993],[-51.99762459999994,-28.144494199999944],[-51.99714559999996,-28.14429259999997],[-51.997434699999985,-28.14468209999995],[-51.997241499999966,-28.145055699999943],[-51.99693909999996,-28.144138199999922],[-51.99743309999997,-28.143597299999954],[-51.99699179999994,-28.14254009999996],[-51.996728099999984,-28.14253549999995],[-51.99659959999997,-28.14192329999997],[-51.99603149999996,-28.14200559999995],[-51.996213699999934,-28.142621099999925],[-51.995897799999966,-28.142642799999972],[-51.99566159999995,-28.142298099999948],[-51.995496499999945,-28.142518299999956],[-51.994901099999936,-28.142408399999958],[-51.99500959999995,-28.14198689999995],[-51.99420849999995,-28.141272899999926],[-51.994131,-28.139871099999937],[-51.995717799999966,-28.138616],[-51.995690399999944,-28.138292099999944],[-51.99552329999995,-28.13795429999993],[-51.99419939999995,-28.13709],[-51.992956599999964,-28.136435199999934],[-51.992512199999965,-28.136535899999952],[-51.99232089999999,-28.136274299999954],[-51.99205309999997,-28.13562959999996],[-51.992205799999965,-28.135269099999952],[-51.99185279999995,-28.13502639999996],[-51.991932099999985,-28.134478099999967],[-51.991706299999976,-28.134230499999944],[-51.991923,-28.13253269999995],[-51.99176279999995,-28.132235899999955],[-51.9910814,-28.132450599999963],[-51.991061599999966,-28.133154399999963],[-51.98784879999993,-28.135207299999927],[-51.988096499999976,-28.134328],[-51.98785989999994,-28.13413089999994],[-51.98705059999997,-28.134806799999975],[-51.98681009999996,-28.13546739999998],[-51.985592,-28.136300199999933],[-51.985023799999965,-28.137677799999945],[-51.983921,-28.13879629999997],[-51.98372429999995,-28.13999759999997],[-51.98277449999995,-28.139129899999947],[-51.975425399999956,-28.135337899999957],[-51.974285499999944,-28.13888439999994],[-51.97466749999996,-28.14078809999994],[-51.97242019999993,-28.14334439999994],[-51.97173559999993,-28.146185599999956],[-51.96969149999995,-28.147994099999945],[-51.970626699999976,-28.149278199999966],[-51.97080639999996,-28.150982399999968],[-51.971440099999946,-28.151312599999983],[-51.972377,-28.151137699999932],[-51.97295139999994,-28.151459799999937],[-51.973523599999965,-28.15309819999993],[-51.972840599999984,-28.153651299999968],[-51.97327769999998,-28.153855899999947],[-51.974271499999986,-28.153772099999973],[-51.975184499999955,-28.154148399999936],[-51.967761,-28.16450129999998],[-51.96553079999996,-28.16482629999995],[-51.964528099999946,-28.16545269999994],[-51.96288709999993,-28.167136799999977],[-51.96191589999995,-28.168654599999968],[-51.96555559999995,-28.17110359999998],[-51.965392099999974,-28.171825099999964],[-51.96790679999999,-28.174121699999937],[-51.96722639999995,-28.175268599999974],[-51.966762399999936,-28.17722569999995],[-51.96806589999994,-28.178102299999974],[-51.96864819999996,-28.178251899999953],[-51.97086049999996,-28.17998739999996],[-51.97121349999998,-28.182137],[-51.972488,-28.184386099999976],[-51.974261799999965,-28.184615399999927],[-51.969766499999935,-28.18916179999997],[-51.975873299999925,-28.19429339999994],[-51.97293719999993,-28.195297599999947],[-51.97076,-28.19678639999994],[-51.96888659999996,-28.197491099999972],[-51.96775869999993,-28.199256099999957],[-51.966512199999954,-28.200605099999965],[-51.96548259999997,-28.201529],[-51.964575199999956,-28.201535899999953],[-51.96462439999993,-28.202597899999944],[-51.961548799999946,-28.20591189999993],[-51.96058949999996,-28.206578],[-51.963045,-28.20777939999994],[-51.96309819999993,-28.20812369999993],[-51.962512199999935,-28.209000499999952],[-51.963155599999936,-28.20972309999996],[-51.96738469999997,-28.208932299999955],[-51.96822479999997,-28.21054789999993],[-51.96890119999995,-28.210937399999974],[-51.969487399999934,-28.21075529999996],[-51.969993,-28.21088779999996],[-51.97009079999999,-28.21124129999997],[-51.96977689999995,-28.211740599999935],[-51.970172,-28.21275869999992],[-51.96994889999996,-28.213248699999955],[-51.97045069999996,-28.213611499999963],[-51.97097469999994,-28.21471169999995],[-51.97248169999995,-28.222809],[-51.971554,-28.225434599999975],[-51.971539,-28.226595099999937],[-51.97110269999995,-28.22783079999994],[-51.971333899999934,-28.228653099999967],[-51.97090339999994,-28.230022299999977],[-51.971111599999965,-28.231210199999953],[-51.97200449999997,-28.232412699999948],[-51.97247339999996,-28.233966499999944],[-51.97154109999997,-28.23828419999995],[-51.97187409999999,-28.239772],[-51.973512,-28.241463699999944],[-51.977876,-28.24167369999997],[-51.97918669999996,-28.240612],[-51.97973659999996,-28.23867279999996],[-51.97990029999995,-28.23629239999997],[-51.981657,-28.236388],[-51.98490049999997,-28.230264],[-51.99193729999997,-28.225584399999942],[-51.99387679999996,-28.224070699999963],[-51.99496709999994,-28.221033199999958],[-51.99537729999997,-28.21736309999995],[-51.99594329999997,-28.216131299999965],[-51.99866079999998,-28.213714],[-52.00424309999994,-28.20986069999998],[-52.007182199999924,-28.20703619999994]]]}},{"type":"Feature","properties":{"setor":"430005905000004","pop":20,"sigilo_pop":false,"dom":13,"sigilo_dom":false,"mulheres":8,"sigilo_mulheres":false,"c0_4":null,"sigilo_c0_4":true,"c5_9":0,"sigilo_c5_9":false,"i60_69":9,"sigilo_i60_69":false,"i70m":0,"sigilo_i70m":false,"indigenas":0,"sigilo_indigenas":false,"pretos_pardos":0,"sigilo_pretos_pardos":false,"dom_ocupados":10,"sigilo_dom_ocupados":false,"dom_agua":0,"sigilo_dom_agua":false,"dom_esgoto":0,"sigilo_dom_esgoto":false,"renda_resp":3035.33,"sigilo_renda_resp":false,"n_resp":10,"sigilo_n_resp":false,"dens":0.7,"sigilo_dens":false,"na_bacia":0,"area_pct_bacia":5.3745,"metodo_recorte_bacia":"ponto_representativo_setor_2022; area_pct_geometrica"},"geometry":{"type":"Polygon","coordinates":[[[-52.02651039999995,-28.26353859999994],[-52.02548679999995,-28.262223599999974],[-52.02388089999994,-28.26165529999997],[-52.02377579999995,-28.26140729999998],[-52.02364249999994,-28.259623],[-52.02271479999996,-28.258411599999935],[-52.02311509999998,-28.25747259999998],[-52.02268649999996,-28.25673],[-52.02209379999994,-28.256360699999963],[-52.02173579999993,-28.255087],[-52.021876099999986,-28.254300299999954],[-52.02269519999999,-28.25405119999993],[-52.02243769999995,-28.253370399999945],[-52.02141639999997,-28.25277929999994],[-52.021198399999946,-28.252344299999947],[-52.020452199999966,-28.252781099999932],[-52.019458,-28.252724399999973],[-52.02002939999994,-28.252168899999948],[-52.01978419999995,-28.25205059999996],[-52.019235899999956,-28.252338399999918],[-52.01880409999995,-28.252254399999973],[-52.01831479999998,-28.253786399999974],[-52.01739389999995,-28.254163299999956],[-52.01651919999995,-28.25418309999998],[-52.015863399999944,-28.25387679999993],[-52.01563769999996,-28.253133],[-52.0145017,-28.251866799999952],[-52.014838,-28.251673099999937],[-52.01554209999995,-28.251867299999937],[-52.01596779999995,-28.25164739999996],[-52.01605739999997,-28.250157099999964],[-52.01569349999995,-28.247731399999957],[-52.00655309999997,-28.25043289999996],[-52.004777599999954,-28.250242499999956],[-52.00234669999998,-28.251010799999957],[-52.00224009999994,-28.250310299999974],[-52.001304,-28.248743899999965],[-52.00107079999997,-28.24786709999995],[-51.999572099999966,-28.24676769999996],[-51.99952329999997,-28.246298],[-52.00061269999998,-28.243219],[-52.000641299999984,-28.242603399999936],[-52.00001809999998,-28.24127519999997],[-51.999684499999944,-28.24093939999995],[-51.99929089999995,-28.24089389999994],[-51.99831209999997,-28.24115429999995],[-51.995611799999956,-28.240959699999966],[-51.994494799999984,-28.239463],[-51.993977,-28.236459199999953],[-51.99392919999997,-28.234002499999978],[-51.992899499999965,-28.229273],[-51.99306019999995,-28.227967399999947],[-51.993779899999936,-28.227496399999954],[-51.994019899999955,-28.22702819999995],[-51.993975399999954,-28.226110199999933],[-51.99383469999998,-28.225588099999978],[-51.99272019999995,-28.225035699999978],[-51.98490049999997,-28.230264],[-51.981657,-28.236388],[-51.98065779999997,-28.24208459999994],[-51.974729,-28.252221099999925],[-51.96945909999994,-28.25946979999998],[-51.96902579999994,-28.261870099999964],[-51.96946269999995,-28.263168499999953],[-51.97016819999993,-28.26430719999996],[-51.97038289999995,-28.26568169999996],[-51.970746,-28.27328089999997],[-51.96816229999996,-28.27829009999993],[-51.97169929999996,-28.28979809999993],[-51.97961589999994,-28.288908599999946],[-51.993162499999976,-28.28990279999994],[-51.994840899999986,-28.29037089999998],[-52.022968,-28.304229899999935],[-52.02206239999999,-28.30205869999997],[-52.01716539999995,-28.298075799999932],[-52.015049,-28.293924599999965],[-52.01385989999994,-28.289780199999928],[-52.018533,-28.285623899999973],[-52.02006989999995,-28.283151399999948],[-52.01977409999995,-28.281778699999965],[-52.02131239999995,-28.275991399999953],[-52.020611499999966,-28.272131099999964],[-52.02148679999994,-28.2696213],[-52.022895,-28.267447599999958],[-52.0231333,-28.267191199999946],[-52.02479329999994,-28.266677099999985],[-52.027007099999935,-28.264518399999925],[-52.027216,-28.26381319999996],[-52.02651039999995,-28.26353859999994]]]}},{"type":"Feature","properties":{"setor":"430005905000006","pop":292,"sigilo_pop":false,"dom":72,"sigilo_dom":false,"mulheres":154,"sigilo_mulheres":false,"c0_4":37,"sigilo_c0_4":false,"c5_9":23,"sigilo_c5_9":false,"i60_69":11,"sigilo_i60_69":false,"i70m":null,"sigilo_i70m":true,"indigenas":289,"sigilo_indigenas":false,"pretos_pardos":null,"sigilo_pretos_pardos":true,"dom_ocupados":71,"sigilo_dom_ocupados":false,"dom_agua":0,"sigilo_dom_agua":false,"dom_esgoto":0,"sigilo_dom_esgoto":false,"renda_resp":1389.7,"sigilo_renda_resp":false,"n_resp":71,"sigilo_n_resp":false,"dens":392.8,"sigilo_dens":false,"na_bacia":0,"area_pct_bacia":0.0,"metodo_recorte_bacia":"ponto_representativo_setor_2022; area_pct_geometrica"},"geometry":{"type":"Polygon","coordinates":[[[-52.02361349999996,-28.181543099999935],[-52.021379799999984,-28.18153179999997],[-52.02038929999997,-28.180756299999924],[-52.01924819999993,-28.180604299999963],[-52.018443199999986,-28.18087629999996],[-52.01784649999996,-28.181360599999955],[-52.01709279999994,-28.181511],[-52.01654459999998,-28.182157799999963],[-52.016079399999974,-28.18214179999996],[-52.014986299999975,-28.18292509999996],[-52.01451559999998,-28.182966499999953],[-52.01368659999997,-28.182492199999945],[-52.01256029999996,-28.182758199999967],[-52.01201179999999,-28.183177599999965],[-52.0118763,-28.18403309999996],[-52.01108869999996,-28.185031599999938],[-52.01085759999995,-28.18587019999995],[-52.01097379999993,-28.1868282],[-52.01061059999995,-28.187487799999932],[-52.017492699999934,-28.189646],[-52.018780299999946,-28.187411899999965],[-52.01942019999996,-28.18710919999995],[-52.019933599999945,-28.186364899999937],[-52.020931,-28.185827099999983],[-52.022885299999984,-28.184012799999955],[-52.023608,-28.182235599999963],[-52.02361349999996,-28.181543099999935]]]}},{"type":"Feature","properties":{"setor":"430005905000007","pop":170,"sigilo_pop":false,"dom":65,"sigilo_dom":false,"mulheres":84,"sigilo_mulheres":false,"c0_4":null,"sigilo_c0_4":true,"c5_9":15,"sigilo_c5_9":false,"i60_69":20,"sigilo_i60_69":false,"i70m":23,"sigilo_i70m":false,"indigenas":0,"sigilo_indigenas":false,"pretos_pardos":null,"sigilo_pretos_pardos":true,"dom_ocupados":59,"sigilo_dom_ocupados":false,"dom_agua":0,"sigilo_dom_agua":false,"dom_esgoto":0,"sigilo_dom_esgoto":false,"renda_resp":4933.02,"sigilo_renda_resp":false,"n_resp":59,"sigilo_n_resp":false,"dens":11.0,"sigilo_dens":false,"na_bacia":0,"area_pct_bacia":0.0,"metodo_recorte_bacia":"ponto_representativo_setor_2022; area_pct_geometrica"},"geometry":{"type":"Polygon","coordinates":[[[-52.02633439999994,-28.263441299999958],[-52.027216,-28.26381319999996],[-52.027765099999954,-28.263422],[-52.02946749999996,-28.263455299999983],[-52.03070029999998,-28.261514299999934],[-52.03040939999995,-28.26020879999992],[-52.03056119999996,-28.25893749999995],[-52.02959289999995,-28.25741239999997],[-52.030143399999986,-28.256381199999957],[-52.029890699999946,-28.255098199999964],[-52.02998,-28.253255599999935],[-52.03156579999996,-28.251566599999943],[-52.032590499999976,-28.25117819999998],[-52.03270719999995,-28.250188799999922],[-52.03150819999997,-28.247877599999978],[-52.03119839999994,-28.246351399999977],[-52.03039429999995,-28.245113199999928],[-52.03084709999996,-28.241642699999932],[-52.028012,-28.23891269999996],[-52.03091179999996,-28.236481599999937],[-52.030173399999974,-28.23600459999994],[-52.02886839999996,-28.23652879999997],[-52.02834839999997,-28.236310799999952],[-52.026905699999986,-28.235111899999936],[-52.02517859999995,-28.23314829999998],[-52.02458309999998,-28.23285139999996],[-52.02501529999995,-28.231695],[-52.027455,-28.229197],[-52.02632159999997,-28.228793],[-52.026318799999956,-28.228598599999938],[-52.02690309999997,-28.228187],[-52.02696549999996,-28.22757479999996],[-52.028763899999944,-28.226540799999945],[-52.02923549999997,-28.22587269999996],[-52.03210489999998,-28.223661399999973],[-52.03252089999995,-28.222394499999947],[-52.033418499999975,-28.22159229999994],[-52.034050099999945,-28.220315599999935],[-52.03499759999995,-28.219752099999933],[-52.03634769999997,-28.21722669999997],[-52.03699659999995,-28.21653609999993],[-52.03916639999994,-28.21539],[-52.04108489999993,-28.21384549999993],[-52.04142839999998,-28.21293749999994],[-52.042139,-28.212134],[-52.042027,-28.21198759999993],[-52.04260089999997,-28.211674799999955],[-52.043358799999965,-28.210714599999957],[-52.04401019999995,-28.210620699999936],[-52.04524189999996,-28.211184299999953],[-52.04618929999997,-28.21087119999992],[-52.047042,-28.21116339999998],[-52.04820269999993,-28.211017299999977],[-52.04973039999993,-28.211205099999987],[-52.050523899999966,-28.210109299999935],[-52.05219379999995,-28.20976489999997],[-52.05306859999996,-28.20910189999994],[-52.053235,-28.208285],[-52.052593299999955,-28.208190799999958],[-52.052617,-28.207174899999973],[-52.052141699999936,-28.206839799999955],[-52.05233179999993,-28.206232399999973],[-52.05212979999993,-28.205258399999934],[-52.052347399999974,-28.204678199999925],[-52.052854699999955,-28.20420059999998],[-52.052837099999984,-28.203355299999934],[-52.055493,-28.202064099999966],[-52.056693199999984,-28.20078639999997],[-52.05715669999995,-28.199906599999967],[-52.05662289999999,-28.199152199999958],[-52.05568659999995,-28.198452899999953],[-52.05476989999994,-28.19653259999995],[-52.054344,-28.194871299999935],[-52.054655199999964,-28.192709299999933],[-52.05322269999994,-28.188027899999952],[-52.047261899999974,-28.186893199999936],[-52.04622729999994,-28.186396499999944],[-52.04366829999998,-28.184227699999948],[-52.034330099999984,-28.184676],[-52.033687499999985,-28.185326],[-52.03273989999997,-28.18474329999998],[-52.03203359999998,-28.18472819999993],[-52.030655399999944,-28.185994099999963],[-52.03036509999998,-28.187182],[-52.02926269999995,-28.187871599999934],[-52.029267499999946,-28.188375],[-52.02886479999995,-28.188683499999954],[-52.028893299999936,-28.189194199999967],[-52.02757519999994,-28.189625199999952],[-52.02736739999994,-28.190166],[-52.02750429999998,-28.190667],[-52.02714419999995,-28.191084499999914],[-52.02711659999995,-28.192367],[-52.02592979999998,-28.193681499999965],[-52.02643659999995,-28.19531119999994],[-52.0261771,-28.19638889999994],[-52.02544049999995,-28.197942299999966],[-52.02503019999994,-28.198295499999976],[-52.025190699999946,-28.19926129999993],[-52.02498279999998,-28.200038199999952],[-52.025203,-28.200320499999965],[-52.02586009999993,-28.200507199999947],[-52.02595969999993,-28.20100869999993],[-52.02404579999995,-28.20232479999992],[-52.02407649999998,-28.203103799999948],[-52.02314289999998,-28.204499299999952],[-52.02272109999996,-28.205755899999925],[-52.02284579999997,-28.206459699999968],[-52.022414,-28.207855],[-52.023140299999966,-28.208759199999978],[-52.02364859999995,-28.209883699999985],[-52.02767659999995,-28.214188699999966],[-52.02574229999993,-28.21566089999992],[-52.024217599999986,-28.21848439999996],[-52.02289039999994,-28.220191399999973],[-52.02172349999995,-28.22080069999998],[-52.02107779999995,-28.221407299999957],[-52.021371399999964,-28.22349019999995],[-52.021705199999985,-28.224253399999956],[-52.017058,-28.228829],[-52.014166099999954,-28.2273077],[-52.012378,-28.227761],[-52.01243569999997,-28.229309099999966],[-52.01297789999995,-28.230442199999967],[-52.012667,-28.231382299999964],[-52.012081499999965,-28.232023099999935],[-52.01145179999998,-28.231805599999984],[-52.01032849999996,-28.231897399999976],[-52.009758799999986,-28.232277],[-52.00958,-28.232739699999968],[-52.00996549999997,-28.2334906],[-52.009715,-28.233887],[-52.00863289999995,-28.233991099999983],[-52.00854679999998,-28.234468099999944],[-52.00898769999998,-28.23581919999998],[-52.01000909999994,-28.23731419999995],[-52.00995159999996,-28.23884039999997],[-52.010300399999956,-28.239466199999985],[-52.010935899999936,-28.23966329999995],[-52.01495109999996,-28.247810299999966],[-52.01569349999995,-28.247731399999957],[-52.01605739999997,-28.250157099999964],[-52.01596779999995,-28.25164739999996],[-52.01554209999995,-28.251867299999937],[-52.014838,-28.251673099999937],[-52.0145017,-28.251866799999952],[-52.01563769999996,-28.253133],[-52.015863399999944,-28.25387679999993],[-52.01651919999995,-28.25418309999998],[-52.01739389999995,-28.254163299999956],[-52.01831479999998,-28.253786399999974],[-52.01880409999995,-28.252254399999973],[-52.019235899999956,-28.252338399999918],[-52.01978419999995,-28.25205059999996],[-52.02002939999994,-28.252168899999948],[-52.019458,-28.252724399999973],[-52.020452199999966,-28.252781099999932],[-52.021198399999946,-28.252344299999947],[-52.02141639999997,-28.25277929999994],[-52.02243769999995,-28.253370399999945],[-52.02269519999999,-28.25405119999993],[-52.021876099999986,-28.254300299999954],[-52.02173579999993,-28.255087],[-52.02209379999994,-28.256360699999963],[-52.02268649999996,-28.25673],[-52.02311509999998,-28.25747259999998],[-52.02271479999996,-28.258411599999935],[-52.02364249999994,-28.259623],[-52.02388089999994,-28.26165529999997],[-52.02548679999995,-28.262223599999974],[-52.02633439999994,-28.263441299999958]]]}},{"type":"Feature","properties":{"setor":"430005905000008","pop":57,"sigilo_pop":false,"dom":24,"sigilo_dom":false,"mulheres":27,"sigilo_mulheres":false,"c0_4":null,"sigilo_c0_4":true,"c5_9":null,"sigilo_c5_9":true,"i60_69":null,"sigilo_i60_69":true,"i70m":8,"sigilo_i70m":false,"indigenas":0,"sigilo_indigenas":false,"pretos_pardos":0,"sigilo_pretos_pardos":false,"dom_ocupados":19,"sigilo_dom_ocupados":false,"dom_agua":0,"sigilo_dom_agua":false,"dom_esgoto":0,"sigilo_dom_esgoto":false,"renda_resp":18175.37,"sigilo_renda_resp":false,"n_resp":19,"sigilo_n_resp":false,"dens":7.2,"sigilo_dens":false,"na_bacia":0,"area_pct_bacia":0.0,"metodo_recorte_bacia":"ponto_representativo_setor_2022; area_pct_geometrica"},"geometry":{"type":"Polygon","coordinates":[[[-52.05322269999994,-28.188027899999952],[-52.054655199999964,-28.192709299999933],[-52.054344,-28.194871299999935],[-52.05476989999994,-28.19653259999995],[-52.05568659999995,-28.198452899999953],[-52.05693069999995,-28.199499399999983],[-52.058357,-28.198566],[-52.05901059999996,-28.198670799999952],[-52.06015149999996,-28.19845079999993],[-52.06150619999995,-28.198628899999946],[-52.062409399999986,-28.197885299999943],[-52.06300359999994,-28.197696699999927],[-52.063681,-28.19786429999993],[-52.064512899999954,-28.198681199999957],[-52.06623609999997,-28.19903729999993],[-52.067578899999944,-28.198953599999985],[-52.06800679999998,-28.19850319999995],[-52.06809,-28.19777379999994],[-52.06795549999998,-28.197508199999948],[-52.06746009999994,-28.197518699999943],[-52.06723429999994,-28.19722539999998],[-52.067685899999965,-28.196649399999963],[-52.06769779999996,-28.196041899999944],[-52.06830389999993,-28.195287799999964],[-52.068042399999975,-28.194858399999934],[-52.06836329999993,-28.194586],[-52.06887429999995,-28.19468029999996],[-52.06930209999996,-28.194387],[-52.0699082,-28.19439749999997],[-52.070015199999936,-28.194575599999947],[-52.06975369999998,-28.1949317],[-52.07068069999997,-28.195528699999958],[-52.07151249999998,-28.194502199999928],[-52.07233249999996,-28.194188],[-52.072527499999985,-28.195930599999944],[-52.073247599999945,-28.196743599999923],[-52.073130799999944,-28.19707169999998],[-52.07274849999993,-28.19721489999996],[-52.07322379999994,-28.198209899999938],[-52.073865599999976,-28.197958599999936],[-52.07426959999999,-28.19822039999997],[-52.07455479999993,-28.198084299999948],[-52.075969,-28.19882789999996],[-52.07619109999996,-28.19854879999996],[-52.07674149999997,-28.198503199999962],[-52.076634499999955,-28.19777009999995],[-52.076860299999964,-28.197413899999955],[-52.07840519999997,-28.197131199999937],[-52.078631,-28.197686299999923],[-52.07977189999997,-28.198314699999965],[-52.08003329999996,-28.199508699999956],[-52.079451,-28.199927599999956],[-52.079546099999966,-28.20044079999997],[-52.080187799999976,-28.20084919999994],[-52.08072009999995,-28.200833499999927],[-52.08093649999995,-28.20128909999994],[-52.081566399999986,-28.20114249999995],[-52.08216059999995,-28.201352],[-52.08260029999997,-28.20222119999994],[-52.08332519999994,-28.201498599999976],[-52.084525499999984,-28.201383399999933],[-52.084905799999945,-28.201718499999963],[-52.085428699999966,-28.201498599999972],[-52.086331799999975,-28.201540499999965],[-52.08728259999999,-28.200954],[-52.08790049999993,-28.20107969999998],[-52.088982,-28.200618799999976],[-52.090039599999955,-28.201048199999942],[-52.09169149999997,-28.200765499999928],[-52.09241639999994,-28.20100629999996],[-52.09292869999996,-28.199936899999948],[-52.09340279999998,-28.199582],[-52.09400439999996,-28.199664599999934],[-52.09496539999998,-28.200296599999938],[-52.096554199999964,-28.199426399999933],[-52.09771829999994,-28.199607799999963],[-52.098254,-28.19907909999994],[-52.09841369999998,-28.19808629999993],[-52.099000599999954,-28.197677099999954],[-52.09988919999995,-28.197459399999957],[-52.100351699999976,-28.197549799999926],[-52.10049729999997,-28.197837199999974],[-52.10024359999994,-28.198321899999954],[-52.100382199999956,-28.198579299999935],[-52.10102359999996,-28.198784799999938],[-52.101419,-28.19868089999994],[-52.10177909999993,-28.19756929999993],[-52.10087649999997,-28.196139499999948],[-52.10133749999995,-28.195671399999977],[-52.102368399999925,-28.19589139999994],[-52.10220229999993,-28.19486969999997],[-52.102464699999985,-28.194631099999974],[-52.103516199999945,-28.195282199999937],[-52.103979899999956,-28.195161],[-52.10457649999995,-28.19413419999994],[-52.104433099999945,-28.193833099999942],[-52.10507969999997,-28.193266899999962],[-52.10492279999995,-28.192893599999937],[-52.10457139999994,-28.192802099999938],[-52.104186599999935,-28.193065499999943],[-52.10298719999997,-28.19304809999994],[-52.10267829999998,-28.192678],[-52.10324049999997,-28.191259],[-52.10278329999994,-28.19099659999995],[-52.10094479999998,-28.19095609999993],[-52.10048249999994,-28.190710399999944],[-52.10016359999997,-28.189353799999942],[-52.098317099999974,-28.18893279999997],[-52.097370399999924,-28.18817829999995],[-52.096703599999955,-28.188243899999968],[-52.095911,-28.187696199999962],[-52.09544379999994,-28.186558799999947],[-52.09540589999994,-28.18576429999996],[-52.09358589999994,-28.18462369999997],[-52.092819,-28.183384199999978],[-52.092542599999945,-28.18227859999996],[-52.09203719999994,-28.181537199999966],[-52.09119559999994,-28.18086259999995],[-52.09099879999997,-28.179697599999937],[-52.090616,-28.17906259999994],[-52.091340899999985,-28.17793119999993],[-52.09373729999999,-28.177078499999944],[-52.09494179999995,-28.17616609999993],[-52.09518009999994,-28.175262499999974],[-52.09490549999998,-28.173588799999944],[-52.08613909999997,-28.17684739999993],[-52.08149339999994,-28.17965149999998],[-52.07539659999998,-28.182495799999963],[-52.07206069999995,-28.183585799999943],[-52.06802769999996,-28.18628429999995],[-52.061995199999956,-28.188560399999975],[-52.05648439999993,-28.188626899999978],[-52.05322269999994,-28.188027899999952]]]}},{"type":"Feature","properties":{"setor":"430005905000009","pop":179,"sigilo_pop":false,"dom":82,"sigilo_dom":false,"mulheres":87,"sigilo_mulheres":false,"c0_4":8,"sigilo_c0_4":false,"c5_9":8,"sigilo_c5_9":false,"i60_69":31,"sigilo_i60_69":false,"i70m":17,"sigilo_i70m":false,"indigenas":0,"sigilo_indigenas":false,"pretos_pardos":23,"sigilo_pretos_pardos":false,"dom_ocupados":67,"sigilo_dom_ocupados":false,"dom_agua":0,"sigilo_dom_agua":false,"dom_esgoto":0,"sigilo_dom_esgoto":false,"renda_resp":8467.69,"sigilo_renda_resp":false,"n_resp":67,"sigilo_n_resp":false,"dens":5.3,"sigilo_dens":false,"na_bacia":0,"area_pct_bacia":0.0,"metodo_recorte_bacia":"ponto_representativo_setor_2022; area_pct_geometrica"},"geometry":{"type":"Polygon","coordinates":[[[-52.07633989999994,-28.122127],[-52.073812499999974,-28.122223499999958],[-52.07290849999998,-28.12291559999993],[-52.07307519999995,-28.12431529999999],[-52.07254629999994,-28.12571269999994],[-52.07283359999997,-28.126198699999975],[-52.07360349999993,-28.126141799999964],[-52.07386309999998,-28.126443499999933],[-52.07383929999998,-28.127264599999933],[-52.073197,-28.128013699999943],[-52.07268259999996,-28.128021499999935],[-52.071416599999964,-28.129968499999958],[-52.071446099999946,-28.130608199999987],[-52.06993309999996,-28.130673799999954],[-52.06632959999995,-28.132482],[-52.065431599999954,-28.132285099999926],[-52.06485909999998,-28.131498599999922],[-52.0629302,-28.13102369999996],[-52.06007609999995,-28.13252439999997],[-52.05887459999997,-28.13364669999993],[-52.05574109999997,-28.1347689],[-52.05513719999993,-28.13477079999996],[-52.05479449999996,-28.134998],[-52.05472229999998,-28.13641839999996],[-52.053903899999966,-28.137547],[-52.053934799999986,-28.138039299999946],[-52.05356879999994,-28.138722499999982],[-52.0530763,-28.139089299999956],[-52.052621,-28.141159899999945],[-52.05214759999996,-28.141184299999956],[-52.051169,-28.142318799999938],[-52.050534099999936,-28.14349789999994],[-52.048684399999956,-28.144609599999953],[-52.04345189999997,-28.145987399999967],[-52.038318199999935,-28.15051809999994],[-52.038779,-28.15133009999994],[-52.03979169999997,-28.154652299999942],[-52.040397299999945,-28.16287289999996],[-52.04161509999994,-28.162875799999934],[-52.04366829999998,-28.184227699999948],[-52.04622729999994,-28.186396499999944],[-52.047261899999974,-28.186893199999936],[-52.05648439999993,-28.188626899999978],[-52.061995199999956,-28.188560399999975],[-52.06583679999994,-28.18717639999995],[-52.06802769999996,-28.18628429999995],[-52.07206069999995,-28.183585799999943],[-52.07539659999998,-28.182495799999963],[-52.08149339999994,-28.17965149999998],[-52.08613909999997,-28.17684739999993],[-52.09490549999998,-28.173588799999944],[-52.09379459999997,-28.172632499999963],[-52.09335939999995,-28.171321699999957],[-52.09439949999995,-28.170310699999956],[-52.09472249999994,-28.169226],[-52.09555719999997,-28.168761699999948],[-52.09552769999993,-28.167759899999965],[-52.096608099999976,-28.165866499999936],[-52.09650639999995,-28.164555299999954],[-52.096821,-28.164294199999965],[-52.09820169999995,-28.164508699999946],[-52.09925979999996,-28.164305599999985],[-52.09981959999994,-28.16459569999994],[-52.10060359999994,-28.164450399999964],[-52.10298319999998,-28.163096799999945],[-52.102994199999955,-28.162209],[-52.102607499999976,-28.161551599999942],[-52.10221759999996,-28.15992009999995],[-52.102419,-28.15944489999998],[-52.103200699999945,-28.15943439999995],[-52.10712279999995,-28.16131229999996],[-52.109023499999985,-28.16043479999996],[-52.11001829999998,-28.160244199999973],[-52.11101189999994,-28.160531699999982],[-52.111387499999985,-28.16105339999995],[-52.11129389999997,-28.16470919999995],[-52.111523199999965,-28.165023299999966],[-52.11303469999995,-28.165110299999977],[-52.11403639999998,-28.163846],[-52.11486459999998,-28.163186499999938],[-52.115251199999925,-28.162019599999955],[-52.11588089999998,-28.161372599999943],[-52.11592989999997,-28.160671799999932],[-52.11556139999993,-28.16006679999998],[-52.11505919999996,-28.159897899999972],[-52.11253229999995,-28.160162199999945],[-52.112148299999944,-28.160028],[-52.1121419,-28.159442199999937],[-52.11361369999997,-28.156287099999936],[-52.11371419999994,-28.15581339999994],[-52.11349889999997,-28.155504799999967],[-52.11275969999997,-28.155313399999958],[-52.11186649999997,-28.155497599999926],[-52.11096959999998,-28.155855199999962],[-52.11060949999995,-28.156442699999946],[-52.10877889999994,-28.156732199999958],[-52.10817959999997,-28.156316],[-52.10800539999997,-28.15495489999996],[-52.106942699999934,-28.153373599999956],[-52.10598849999997,-28.152962499999937],[-52.105406899999934,-28.152376299999958],[-52.105488299999934,-28.151766],[-52.10522419999995,-28.151459299999946],[-52.10137339999995,-28.152506],[-52.10075389999997,-28.152259],[-52.10017109999996,-28.15158889999998],[-52.099796899999944,-28.150276299999984],[-52.09989929999995,-28.149282299999978],[-52.100362099999984,-28.148181899999948],[-52.101129199999946,-28.147154199999925],[-52.103979899999956,-28.144555899999943],[-52.10399019999994,-28.14396919999997],[-52.10206119999997,-28.142689299999972],[-52.101440199999956,-28.14203959999998],[-52.10115959999996,-28.141569299999958],[-52.10126449999996,-28.141191],[-52.103116,-28.141327099999955],[-52.10329169999994,-28.140991099999948],[-52.102898599999946,-28.14026289999998],[-52.10151449999995,-28.13890049999997],[-52.09928329999997,-28.137873799999962],[-52.097644,-28.136635799999958],[-52.096601299999975,-28.13513929999993],[-52.096315599999976,-28.129264],[-52.092116,-28.12653449999993],[-52.091791099999966,-28.125043],[-52.09108009999995,-28.12394579999994],[-52.08732889999993,-28.12266539999996],[-52.08449969999998,-28.12010669999995],[-52.08282479999997,-28.119414299999967],[-52.083280599999966,-28.118540299999953],[-52.08337239999998,-28.11772869999993],[-52.08262109999998,-28.117536699999953],[-52.08170259999997,-28.117602299999927],[-52.080757,-28.118971099999946],[-52.079296699999986,-28.11891769999994],[-52.07879369999995,-28.119223199999965],[-52.078607499999976,-28.120309899999942],[-52.07795569999996,-28.121137799999932],[-52.07760659999996,-28.121499399999937],[-52.07671279999994,-28.121681799999976],[-52.07633989999994,-28.122127]]]}},{"type":"Feature","properties":{"setor":"430005905000010","pop":958,"sigilo_pop":false,"dom":410,"sigilo_dom":false,"mulheres":507,"sigilo_mulheres":false,"c0_4":68,"sigilo_c0_4":false,"c5_9":58,"sigilo_c5_9":false,"i60_69":101,"sigilo_i60_69":false,"i70m":81,"sigilo_i70m":false,"indigenas":53,"sigilo_indigenas":false,"pretos_pardos":115,"sigilo_pretos_pardos":false,"dom_ocupados":364,"sigilo_dom_ocupados":false,"dom_agua":340,"sigilo_dom_agua":false,"dom_esgoto":31,"sigilo_dom_esgoto":false,"renda_resp":2641.43,"sigilo_renda_resp":false,"n_resp":364,"sigilo_n_resp":false,"dens":364.9,"sigilo_dens":false,"na_bacia":0,"area_pct_bacia":0.0,"metodo_recorte_bacia":"ponto_representativo_setor_2022; area_pct_geometrica"},"geometry":{"type":"Polygon","coordinates":[[[-52.026855799999964,-28.173294499999944],[-52.02529739999994,-28.17483629999998],[-52.026712299999986,-28.177758899999954],[-52.03063709999998,-28.176586799999942],[-52.039895899999976,-28.179496099999934],[-52.04025459999997,-28.17967909999992],[-52.04215879999998,-28.182750299999956],[-52.04366829999998,-28.184227699999948],[-52.04161509999994,-28.162875799999934],[-52.028911299999955,-28.16217429999995],[-52.026855799999964,-28.173294499999944]]]}},{"type":"Feature","properties":{"setor":"430005905000011","pop":745,"sigilo_pop":false,"dom":300,"sigilo_dom":false,"mulheres":384,"sigilo_mulheres":false,"c0_4":49,"sigilo_c0_4":false,"c5_9":62,"sigilo_c5_9":false,"i60_69":78,"sigilo_i60_69":false,"i70m":68,"sigilo_i70m":false,"indigenas":8,"sigilo_indigenas":false,"pretos_pardos":104,"sigilo_pretos_pardos":false,"dom_ocupados":273,"sigilo_dom_ocupados":false,"dom_agua":268,"sigilo_dom_agua":false,"dom_esgoto":14,"sigilo_dom_esgoto":false,"renda_resp":3248.12,"sigilo_renda_resp":false,"n_resp":273,"sigilo_n_resp":false,"dens":538.9,"sigilo_dens":false,"na_bacia":0,"area_pct_bacia":0.0,"metodo_recorte_bacia":"ponto_representativo_setor_2022; area_pct_geometrica"},"geometry":{"type":"Polygon","coordinates":[[[-52.034330099999984,-28.184676],[-52.04366829999998,-28.184227699999948],[-52.04215879999998,-28.182750299999956],[-52.04025459999997,-28.17967909999992],[-52.0309994,-28.176637099999947],[-52.0302066,-28.176629899999966],[-52.021595,-28.179146],[-52.01994129999997,-28.179852599999947],[-52.01891349999994,-28.180695],[-52.02021159999998,-28.180685499999985],[-52.021567699999935,-28.181560099999956],[-52.023760599999946,-28.181423799999948],[-52.02624229999998,-28.182514899999944],[-52.02691749999997,-28.183348],[-52.027122299999974,-28.18485559999993],[-52.02749509999995,-28.18571739999994],[-52.02870459999997,-28.186716699999977],[-52.02968629999997,-28.186588599999933],[-52.03104529999996,-28.18570159999996],[-52.03203359999998,-28.18472819999993],[-52.03273989999997,-28.18474329999998],[-52.033687499999985,-28.185326],[-52.034330099999984,-28.184676]]]}},{"type":"Feature","properties":{"setor":"430005905000012","pop":34,"sigilo_pop":false,"dom":13,"sigilo_dom":false,"mulheres":18,"sigilo_mulheres":false,"c0_4":null,"sigilo_c0_4":true,"c5_9":null,"sigilo_c5_9":true,"i60_69":null,"sigilo_i60_69":true,"i70m":6,"sigilo_i70m":false,"indigenas":17,"sigilo_indigenas":false,"pretos_pardos":0,"sigilo_pretos_pardos":false,"dom_ocupados":12,"sigilo_dom_ocupados":false,"dom_agua":0,"sigilo_dom_agua":false,"dom_esgoto":0,"sigilo_dom_esgoto":false,"renda_resp":1981.0,"sigilo_renda_resp":false,"n_resp":12,"sigilo_n_resp":false,"dens":6.4,"sigilo_dens":false,"na_bacia":0,"area_pct_bacia":0.0,"metodo_recorte_bacia":"ponto_representativo_setor_2022; area_pct_geometrica"},"geometry":{"type":"Polygon","coordinates":[[[-52.0273663,-28.185482099999934],[-52.02691749999997,-28.183348],[-52.02647659999997,-28.18269489999994],[-52.023549799999955,-28.18140849999998],[-52.023608,-28.182235599999963],[-52.022885299999984,-28.184012799999955],[-52.020931,-28.185827099999983],[-52.019933599999945,-28.186364899999937],[-52.01942019999996,-28.18710919999995],[-52.018780299999946,-28.187411899999965],[-52.017492699999934,-28.189646],[-52.01061059999995,-28.187487799999932],[-52.01014239999995,-28.189695099999938],[-52.00956469999994,-28.190278],[-52.00912189999997,-28.19027729999993],[-52.00807109999994,-28.189787899999946],[-52.00662429999994,-28.189618799999952],[-52.00596079999997,-28.189760599999936],[-52.00423529999995,-28.189135299999975],[-52.00295559999995,-28.189392199999933],[-52.001400399999966,-28.190839599999947],[-51.999258,-28.191109099999952],[-51.99779279999995,-28.19883179999994],[-51.99880289999993,-28.199746],[-51.99947629999997,-28.20186019999994],[-52.00070039999998,-28.203013099999954],[-52.002007,-28.206106899999952],[-52.002631399999984,-28.206568699999924],[-52.00349649999998,-28.206837299999965],[-52.00543349999998,-28.207192199999955],[-52.00668289999993,-28.20718079999995],[-52.00761029999996,-28.206982299999932],[-52.00862639999997,-28.206359499999955],[-52.02309519999994,-28.204666399999944],[-52.02407649999998,-28.203103799999948],[-52.024109399999986,-28.20223449999997],[-52.02595969999993,-28.20100869999993],[-52.02586009999993,-28.200507199999947],[-52.025203,-28.200320499999965],[-52.02498279999998,-28.200038199999952],[-52.025190699999946,-28.19926129999993],[-52.02503019999994,-28.198295499999976],[-52.02544049999995,-28.197942299999966],[-52.0261771,-28.19638889999994],[-52.02643659999995,-28.19531119999994],[-52.02592979999998,-28.193681499999965],[-52.02711659999995,-28.192367],[-52.02714419999995,-28.191084499999914],[-52.02750429999998,-28.190667],[-52.02752629999998,-28.18972379999997],[-52.028893299999936,-28.189194199999967],[-52.02886479999995,-28.188683499999954],[-52.029267499999946,-28.188375],[-52.02926269999995,-28.187871599999934],[-52.03024149999993,-28.18728929999998],[-52.03059969999998,-28.186776799999954],[-52.030655399999944,-28.185994099999963],[-52.02951939999997,-28.18666079999997],[-52.02870459999997,-28.186716699999977],[-52.0273663,-28.185482099999934]]]}},{"type":"Feature","properties":{"setor":"430005905000013","pop":46,"sigilo_pop":false,"dom":18,"sigilo_dom":false,"mulheres":24,"sigilo_mulheres":false,"c0_4":4,"sigilo_c0_4":false,"c5_9":null,"sigilo_c5_9":true,"i60_69":null,"sigilo_i60_69":true,"i70m":null,"sigilo_i70m":true,"indigenas":0,"sigilo_indigenas":false,"pretos_pardos":null,"sigilo_pretos_pardos":true,"dom_ocupados":15,"sigilo_dom_ocupados":false,"dom_agua":0,"sigilo_dom_agua":false,"dom_esgoto":0,"sigilo_dom_esgoto":false,"renda_resp":11464.0,"sigilo_renda_resp":false,"n_resp":15,"sigilo_n_resp":false,"dens":4.7,"sigilo_dens":false,"na_bacia":0,"area_pct_bacia":0.0,"metodo_recorte_bacia":"ponto_representativo_setor_2022; area_pct_geometrica"},"geometry":{"type":"Polygon","coordinates":[[[-52.02309519999994,-28.204666399999944],[-52.00862639999997,-28.206359499999955],[-52.007182199999924,-28.20703619999994],[-52.00424309999994,-28.20986069999998],[-51.99866079999998,-28.213714],[-51.99594329999997,-28.216131299999965],[-51.99537729999997,-28.21736309999995],[-51.99496709999994,-28.221033199999958],[-51.994394,-28.22289209999997],[-51.99387679999996,-28.224070699999963],[-51.99272019999995,-28.225035699999978],[-51.99383469999998,-28.225588099999978],[-51.993975399999954,-28.226110199999933],[-51.994019899999955,-28.22702819999995],[-51.993779899999936,-28.227496399999954],[-51.99306019999995,-28.227967399999947],[-51.992899499999965,-28.229273],[-51.99404489999995,-28.234760599999962],[-51.993977,-28.236459199999953],[-51.994233,-28.238347599999944],[-51.994494799999984,-28.239463],[-51.995611799999956,-28.240959699999966],[-51.99831209999997,-28.24115429999995],[-51.99929089999995,-28.24089389999994],[-51.999684499999944,-28.24093939999995],[-52.00001809999998,-28.24127519999997],[-52.000641299999984,-28.242603399999936],[-52.00061269999998,-28.243219],[-51.99952329999997,-28.246298],[-51.999572099999966,-28.24676769999996],[-52.00107079999997,-28.24786709999995],[-52.001304,-28.248743899999965],[-52.00224009999994,-28.250310299999974],[-52.00234669999998,-28.251010799999957],[-52.004777599999954,-28.250242499999956],[-52.00655309999997,-28.25043289999996],[-52.01495109999996,-28.247810299999966],[-52.010935899999936,-28.23966329999995],[-52.010300399999956,-28.239466199999985],[-52.00995159999996,-28.23884039999997],[-52.01000909999994,-28.23731419999995],[-52.00898769999998,-28.23581919999998],[-52.00854679999998,-28.234468099999944],[-52.00863289999995,-28.233991099999983],[-52.009715,-28.233887],[-52.00996549999997,-28.2334906],[-52.00958,-28.232739699999968],[-52.009758799999986,-28.232277],[-52.01032849999996,-28.231897399999976],[-52.01145179999998,-28.231805599999984],[-52.012081499999965,-28.232023099999935],[-52.012667,-28.231382299999964],[-52.01297789999995,-28.230442199999967],[-52.01243569999997,-28.229309099999966],[-52.012378,-28.227761],[-52.014166099999954,-28.2273077],[-52.017058,-28.228829],[-52.021705199999985,-28.224253399999956],[-52.021371399999964,-28.22349019999995],[-52.02107779999995,-28.221407299999957],[-52.02172349999995,-28.22080069999998],[-52.02289039999994,-28.220191399999973],[-52.024217599999986,-28.21848439999996],[-52.02574229999993,-28.21566089999992],[-52.02767659999995,-28.214188699999966],[-52.02364859999995,-28.209883699999985],[-52.023140299999966,-28.208759199999978],[-52.022414,-28.207855],[-52.02309519999994,-28.204666399999944]]]}},{"type":"Feature","properties":{"setor":"430005915000001","pop":51,"sigilo_pop":false,"dom":28,"sigilo_dom":false,"mulheres":23,"sigilo_mulheres":false,"c0_4":null,"sigilo_c0_4":true,"c5_9":null,"sigilo_c5_9":true,"i60_69":12,"sigilo_i60_69":false,"i70m":6,"sigilo_i70m":false,"indigenas":0,"sigilo_indigenas":false,"pretos_pardos":9,"sigilo_pretos_pardos":false,"dom_ocupados":22,"sigilo_dom_ocupados":false,"dom_agua":0,"sigilo_dom_agua":false,"dom_esgoto":0,"sigilo_dom_esgoto":false,"renda_resp":2010.91,"sigilo_renda_resp":false,"n_resp":22,"sigilo_n_resp":false,"dens":383.8,"sigilo_dens":false,"na_bacia":0,"area_pct_bacia":0.0,"metodo_recorte_bacia":"ponto_representativo_setor_2022; area_pct_geometrica"},"geometry":{"type":"Polygon","coordinates":[[[-52.138847399999975,-28.201398],[-52.141211399999975,-28.202854599999963],[-52.14188489999998,-28.202841799999923],[-52.141840099999975,-28.200135799999938],[-52.14271759999996,-28.19790579999994],[-52.14213739999997,-28.197825199999958],[-52.13943089999998,-28.198598599999965],[-52.138847399999975,-28.201398]]]}},{"type":"Feature","properties":{"setor":"430005915000002","pop":286,"sigilo_pop":false,"dom":127,"sigilo_dom":false,"mulheres":139,"sigilo_mulheres":false,"c0_4":15,"sigilo_c0_4":false,"c5_9":19,"sigilo_c5_9":false,"i60_69":34,"sigilo_i60_69":false,"i70m":32,"sigilo_i70m":false,"indigenas":0,"sigilo_indigenas":false,"pretos_pardos":53,"sigilo_pretos_pardos":false,"dom_ocupados":103,"sigilo_dom_ocupados":false,"dom_agua":0,"sigilo_dom_agua":false,"dom_esgoto":0,"sigilo_dom_esgoto":false,"renda_resp":5527.76,"sigilo_renda_resp":false,"n_resp":103,"sigilo_n_resp":false,"dens":7.4,"sigilo_dens":false,"na_bacia":0,"area_pct_bacia":0.0,"metodo_recorte_bacia":"ponto_representativo_setor_2022; area_pct_geometrica"},"geometry":{"type":"Polygon","coordinates":[[[-52.09490549999998,-28.173588799999944],[-52.09518009999994,-28.175262499999974],[-52.09494179999995,-28.17616609999993],[-52.09373729999999,-28.177078499999944],[-52.091340899999985,-28.17793119999993],[-52.090616,-28.17906259999994],[-52.09099879999997,-28.179697599999937],[-52.09119559999994,-28.18086259999995],[-52.09203719999994,-28.181537199999966],[-52.092542599999945,-28.18227859999996],[-52.092819,-28.183384199999978],[-52.09358589999994,-28.18462369999997],[-52.09540589999994,-28.18576429999996],[-52.09544379999994,-28.186558799999947],[-52.095911,-28.187696199999962],[-52.096703599999955,-28.188243899999968],[-52.097370399999924,-28.18817829999995],[-52.098317099999974,-28.18893279999997],[-52.10016359999997,-28.189353799999942],[-52.10048249999994,-28.190710399999944],[-52.10094479999998,-28.19095609999993],[-52.10278329999994,-28.19099659999995],[-52.10324049999997,-28.191259],[-52.10267829999998,-28.192678],[-52.10298719999997,-28.19304809999994],[-52.104186599999935,-28.193065499999943],[-52.10457139999994,-28.192802099999938],[-52.10492279999995,-28.192893599999937],[-52.10507969999997,-28.193266899999962],[-52.104433099999945,-28.193833099999942],[-52.10457649999995,-28.19413419999994],[-52.103979899999956,-28.195161],[-52.103516199999945,-28.195282199999937],[-52.102464699999985,-28.194631099999974],[-52.10220229999993,-28.19486969999997],[-52.102368399999925,-28.19589139999994],[-52.10133749999995,-28.195671399999977],[-52.10087649999997,-28.196139499999948],[-52.10177909999993,-28.19756929999993],[-52.101419,-28.19868089999994],[-52.10102359999996,-28.198784799999938],[-52.100382199999956,-28.198579299999935],[-52.100351699999976,-28.197549799999926],[-52.099000599999954,-28.197677099999954],[-52.09841369999998,-28.19808629999993],[-52.09799039999996,-28.199519199999944],[-52.096554199999964,-28.199426399999933],[-52.09496539999998,-28.200296599999938],[-52.093820599999965,-28.199689799999927],[-52.09312929999999,-28.201236099999953],[-52.09341409999996,-28.20174],[-52.09420909999995,-28.20069609999996],[-52.095374299999946,-28.201766799999977],[-52.09567709999993,-28.20364309999997],[-52.09460949999993,-28.204800099999936],[-52.09488179999994,-28.20593689999998],[-52.09576549999997,-28.206882599999975],[-52.095,-28.209218],[-52.09526759999994,-28.210806299999945],[-52.095961299999935,-28.211014699999975],[-52.099174,-28.209990199999933],[-52.100556299999944,-28.21229079999996],[-52.10089709999994,-28.213624299999932],[-52.10213739999995,-28.214456],[-52.10240469999997,-28.215634599999927],[-52.102009599999974,-28.216151399999937],[-52.10073659999994,-28.216059299999987],[-52.099495199999986,-28.215558599999945],[-52.09734059999993,-28.215864299999975],[-52.09703459999997,-28.217480099999932],[-52.09691539999994,-28.21774079999994],[-52.09647289999998,-28.217851699999986],[-52.09610559999993,-28.216465599999943],[-52.095360199999966,-28.215175199999976],[-52.09504929999998,-28.215219399999967],[-52.094949799999945,-28.216130199999952],[-52.09443489999995,-28.21644589999994],[-52.09374249999997,-28.215825899999967],[-52.093358499999965,-28.215831099999946],[-52.093078,-28.21611109999997],[-52.09247469999997,-28.216006099999955],[-52.09139589999996,-28.216336399999932],[-52.09044259999997,-28.216852299999978],[-52.08980479999997,-28.21764329999996],[-52.09000659999999,-28.219594199999964],[-52.08974719999998,-28.219830199999933],[-52.08896289999996,-28.219717299999964],[-52.087511,-28.221050299999934],[-52.088318699999945,-28.222173699999935],[-52.08848769999997,-28.22277959999997],[-52.08974249999994,-28.223835699999942],[-52.09081959999997,-28.223769799999967],[-52.09147759999997,-28.225511],[-52.09138249999995,-28.22652669999997],[-52.09166229999993,-28.22691729999997],[-52.09353349999998,-28.22774129999994],[-52.09402079999995,-28.228620799999938],[-52.09548249999995,-28.230327499999934],[-52.096029199999975,-28.230495],[-52.09650449999998,-28.231248899999965],[-52.09939229999998,-28.232788],[-52.10052129999997,-28.232955499999942],[-52.101697799999954,-28.233630899999973],[-52.103016899999936,-28.23399209999997],[-52.106409799999945,-28.235819099999972],[-52.10657109999995,-28.23543239999998],[-52.10722979999997,-28.235306099999946],[-52.10751639999996,-28.234986299999942],[-52.10841819999996,-28.234944799999948],[-52.10900049999998,-28.233981599999925],[-52.1105692,-28.233458099999947],[-52.11218169999995,-28.233922499999945],[-52.11315989999998,-28.233852199999944],[-52.11354019999994,-28.23465169999998],[-52.114326299999966,-28.234622],[-52.11561919999997,-28.23416209999993],[-52.11589879999997,-28.23453],[-52.11653309999997,-28.234723499999976],[-52.11800929999998,-28.234194499999937],[-52.11910369999998,-28.235531299999938],[-52.120632299999954,-28.23502529999996],[-52.12156889999994,-28.23527669999993],[-52.122802099999944,-28.236348699999944],[-52.12434119999995,-28.235366499999945],[-52.128294299999936,-28.236309599999966],[-52.129135,-28.236725799999924],[-52.129887,-28.23834119999997],[-52.13018,-28.239679],[-52.12991209999995,-28.24038329999997],[-52.130139199999974,-28.24209139999993],[-52.13711989999996,-28.248930699999956],[-52.13752679999993,-28.24888939999994],[-52.140990399999964,-28.245922899999975],[-52.14169049999999,-28.24445439999994],[-52.142558,-28.24404659999994],[-52.14296779999995,-28.24414029999998],[-52.143144699999944,-28.243635099999945],[-52.143961599999955,-28.242814399999926],[-52.14294789999997,-28.242459299999943],[-52.14250719999996,-28.242741199999962],[-52.141096199999936,-28.24290509999997],[-52.13960439999994,-28.241474299999926],[-52.13838079999994,-28.241401099999948],[-52.13714229999994,-28.24067929999994],[-52.136545199999944,-28.239484],[-52.1438017,-28.227200199999967],[-52.14534709999998,-28.227601899999975],[-52.147413799999974,-28.226872],[-52.14920929999994,-28.225773199999928],[-52.15121759999994,-28.224013399999933],[-52.15220409999995,-28.22199019999993],[-52.15231989999995,-28.21948629999998],[-52.15273339999993,-28.21811139999993],[-52.153799,-28.217527599999972],[-52.154428799999955,-28.215444699999978],[-52.154367,-28.21421929999997],[-52.15522069999997,-28.21362109999995],[-52.15591659999996,-28.21212489999994],[-52.15585149999998,-28.21169289999995],[-52.157137,-28.209685899999954],[-52.15789619999999,-28.209153699999945],[-52.15833109999994,-28.209257699999963],[-52.15869779999997,-28.20898089999998],[-52.159098899999954,-28.209076199999963],[-52.159769899999965,-28.20874979999996],[-52.16039519999998,-28.208846299999948],[-52.16133339999993,-28.208449],[-52.16212619999993,-28.20841729999995],[-52.16261919999994,-28.207907199999948],[-52.16308489999995,-28.20802469999994],[-52.16524019999998,-28.207558],[-52.16557549999993,-28.207222899999973],[-52.167057599999964,-28.206982599999943],[-52.167110599999944,-28.20570719999995],[-52.168129,-28.203507399999967],[-52.16841979999998,-28.1891065],[-52.15570219999995,-28.183133199999933],[-52.155713099999964,-28.184111899999944],[-52.156082799999986,-28.184664599999966],[-52.15593819999998,-28.18519319999996],[-52.15560179999994,-28.185376499999958],[-52.15508339999997,-28.189967],[-52.14680819999995,-28.184911],[-52.13609659999998,-28.18431459999993],[-52.12986049999995,-28.182834],[-52.127464599999946,-28.18298919999994],[-52.12502069999994,-28.182733],[-52.12440069999997,-28.18287019999996],[-52.123772299999985,-28.18251129999994],[-52.12324359999997,-28.181812799999932],[-52.12285929999996,-28.180932499999987],[-52.12296749999996,-28.179286399999963],[-52.12264539999995,-28.178508],[-52.12205759999995,-28.178038499999946],[-52.12129479999999,-28.177831799999964],[-52.120496,-28.177898799999983],[-52.1195747,-28.177347499999932],[-52.11814179999993,-28.177209099999974],[-52.11738969999994,-28.176157199999974],[-52.115874,-28.175316199999944],[-52.114397799999956,-28.174799],[-52.11290939999998,-28.174700499999975],[-52.110123199999975,-28.17356159999997],[-52.10782729999994,-28.1730798],[-52.10724119999998,-28.172490699999972],[-52.106489499999945,-28.172205399999942],[-52.106107099999974,-28.171372299999977],[-52.10416459999994,-28.17027629999995],[-52.10203829999995,-28.167885299999966],[-52.101178,-28.166334499999948],[-52.10006469999997,-28.165578899999957],[-52.09978549999994,-28.165103],[-52.09981959999994,-28.16459569999994],[-52.09925979999996,-28.164305599999985],[-52.09820169999995,-28.164508699999946],[-52.096821,-28.164294199999965],[-52.09650639999995,-28.164555299999954],[-52.096608099999976,-28.165866499999936],[-52.09552769999993,-28.167759899999965],[-52.09555719999997,-28.168761699999948],[-52.09472249999994,-28.169226],[-52.09439949999995,-28.170310699999956],[-52.09335939999995,-28.171321699999957],[-52.09379459999997,-28.172632499999963],[-52.09490549999998,-28.173588799999944]],[[-52.138847399999975,-28.201398],[-52.13943089999998,-28.198598599999965],[-52.14213739999997,-28.197825199999958],[-52.14271759999996,-28.19790579999994],[-52.141840099999975,-28.200135799999938],[-52.14188489999998,-28.202841799999923],[-52.141211399999975,-28.202854599999963],[-52.138847399999975,-28.201398]]]}},{"type":"Feature","properties":{"setor":"430005925000001","pop":33,"sigilo_pop":false,"dom":15,"sigilo_dom":false,"mulheres":18,"sigilo_mulheres":false,"c0_4":null,"sigilo_c0_4":true,"c5_9":null,"sigilo_c5_9":true,"i60_69":null,"sigilo_i60_69":true,"i70m":null,"sigilo_i70m":true,"indigenas":0,"sigilo_indigenas":false,"pretos_pardos":null,"sigilo_pretos_pardos":true,"dom_ocupados":13,"sigilo_dom_ocupados":false,"dom_agua":null,"sigilo_dom_agua":true,"dom_esgoto":0,"sigilo_dom_esgoto":false,"renda_resp":4300.0,"sigilo_renda_resp":false,"n_resp":13,"sigilo_n_resp":false,"dens":258.5,"sigilo_dens":false,"na_bacia":0,"area_pct_bacia":0.0,"metodo_recorte_bacia":"ponto_representativo_setor_2022; area_pct_geometrica"},"geometry":{"type":"Polygon","coordinates":[[[-52.099558599999966,-28.25435559999994],[-52.09880979999997,-28.25446559999994],[-52.097711,-28.253996799999975],[-52.09697989999995,-28.255788199999976],[-52.09828249999998,-28.256374499999932],[-52.099630299999944,-28.256207099999983],[-52.102166,-28.255368199999957],[-52.10267689999995,-28.255424899999966],[-52.10325389999997,-28.256096399999933],[-52.103233499999924,-28.25362559999997],[-52.10123629999999,-28.253619499999946],[-52.099558599999966,-28.25435559999994]]]}},{"type":"Feature","properties":{"setor":"430005925000002","pop":260,"sigilo_pop":false,"dom":121,"sigilo_dom":false,"mulheres":128,"sigilo_mulheres":false,"c0_4":13,"sigilo_c0_4":false,"c5_9":13,"sigilo_c5_9":false,"i60_69":35,"sigilo_i60_69":false,"i70m":24,"sigilo_i70m":false,"indigenas":0,"sigilo_indigenas":false,"pretos_pardos":null,"sigilo_pretos_pardos":true,"dom_ocupados":91,"sigilo_dom_ocupados":false,"dom_agua":null,"sigilo_dom_agua":true,"dom_esgoto":0,"sigilo_dom_esgoto":false,"renda_resp":2839.33,"sigilo_renda_resp":false,"n_resp":91,"sigilo_n_resp":false,"dens":6.1,"sigilo_dens":false,"na_bacia":0,"area_pct_bacia":4.7723,"metodo_recorte_bacia":"ponto_representativo_setor_2022; area_pct_geometrica"},"geometry":{"type":"Polygon","coordinates":[[[-52.05528549999997,-28.260329699999943],[-52.05635949999998,-28.261682299999958],[-52.05792339999994,-28.270520599999934],[-52.05741139999998,-28.274775299999913],[-52.05501409999994,-28.277203699999976],[-52.051879499999984,-28.279608199999927],[-52.04948379999996,-28.28505429999996],[-52.04747089999996,-28.28752409999993],[-52.04627069999998,-28.299951],[-52.047725499999956,-28.302723099999973],[-52.047746899999936,-28.30319569999995],[-52.050581799999975,-28.30289689999996],[-52.05438839999994,-28.303230499999977],[-52.09223169999996,-28.307089199999957],[-52.09203549999996,-28.306340699999968],[-52.092442,-28.304685599999967],[-52.095599599999964,-28.293057599999937],[-52.09593959999995,-28.292485299999942],[-52.09603869999995,-28.291471199999947],[-52.09743119999996,-28.28715829999993],[-52.09693169999997,-28.286816],[-52.09712,-28.285745],[-52.09647879999995,-28.283847899999962],[-52.09806209999994,-28.282416],[-52.098513499999974,-28.279923399999973],[-52.10069169999997,-28.27769209999996],[-52.10206279999994,-28.277307499999953],[-52.10363879999994,-28.277886],[-52.104596699999945,-28.279094399999966],[-52.10648679999997,-28.28001769999997],[-52.10816009999996,-28.281241199999958],[-52.110518,-28.281741299999968],[-52.112146199999984,-28.281466699999953],[-52.113453399999976,-28.280516],[-52.11615769999998,-28.27918589999996],[-52.11584739999995,-28.27810889999994],[-52.11468549999995,-28.27627649999994],[-52.115058,-28.27331829999997],[-52.125833,-28.263222899999963],[-52.128967399999965,-28.255144199999958],[-52.12973239999997,-28.25451759999994],[-52.12854,-28.253438],[-52.128972499999975,-28.252466499999976],[-52.12884939999997,-28.252262699999957],[-52.12931819999995,-28.25048429999998],[-52.12912539999997,-28.24940679999996],[-52.128573899999935,-28.249350799999938],[-52.12831719999997,-28.249026299999972],[-52.129038399999956,-28.247673499999955],[-52.127080299999925,-28.246997099999927],[-52.1279239,-28.246166299999977],[-52.128220699999986,-28.245515499999946],[-52.12715229999998,-28.244809799999928],[-52.126763799999935,-28.244829899999964],[-52.12652949999995,-28.24369759999997],[-52.12478009999996,-28.242062399999952],[-52.125266299999964,-28.240973299999943],[-52.125123299999984,-28.240203599999962],[-52.12533929999996,-28.239807799999944],[-52.126514199999974,-28.239036699999925],[-52.12709529999995,-28.239013199999935],[-52.12813649999998,-28.238436499999978],[-52.12797169999993,-28.237066799999976],[-52.128294299999936,-28.236309599999966],[-52.12434119999995,-28.235366499999945],[-52.122802099999944,-28.236348699999944],[-52.12156889999994,-28.23527669999993],[-52.120632299999954,-28.23502529999996],[-52.11910369999998,-28.235531299999938],[-52.11800929999998,-28.234194499999937],[-52.11653309999997,-28.234723499999976],[-52.11589879999997,-28.23453],[-52.11561919999997,-28.23416209999993],[-52.114326299999966,-28.234622],[-52.11354019999994,-28.23465169999998],[-52.11315989999998,-28.233852199999944],[-52.11218169999995,-28.233922499999945],[-52.1105692,-28.233458099999947],[-52.10900049999998,-28.233981599999925],[-52.10841819999996,-28.234944799999948],[-52.10751639999996,-28.234986299999942],[-52.10722979999997,-28.235306099999946],[-52.10657109999995,-28.23543239999998],[-52.106504899999955,-28.235777199999973],[-52.10615429999996,-28.23573009999996],[-52.103016899999936,-28.23399209999997],[-52.101697799999954,-28.233630899999973],[-52.10052129999997,-28.232955499999942],[-52.09939229999998,-28.232788],[-52.09650449999998,-28.231248899999965],[-52.096029199999975,-28.230495],[-52.09548249999995,-28.230327499999934],[-52.09402079999995,-28.228620799999938],[-52.09353349999998,-28.22774129999994],[-52.09166229999993,-28.22691729999997],[-52.09138249999995,-28.22652669999997],[-52.09147759999997,-28.225511],[-52.09094279999994,-28.223919399999946],[-52.090313,-28.22369949999996],[-52.08974249999994,-28.223835699999942],[-52.089279099999935,-28.22359479999995],[-52.08848769999997,-28.22277959999997],[-52.088318699999945,-28.222173699999935],[-52.087511,-28.221050299999934],[-52.08728879999995,-28.2213],[-52.08733629999995,-28.22205089999995],[-52.08573089999992,-28.223464599999947],[-52.08588119999996,-28.22392389999993],[-52.08481779999993,-28.225306399999962],[-52.084790399999974,-28.225663899999965],[-52.08624219999996,-28.227286699999976],[-52.08628819999996,-28.228216799999927],[-52.085977699999944,-28.229045099999944],[-52.086918899999944,-28.23035],[-52.08607769999998,-28.231167199999955],[-52.08510769999999,-28.231413799999935],[-52.084037499999965,-28.2313109],[-52.08296479999996,-28.230317899999935],[-52.08267549999994,-28.230373199999974],[-52.08066739999998,-28.232037599999963],[-52.08094149999994,-28.232451399999942],[-52.08337869999997,-28.232721499999965],[-52.08396619999996,-28.233007099999956],[-52.08400679999994,-28.233497599999968],[-52.08295339999995,-28.23532459999996],[-52.08147129999997,-28.23567569999994],[-52.08111369999995,-28.23553],[-52.08150819999998,-28.23431639999994],[-52.08045029999994,-28.23362389999994],[-52.07971759999998,-28.233626799999964],[-52.078767699999965,-28.233845499999983],[-52.07821079999997,-28.234301899999927],[-52.07769269999995,-28.235670799999976],[-52.07758739999996,-28.23801559999998],[-52.077848899999935,-28.238371499999968],[-52.07913,-28.239086799999942],[-52.07961529999994,-28.23984849999993],[-52.07953779999996,-28.240058199999957],[-52.08051049999995,-28.24093239999996],[-52.08003929999995,-28.24138369999996],[-52.07988159999997,-28.242786899999928],[-52.07937069999997,-28.243520899999957],[-52.080375899999986,-28.244949299999973],[-52.080233,-28.24564089999995],[-52.07988639999997,-28.246001099999948],[-52.079035,-28.246320199999964],[-52.077592599999946,-28.246332799999948],[-52.07757419999996,-28.247381199999953],[-52.07706309999998,-28.247860899999985],[-52.076337,-28.247379199999962],[-52.07578339999997,-28.248458699999944],[-52.07412809999994,-28.2473156],[-52.073320799999976,-28.247881],[-52.07300959999997,-28.24893379999997],[-52.07318909999998,-28.249498],[-52.07301549999994,-28.249805799999926],[-52.07344149999995,-28.250338299999953],[-52.07332339999993,-28.251372299999957],[-52.07141969999998,-28.25252169999993],[-52.07101789999996,-28.25250169999998],[-52.06979529999995,-28.253874299999946],[-52.06966339999997,-28.254772699999926],[-52.06925989999996,-28.255406499999943],[-52.06982919999995,-28.256868699999988],[-52.06926079999994,-28.257101799999926],[-52.06951139999996,-28.25762449999996],[-52.06930449999993,-28.25786479999994],[-52.065161399999965,-28.255928899999958],[-52.06171289999997,-28.253945699999967],[-52.061517,-28.25361139999995],[-52.061224099999954,-28.253673199999984],[-52.0607,-28.254617],[-52.05930539999998,-28.255456399999943],[-52.058924099999956,-28.255224699999932],[-52.05828159999999,-28.253789199999964],[-52.05789759999993,-28.253950599999943],[-52.05692319999997,-28.253878699999976],[-52.05617639999997,-28.253483],[-52.056044199999974,-28.25382569999993],[-52.056647,-28.254508499999933],[-52.056847299999966,-28.255193],[-52.056191299999966,-28.255604799999958],[-52.056111699999974,-28.255994799999943],[-52.057077,-28.256884599999978],[-52.05638839999994,-28.258374699999923],[-52.05589829999996,-28.258572799999964],[-52.05575749999997,-28.259046],[-52.05596909999998,-28.259585099999985],[-52.05528549999997,-28.260329699999943]],[[-52.099558599999966,-28.25435559999994],[-52.10123629999999,-28.253619499999946],[-52.103233499999924,-28.25362559999997],[-52.10325389999997,-28.256096399999933],[-52.10267689999995,-28.255424899999966],[-52.102166,-28.255368199999957],[-52.099630299999944,-28.256207099999983],[-52.09828249999998,-28.256374499999932],[-52.09697989999995,-28.255788199999976],[-52.097711,-28.253996799999975],[-52.09880979999997,-28.25446559999994],[-52.099558599999966,-28.25435559999994]]]}},{"type":"Feature","properties":{"setor":"430005928000001","pop":10,"sigilo_pop":false,"dom":4,"sigilo_dom":false,"mulheres":null,"sigilo_mulheres":true,"c0_4":null,"sigilo_c0_4":true,"c5_9":null,"sigilo_c5_9":true,"i60_69":null,"sigilo_i60_69":true,"i70m":null,"sigilo_i70m":true,"indigenas":null,"sigilo_indigenas":true,"pretos_pardos":null,"sigilo_pretos_pardos":true,"dom_ocupados":null,"sigilo_dom_ocupados":true,"dom_agua":null,"sigilo_dom_agua":true,"dom_esgoto":null,"sigilo_dom_esgoto":true,"renda_resp":null,"sigilo_renda_resp":true,"n_resp":null,"sigilo_n_resp":true,"dens":16.7,"sigilo_dens":false,"na_bacia":0,"area_pct_bacia":0.0,"metodo_recorte_bacia":"ponto_representativo_setor_2022; area_pct_geometrica"},"geometry":{"type":"Polygon","coordinates":[[[-52.06435389999996,-28.222273],[-52.07376519999997,-28.22119579999998],[-52.074112699999944,-28.218293199999945],[-52.07237519999996,-28.217864],[-52.07108749999998,-28.21718939999993],[-52.06885939999995,-28.215308799999946],[-52.06663129999998,-28.216269599999976],[-52.066161199999954,-28.21629],[-52.06477919999997,-28.215050699999953],[-52.062931499999934,-28.215206599999924],[-52.06444749999997,-28.221704499999934],[-52.06435389999996,-28.222273]]]}},{"type":"Feature","properties":{"setor":"430005928000002","pop":151,"sigilo_pop":false,"dom":54,"sigilo_dom":false,"mulheres":76,"sigilo_mulheres":false,"c0_4":7,"sigilo_c0_4":false,"c5_9":null,"sigilo_c5_9":true,"i60_69":26,"sigilo_i60_69":false,"i70m":16,"sigilo_i70m":false,"indigenas":null,"sigilo_indigenas":true,"pretos_pardos":0,"sigilo_pretos_pardos":false,"dom_ocupados":51,"sigilo_dom_ocupados":false,"dom_agua":0,"sigilo_dom_agua":false,"dom_esgoto":0,"sigilo_dom_esgoto":false,"renda_resp":5448.78,"sigilo_renda_resp":false,"n_resp":51,"sigilo_n_resp":false,"dens":9.5,"sigilo_dens":false,"na_bacia":0,"area_pct_bacia":0.0,"metodo_recorte_bacia":"ponto_representativo_setor_2022; area_pct_geometrica"},"geometry":{"type":"Polygon","coordinates":[[[-52.05693069999995,-28.199499399999983],[-52.05762069999997,-28.200267499999935],[-52.05794839999999,-28.201978099999945],[-52.05938009999994,-28.204326399999953],[-52.05899879999998,-28.20881629999996],[-52.05980749999998,-28.210857299999926],[-52.062735499999974,-28.21277809999998],[-52.063607299999944,-28.214446],[-52.0652305,-28.21528349999993],[-52.066161199999954,-28.21629],[-52.06663129999998,-28.216269599999976],[-52.06885939999995,-28.215308799999946],[-52.07108749999998,-28.21718939999993],[-52.07237519999996,-28.217864],[-52.074112699999944,-28.218293199999945],[-52.07376519999997,-28.22119579999998],[-52.06435389999996,-28.222273],[-52.063988,-28.225919399999952],[-52.062972499999944,-28.22707629999996],[-52.06197089999995,-28.228898399999927],[-52.061017,-28.23007449999994],[-52.06164049999995,-28.23208469999997],[-52.061346,-28.233237699999965],[-52.05639649999994,-28.235983199999954],[-52.05676149999993,-28.236699499999936],[-52.055971199999924,-28.24051889999998],[-52.05392709999996,-28.24354579999994],[-52.05379629999994,-28.245236499999987],[-52.05445179999998,-28.24681849999996],[-52.05769539999994,-28.249659299999962],[-52.05775059999996,-28.250643099999934],[-52.0573553,-28.251438199999942],[-52.05617309999997,-28.251949],[-52.053163499999975,-28.25592279999995],[-52.05405739999998,-28.259196799999984],[-52.05528549999997,-28.260329699999943],[-52.05596909999998,-28.259585099999985],[-52.05575749999997,-28.259046],[-52.05589829999996,-28.258572799999964],[-52.05638839999994,-28.258374699999923],[-52.057077,-28.256884599999978],[-52.056111699999974,-28.255994799999943],[-52.056191299999966,-28.255604799999958],[-52.056847299999966,-28.255193],[-52.056647,-28.254508499999933],[-52.056044199999974,-28.25382569999993],[-52.05617639999997,-28.253483],[-52.05692319999997,-28.253878699999976],[-52.05789759999993,-28.253950599999943],[-52.05828159999999,-28.253789199999964],[-52.058924099999956,-28.255224699999932],[-52.05930539999998,-28.255456399999943],[-52.0607,-28.254617],[-52.061224099999954,-28.253673199999984],[-52.061517,-28.25361139999995],[-52.06171289999997,-28.253945699999967],[-52.065161399999965,-28.255928899999958],[-52.06805289999994,-28.257414],[-52.069472399999945,-28.257780199999953],[-52.06926079999994,-28.257101799999926],[-52.06982919999995,-28.256868699999988],[-52.06925989999996,-28.255406499999943],[-52.06966339999997,-28.254772699999926],[-52.06979529999995,-28.253874299999946],[-52.07101789999996,-28.25250169999998],[-52.07141969999998,-28.25252169999993],[-52.07332339999993,-28.251372299999957],[-52.07344149999995,-28.250338299999953],[-52.07301549999994,-28.249805799999926],[-52.07318909999998,-28.249498],[-52.07300959999997,-28.24893379999997],[-52.073320799999976,-28.247881],[-52.07412809999994,-28.2473156],[-52.07578339999997,-28.248458699999944],[-52.076337,-28.247379199999962],[-52.07706309999998,-28.247860899999985],[-52.07757419999996,-28.247381199999953],[-52.077592599999946,-28.246332799999948],[-52.079035,-28.246320199999964],[-52.07988639999997,-28.246001099999948],[-52.080233,-28.24564089999995],[-52.080375899999986,-28.244949299999973],[-52.07937069999997,-28.243520899999957],[-52.07988159999997,-28.242786899999928],[-52.08003929999995,-28.24138369999996],[-52.08051049999995,-28.24093239999996],[-52.07953779999996,-28.240058199999957],[-52.07961529999994,-28.23984849999993],[-52.07913,-28.239086799999942],[-52.077848899999935,-28.238371499999968],[-52.07758739999996,-28.23801559999998],[-52.07769269999995,-28.235670799999976],[-52.07821079999997,-28.234301899999927],[-52.078767699999965,-28.233845499999983],[-52.07971759999998,-28.233626799999964],[-52.08045029999994,-28.23362389999994],[-52.08150819999998,-28.23431639999994],[-52.08111369999995,-28.23553],[-52.08147129999997,-28.23567569999994],[-52.08295339999995,-28.23532459999996],[-52.08400679999994,-28.233497599999968],[-52.08396619999996,-28.233007099999956],[-52.08337869999997,-28.232721499999965],[-52.08094149999994,-28.232451399999942],[-52.08066739999998,-28.232037599999963],[-52.08267549999994,-28.230373199999974],[-52.08296479999996,-28.230317899999935],[-52.084037499999965,-28.2313109],[-52.08510769999999,-28.231413799999935],[-52.08607769999998,-28.231167199999955],[-52.086918899999944,-28.23035],[-52.085977699999944,-28.229045099999944],[-52.08628819999996,-28.228216799999927],[-52.08624219999996,-28.227286699999976],[-52.084790399999974,-28.225663899999965],[-52.08481779999993,-28.225306399999962],[-52.08588119999996,-28.22392389999993],[-52.08573089999992,-28.223464599999947],[-52.08733629999995,-28.22205089999995],[-52.08728879999995,-28.2213],[-52.087511,-28.221050299999934],[-52.08896289999996,-28.219717299999964],[-52.08974719999998,-28.219830199999933],[-52.09000659999999,-28.219594199999964],[-52.08980479999997,-28.21764329999996],[-52.089999,-28.21730479999997],[-52.09139589999996,-28.216336399999932],[-52.09247469999997,-28.216006099999955],[-52.093078,-28.21611109999997],[-52.093358499999965,-28.215831099999946],[-52.09387989999993,-28.215876899999962],[-52.09443489999995,-28.21644589999994],[-52.094949799999945,-28.216130199999952],[-52.095182799999975,-28.215150199999982],[-52.09610559999993,-28.216465599999943],[-52.09647289999998,-28.217851699999986],[-52.09691539999994,-28.21774079999994],[-52.09703459999997,-28.217480099999932],[-52.09734059999993,-28.215864299999975],[-52.099495199999986,-28.215558599999945],[-52.10073659999994,-28.216059299999987],[-52.102009599999974,-28.216151399999937],[-52.10240469999997,-28.215634599999927],[-52.10213739999995,-28.214456],[-52.10089709999994,-28.213624299999932],[-52.100556299999944,-28.21229079999996],[-52.099174,-28.209990199999933],[-52.095961299999935,-28.211014699999975],[-52.09561689999999,-28.211033199999985],[-52.0950663,-28.210476799999974],[-52.095,-28.209218],[-52.09576549999997,-28.206882599999975],[-52.09488179999994,-28.20593689999998],[-52.09460949999993,-28.204800099999936],[-52.09567709999993,-28.20364309999997],[-52.095636799999966,-28.203200299999935],[-52.095374299999946,-28.201766799999977],[-52.094697799999956,-28.20097329999994],[-52.09398589999996,-28.200763599999952],[-52.09371059999995,-28.201540499999968],[-52.09341409999996,-28.20174],[-52.09324289999996,-28.20152579999996],[-52.09312929999999,-28.201236099999953],[-52.093820599999965,-28.199689799999927],[-52.093581099999945,-28.199592399999965],[-52.09292869999996,-28.199936899999948],[-52.09241639999994,-28.20100629999996],[-52.09169149999997,-28.200765499999928],[-52.090039599999955,-28.201048199999942],[-52.088982,-28.200618799999976],[-52.08790049999993,-28.20107969999998],[-52.08728259999999,-28.200954],[-52.086331799999975,-28.201540499999965],[-52.085428699999966,-28.201498599999972],[-52.084905799999945,-28.201718499999963],[-52.084525499999984,-28.201383399999933],[-52.08332519999994,-28.201498599999976],[-52.08260029999997,-28.20222119999994],[-52.08216059999995,-28.201352],[-52.081566399999986,-28.20114249999995],[-52.08093649999995,-28.20128909999994],[-52.08072009999995,-28.200833499999927],[-52.080187799999976,-28.20084919999994],[-52.079546099999966,-28.20044079999997],[-52.079451,-28.199927599999956],[-52.08003329999996,-28.199508699999956],[-52.07977189999997,-28.198314699999965],[-52.078631,-28.197686299999923],[-52.07840519999997,-28.197131199999937],[-52.076860299999964,-28.197413899999955],[-52.076634499999955,-28.19777009999995],[-52.07674149999997,-28.198503199999962],[-52.07619109999996,-28.19854879999996],[-52.075969,-28.19882789999996],[-52.07455479999993,-28.198084299999948],[-52.07426959999999,-28.19822039999997],[-52.073865599999976,-28.197958599999936],[-52.07322379999994,-28.198209899999938],[-52.07274849999993,-28.19721489999996],[-52.073130799999944,-28.19707169999998],[-52.073247599999945,-28.196743599999923],[-52.072527499999985,-28.195930599999944],[-52.07233249999996,-28.194188],[-52.07151249999998,-28.194502199999928],[-52.07068069999997,-28.195528699999958],[-52.06975369999998,-28.1949317],[-52.070015199999936,-28.194575599999947],[-52.0699082,-28.19439749999997],[-52.06930209999996,-28.194387],[-52.06887429999995,-28.19468029999996],[-52.06836329999993,-28.194586],[-52.068042399999975,-28.194858399999934],[-52.06830389999993,-28.195287799999964],[-52.06769779999996,-28.196041899999944],[-52.067685899999965,-28.196649399999963],[-52.06723429999994,-28.19722539999998],[-52.06746009999994,-28.197518699999943],[-52.06795549999998,-28.197508199999948],[-52.06809,-28.19777379999994],[-52.06800679999998,-28.19850319999995],[-52.067578899999944,-28.198953599999985],[-52.06623609999997,-28.19903729999993],[-52.064512899999954,-28.198681199999957],[-52.063681,-28.19786429999993],[-52.06300359999994,-28.197696699999927],[-52.062409399999986,-28.197885299999943],[-52.06150619999995,-28.198628899999946],[-52.06015149999996,-28.19845079999993],[-52.05901059999996,-28.198670799999952],[-52.058357,-28.198566],[-52.05693069999995,-28.199499399999983]]]}},{"type":"Feature","properties":{"setor":"430005928000004","pop":18,"sigilo_pop":false,"dom":12,"sigilo_dom":false,"mulheres":10,"sigilo_mulheres":false,"c0_4":null,"sigilo_c0_4":true,"c5_9":null,"sigilo_c5_9":true,"i60_69":null,"sigilo_i60_69":true,"i70m":0,"sigilo_i70m":false,"indigenas":0,"sigilo_indigenas":false,"pretos_pardos":null,"sigilo_pretos_pardos":true,"dom_ocupados":5,"sigilo_dom_ocupados":false,"dom_agua":0,"sigilo_dom_agua":false,"dom_esgoto":0,"sigilo_dom_esgoto":false,"renda_resp":2220.0,"sigilo_renda_resp":false,"n_resp":5,"sigilo_n_resp":false,"dens":1.3,"sigilo_dens":false,"na_bacia":0,"area_pct_bacia":0.1879,"metodo_recorte_bacia":"ponto_representativo_setor_2022; area_pct_geometrica"},"geometry":{"type":"Polygon","coordinates":[[[-52.027216,-28.26381319999996],[-52.027007099999935,-28.264518399999925],[-52.02479329999994,-28.266677099999985],[-52.0231333,-28.267191199999946],[-52.02148679999994,-28.2696213],[-52.020611499999966,-28.272131099999964],[-52.02131239999995,-28.275991399999953],[-52.01977409999995,-28.281778699999965],[-52.02006989999995,-28.283151399999948],[-52.018533,-28.285623899999973],[-52.01385989999994,-28.289780199999928],[-52.01455779999998,-28.292472699999966],[-52.015049,-28.293924599999965],[-52.01716539999995,-28.298075799999932],[-52.02206239999999,-28.30205869999997],[-52.022968,-28.304229899999935],[-52.02712669999994,-28.306230799999977],[-52.02849779999997,-28.306760199999935],[-52.02971039999995,-28.30694129999996],[-52.040682,-28.30575929999997],[-52.047746899999936,-28.30319569999995],[-52.047725499999956,-28.302723099999973],[-52.04627069999998,-28.299951],[-52.04747089999996,-28.28752409999993],[-52.04948379999996,-28.28505429999996],[-52.051879499999984,-28.279608199999927],[-52.05501409999994,-28.277203699999976],[-52.05741139999998,-28.274775299999913],[-52.05792339999994,-28.270520599999934],[-52.05635949999998,-28.261682299999958],[-52.05528549999997,-28.260329699999943],[-52.054273,-28.261032199999924],[-52.05378419999994,-28.262296599999953],[-52.05382259999993,-28.263508],[-52.0533526,-28.265137099999944],[-52.052466799999934,-28.266088799999974],[-52.051999799999976,-28.26619959999993],[-52.051798599999984,-28.266063599999942],[-52.05235109999995,-28.265658],[-52.051226099999944,-28.265034799999967],[-52.050207499999935,-28.26513139999997],[-52.04913919999995,-28.265597099999987],[-52.046353,-28.265425],[-52.03971319999994,-28.264436199999974],[-52.03661529999994,-28.263607699999966],[-52.034952499999974,-28.263819],[-52.030763099999945,-28.26488159999997],[-52.030854,-28.264213399999964],[-52.02953939999998,-28.26340219999998],[-52.027765099999954,-28.263422],[-52.027216,-28.26381319999996]]]}},{"type":"Feature","properties":{"setor":"430005928000005","pop":128,"sigilo_pop":false,"dom":47,"sigilo_dom":false,"mulheres":53,"sigilo_mulheres":false,"c0_4":7,"sigilo_c0_4":false,"c5_9":12,"sigilo_c5_9":false,"i60_69":15,"sigilo_i60_69":false,"i70m":8,"sigilo_i70m":false,"indigenas":null,"sigilo_indigenas":true,"pretos_pardos":9,"sigilo_pretos_pardos":false,"dom_ocupados":41,"sigilo_dom_ocupados":false,"dom_agua":0,"sigilo_dom_agua":false,"dom_esgoto":0,"sigilo_dom_esgoto":false,"renda_resp":4197.3,"sigilo_renda_resp":false,"n_resp":41,"sigilo_n_resp":false,"dens":8.2,"sigilo_dens":false,"na_bacia":0,"area_pct_bacia":0.0,"metodo_recorte_bacia":"ponto_representativo_setor_2022; area_pct_geometrica"},"geometry":{"type":"Polygon","coordinates":[[[-52.03070029999998,-28.261514299999934],[-52.03255469999993,-28.259972099999967],[-52.033210499999946,-28.258363699999965],[-52.033710799999945,-28.257963499999956],[-52.03371989999994,-28.256408],[-52.03341969999997,-28.25544379999996],[-52.04426259999996,-28.256826399999962],[-52.042693499999984,-28.264818],[-52.046353,-28.265425],[-52.04913919999995,-28.265597099999987],[-52.050207499999935,-28.26513139999997],[-52.051226099999944,-28.265034799999967],[-52.05235109999995,-28.265658],[-52.051798599999984,-28.266063599999942],[-52.051999799999976,-28.26619959999993],[-52.052466799999934,-28.266088799999974],[-52.0533526,-28.265137099999944],[-52.05382259999993,-28.263508],[-52.05378419999994,-28.262296599999953],[-52.054273,-28.261032199999924],[-52.05528549999997,-28.260329699999943],[-52.05405739999998,-28.259196799999984],[-52.05318089999998,-28.255715099999968],[-52.05617309999997,-28.251949],[-52.0573553,-28.251438199999942],[-52.05775059999996,-28.250643099999934],[-52.05769539999994,-28.249659299999962],[-52.05445179999998,-28.24681849999996],[-52.05379629999994,-28.245236499999987],[-52.05392709999996,-28.24354579999994],[-52.055971199999924,-28.24051889999998],[-52.05676149999993,-28.236699499999936],[-52.05639649999994,-28.235983199999954],[-52.061346,-28.233237699999965],[-52.06164049999995,-28.23208469999997],[-52.061017,-28.23007449999994],[-52.06197089999995,-28.228898399999927],[-52.062972499999944,-28.22707629999996],[-52.063988,-28.225919399999952],[-52.06444749999997,-28.221704499999934],[-52.062931499999934,-28.215206599999924],[-52.06477919999997,-28.215050699999953],[-52.063607299999944,-28.214446],[-52.062735499999974,-28.21277809999998],[-52.06128129999996,-28.211972199999934],[-52.05950649999995,-28.21044569999998],[-52.05899879999998,-28.20881629999996],[-52.05938009999994,-28.204326399999953],[-52.05794839999999,-28.201978099999945],[-52.05762069999997,-28.200267499999935],[-52.05693069999995,-28.199499399999983],[-52.05715669999995,-28.199906599999967],[-52.056693199999984,-28.20078639999997],[-52.055493,-28.202064099999966],[-52.052837099999984,-28.203355299999934],[-52.052854699999955,-28.20420059999998],[-52.052347399999974,-28.204678199999925],[-52.05212979999993,-28.205258399999934],[-52.05233179999993,-28.206232399999973],[-52.052141699999936,-28.206839799999955],[-52.052617,-28.207174899999973],[-52.052593299999955,-28.208190799999958],[-52.053235,-28.208285],[-52.05306859999996,-28.20910189999994],[-52.05219379999995,-28.20976489999997],[-52.050523899999966,-28.210109299999935],[-52.04973039999993,-28.211205099999987],[-52.04820269999993,-28.211017299999977],[-52.047042,-28.21116339999998],[-52.04618929999997,-28.21087119999992],[-52.04524189999996,-28.211184299999953],[-52.04401019999995,-28.210620699999936],[-52.043358799999965,-28.210714599999957],[-52.04260089999997,-28.211674799999955],[-52.042027,-28.21198759999993],[-52.042139,-28.212134],[-52.04142839999998,-28.21293749999994],[-52.04108489999993,-28.21384549999993],[-52.03916639999994,-28.21539],[-52.03699659999995,-28.21653609999993],[-52.03634769999997,-28.21722669999997],[-52.03499759999995,-28.219752099999933],[-52.034050099999945,-28.220315599999935],[-52.033418499999975,-28.22159229999994],[-52.03252089999995,-28.222394499999947],[-52.03210489999998,-28.223661399999973],[-52.03163619999999,-28.22414569999997],[-52.02923549999997,-28.22587269999996],[-52.028763899999944,-28.226540799999945],[-52.02696549999996,-28.22757479999996],[-52.02690309999997,-28.228187],[-52.02632159999997,-28.228793],[-52.027455,-28.229197],[-52.02493279999993,-28.231812399999964],[-52.02458309999998,-28.23285139999996],[-52.02517859999995,-28.23314829999998],[-52.026905699999986,-28.235111899999936],[-52.02834839999997,-28.236310799999952],[-52.02886839999996,-28.23652879999997],[-52.030173399999974,-28.23600459999994],[-52.03091179999996,-28.236481599999937],[-52.028012,-28.23891269999996],[-52.03084709999996,-28.241642699999932],[-52.03039429999995,-28.245113199999928],[-52.03119839999994,-28.246351399999977],[-52.03150819999997,-28.247877599999978],[-52.03270719999995,-28.250188799999922],[-52.032590499999976,-28.25117819999998],[-52.03156579999996,-28.251566599999943],[-52.02998,-28.253255599999935],[-52.029890699999946,-28.255098199999964],[-52.030143399999986,-28.256381199999957],[-52.02959289999995,-28.25741239999997],[-52.03056119999996,-28.25893749999995],[-52.03040939999995,-28.26020879999992],[-52.03070029999998,-28.261514299999934]]]}},{"type":"Feature","properties":{"setor":"430005928000006","pop":31,"sigilo_pop":false,"dom":9,"sigilo_dom":false,"mulheres":19,"sigilo_mulheres":false,"c0_4":null,"sigilo_c0_4":true,"c5_9":null,"sigilo_c5_9":true,"i60_69":null,"sigilo_i60_69":true,"i70m":0,"sigilo_i70m":false,"indigenas":28,"sigilo_indigenas":false,"pretos_pardos":0,"sigilo_pretos_pardos":false,"dom_ocupados":9,"sigilo_dom_ocupados":false,"dom_agua":0,"sigilo_dom_agua":false,"dom_esgoto":0,"sigilo_dom_esgoto":false,"renda_resp":1422.22,"sigilo_renda_resp":false,"n_resp":9,"sigilo_n_resp":false,"dens":30.1,"sigilo_dens":false,"na_bacia":0,"area_pct_bacia":0.0,"metodo_recorte_bacia":"ponto_representativo_setor_2022; area_pct_geometrica"},"geometry":{"type":"Polygon","coordinates":[[[-52.042693499999984,-28.264818],[-52.04426259999996,-28.256826399999962],[-52.03341969999997,-28.25544379999996],[-52.03371989999994,-28.256408],[-52.033710799999945,-28.257963499999956],[-52.033210499999946,-28.258363699999965],[-52.03255469999993,-28.259972099999967],[-52.03075979999994,-28.26140429999998],[-52.02953939999998,-28.26340219999998],[-52.030854,-28.264213399999964],[-52.030763099999945,-28.26488159999997],[-52.034952499999974,-28.263819],[-52.03661529999994,-28.263607699999966],[-52.03971319999994,-28.264436199999974],[-52.042693499999984,-28.264818]]]}}]}