{"type":"FeatureCollection","name":"4300661","crs":{"type":"name","properties":{"name":"urn:ogc:def:crs:OGC:1.3:CRS84"}},"features":[{"type":"Feature","properties":{"setor":"430066105000003","pop":358,"sigilo_pop":false,"dom":215,"sigilo_dom":0,"mulheres":156,"sigilo_mulheres":0,"c0_4":22,"sigilo_c0_4":0,"c5_9":21,"sigilo_c5_9":0,"i60_69":45,"sigilo_i60_69":0,"i70m":31,"sigilo_i70m":0,"indigenas":0,"sigilo_indigenas":0,"pretos_pardos":118,"sigilo_pretos_pardos":0,"dom_ocupados":138,"sigilo_dom_ocupados":0,"dom_agua":73,"sigilo_dom_agua":0,"dom_esgoto":null,"sigilo_dom_esgoto":1,"renda_resp":3978.89,"sigilo_renda_resp":0,"n_resp":138,"sigilo_n_resp":0,"dens":1.8,"sigilo_dens":false,"na_bacia":1,"area_pct_bacia":100.0,"metodo_recorte_bacia":"ponto_representativo_setor_2022; area_pct_geometrica","pop_n_validos":1,"pop_n_total":1,"pop_completude":1.0,"dom_n_validos":1,"dom_n_total":1,"dom_completude":1.0,"dom_ocupados_n_validos":1,"dom_ocupados_n_total":1,"dom_ocupados_completude":1.0,"mulheres_n_validos":1,"mulheres_n_total":1,"mulheres_completude":1.0,"c0_4_n_validos":1,"c0_4_n_total":1,"c0_4_completude":1.0,"c5_9_n_validos":1,"c5_9_n_total":1,"c5_9_completude":1.0,"i60_69_n_validos":1,"i60_69_n_total":1,"i60_69_completude":1.0,"i70m_n_validos":1,"i70m_n_total":1,"i70m_completude":1.0,"indigenas_n_validos":1,"indigenas_n_total":1,"indigenas_completude":1.0,"pretos_pardos_n_validos":1,"pretos_pardos_n_total":1,"pretos_pardos_completude":1.0,"dom_agua_n_validos":1,"dom_agua_n_total":1,"dom_agua_completude":1.0,"dom_esgoto_n_validos":0,"dom_esgoto_n_total":1,"dom_esgoto_completude":0.0,"n_resp_n_validos":1,"n_resp_n_total":1,"n_resp_completude":1.0,"renda_resp_n_validos":1,"renda_resp_n_total":1,"renda_resp_completude":1.0,"dens_n_validos":1,"dens_n_total":1,"dens_completude":1.0,"status_borda_bacia":"total","metodo_area_bacia":"interse??o geom?trica em EPSG:5880","metodo_na_bacia":"ponto_representativo_setor_2022_within_bacia","municipio":"André da Rocha","cod_mun":"4300661","mun_pct_na_bacia":100.0,"mun_pop_total":1135,"mun_pop_na_bacia":1135.0,"mun_ubs_iede":1,"mun_hospitais_iede":null,"mun_escolas_iede":2,"mun_bombeiros_iede":null,"mun_servicos_cobertura":"cadastro_IEDE_parcial_nao_inventario","mun_icm_faixa":"C","mun_icm_pontos":8,"mun_icm_prioritario":"não","mun_ubs_iede_status":"published","mun_hospitais_iede_status":"unknown","mun_escolas_iede_status":"published","mun_bombeiros_iede_status":"unknown"},"geometry":{"type":"Polygon","coordinates":[[[-51.547133299999985,-28.52540919999997],[-51.54662529999996,-28.525665699999923],[-51.543109,-28.526052299999947],[-51.541000599999954,-28.5257951],[-51.53713019999998,-28.526484799999942],[-51.53550839999997,-28.52840159999993],[-51.53501079999995,-28.528635099999978],[-51.534471,-28.529843899999953],[-51.53172569999998,-28.532674699999962],[-51.53076009999995,-28.534706799999977],[-51.53075959999996,-28.535446099999938],[-51.53035419999998,-28.536523],[-51.53055479999995,-28.538594099999962],[-51.529916799999974,-28.54067159999994],[-51.53073079999995,-28.544041699999983],[-51.53050249999996,-28.54548269999997],[-51.53028279999995,-28.54605459999993],[-51.529665699999946,-28.54656059999996],[-51.52813429999997,-28.547017],[-51.527253,-28.54691419999994],[-51.525780699999984,-28.546109699999924],[-51.525110799999936,-28.545203],[-51.524819599999944,-28.544039499999943],[-51.52453349999996,-28.543798],[-51.52374809999997,-28.543557299999964],[-51.52274419999998,-28.543595499999984],[-51.521488099999935,-28.54298789999995],[-51.51838689999994,-28.542691],[-51.50279989999996,-28.53274969999995],[-51.501057,-28.532354199999926],[-51.499893199999974,-28.531155399999935],[-51.49855409999998,-28.530518899999947],[-51.496391199999955,-28.528580099999957],[-51.49497749999995,-28.52848829999993],[-51.49423429999996,-28.52770959999998],[-51.49237429999994,-28.527401],[-51.49114269999996,-28.528244799999978],[-51.490482,-28.52807639999998],[-51.48972009999995,-28.527265299999954],[-51.48924989999995,-28.524575699999957],[-51.488044,-28.52355679999993],[-51.4864022,-28.52318409999998],[-51.484506,-28.52347379999998],[-51.48063909999996,-28.52467309999998],[-51.478768699999925,-28.524435899999958],[-51.47803289999997,-28.525138],[-51.477706,-28.526227699999946],[-51.476912599999935,-28.527064799999955],[-51.474129699999935,-28.52691379999994],[-51.47378149999997,-28.52613619999995],[-51.47225319999996,-28.525710299999947],[-51.471664299999986,-28.525242399999968],[-51.46931049999995,-28.521888799999928],[-51.46863629999996,-28.521403699999947],[-51.46823409999996,-28.520775299999976],[-51.467801,-28.52062649999994],[-51.46781939999994,-28.522941],[-51.466405599999966,-28.524402499999937],[-51.46367329999998,-28.52838969999993],[-51.46513469999997,-28.531066299999956],[-51.46683449999995,-28.533449099999928],[-51.46699249999995,-28.535272199999962],[-51.468232399999984,-28.537634899999944],[-51.46870889999997,-28.539501399999942],[-51.46878839999994,-28.542567199999947],[-51.46918549999998,-28.543583899999938],[-51.46959849999996,-28.546304199999945],[-51.46913779999994,-28.547610799999976],[-51.46893129999996,-28.54942169999997],[-51.469153699999936,-28.55015239999994],[-51.47085339999995,-28.55281319999994],[-51.471536499999964,-28.55610939999998],[-51.47104409999998,-28.557682],[-51.470297499999965,-28.55880189999993],[-51.46996389999998,-28.559834499999962],[-51.470567499999966,-28.562010799999943],[-51.47043189999994,-28.56376979999993],[-51.47301779999998,-28.563960699999924],[-51.476035,-28.563714399999988],[-51.478047499999946,-28.56407579999996],[-51.483468099999975,-28.56280649999997],[-51.48479769999994,-28.56313169999993],[-51.48626259999997,-28.562920199999954],[-51.48853869999994,-28.56309989999994],[-51.489698299999986,-28.562416799999937],[-51.49193509999998,-28.559389699999937],[-51.49262609999994,-28.55903619999997],[-51.495358899999985,-28.558673899999985],[-51.49525959999995,-28.559670699999963],[-51.49445339999994,-28.561110299999942],[-51.49331709999995,-28.562152699999952],[-51.491951,-28.564683399999982],[-51.49414779999994,-28.571289299999936],[-51.49481229999998,-28.572495499999935],[-51.49590059999997,-28.57368169999994],[-51.496329,-28.57462839999994],[-51.49634759999998,-28.57859039999994],[-51.495486399999955,-28.58024739999996],[-51.494498399999934,-28.583666899999976],[-51.493985399999985,-28.584516],[-51.49175429999997,-28.585169199999942],[-51.491308199999935,-28.585655099999947],[-51.49185589999996,-28.587003599999942],[-51.49169259999997,-28.587510099999978],[-51.49061489999997,-28.588238699999977],[-51.49042819999994,-28.588953],[-51.49135819999998,-28.591429499999943],[-51.49058679999996,-28.595191099999973],[-51.48819959999998,-28.598352],[-51.48837269999996,-28.59988469999996],[-51.49001069999998,-28.602862199999947],[-51.48975359999997,-28.60567649999996],[-51.48919059999997,-28.606383899999962],[-51.48862449999996,-28.606625],[-51.487637799999966,-28.60653009999993],[-51.486151199999945,-28.605829799999988],[-51.48565609999997,-28.606133599999968],[-51.48548,-28.608290199999946],[-51.48634309999994,-28.61146879999996],[-51.486001399999964,-28.61190439999997],[-51.484050099999926,-28.612716799999937],[-51.48243329999997,-28.614255099999966],[-51.4816565,-28.614318199999968],[-51.47990839999994,-28.61317469999995],[-51.47889459999993,-28.61305669999995],[-51.47830769999997,-28.613220699999943],[-51.47756,-28.614594699999934],[-51.47754869999994,-28.617376599999943],[-51.47813709999997,-28.619804399999975],[-51.48118639999995,-28.622272499999934],[-51.481685,-28.623280099999928],[-51.480429699999945,-28.626031599999973],[-51.48043789999997,-28.62731679999995],[-51.48090339999993,-28.628766599999956],[-51.48064379999993,-28.629871],[-51.47990589999995,-28.63065989999996],[-51.478463199999965,-28.631572799999958],[-51.47687549999995,-28.632092399999973],[-51.475599099999954,-28.63191539999997],[-51.47312339999996,-28.630985499999948],[-51.472311299999944,-28.631111],[-51.47164459999993,-28.632080699999975],[-51.471437299999934,-28.633048899999956],[-51.47172329999995,-28.633833399999954],[-51.47642479999997,-28.638400299999947],[-51.476747,-28.639425299999967],[-51.47973489999998,-28.64375639999997],[-51.479692599999964,-28.645525799999984],[-51.478640199999965,-28.649049199999975],[-51.47987609999996,-28.649158],[-51.479804,-28.65092],[-51.48083979999996,-28.651792599999965],[-51.483234,-28.652386],[-51.48346309999994,-28.652789899999945],[-51.483336,-28.653533399999954],[-51.48434609999999,-28.653898899999955],[-51.486327,-28.653844499999927],[-51.487848699999965,-28.65352469999994],[-51.48910549999994,-28.652979699999943],[-51.489747299999976,-28.653282399999952],[-51.49062829999997,-28.654789099999952],[-51.49205979999994,-28.656378],[-51.49385049999995,-28.66010089999998],[-51.49417959999993,-28.661449299999944],[-51.49419869999998,-28.664813199999966],[-51.49673869999999,-28.666814799999933],[-51.50395829999997,-28.668329799999988],[-51.50937479999994,-28.668161699999917],[-51.51052149999999,-28.667727099999976],[-51.51130329999996,-28.66688049999994],[-51.522964599999966,-28.670482899999957],[-51.52766539999993,-28.669061599999957],[-51.528419,-28.66788149999996],[-51.528869,-28.667600299999947],[-51.53097269999996,-28.66707629999997],[-51.531533,-28.66721619999992],[-51.53251319999998,-28.66767129999993],[-51.533635599999975,-28.668702399999965],[-51.53554769999993,-28.66952329999998],[-51.53815039999994,-28.671874499999948],[-51.5418557,-28.67276829999997],[-51.54282879999994,-28.673315499999948],[-51.54293409999997,-28.674396299999955],[-51.54391449999997,-28.676844],[-51.544228499999974,-28.678289099999972],[-51.545559,-28.678458],[-51.5467283,-28.679461299999957],[-51.547285899999956,-28.67840639999997],[-51.547791099999976,-28.678288899999984],[-51.548188599999946,-28.67935389999997],[-51.548841299999935,-28.679840599999974],[-51.54988659999998,-28.679876899999947],[-51.55006709999998,-28.68062779999996],[-51.55049509999998,-28.680787499999944],[-51.55117469999993,-28.680696099999974],[-51.55146479999996,-28.680375],[-51.552727299999965,-28.68050009999996],[-51.55399619999997,-28.68102939999993],[-51.555709,-28.680684599999946],[-51.556455,-28.680769499999943],[-51.55729379999997,-28.682533],[-51.557884799999954,-28.683050399999942],[-51.55785889999998,-28.68460569999996],[-51.55940269999996,-28.685068],[-51.55977709999996,-28.685727199999974],[-51.56027359999997,-28.68574919999997],[-51.56053139999995,-28.686051099999926],[-51.56016429999994,-28.68649709999994],[-51.55914689999997,-28.686828399999964],[-51.559073799999965,-28.68776689999993],[-51.55972369999996,-28.688214099999982],[-51.5599883,-28.688749299999987],[-51.559490499999974,-28.69024509999997],[-51.55905029999997,-28.69082949999995],[-51.55910129999995,-28.691398099999954],[-51.56076419999993,-28.691429699999958],[-51.561626799999935,-28.692431299999953],[-51.561689899999976,-28.692875699999938],[-51.5659639,-28.694909],[-51.56784279999994,-28.69423949999998],[-51.56988429999996,-28.693075299999972],[-51.57143719999994,-28.693323099999922],[-51.573416599999966,-28.693070299999935],[-51.57416069999993,-28.69222409999998],[-51.574711399999956,-28.69077649999997],[-51.575662799999975,-28.689719599999936],[-51.576244599999946,-28.68806359999997],[-51.57661979999995,-28.68788759999995],[-51.578161799999975,-28.68785619999995],[-51.57856959999997,-28.688008899999943],[-51.579580299999975,-28.689056799999943],[-51.580753499999965,-28.689401299999925],[-51.58357279999996,-28.688379599999962],[-51.58428059999994,-28.687308899999955],[-51.58499739999996,-28.687144199999985],[-51.586004899999985,-28.687671699999946],[-51.58683019999995,-28.68875079999998],[-51.58904039999993,-28.689187699999927],[-51.58933119999995,-28.68907759999996],[-51.589816699999965,-28.68837089999993],[-51.590035899999975,-28.687443099999935],[-51.59061379999997,-28.68705069999994],[-51.589508199999955,-28.68470879999995],[-51.58955329999998,-28.684183699999952],[-51.590081899999966,-28.683454],[-51.591432699999984,-28.683477499999988],[-51.594215099999985,-28.684205899999938],[-51.59497269999997,-28.683577299999957],[-51.59581719999994,-28.682248099999985],[-51.59765189999997,-28.68083349999994],[-51.59907929999997,-28.680532399999947],[-51.60020679999997,-28.67923229999998],[-51.60243379999997,-28.677600699999964],[-51.60460589999997,-28.67562349999997],[-51.60522309999993,-28.67550049999994],[-51.60565519999995,-28.67568559999995],[-51.606982799999976,-28.676863299999972],[-51.607450599999936,-28.677020299999977],[-51.60890569999998,-28.678770699999973],[-51.60978319999998,-28.678868299999966],[-51.61019269999997,-28.678573099999944],[-51.61000269999994,-28.67746229999994],[-51.61061379999995,-28.676129199999927],[-51.61064519999997,-28.67528109999995],[-51.609463699999935,-28.674125499999942],[-51.607474,-28.673070199999984],[-51.60671449999996,-28.672938599999956],[-51.604694,-28.67311859999995],[-51.603995199999986,-28.673759199999953],[-51.60260849999997,-28.674264],[-51.60213,-28.67416269999995],[-51.601552,-28.67434449999996],[-51.60101169999996,-28.67471029999996],[-51.60004309999994,-28.67468709999997],[-51.599161,-28.67495659999997],[-51.59847089999994,-28.674533299999943],[-51.597595499999954,-28.673456799999943],[-51.596816,-28.67289949999996],[-51.596790899999974,-28.671662699999956],[-51.59621279999994,-28.671554599999972],[-51.59616339999997,-28.669976199999937],[-51.59543989999997,-28.66765729999997],[-51.595048,-28.66716479999997],[-51.59515959999993,-28.66610739999992],[-51.59482709999998,-28.664786399999976],[-51.593497499999955,-28.664166299999987],[-51.59283319999997,-28.664311],[-51.59183249999995,-28.662689699999916],[-51.59228239999993,-28.66213179999994],[-51.59370039999993,-28.661910599999942],[-51.59598889999995,-28.660264299999934],[-51.59824759999997,-28.65912349999996],[-51.59895179999996,-28.659159599999963],[-51.599077699999945,-28.658243899999942],[-51.60231259999995,-28.654118099999952],[-51.60416819999994,-28.653754099999954],[-51.60604879999994,-28.65389329999994],[-51.60836449999994,-28.65234519999996],[-51.60850849999998,-28.65192049999996],[-51.60898579999997,-28.651594099999958],[-51.60868759999994,-28.65123519999996],[-51.60782569999998,-28.65099429999998],[-51.606202499999945,-28.64920779999994],[-51.60610989999998,-28.64878359999993],[-51.60662209999998,-28.64799339999996],[-51.606807599999975,-28.647083899999924],[-51.606532699999946,-28.64652729999994],[-51.60528059999995,-28.645716099999955],[-51.604842399999946,-28.643575499999944],[-51.60597109999998,-28.642960599999977],[-51.60709339999994,-28.642900399999974],[-51.60795889999997,-28.643678499999968],[-51.60888169999998,-28.643938],[-51.610124,-28.643900199999955],[-51.611121399999945,-28.64330709999995],[-51.61138379999994,-28.64256659999995],[-51.61102809999995,-28.641316699999937],[-51.610755,-28.641065699999956],[-51.60845169999993,-28.639607099999967],[-51.60615209999998,-28.63868389999994],[-51.60602239999998,-28.638230599999925],[-51.60622659999996,-28.637870599999914],[-51.60802039999999,-28.636892399999955],[-51.609282499999956,-28.636823499999938],[-51.61224039999996,-28.639175899999948],[-51.61453209999996,-28.63898329999996],[-51.615583,-28.63783139999999],[-51.61568559999995,-28.63529659999994],[-51.613992199999984,-28.634071],[-51.61181419999997,-28.631910099999967],[-51.61207239999994,-28.63106],[-51.61162359999997,-28.63039749999995],[-51.61176939999996,-28.629790399999937],[-51.612249299999974,-28.629666399999962],[-51.61443779999997,-28.630136199999974],[-51.61496729999993,-28.629696099999936],[-51.6152484,-28.62879439999995],[-51.61435739999996,-28.627420499999968],[-51.61252059999998,-28.626005],[-51.61217419999998,-28.62467719999994],[-51.61292419999995,-28.62351109999998],[-51.61281779999996,-28.623078],[-51.61173209999998,-28.621922],[-51.61001859999993,-28.620913599999945],[-51.60940949999997,-28.62032249999993],[-51.60958819999996,-28.61864809999997],[-51.608653699999934,-28.616918299999945],[-51.60770209999998,-28.616209299999984],[-51.60663859999994,-28.614860599999933],[-51.605566299999964,-28.614555899999974],[-51.60342929999996,-28.61328829999997],[-51.60297959999997,-28.612453299999967],[-51.60214189999993,-28.611859],[-51.60176009999998,-28.610656799999955],[-51.60196939999997,-28.609230699999955],[-51.60370409999996,-28.60723759999996],[-51.60512209999996,-28.60504079999998],[-51.606405399999964,-28.604637899999947],[-51.60794809999993,-28.60477749999995],[-51.609787,-28.605500099999972],[-51.61103809999997,-28.60518459999997],[-51.611312199999986,-28.604665499999953],[-51.61139849999995,-28.601009599999934],[-51.61239969999997,-28.599207699999965],[-51.61390849999997,-28.598072099999975],[-51.61456059999995,-28.596476899999953],[-51.61454549999997,-28.595543],[-51.612913,-28.593800799999947],[-51.61266019999994,-28.59290749999996],[-51.61203469999998,-28.592605399999965],[-51.61141039999996,-28.59259959999996],[-51.610526,-28.59304779999996],[-51.609062,-28.59463549999999],[-51.60849659999996,-28.594753199999957],[-51.60780939999995,-28.594563199999964],[-51.60629339999997,-28.593112499999965],[-51.60507129999996,-28.592966],[-51.60439619999995,-28.591643199999965],[-51.605317,-28.590564],[-51.60531039999995,-28.589688799999973],[-51.60341569999997,-28.588870899999964],[-51.60311479999996,-28.588385],[-51.60309449999994,-28.58708069999995],[-51.601978799999976,-28.586082199999968],[-51.60099229999997,-28.58587409999996],[-51.600266,-28.58603889999995],[-51.598500299999955,-28.584755099999935],[-51.59898649999996,-28.584163],[-51.600438199999985,-28.583875599999942],[-51.60132979999997,-28.583270899999945],[-51.60225159999994,-28.583541199999956],[-51.60351069999996,-28.58277629999998],[-51.603348,-28.581836],[-51.604011699999944,-28.581006099999957],[-51.60344649999996,-28.57879569999994],[-51.603911,-28.577770199999968],[-51.603854299999966,-28.577135799999947],[-51.60134889999995,-28.572089699999932],[-51.60220229999993,-28.571198899999953],[-51.60388769999997,-28.570583099999965],[-51.60429339999997,-28.57018049999994],[-51.60460809999995,-28.569335499999966],[-51.604456599999935,-28.568610299999936],[-51.604158499999976,-28.56830359999998],[-51.604125599999975,-28.566686799999957],[-51.60542709999998,-28.564392],[-51.60616619999996,-28.56360779999994],[-51.60787189999997,-28.562987299999982],[-51.60832609999994,-28.56262289999995],[-51.60798669999997,-28.561365499999958],[-51.60860749999995,-28.560310099999985],[-51.608466299999975,-28.558588299999947],[-51.608197,-28.557781499999972],[-51.607735,-28.557543],[-51.607372399999974,-28.55693619999994],[-51.60779849999995,-28.556236599999977],[-51.608771799999936,-28.555865],[-51.60963529999998,-28.554766],[-51.61217759999994,-28.552452599999977],[-51.612267,-28.55166609999998],[-51.611641299999974,-28.55003309999995],[-51.61211079999998,-28.548131399999928],[-51.611605,-28.54773189999997],[-51.61094179999998,-28.547788699999945],[-51.61025629999994,-28.549409799999975],[-51.60951949999997,-28.549748099999928],[-51.608019199999944,-28.549376],[-51.60819939999993,-28.548370599999945],[-51.607465699999985,-28.547332099999945],[-51.60703049999996,-28.547239099999953],[-51.60672329999994,-28.547986],[-51.60612949999995,-28.54854229999996],[-51.604906,-28.548639199999958],[-51.60378759999998,-28.549150099999967],[-51.603163299999956,-28.549087799999942],[-51.603461799999934,-28.54843229999995],[-51.60404059999997,-28.54839959999998],[-51.604134699999975,-28.547573499999938],[-51.60447049999994,-28.547220099999954],[-51.60468559999998,-28.544973],[-51.604453699999965,-28.543769899999983],[-51.60185879999995,-28.54359459999996],[-51.59963439999996,-28.542832499999975],[-51.59745909999999,-28.54146939999998],[-51.59706269999998,-28.541062199999942],[-51.59705169999996,-28.539942199999913],[-51.596179499999955,-28.538145299999936],[-51.59631219999994,-28.53767449999998],[-51.59705839999998,-28.5371737],[-51.59820389999993,-28.537154899999962],[-51.59974179999995,-28.536076199999965],[-51.59981529999993,-28.535495899999948],[-51.599591299999986,-28.53513189999995],[-51.598165299999955,-28.535045799999978],[-51.59778479999994,-28.53466419999995],[-51.59876379999997,-28.53201],[-51.59994849999998,-28.530326399999975],[-51.59986189999995,-28.529732199999952],[-51.597997,-28.52875069999994],[-51.59516259999998,-28.528785],[-51.59402709999995,-28.529383799999945],[-51.59289779999995,-28.529339599999968],[-51.59227879999997,-28.527976899999942],[-51.59332869999997,-28.526073],[-51.59331929999997,-28.52537009999998],[-51.59313959999997,-28.525182199999968],[-51.59221929999996,-28.525092799999978],[-51.589787899999976,-28.52572319999996],[-51.58911539999997,-28.525480899999934],[-51.589103199999954,-28.524966099999983],[-51.59020019999997,-28.522945299999964],[-51.58917219999995,-28.521844799999943],[-51.58774679999994,-28.522166],[-51.587553599999985,-28.52097559999993],[-51.58690779999995,-28.520368599999983],[-51.58624139999995,-28.52039649999994],[-51.584446299999975,-28.521362099999973],[-51.583235799999954,-28.52256339999996],[-51.58204509999995,-28.52297569999996],[-51.57951369999995,-28.521508199999978],[-51.57859269999995,-28.52137009999995],[-51.576768399999935,-28.521512499999986],[-51.57599819999996,-28.52104],[-51.57544959999996,-28.519979699999965],[-51.57284649999997,-28.519570699999974],[-51.57208419999995,-28.51993869999996],[-51.57079589999996,-28.521576299999932],[-51.568376099999966,-28.522812699999974],[-51.56743009999997,-28.523546499999956],[-51.56649619999995,-28.523466899999963],[-51.56296529999997,-28.52217029999997],[-51.56120279999993,-28.520820799999967],[-51.55987219999997,-28.520552399999936],[-51.55938169999995,-28.52069889999996],[-51.55885539999998,-28.52124189999995],[-51.558635599999945,-28.52310809999995],[-51.55826609999997,-28.52359419999993],[-51.554830299999935,-28.523896],[-51.55198749999994,-28.523371499999936],[-51.55054249999995,-28.523666199999976],[-51.54963079999993,-28.524131299999965],[-51.548100699999964,-28.524179099999966],[-51.5472913,-28.524845099999926],[-51.547133299999985,-28.52540919999997]],[[-51.57299029999996,-28.63649809999998],[-51.56958769999994,-28.635421899999983],[-51.567653499999956,-28.62936989999998],[-51.57026259999998,-28.62802109999996],[-51.57374149999998,-28.62685669999995],[-51.576745499999966,-28.627684299999952],[-51.57846619999999,-28.633124],[-51.577166499999976,-28.63357789999997],[-51.577783899999986,-28.635458199999952],[-51.57299029999996,-28.63649809999998]]]}},{"type":"Feature","properties":{"setor":"430066105000004","pop":206,"sigilo_pop":false,"dom":178,"sigilo_dom":0,"mulheres":90,"sigilo_mulheres":0,"c0_4":null,"sigilo_c0_4":1,"c5_9":7,"sigilo_c5_9":0,"i60_69":41,"sigilo_i60_69":0,"i70m":33,"sigilo_i70m":0,"indigenas":null,"sigilo_indigenas":1,"pretos_pardos":70,"sigilo_pretos_pardos":0,"dom_ocupados":84,"sigilo_dom_ocupados":0,"dom_agua":59,"sigilo_dom_agua":0,"dom_esgoto":null,"sigilo_dom_esgoto":1,"renda_resp":2508.41,"sigilo_renda_resp":0,"n_resp":84,"sigilo_n_resp":0,"dens":1.6,"sigilo_dens":false,"na_bacia":1,"area_pct_bacia":100.0,"metodo_recorte_bacia":"ponto_representativo_setor_2022; area_pct_geometrica","pop_n_validos":1,"pop_n_total":1,"pop_completude":1.0,"dom_n_validos":1,"dom_n_total":1,"dom_completude":1.0,"dom_ocupados_n_validos":1,"dom_ocupados_n_total":1,"dom_ocupados_completude":1.0,"mulheres_n_validos":1,"mulheres_n_total":1,"mulheres_completude":1.0,"c0_4_n_validos":0,"c0_4_n_total":1,"c0_4_completude":0.0,"c5_9_n_validos":1,"c5_9_n_total":1,"c5_9_completude":1.0,"i60_69_n_validos":1,"i60_69_n_total":1,"i60_69_completude":1.0,"i70m_n_validos":1,"i70m_n_total":1,"i70m_completude":1.0,"indigenas_n_validos":0,"indigenas_n_total":1,"indigenas_completude":0.0,"pretos_pardos_n_validos":1,"pretos_pardos_n_total":1,"pretos_pardos_completude":1.0,"dom_agua_n_validos":1,"dom_agua_n_total":1,"dom_agua_completude":1.0,"dom_esgoto_n_validos":0,"dom_esgoto_n_total":1,"dom_esgoto_completude":0.0,"n_resp_n_validos":1,"n_resp_n_total":1,"n_resp_completude":1.0,"renda_resp_n_validos":1,"renda_resp_n_total":1,"renda_resp_completude":1.0,"dens_n_validos":1,"dens_n_total":1,"dens_completude":1.0,"status_borda_bacia":"total","metodo_area_bacia":"interse??o geom?trica em EPSG:5880","metodo_na_bacia":"ponto_representativo_setor_2022_within_bacia","municipio":"André da Rocha","cod_mun":"4300661","mun_pct_na_bacia":100.0,"mun_pop_total":1135,"mun_pop_na_bacia":1135.0,"mun_ubs_iede":1,"mun_hospitais_iede":null,"mun_escolas_iede":2,"mun_bombeiros_iede":null,"mun_servicos_cobertura":"cadastro_IEDE_parcial_nao_inventario","mun_icm_faixa":"C","mun_icm_pontos":8,"mun_icm_prioritario":"não","mun_ubs_iede_status":"published","mun_hospitais_iede_status":"unknown","mun_escolas_iede_status":"published","mun_bombeiros_iede_status":"unknown"},"geometry":{"type":"Polygon","coordinates":[[[-51.39844389999997,-28.638713799999948],[-51.40010539999998,-28.638743199999965],[-51.40123809999995,-28.63917979999996],[-51.405452399999945,-28.642640599999947],[-51.408259,-28.644478799999934],[-51.409462,-28.645549099999972],[-51.412023599999934,-28.64959239999996],[-51.41344859999998,-28.65379559999996],[-51.41503849999999,-28.657253099999934],[-51.41609669999996,-28.65893329999994],[-51.41709959999998,-28.660150499999933],[-51.42048329999994,-28.661344599999936],[-51.4212783,-28.662268299999948],[-51.42157759999997,-28.663331799999973],[-51.420999599999966,-28.66736379999997],[-51.421420799999964,-28.66899629999994],[-51.42189469999994,-28.669650699999973],[-51.42275449999995,-28.670007099999967],[-51.42399139999998,-28.669747199999954],[-51.42486279999997,-28.669360899999948],[-51.42658469999998,-28.668055399999957],[-51.42781349999996,-28.667680699999956],[-51.42959479999996,-28.66791389999997],[-51.43136009999995,-28.66753989999994],[-51.43247809999997,-28.667543399999932],[-51.436605899999954,-28.667815599999983],[-51.44005869999995,-28.669185299999988],[-51.44399919999995,-28.67165339999997],[-51.445025499999986,-28.672600399999958],[-51.44509059999996,-28.673660799999936],[-51.44633,-28.671940399999976],[-51.44644969999996,-28.670988199999957],[-51.44525329999993,-28.669408899999954],[-51.444601,-28.66898239999994],[-51.444332599999946,-28.66831319999995],[-51.44445409999997,-28.667455],[-51.445816399999956,-28.66642649999995],[-51.44708219999996,-28.666230899999956],[-51.44777619999996,-28.665707799999954],[-51.44809889999994,-28.665108599999936],[-51.44778749999994,-28.663596899999963],[-51.45094829999993,-28.661774799999936],[-51.452385399999976,-28.66127289999997],[-51.45305109999998,-28.66133429999996],[-51.453776599999976,-28.662312199999977],[-51.454972599999955,-28.662596599999958],[-51.45769339999998,-28.662306],[-51.45881869999994,-28.661843799999914],[-51.46087849999998,-28.65977159999994],[-51.46229189999997,-28.658825],[-51.46204909999995,-28.658338],[-51.460804899999964,-28.657213599999977],[-51.46088049999997,-28.656264399999937],[-51.46203229999997,-28.653786699999948],[-51.464264499999956,-28.654075499999976],[-51.46506979999999,-28.653737499999963],[-51.46536089999995,-28.653249199999948],[-51.46557169999994,-28.650463899999984],[-51.46642849999995,-28.649424199999945],[-51.467733,-28.64896929999998],[-51.468795599999964,-28.65292149999993],[-51.468681199999935,-28.654012499999975],[-51.46933649999993,-28.654858899999958],[-51.46987519999993,-28.654537],[-51.4708,-28.653360899999946],[-51.47306619999995,-28.652560799999947],[-51.47302659999997,-28.651700899999984],[-51.472108799999944,-28.65039009999999],[-51.47262049999995,-28.64966559999992],[-51.473957499999976,-28.64931159999998],[-51.47747949999995,-28.64986749999996],[-51.47842939999999,-28.649332299999973],[-51.47897039999997,-28.64840449999997],[-51.479692599999964,-28.645525799999984],[-51.47973489999998,-28.64375639999997],[-51.476747,-28.639425299999967],[-51.47642479999997,-28.638400299999947],[-51.47172329999995,-28.633833399999954],[-51.471437299999934,-28.633048899999956],[-51.47164459999993,-28.632080699999975],[-51.472311299999944,-28.631111],[-51.47312339999996,-28.630985499999948],[-51.475599099999954,-28.63191539999997],[-51.47687549999995,-28.632092399999973],[-51.478463199999965,-28.631572799999958],[-51.47990589999995,-28.63065989999996],[-51.48064379999993,-28.629871],[-51.48090339999993,-28.628766599999956],[-51.48043789999997,-28.62731679999995],[-51.480429699999945,-28.626031599999973],[-51.481685,-28.623280099999928],[-51.48118639999995,-28.622272499999934],[-51.47813709999997,-28.619804399999975],[-51.47754869999994,-28.617376599999943],[-51.47756,-28.614594699999934],[-51.47776859999993,-28.61391049999996],[-51.47830769999997,-28.613220699999943],[-51.47889459999993,-28.61305669999995],[-51.47990839999994,-28.61317469999995],[-51.4816565,-28.614318199999968],[-51.48243329999997,-28.614255099999966],[-51.484050099999926,-28.612716799999937],[-51.486001399999964,-28.61190439999997],[-51.48634309999994,-28.61146879999996],[-51.48548,-28.608290199999946],[-51.48565609999997,-28.606133599999968],[-51.486151199999945,-28.605829799999988],[-51.487637799999966,-28.60653009999993],[-51.48862449999996,-28.606625],[-51.48919059999997,-28.606383899999962],[-51.48975359999997,-28.60567649999996],[-51.49001069999998,-28.602862199999947],[-51.48813229999996,-28.599118199999964],[-51.48819959999998,-28.598352],[-51.49058679999996,-28.595191099999973],[-51.49135819999998,-28.591429499999943],[-51.49042819999994,-28.588953],[-51.49061489999997,-28.588238699999977],[-51.49169259999997,-28.587510099999978],[-51.49185589999996,-28.587003599999942],[-51.491308199999935,-28.585655099999947],[-51.49175429999997,-28.585169199999942],[-51.493985399999985,-28.584516],[-51.494498399999934,-28.583666899999976],[-51.495486399999955,-28.58024739999996],[-51.49634759999998,-28.57859039999994],[-51.496329,-28.57462839999994],[-51.49590059999997,-28.57368169999994],[-51.49481229999998,-28.572495499999935],[-51.49414779999994,-28.571289299999936],[-51.491951,-28.564683399999982],[-51.49331709999995,-28.562152699999952],[-51.49445339999994,-28.561110299999942],[-51.49525959999995,-28.559670699999963],[-51.49536289999997,-28.558689699999945],[-51.49262609999994,-28.55903619999997],[-51.49193509999998,-28.559389699999937],[-51.489698299999986,-28.562416799999937],[-51.48853869999994,-28.56309989999994],[-51.48626259999997,-28.562920199999954],[-51.48479769999994,-28.56313169999993],[-51.483468099999975,-28.56280649999997],[-51.478047499999946,-28.56407579999996],[-51.476035,-28.563714399999988],[-51.47301779999998,-28.563960699999924],[-51.47043189999994,-28.56376979999993],[-51.470567499999966,-28.562010799999943],[-51.46996389999998,-28.559834499999962],[-51.470297499999965,-28.55880189999993],[-51.47104409999998,-28.557682],[-51.471536499999964,-28.55610939999998],[-51.47085339999995,-28.55281319999994],[-51.469153699999936,-28.55015239999994],[-51.46893129999996,-28.54942169999997],[-51.46913779999994,-28.547610799999976],[-51.46959849999996,-28.546304199999945],[-51.46918549999998,-28.543583899999938],[-51.46878839999994,-28.542567199999947],[-51.46870889999997,-28.539501399999942],[-51.468232399999984,-28.537634899999944],[-51.46699249999995,-28.535272199999962],[-51.46683449999995,-28.533449099999928],[-51.46513469999997,-28.531066299999956],[-51.46367329999998,-28.52838969999993],[-51.466405599999966,-28.524402499999937],[-51.46781939999994,-28.522941],[-51.467801,-28.52062649999994],[-51.46823409999996,-28.520775299999976],[-51.473905299999956,-28.516808599999937],[-51.472882599999934,-28.51483409999998],[-51.47130619999996,-28.513447],[-51.47070249999996,-28.51218909999994],[-51.47072149999997,-28.50925079999996],[-51.47119859999998,-28.508063199999985],[-51.47165959999995,-28.505685699999958],[-51.470477699999954,-28.50512269999995],[-51.46933259999998,-28.50309069999997],[-51.46931249999995,-28.501640299999963],[-51.468515799999984,-28.500667],[-51.46764839999998,-28.500238399999944],[-51.46397159999997,-28.499887899999973],[-51.46031789999995,-28.49739769999997],[-51.45997159999996,-28.496552399999924],[-51.45851359999994,-28.496444499999942],[-51.458248799999986,-28.496229],[-51.45773859999997,-28.495407299999943],[-51.45793869999994,-28.493419499999952],[-51.45725009999995,-28.49260919999995],[-51.45720259999996,-28.49199349999998],[-51.45669409999994,-28.491121699999958],[-51.456652099999985,-28.489687799999952],[-51.456988099999926,-28.488734799999975],[-51.45659009999997,-28.487901299999976],[-51.45646759999994,-28.486408899999955],[-51.455487,-28.485385099999974],[-51.45418879999994,-28.48516339999997],[-51.45260309999997,-28.485317599999966],[-51.45172309999998,-28.485042399999926],[-51.45042249999995,-28.486506599999917],[-51.44929309999998,-28.487232],[-51.44869929999993,-28.487368],[-51.4483403,-28.48735729999993],[-51.44669529999993,-28.486401599999965],[-51.44580039999994,-28.48655479999997],[-51.445830299999955,-28.48792969999993],[-51.44421109999997,-28.489826499999932],[-51.443830899999966,-28.49207969999997],[-51.44280159999994,-28.492802799999936],[-51.440416899999946,-28.493779299999968],[-51.43928279999994,-28.496532899999973],[-51.43804659999995,-28.49860489999997],[-51.43677029999998,-28.49966909999995],[-51.43307269999997,-28.500976399999953],[-51.43187329999996,-28.50037979999996],[-51.431648,-28.499807599999933],[-51.430895,-28.499318899999935],[-51.428565899999974,-28.499602699999954],[-51.428262,-28.500172],[-51.428886699999964,-28.50124989999995],[-51.42844839999998,-28.502172899999962],[-51.428057899999935,-28.502264099999927],[-51.426371199999956,-28.50225749999992],[-51.425138699999934,-28.50168719999992],[-51.424828299999945,-28.501833099999942],[-51.422924,-28.501758299999942],[-51.420725599999976,-28.501181899999953],[-51.419775699999946,-28.501818699999937],[-51.417415,-28.50471689999994],[-51.417276,-28.505788299999946],[-51.417899,-28.506842499999944],[-51.41794939999994,-28.507427099999976],[-51.41743749999995,-28.508525499999962],[-51.416308,-28.50946019999998],[-51.416193799999974,-28.50999689999998],[-51.41627509999995,-28.510414399999938],[-51.417694799999936,-28.51138149999997],[-51.41817649999996,-28.512132799999964],[-51.41854429999995,-28.51467909999996],[-51.41942759999994,-28.515516899999962],[-51.42039639999996,-28.51702479999995],[-51.41992269999997,-28.517805399999933],[-51.41616279999994,-28.518651399999943],[-51.41277779999995,-28.518441699999975],[-51.41165309999997,-28.51822],[-51.41022359999994,-28.51741239999995],[-51.40581119999997,-28.51569129999995],[-51.40472859999994,-28.515501099999938],[-51.403180599999985,-28.515746099999944],[-51.40218229999993,-28.514753599999942],[-51.40161659999996,-28.514720099999977],[-51.40051679999993,-28.51385869999996],[-51.398833399999944,-28.514011299999932],[-51.398211,-28.51457469999997],[-51.398348,-28.51617609999994],[-51.399256899999955,-28.517885099999948],[-51.39824509999995,-28.518381299999927],[-51.39802379999998,-28.51895919999998],[-51.39812639999996,-28.519263299999967],[-51.39942389999993,-28.52033249999994],[-51.40399819999993,-28.522140299999933],[-51.40485879999995,-28.522049399999954],[-51.40558449999998,-28.521535],[-51.40673319999996,-28.521193699999966],[-51.40865149999996,-28.52103039999996],[-51.41259049999996,-28.523601899999957],[-51.41349629999996,-28.526393199999976],[-51.41500989999998,-28.528676899999933],[-51.41485269999998,-28.529457699999966],[-51.415949199999936,-28.53204969999996],[-51.415561,-28.532415699999948],[-51.41332859999994,-28.53334739999998],[-51.412434499999954,-28.533559],[-51.41108889999999,-28.53351759999997],[-51.40901259999998,-28.533040399999948],[-51.405226599999935,-28.534604799999954],[-51.402722599999954,-28.53584639999996],[-51.40107129999996,-28.537655],[-51.39973519999995,-28.538255199999973],[-51.398216699999985,-28.53816049999994],[-51.398008699999934,-28.53928619999994],[-51.395483499999955,-28.540607899999955],[-51.39363959999997,-28.541244499999948],[-51.39292879999993,-28.54191659999998],[-51.39322529999998,-28.54262359999996],[-51.39491359999994,-28.543177799999967],[-51.39933289999993,-28.54312139999996],[-51.400578199999984,-28.543328799999987],[-51.402224,-28.54633409999997],[-51.402341199999974,-28.548171799999974],[-51.40340959999998,-28.548688699999953],[-51.40382809999994,-28.549203699999968],[-51.403188299999954,-28.550510199999955],[-51.400656699999956,-28.55312069999996],[-51.40188939999996,-28.554623099999954],[-51.40193,-28.55559029999994],[-51.403134199999954,-28.55621749999994],[-51.40496809999996,-28.557736399999953],[-51.40570679999997,-28.55889529999995],[-51.406066299999964,-28.559965699999953],[-51.40775869999994,-28.56076619999993],[-51.40803649999998,-28.56187159999996],[-51.407996899999944,-28.56280829999997],[-51.40715119999994,-28.56317739999998],[-51.40538429999998,-28.56245189999992],[-51.403391899999974,-28.56194409999994],[-51.39808689999995,-28.56111509999994],[-51.39759829999997,-28.56142759999994],[-51.395755099999974,-28.564235399999962],[-51.39395019999995,-28.565648899999925],[-51.39373869999998,-28.56602979999997],[-51.394114499999944,-28.56663489999994],[-51.39570589999994,-28.567504199999966],[-51.40018609999998,-28.56762529999998],[-51.40195539999996,-28.567125899999947],[-51.405538099999944,-28.567903199999936],[-51.406520599999965,-28.568930099999918],[-51.407226299999934,-28.573651299999938],[-51.40716359999993,-28.574119799999938],[-51.406781499999965,-28.574322099999957],[-51.40421319999996,-28.57351749999998],[-51.402797599999985,-28.57275309999993],[-51.4018425,-28.572703899999965],[-51.399802,-28.573741399999967],[-51.398834499999964,-28.573927099999935],[-51.39696589999994,-28.57385289999997],[-51.395816099999934,-28.57346389999997],[-51.39506849999998,-28.573574199999936],[-51.393625199999974,-28.57411589999998],[-51.393211,-28.57464509999994],[-51.39341229999997,-28.575115899999957],[-51.393884199999945,-28.575368899999944],[-51.394505099999954,-28.576186],[-51.395929499999966,-28.57724969999999],[-51.39763649999997,-28.577736899999927],[-51.39938,-28.578626099999955],[-51.399894,-28.578630299999933],[-51.40063819999995,-28.579168499999984],[-51.400458699999945,-28.5798655],[-51.39958309999997,-28.58121349999994],[-51.399561799999965,-28.581703799999953],[-51.39999989999995,-28.582234499999966],[-51.40217179999996,-28.583086899999948],[-51.403409099999976,-28.584334799999972],[-51.40403479999998,-28.585678699999967],[-51.40361989999997,-28.58679159999997],[-51.40318449999995,-28.58728229999997],[-51.40239269999994,-28.587414199999962],[-51.40078109999997,-28.587269699999972],[-51.39995339999996,-28.587687],[-51.398512,-28.589912099999932],[-51.39827539999993,-28.591142099999956],[-51.39845679999996,-28.59230859999996],[-51.39836879999995,-28.59574689999994],[-51.4022313,-28.601156299999957],[-51.402521099999944,-28.602285],[-51.402512799999954,-28.603991],[-51.40234769999996,-28.604361499999985],[-51.40094,-28.60548519999997],[-51.40048649999994,-28.60557419999997],[-51.3980567,-28.605147499999944],[-51.39691949999997,-28.607396],[-51.397074299999986,-28.608082799999984],[-51.39858219999996,-28.608554],[-51.40070119999996,-28.610064],[-51.40279019999997,-28.611947099999952],[-51.403710599999954,-28.613140099999956],[-51.403718099999935,-28.61430869999998],[-51.40291069999996,-28.6154],[-51.40142489999994,-28.615487399999942],[-51.3965037,-28.61410529999995],[-51.39365589999994,-28.61256469999995],[-51.39261749999997,-28.612385499999956],[-51.391494,-28.61245289999993],[-51.39054059999995,-28.61285579999998],[-51.38976379999997,-28.614468099999957],[-51.38973639999995,-28.615036499999956],[-51.390883799999976,-28.61821489999994],[-51.391873299999986,-28.61973609999995],[-51.392508799999966,-28.62020169999993],[-51.393176299999936,-28.620252799999946],[-51.39387319999997,-28.620026199999987],[-51.39715809999996,-28.618450899999967],[-51.39945739999996,-28.618184499999973],[-51.40085,-28.61907039999993],[-51.401635399999975,-28.620312499999955],[-51.40174349999995,-28.621011899999942],[-51.401305199999975,-28.62297019999995],[-51.40014769999993,-28.62601719999998],[-51.40009089999995,-28.627653899999913],[-51.40245249999998,-28.631480799999956],[-51.4025549,-28.63513089999997],[-51.402147199999945,-28.636101299999947],[-51.40137079999994,-28.636578399999955],[-51.39811789999993,-28.636019199999968],[-51.39761319999997,-28.63627869999993],[-51.39741539999994,-28.63751909999996],[-51.39844389999997,-28.638713799999948]]]}},{"type":"Feature","properties":{"setor":"430066105000005","pop":571,"sigilo_pop":false,"dom":251,"sigilo_dom":0,"mulheres":296,"sigilo_mulheres":0,"c0_4":29,"sigilo_c0_4":0,"c5_9":39,"sigilo_c5_9":0,"i60_69":68,"sigilo_i60_69":0,"i70m":66,"sigilo_i70m":0,"indigenas":5,"sigilo_indigenas":0,"pretos_pardos":136,"sigilo_pretos_pardos":0,"dom_ocupados":215,"sigilo_dom_ocupados":0,"dom_agua":215,"sigilo_dom_agua":0,"dom_esgoto":48,"sigilo_dom_esgoto":0,"renda_resp":2674.29,"sigilo_renda_resp":0,"n_resp":215,"sigilo_n_resp":0,"dens":702.6,"sigilo_dens":false,"na_bacia":1,"area_pct_bacia":100.0,"metodo_recorte_bacia":"ponto_representativo_setor_2022; area_pct_geometrica","pop_n_validos":1,"pop_n_total":1,"pop_completude":1.0,"dom_n_validos":1,"dom_n_total":1,"dom_completude":1.0,"dom_ocupados_n_validos":1,"dom_ocupados_n_total":1,"dom_ocupados_completude":1.0,"mulheres_n_validos":1,"mulheres_n_total":1,"mulheres_completude":1.0,"c0_4_n_validos":1,"c0_4_n_total":1,"c0_4_completude":1.0,"c5_9_n_validos":1,"c5_9_n_total":1,"c5_9_completude":1.0,"i60_69_n_validos":1,"i60_69_n_total":1,"i60_69_completude":1.0,"i70m_n_validos":1,"i70m_n_total":1,"i70m_completude":1.0,"indigenas_n_validos":1,"indigenas_n_total":1,"indigenas_completude":1.0,"pretos_pardos_n_validos":1,"pretos_pardos_n_total":1,"pretos_pardos_completude":1.0,"dom_agua_n_validos":1,"dom_agua_n_total":1,"dom_agua_completude":1.0,"dom_esgoto_n_validos":1,"dom_esgoto_n_total":1,"dom_esgoto_completude":1.0,"n_resp_n_validos":1,"n_resp_n_total":1,"n_resp_completude":1.0,"renda_resp_n_validos":1,"renda_resp_n_total":1,"renda_resp_completude":1.0,"dens_n_validos":1,"dens_n_total":1,"dens_completude":1.0,"status_borda_bacia":"total","metodo_area_bacia":"interse??o geom?trica em EPSG:5880","metodo_na_bacia":"ponto_representativo_setor_2022_within_bacia","municipio":"André da Rocha","cod_mun":"4300661","mun_pct_na_bacia":100.0,"mun_pop_total":1135,"mun_pop_na_bacia":1135.0,"mun_ubs_iede":1,"mun_hospitais_iede":null,"mun_escolas_iede":2,"mun_bombeiros_iede":null,"mun_servicos_cobertura":"cadastro_IEDE_parcial_nao_inventario","mun_icm_faixa":"C","mun_icm_pontos":8,"mun_icm_prioritario":"não","mun_ubs_iede_status":"published","mun_hospitais_iede_status":"unknown","mun_escolas_iede_status":"published","mun_bombeiros_iede_status":"unknown"},"geometry":{"type":"Polygon","coordinates":[[[-51.56958769999994,-28.635421899999983],[-51.57299029999996,-28.63649809999998],[-51.577783899999986,-28.635458199999952],[-51.577166499999976,-28.63357789999997],[-51.57846619999999,-28.633124],[-51.576745499999966,-28.627684299999952],[-51.57374149999998,-28.62685669999995],[-51.57026259999998,-28.62802109999996],[-51.567653499999956,-28.62936989999998],[-51.56958769999994,-28.635421899999983]]]}}]}
