{"type":"FeatureCollection","name":"4302451","crs":{"type":"name","properties":{"name":"urn:ogc:def:crs:OGC:1.3:CRS84"}},"features":[{"type":"Feature","properties":{"setor":"430245105000001","pop":919,"sigilo_pop":false,"dom":485,"sigilo_dom":false,"mulheres":489,"sigilo_mulheres":false,"c0_4":40,"sigilo_c0_4":false,"c5_9":46,"sigilo_c5_9":false,"i60_69":129,"sigilo_i60_69":false,"i70m":105,"sigilo_i70m":false,"indigenas":0,"sigilo_indigenas":false,"pretos_pardos":177,"sigilo_pretos_pardos":false,"dom_ocupados":408,"sigilo_dom_ocupados":false,"dom_agua":394,"sigilo_dom_agua":false,"dom_esgoto":null,"sigilo_dom_esgoto":true,"renda_resp":2754.11,"sigilo_renda_resp":false,"n_resp":408,"sigilo_n_resp":false,"dens":706.2,"sigilo_dens":false,"na_bacia":0,"area_pct_bacia":0.0,"metodo_recorte_bacia":"ponto_representativo_setor_2022; area_pct_geometrica"},"geometry":{"type":"Polygon","coordinates":[[[-52.42209449999996,-29.299490199999962],[-52.422032,-29.300284499999965],[-52.423635099999956,-29.302244899999945],[-52.42348519999996,-29.305903199999925],[-52.42495909999996,-29.307170499999984],[-52.423377699999946,-29.309232599999973],[-52.419674,-29.30998339999997],[-52.41805719999997,-29.31337589999997],[-52.42185329999995,-29.314392899999966],[-52.42352349999993,-29.313901499999908],[-52.42510689999994,-29.312094599999963],[-52.42772179999998,-29.310913699999954],[-52.428434799999934,-29.309216399999972],[-52.43280969999995,-29.30805089999996],[-52.432244,-29.306070399999943],[-52.43218279999997,-29.304985799999926],[-52.43005719999997,-29.305029399999963],[-52.43018739999997,-29.30139749999995],[-52.431749399999944,-29.301397299999955],[-52.431064299999946,-29.29987949999997],[-52.430726099999966,-29.298147899999933],[-52.43089219999996,-29.297479599999985],[-52.429604799999936,-29.29662669999994],[-52.42936579999997,-29.295690099999945],[-52.42790619999994,-29.29570559999996],[-52.427820299999944,-29.297967299999975],[-52.42632859999998,-29.299641399999917],[-52.424868499999945,-29.298573],[-52.42288029999998,-29.298603099999973],[-52.42209449999996,-29.299490199999962]]]}},{"type":"Feature","properties":{"setor":"430245105000002","pop":752,"sigilo_pop":false,"dom":353,"sigilo_dom":false,"mulheres":399,"sigilo_mulheres":false,"c0_4":49,"sigilo_c0_4":false,"c5_9":56,"sigilo_c5_9":false,"i60_69":78,"sigilo_i60_69":false,"i70m":53,"sigilo_i70m":false,"indigenas":null,"sigilo_indigenas":true,"pretos_pardos":128,"sigilo_pretos_pardos":false,"dom_ocupados":302,"sigilo_dom_ocupados":false,"dom_agua":300,"sigilo_dom_agua":false,"dom_esgoto":50,"sigilo_dom_esgoto":false,"renda_resp":2477.56,"sigilo_renda_resp":false,"n_resp":302,"sigilo_n_resp":false,"dens":1200.1,"sigilo_dens":false,"na_bacia":0,"area_pct_bacia":0.0,"metodo_recorte_bacia":"ponto_representativo_setor_2022; area_pct_geometrica"},"geometry":{"type":"Polygon","coordinates":[[[-52.43280969999995,-29.30805089999996],[-52.43425939999997,-29.307562],[-52.43423259999997,-29.305452499999948],[-52.43611569999996,-29.305327099999946],[-52.435943,-29.30274089999994],[-52.43693139999993,-29.302707399999985],[-52.43666049999996,-29.296561199999932],[-52.431514799999945,-29.29655639999994],[-52.431205199999965,-29.29599219999994],[-52.42936579999997,-29.295690099999945],[-52.429604799999936,-29.29662669999994],[-52.43089219999996,-29.297479599999985],[-52.430726099999966,-29.298147899999933],[-52.431064299999946,-29.29987949999997],[-52.431749399999944,-29.301397299999955],[-52.43018739999997,-29.30139749999995],[-52.43005719999997,-29.305029399999963],[-52.43218279999997,-29.304985799999926],[-52.432244,-29.306070399999943],[-52.43280969999995,-29.30805089999996]]]}},{"type":"Feature","properties":{"setor":"430245105000003","pop":707,"sigilo_pop":false,"dom":324,"sigilo_dom":false,"mulheres":339,"sigilo_mulheres":false,"c0_4":48,"sigilo_c0_4":false,"c5_9":48,"sigilo_c5_9":false,"i60_69":63,"sigilo_i60_69":false,"i70m":45,"sigilo_i70m":false,"indigenas":0,"sigilo_indigenas":false,"pretos_pardos":252,"sigilo_pretos_pardos":false,"dom_ocupados":249,"sigilo_dom_ocupados":false,"dom_agua":79,"sigilo_dom_agua":false,"dom_esgoto":0,"sigilo_dom_esgoto":false,"renda_resp":1865.54,"sigilo_renda_resp":false,"n_resp":249,"sigilo_n_resp":false,"dens":23.0,"sigilo_dens":false,"na_bacia":0,"area_pct_bacia":38.7653,"metodo_recorte_bacia":"ponto_representativo_setor_2022; area_pct_geometrica"},"geometry":{"type":"Polygon","coordinates":[[[-52.42744449999998,-29.285824],[-52.42684509999997,-29.287103799999958],[-52.42589879999997,-29.287743299999942],[-52.425869399999954,-29.28855969999994],[-52.42693849999995,-29.29010529999993],[-52.42724789999995,-29.291544399999967],[-52.42837869999994,-29.292544],[-52.42840539999998,-29.293633199999924],[-52.42860379999997,-29.294114199999974],[-52.429166,-29.294475099999936],[-52.42936579999997,-29.295690099999945],[-52.431205199999965,-29.29599219999994],[-52.431514799999945,-29.29655639999994],[-52.43666049999996,-29.296561199999932],[-52.43693139999993,-29.302707399999985],[-52.435943,-29.30274089999994],[-52.43611569999996,-29.305327099999946],[-52.43423259999997,-29.305452499999948],[-52.43425939999997,-29.307562],[-52.428434799999934,-29.309216399999972],[-52.42776109999994,-29.311100899999925],[-52.42890139999997,-29.311281899999972],[-52.429473299999984,-29.311969499999986],[-52.42902589999994,-29.312396899999953],[-52.42974919999995,-29.312772099999957],[-52.43006239999994,-29.31321119999996],[-52.42793739999997,-29.315557599999966],[-52.427829,-29.316156599999953],[-52.429593299999965,-29.315927499999916],[-52.42942979999998,-29.3167304],[-52.430523799999946,-29.317421],[-52.43052029999996,-29.318266499999936],[-52.431133399999965,-29.318969899999956],[-52.432278799999956,-29.31900559999996],[-52.432676199999946,-29.319822299999935],[-52.43397419999997,-29.319379499999954],[-52.434149,-29.319751699999976],[-52.43481919999993,-29.319511099999936],[-52.4363,-29.320697799999948],[-52.435625499999965,-29.32153039999998],[-52.43655549999994,-29.322462499999975],[-52.43780469999995,-29.322119],[-52.43890209999995,-29.322884499999937],[-52.4397982,-29.322585399999973],[-52.44049979999995,-29.322912],[-52.44053029999998,-29.32129919999995],[-52.441554,-29.320968399999973],[-52.44205239999996,-29.320474699999973],[-52.443176,-29.319924399999934],[-52.44291019999997,-29.319161],[-52.44366489999994,-29.319202499999953],[-52.44379819999994,-29.319001],[-52.44374159999995,-29.318527599999978],[-52.44296679999997,-29.318036599999978],[-52.442427,-29.318133599999946],[-52.44179169999995,-29.317776499999983],[-52.443262,-29.31598089999994],[-52.44278019999996,-29.315368199999966],[-52.44233829999996,-29.31534859999994],[-52.44243069999993,-29.314971099999976],[-52.444317799999965,-29.314393599999967],[-52.44470119999993,-29.313994299999937],[-52.445225599999965,-29.314252799999966],[-52.446336899999956,-29.314224699999954],[-52.44639269999994,-29.313822099999975],[-52.44603549999994,-29.313485899999932],[-52.44681639999994,-29.313308199999938],[-52.447266,-29.312766399999937],[-52.447775,-29.31266949999996],[-52.44783609999996,-29.311189499999948],[-52.44873759999996,-29.30960349999998],[-52.44789009999994,-29.307886499999935],[-52.44906779999997,-29.30684739999998],[-52.450130599999966,-29.305348799999937],[-52.44948169999998,-29.30295539999998],[-52.44815169999998,-29.30174129999994],[-52.44852359999993,-29.30023689999995],[-52.447914,-29.298731199999963],[-52.44796419999995,-29.298250399999965],[-52.448302199999944,-29.297918899999956],[-52.44908259999995,-29.29780739999995],[-52.44976969999994,-29.296686099999924],[-52.45013959999994,-29.296488299999965],[-52.451825,-29.296786399999977],[-52.45227109999996,-29.297580099999962],[-52.45332609999997,-29.297648199999973],[-52.45375709999996,-29.297311],[-52.45440009999999,-29.297647599999955],[-52.45517849999994,-29.297690599999967],[-52.45605,-29.298497499999932],[-52.45611059999993,-29.29794669999995],[-52.45635219999997,-29.29789589999996],[-52.45680449999998,-29.29859039999996],[-52.45716279999994,-29.298165099999945],[-52.45751789999997,-29.29824609999998],[-52.45774919999997,-29.298625],[-52.45806229999993,-29.298390899999955],[-52.458060399999965,-29.29807349999993],[-52.45759629999998,-29.297249099999913],[-52.458815799999975,-29.298274399999965],[-52.459581899999925,-29.298240399999944],[-52.46015079999996,-29.29768369999993],[-52.46118989999997,-29.297506799999947],[-52.462337,-29.29690429999993],[-52.46343619999993,-29.296004899999954],[-52.464301,-29.296120099999932],[-52.46483809999995,-29.296488],[-52.465237599999966,-29.296402299999954],[-52.46516339999993,-29.294429599999948],[-52.46668919999996,-29.29363839999997],[-52.46686059999996,-29.29246249999994],[-52.466710599999935,-29.291863599999946],[-52.464597,-29.28982919999993],[-52.46445429999994,-29.28889569999996],[-52.46536409999993,-29.28845369999994],[-52.46749579999994,-29.288187799999957],[-52.46824529999998,-29.286596],[-52.46820549999996,-29.28589209999994],[-52.46991909999998,-29.28591279999995],[-52.47135519999995,-29.284742199999986],[-52.471677599999964,-29.28269679999994],[-52.471115199999986,-29.282393599999974],[-52.469505,-29.28238209999996],[-52.46995779999998,-29.282117599999932],[-52.46993659999998,-29.281534],[-52.470304,-29.280747599999973],[-52.47155189999996,-29.280435699999934],[-52.47161829999993,-29.280108799999937],[-52.471133099999975,-29.279381299999947],[-52.471499499999936,-29.278803299999947],[-52.47211869999995,-29.27858739999993],[-52.47230379999997,-29.277132599999955],[-52.47139929999997,-29.276429599999968],[-52.47194019999994,-29.27602449999994],[-52.47222789999995,-29.275425099999953],[-52.47201839999997,-29.27505089999994],[-52.472499099999936,-29.274441699999947],[-52.47232059999994,-29.27390059999993],[-52.47259769999994,-29.2735398],[-52.47213609999994,-29.272086699999935],[-52.47311089999994,-29.270492599999958],[-52.47297469999996,-29.26960639999992],[-52.47393059999996,-29.269323399999966],[-52.47415209999997,-29.268168599999974],[-52.4745731,-29.267877199999933],[-52.474034599999975,-29.26688119999995],[-52.47408249999996,-29.26651689999994],[-52.47438779999993,-29.26622029999993],[-52.47471349999995,-29.26479139999998],[-52.47520479999998,-29.264561899999936],[-52.47563439999993,-29.26368139999994],[-52.47501369999998,-29.26306949999997],[-52.474090199999985,-29.26326779999993],[-52.47114649999998,-29.262826699999938],[-52.47029909999998,-29.261919299999942],[-52.470574,-29.261307699999975],[-52.46969589999998,-29.261174199999974],[-52.46887009999995,-29.261868299999943],[-52.46889279999993,-29.26084109999995],[-52.46768339999994,-29.260671099999964],[-52.46736629999998,-29.260429],[-52.46737269999994,-29.260096099999945],[-52.467755599999975,-29.26012859999997],[-52.46749229999995,-29.259702299999958],[-52.46815779999997,-29.259001799999957],[-52.469190499999975,-29.25917789999995],[-52.4692429,-29.257792299999938],[-52.46950209999994,-29.25770029999995],[-52.46884409999996,-29.25688779999995],[-52.46903319999996,-29.25619709999995],[-52.46930629999998,-29.255683099999942],[-52.47083,-29.254612899999984],[-52.47003429999995,-29.25418259999997],[-52.46966149999997,-29.25431939999992],[-52.469503799999984,-29.253720599999937],[-52.469102099999986,-29.253584599999947],[-52.469089699999984,-29.252995399999975],[-52.46860749999996,-29.25250269999998],[-52.46875889999996,-29.252138499999944],[-52.47096689999996,-29.250104499999974],[-52.47191639999994,-29.249912],[-52.47358159999993,-29.2502062],[-52.47495729999998,-29.251033599999957],[-52.476004,-29.25128],[-52.47703769999998,-29.25081319999998],[-52.47985359999995,-29.248481],[-52.48007149999995,-29.24807569999997],[-52.48015189999995,-29.246532799999958],[-52.48071719999995,-29.245044499999942],[-52.48106339999998,-29.24471019999993],[-52.48114229999993,-29.245459],[-52.4809542,-29.237087799999987],[-52.478279,-29.23851589999999],[-52.473473199999944,-29.238896],[-52.46666,-29.23812439999994],[-52.464117699999974,-29.236699799999947],[-52.46256539999996,-29.238417499999976],[-52.45779839999995,-29.240531099999934],[-52.456434799999954,-29.24029159999998],[-52.450615699999965,-29.234784199999982],[-52.44559819999996,-29.233391],[-52.44654829999996,-29.233716299999962],[-52.4460744,-29.233903799999954],[-52.445508699999955,-29.23381279999995],[-52.44488149999995,-29.235533199999967],[-52.443788,-29.234921699999973],[-52.44186219999995,-29.23483639999995],[-52.438750499999976,-29.235633],[-52.43748919999996,-29.236892699999935],[-52.43767429999997,-29.238516799999957],[-52.436858799999975,-29.238217899999935],[-52.43599419999999,-29.237066599999924],[-52.43512639999994,-29.237682],[-52.433954,-29.23747969999995],[-52.430868499999974,-29.23857509999993],[-52.43124019999994,-29.239332899999965],[-52.431498899999944,-29.242521499999945],[-52.43247629999996,-29.243201399999982],[-52.43266889999996,-29.243700599999954],[-52.43252059999998,-29.244240099999946],[-52.43184189999994,-29.245077899999966],[-52.43227189999993,-29.24616849999994],[-52.43289809999993,-29.246518599999945],[-52.43604519999996,-29.246484399999932],[-52.4344354,-29.247907899999973],[-52.43432219999995,-29.248400599999965],[-52.43471859999994,-29.249364399999926],[-52.43408549999998,-29.250178],[-52.43280569999995,-29.250849899999935],[-52.432728,-29.251972699999957],[-52.432143399999966,-29.25272059999998],[-52.43211269999995,-29.254039199999962],[-52.431377,-29.254892499999976],[-52.431429099999946,-29.25531309999997],[-52.43218079999997,-29.25612549999993],[-52.432034,-29.25645589999993],[-52.43056089999994,-29.256789799999975],[-52.42829059999996,-29.2566571],[-52.426950499999975,-29.257788799999958],[-52.42613179999995,-29.258114199999973],[-52.425763,-29.25858169999998],[-52.42677889999993,-29.260308799999958],[-52.42937869999998,-29.261422],[-52.429163,-29.26179829999996],[-52.429265199999975,-29.263871399999974],[-52.42974479999999,-29.2645927],[-52.43098229999999,-29.265514],[-52.43199129999994,-29.26565169999998],[-52.432431,-29.265962],[-52.43193049999997,-29.269034899999944],[-52.432131,-29.27152739999998],[-52.43234989999996,-29.271977599999968],[-52.43313729999994,-29.27242879999994],[-52.43293569999997,-29.272776199999946],[-52.429865,-29.27487439999993],[-52.42954979999997,-29.275429],[-52.429337799999985,-29.28528729999993],[-52.42861709999994,-29.285067],[-52.42822379999995,-29.28523649999994],[-52.42744449999998,-29.285824]]]}},{"type":"Feature","properties":{"setor":"430245105000004","pop":524,"sigilo_pop":false,"dom":248,"sigilo_dom":false,"mulheres":248,"sigilo_mulheres":false,"c0_4":36,"sigilo_c0_4":false,"c5_9":26,"sigilo_c5_9":false,"i60_69":79,"sigilo_i60_69":false,"i70m":40,"sigilo_i70m":false,"indigenas":0,"sigilo_indigenas":false,"pretos_pardos":98,"sigilo_pretos_pardos":false,"dom_ocupados":201,"sigilo_dom_ocupados":false,"dom_agua":118,"sigilo_dom_agua":false,"dom_esgoto":0,"sigilo_dom_esgoto":false,"renda_resp":2323.01,"sigilo_renda_resp":false,"n_resp":201,"sigilo_n_resp":false,"dens":23.7,"sigilo_dens":false,"na_bacia":1,"area_pct_bacia":99.7222,"metodo_recorte_bacia":"ponto_representativo_setor_2022; area_pct_geometrica"},"geometry":{"type":"Polygon","coordinates":[[[-52.41181039999998,-29.22801049999998],[-52.41753029999995,-29.235860099999964],[-52.41428559999997,-29.238736099999983],[-52.41007519999994,-29.241912599999978],[-52.408901199999946,-29.242522899999965],[-52.40651829999996,-29.242671299999976],[-52.40559159999998,-29.24299039999994],[-52.402927399999946,-29.248328299999972],[-52.40288629999997,-29.249781899999956],[-52.403466,-29.250485199999954],[-52.403083599999945,-29.250989299999947],[-52.40106179999999,-29.251720199999966],[-52.400554099999965,-29.25281],[-52.39973949999996,-29.25305649999995],[-52.39721959999997,-29.252010599999945],[-52.395554299999965,-29.25177779999995],[-52.392501299999935,-29.250683],[-52.390191899999934,-29.250525399999955],[-52.39060359999996,-29.256032599999966],[-52.38820149999997,-29.25535239999994],[-52.383095699999956,-29.25654549999996],[-52.37951169999997,-29.258951599999946],[-52.3803784,-29.263821599999975],[-52.37915849999997,-29.26715649999994],[-52.37981569999994,-29.2681133],[-52.38055079999998,-29.27021419999995],[-52.38029849999998,-29.27070789999993],[-52.3783782,-29.271785199999947],[-52.378293099999944,-29.272155699999924],[-52.378482799999965,-29.27271079999997],[-52.379812,-29.27367059999995],[-52.38066349999997,-29.27472649999993],[-52.38293089999996,-29.275222],[-52.38509259999995,-29.276999],[-52.38642559999994,-29.275923899999945],[-52.38760639999998,-29.275613499999963],[-52.38945749999993,-29.27587489999997],[-52.39256089999998,-29.275875599999946],[-52.39401749999997,-29.275582899999957],[-52.395050599999934,-29.275858599999925],[-52.396602899999955,-29.275831099999955],[-52.397790199999974,-29.276195599999944],[-52.399791199999974,-29.275536599999967],[-52.40132569999997,-29.27602859999996],[-52.40249209999996,-29.27591639999998],[-52.40538569999995,-29.277026099999947],[-52.40673229999992,-29.276275099999953],[-52.409632199999976,-29.275963],[-52.41147349999994,-29.276054099999964],[-52.41354419999993,-29.277702],[-52.415242,-29.277864399999935],[-52.416318,-29.27822709999997],[-52.41691829999997,-29.27805009999997],[-52.41764819999997,-29.27716189999995],[-52.41875059999995,-29.27690869999998],[-52.41959379999998,-29.277083499999947],[-52.42114589999994,-29.27864149999994],[-52.42285469999996,-29.27946249999995],[-52.424000499999984,-29.280552799999956],[-52.423977899999954,-29.28216579999998],[-52.42359429999993,-29.283082899999947],[-52.42358739999997,-29.28392369999995],[-52.42417549999993,-29.284533699999944],[-52.425372299999935,-29.285096299999964],[-52.426987699999984,-29.286751799999934],[-52.42744449999998,-29.285824],[-52.42822379999995,-29.28523649999994],[-52.42861709999994,-29.285067],[-52.429337799999985,-29.28528729999993],[-52.42954979999997,-29.275429],[-52.429865,-29.27487439999993],[-52.43293569999997,-29.272776199999946],[-52.43313729999994,-29.27242879999994],[-52.43234989999996,-29.271977599999968],[-52.432131,-29.27152739999998],[-52.43193049999997,-29.269034899999944],[-52.432431,-29.265962],[-52.43199129999994,-29.26565169999998],[-52.43098229999999,-29.265514],[-52.42974479999999,-29.2645927],[-52.429265199999975,-29.263871399999974],[-52.429163,-29.26179829999996],[-52.42937869999998,-29.261422],[-52.42677889999993,-29.260308799999958],[-52.425763,-29.25858169999998],[-52.42613179999995,-29.258114199999973],[-52.426950499999975,-29.257788799999958],[-52.42829059999996,-29.2566571],[-52.43056089999994,-29.256789799999975],[-52.432034,-29.25645589999993],[-52.43218079999997,-29.25612549999993],[-52.431429099999946,-29.25531309999997],[-52.431377,-29.254892499999976],[-52.43211269999995,-29.254039199999962],[-52.432143399999966,-29.25272059999998],[-52.432728,-29.251972699999957],[-52.43280569999995,-29.250849899999935],[-52.43408549999998,-29.250178],[-52.43471859999994,-29.249364399999926],[-52.43432219999995,-29.248400599999965],[-52.4344354,-29.247907899999973],[-52.43604519999996,-29.246484399999932],[-52.43289809999993,-29.246518599999945],[-52.43227189999993,-29.24616849999994],[-52.43184189999994,-29.245077899999966],[-52.43252059999998,-29.244240099999946],[-52.43266889999996,-29.243700599999954],[-52.43247629999996,-29.243201399999982],[-52.431498899999944,-29.242521499999945],[-52.43124019999994,-29.239332899999965],[-52.430868499999974,-29.23857509999993],[-52.433954,-29.23747969999995],[-52.43512639999994,-29.237682],[-52.43599419999999,-29.237066599999924],[-52.436858799999975,-29.238217899999935],[-52.43767429999997,-29.238516799999957],[-52.43748919999996,-29.236892699999935],[-52.438750499999976,-29.235633],[-52.44186219999995,-29.23483639999995],[-52.443788,-29.234921699999973],[-52.44488149999995,-29.235533199999967],[-52.445508699999955,-29.23381279999995],[-52.4460744,-29.233903799999954],[-52.44654829999996,-29.233716299999962],[-52.44436479999996,-29.233048399999966],[-52.442610399999985,-29.231860699999967],[-52.44242619999995,-29.230570499999942],[-52.43943959999996,-29.229373],[-52.43892269999997,-29.225473799999964],[-52.43776759999997,-29.224183899999964],[-52.439417,-29.22238919999996],[-52.438935,-29.221003499999938],[-52.439490599999935,-29.21882159999996],[-52.437213,-29.21654629999995],[-52.436406,-29.214011199999963],[-52.432951699999926,-29.216013899999936],[-52.43036669999998,-29.22001109999996],[-52.4256046,-29.22376809999997],[-52.42166579999997,-29.222982899999987],[-52.416267199999936,-29.22442189999998],[-52.41362319999996,-29.225919499999968],[-52.41181039999998,-29.22801049999998]]]}},{"type":"Feature","properties":{"setor":"430245105000005","pop":602,"sigilo_pop":false,"dom":303,"sigilo_dom":false,"mulheres":282,"sigilo_mulheres":false,"c0_4":27,"sigilo_c0_4":false,"c5_9":27,"sigilo_c5_9":false,"i60_69":64,"sigilo_i60_69":false,"i70m":63,"sigilo_i70m":false,"indigenas":0,"sigilo_indigenas":false,"pretos_pardos":128,"sigilo_pretos_pardos":false,"dom_ocupados":229,"sigilo_dom_ocupados":false,"dom_agua":104,"sigilo_dom_agua":false,"dom_esgoto":0,"sigilo_dom_esgoto":false,"renda_resp":2128.19,"sigilo_renda_resp":false,"n_resp":229,"sigilo_n_resp":false,"dens":25.5,"sigilo_dens":false,"na_bacia":1,"area_pct_bacia":96.2025,"metodo_recorte_bacia":"ponto_representativo_setor_2022; area_pct_geometrica"},"geometry":{"type":"Polygon","coordinates":[[[-52.32960489999993,-29.27727439999995],[-52.33066349999995,-29.277934399999936],[-52.33148239999998,-29.27889979999998],[-52.33226049999996,-29.279210399999958],[-52.333423299999936,-29.279261799999965],[-52.33443259999995,-29.278287299999928],[-52.33500389999995,-29.278297399999914],[-52.33518039999995,-29.278954899999977],[-52.334955499999985,-29.2802],[-52.335807,-29.28135029999993],[-52.336642899999966,-29.28149219999994],[-52.338017399999956,-29.280753099999963],[-52.33865569999995,-29.280709699999935],[-52.33812759999995,-29.282914399999985],[-52.33588019999996,-29.284876799999935],[-52.33569929999994,-29.285293299999978],[-52.33581309999993,-29.285917099999946],[-52.337071399999964,-29.286884],[-52.33744139999993,-29.287897899999958],[-52.33921249999997,-29.287457699999933],[-52.33974129999996,-29.287037599999955],[-52.33925329999994,-29.285830399999956],[-52.339463,-29.285600599999952],[-52.34396949999996,-29.285979199999925],[-52.34464769999994,-29.285553899999965],[-52.34507279999996,-29.285536],[-52.34520149999998,-29.28617319999995],[-52.34482,-29.2871537],[-52.344257699999964,-29.287632099999946],[-52.344035799999965,-29.288405799999964],[-52.34317579999998,-29.28865119999995],[-52.343003899999985,-29.289413],[-52.343713399999956,-29.290382699999945],[-52.344090699999974,-29.290449699999964],[-52.34531529999999,-29.28994609999995],[-52.34589379999995,-29.290087199999967],[-52.34622319999994,-29.291364299999945],[-52.34670269999999,-29.291659],[-52.34714269999995,-29.29096189999995],[-52.34831669999995,-29.290388599999968],[-52.349635199999966,-29.29036139999994],[-52.35106249999996,-29.29068219999992],[-52.35221429999996,-29.292045],[-52.35372159999997,-29.29164449999996],[-52.35532109999997,-29.29211289999995],[-52.360446499999966,-29.29056689999993],[-52.36329209999997,-29.291271799999947],[-52.36478739999996,-29.291956],[-52.36593759999993,-29.292897099999937],[-52.368753499999976,-29.29382489999994],[-52.37048809999994,-29.293279399999953],[-52.37220419999994,-29.292339],[-52.37459209999997,-29.292223],[-52.37641159999998,-29.291400599999978],[-52.377571399999965,-29.291255699999958],[-52.37923669999998,-29.292011499999937],[-52.38098779999996,-29.29211479999998],[-52.382289799999974,-29.292566199999953],[-52.383167499999956,-29.293470299999964],[-52.38615569999996,-29.29370819999998],[-52.38710709999999,-29.295370799999954],[-52.38914519999997,-29.29671309999997],[-52.39177629999994,-29.297153899999948],[-52.393323,-29.297859799999962],[-52.39424489999993,-29.297042699999963],[-52.39564619999993,-29.29663049999995],[-52.39664989999995,-29.297180499999982],[-52.39752,-29.298119799999935],[-52.402998399999944,-29.29868509999994],[-52.405240899999974,-29.29927089999996],[-52.40648549999997,-29.300282799999938],[-52.408885,-29.300175799999977],[-52.409492099999966,-29.300344799999948],[-52.41003909999995,-29.300805499999974],[-52.412196,-29.30142429999994],[-52.414365799999985,-29.30118869999995],[-52.41505,-29.300875],[-52.41673409999998,-29.29976749999998],[-52.41755029999996,-29.298615199999976],[-52.41807269999998,-29.29844059999993],[-52.42209449999996,-29.299490199999962],[-52.42288029999998,-29.298603099999973],[-52.424868499999945,-29.298573],[-52.42632859999998,-29.299641399999917],[-52.427820299999944,-29.297967299999975],[-52.42790619999994,-29.29570559999996],[-52.42936579999997,-29.295690099999945],[-52.429166,-29.294475099999936],[-52.42860379999997,-29.294114199999974],[-52.42840539999998,-29.293633199999924],[-52.42837869999994,-29.292544],[-52.42724789999995,-29.291544399999967],[-52.42693849999995,-29.29010529999993],[-52.425869399999954,-29.28855969999994],[-52.42589879999997,-29.287743299999942],[-52.42684509999997,-29.287103799999958],[-52.426987699999984,-29.286751799999934],[-52.425372299999935,-29.285096299999964],[-52.42417549999993,-29.284533699999944],[-52.42358739999997,-29.28392369999995],[-52.42411159999995,-29.280714399999958],[-52.42285469999996,-29.27946249999995],[-52.42114589999994,-29.27864149999994],[-52.41959379999998,-29.277083499999947],[-52.41875059999995,-29.27690869999998],[-52.41764819999997,-29.27716189999995],[-52.41691829999997,-29.27805009999997],[-52.416318,-29.27822709999997],[-52.415242,-29.277864399999935],[-52.41354419999993,-29.277702],[-52.41147349999994,-29.276054099999964],[-52.409632199999976,-29.275963],[-52.40673229999992,-29.276275099999953],[-52.40538569999995,-29.277026099999947],[-52.40249209999996,-29.27591639999998],[-52.40132569999997,-29.27602859999996],[-52.399791199999974,-29.275536599999967],[-52.397790199999974,-29.276195599999944],[-52.396602899999955,-29.275831099999955],[-52.395050599999934,-29.275858599999925],[-52.39401749999997,-29.275582899999957],[-52.39256089999998,-29.275875599999946],[-52.38945749999993,-29.27587489999997],[-52.38760639999998,-29.275613499999963],[-52.38642559999994,-29.275923899999945],[-52.38509259999995,-29.276999],[-52.38293089999996,-29.275222],[-52.38066349999997,-29.27472649999993],[-52.379812,-29.27367059999995],[-52.378482799999965,-29.27271079999997],[-52.37826029999997,-29.271917],[-52.38029849999998,-29.27070789999993],[-52.38055079999998,-29.27021419999995],[-52.37981569999994,-29.2681133],[-52.37915849999997,-29.26715649999994],[-52.3803784,-29.263821599999975],[-52.37946249999993,-29.259166699999977],[-52.381425,-29.25763659999995],[-52.378877899999964,-29.25929879999996],[-52.37681869999995,-29.261334],[-52.37417819999996,-29.262121799999935],[-52.373179,-29.26134479999996],[-52.37148469999994,-29.262939699999933],[-52.36890939999995,-29.26123859999996],[-52.36591569999995,-29.262301599999944],[-52.35509639999999,-29.26181359999998],[-52.35372389999997,-29.262575099999943],[-52.35336489999998,-29.26442879999995],[-52.35112819999995,-29.263700399999934],[-52.34793209999998,-29.26677289999997],[-52.34620969999997,-29.26758949999992],[-52.34438409999996,-29.267914199999947],[-52.34536219999996,-29.269926099999957],[-52.34344539999995,-29.269454899999978],[-52.342053,-29.270036599999976],[-52.34153189999996,-29.26974239999998],[-52.34155439999995,-29.268095599999974],[-52.34113279999997,-29.26807329999997],[-52.33709039999997,-29.269869399999937],[-52.334929399999965,-29.271263199999975],[-52.33349389999995,-29.273353299999943],[-52.33151739999994,-29.273518],[-52.330375099999976,-29.274400299999968],[-52.329753,-29.275258499999957],[-52.32998889999993,-29.27663429999996],[-52.32960489999993,-29.27727439999995]]]}},{"type":"Feature","properties":{"setor":"430245105000006","pop":602,"sigilo_pop":false,"dom":292,"sigilo_dom":false,"mulheres":292,"sigilo_mulheres":false,"c0_4":40,"sigilo_c0_4":false,"c5_9":27,"sigilo_c5_9":false,"i60_69":75,"sigilo_i60_69":false,"i70m":44,"sigilo_i70m":false,"indigenas":0,"sigilo_indigenas":false,"pretos_pardos":162,"sigilo_pretos_pardos":false,"dom_ocupados":223,"sigilo_dom_ocupados":false,"dom_agua":98,"sigilo_dom_agua":false,"dom_esgoto":0,"sigilo_dom_esgoto":false,"renda_resp":2412.68,"sigilo_renda_resp":false,"n_resp":223,"sigilo_n_resp":false,"dens":23.7,"sigilo_dens":false,"na_bacia":1,"area_pct_bacia":96.8677,"metodo_recorte_bacia":"ponto_representativo_setor_2022; area_pct_geometrica"},"geometry":{"type":"Polygon","coordinates":[[[-52.35221429999996,-29.292045],[-52.351350299999986,-29.292696399999937],[-52.35152139999997,-29.29321359999996],[-52.35366389999996,-29.29589679999998],[-52.35425719999995,-29.296253499999974],[-52.35434479999998,-29.296738799999957],[-52.35597809999995,-29.298388],[-52.35603659999998,-29.29930429999996],[-52.35670619999996,-29.301139799999923],[-52.35750279999996,-29.30273379999994],[-52.35897209999996,-29.304392099999983],[-52.35922069999998,-29.305073],[-52.359319899999946,-29.305809899999932],[-52.35888349999994,-29.30670759999999],[-52.35919709999997,-29.307544599999968],[-52.358124,-29.307523199999938],[-52.35740029999994,-29.308175899999974],[-52.355961899999954,-29.30877949999996],[-52.35535079999994,-29.309710899999974],[-52.355806099999946,-29.311171299999952],[-52.35638179999995,-29.311776399999918],[-52.357513799999936,-29.312149799999922],[-52.358974799999935,-29.311257],[-52.359594,-29.312132199999954],[-52.35892749999994,-29.313647799999952],[-52.359399199999984,-29.315187599999945],[-52.35917559999995,-29.316791],[-52.35881339999998,-29.317475499999944],[-52.358324,-29.317816199999974],[-52.35921529999997,-29.31851729999994],[-52.35989049999995,-29.32045049999994],[-52.360313599999984,-29.320968599999947],[-52.36167289999997,-29.320791599999943],[-52.36325439999996,-29.321357799999923],[-52.366727,-29.321530699999975],[-52.36715409999994,-29.321697499999978],[-52.36818519999998,-29.322920199999942],[-52.36848419999995,-29.323729199999946],[-52.368567599999956,-29.326429099999924],[-52.37070229999995,-29.329703899999977],[-52.37039739999994,-29.330211299999977],[-52.370272299999954,-29.332141399999948],[-52.36939389999997,-29.33411949999993],[-52.37039859999993,-29.335913299999948],[-52.370139,-29.33810679999993],[-52.370768799999944,-29.33901329999998],[-52.370659599999954,-29.341014399999935],[-52.371118399999936,-29.341743],[-52.37111909999993,-29.342312499999927],[-52.37172549999997,-29.343171799999933],[-52.373933099999924,-29.344467],[-52.37443019999995,-29.34618],[-52.374033,-29.347187899999927],[-52.37424419999996,-29.347698299999944],[-52.375316699999985,-29.348446699999954],[-52.379466399999956,-29.349789399999953],[-52.380901499999936,-29.351068099999978],[-52.38314779999997,-29.35105129999993],[-52.3837377,-29.351389799999936],[-52.38452,-29.35035779999997],[-52.386274,-29.35012279999995],[-52.388262399999974,-29.34648449999996],[-52.39133659999994,-29.34421679999997],[-52.39189479999993,-29.34229229999994],[-52.393549,-29.340106899999967],[-52.39417039999995,-29.338218299999937],[-52.396372,-29.33590649999996],[-52.39703429999997,-29.33486169999997],[-52.39880849999997,-29.33400009999997],[-52.39951689999998,-29.33316009999993],[-52.40006759999995,-29.331825],[-52.400102199999935,-29.330452399999952],[-52.401193199999966,-29.32856259999993],[-52.402695599999966,-29.32722709999997],[-52.40253889999997,-29.32619119999996],[-52.403617599999954,-29.326092],[-52.404693399999985,-29.326848899999966],[-52.40534219999996,-29.32668049999995],[-52.405846,-29.326111499999968],[-52.406427,-29.323658599999924],[-52.40679,-29.323145599999975],[-52.40932679999998,-29.321417],[-52.41168859999994,-29.320241899999925],[-52.41278839999996,-29.318592],[-52.414407099999956,-29.318444799999963],[-52.41500859999997,-29.3172977],[-52.4156531,-29.316788299999935],[-52.41821619999996,-29.316824599999958],[-52.42001689999996,-29.316224],[-52.42037589999996,-29.315254],[-52.42117029999997,-29.314652899999942],[-52.421084699999945,-29.314307199999966],[-52.41805719999997,-29.31337589999997],[-52.419674,-29.30998339999997],[-52.423377699999946,-29.309232599999973],[-52.42495909999996,-29.307170499999984],[-52.42348519999996,-29.305903199999925],[-52.423635099999956,-29.302244899999945],[-52.422032,-29.300284499999965],[-52.42209449999996,-29.299490199999962],[-52.418587299999956,-29.298464399999943],[-52.41755029999996,-29.298615199999976],[-52.41673409999998,-29.29976749999998],[-52.41471849999994,-29.30103709999996],[-52.412196,-29.30142429999994],[-52.41003909999995,-29.300805499999974],[-52.409492099999966,-29.300344799999948],[-52.408885,-29.300175799999977],[-52.40648549999997,-29.300282799999938],[-52.405240899999974,-29.29927089999996],[-52.402998399999944,-29.29868509999994],[-52.39752,-29.298119799999935],[-52.39664989999995,-29.297180499999982],[-52.39564619999993,-29.29663049999995],[-52.39424489999993,-29.297042699999963],[-52.393323,-29.297859799999962],[-52.39177629999994,-29.297153899999948],[-52.38914519999997,-29.29671309999997],[-52.38710709999999,-29.295370799999954],[-52.38615569999996,-29.29370819999998],[-52.383167499999956,-29.293470299999964],[-52.382289799999974,-29.292566199999953],[-52.38098779999996,-29.29211479999998],[-52.37923669999998,-29.292011499999937],[-52.377571399999965,-29.291255699999958],[-52.37641159999998,-29.291400599999978],[-52.37459209999997,-29.292223],[-52.37220419999994,-29.292339],[-52.37048809999994,-29.293279399999953],[-52.368753499999976,-29.29382489999994],[-52.36593759999993,-29.292897099999937],[-52.36478739999996,-29.291956],[-52.36329209999997,-29.291271799999947],[-52.360446499999966,-29.29056689999993],[-52.35551189999996,-29.292098],[-52.35372159999997,-29.29164449999996],[-52.35221429999996,-29.292045]]]}},{"type":"Feature","properties":{"setor":"430245105000007","pop":303,"sigilo_pop":false,"dom":174,"sigilo_dom":false,"mulheres":144,"sigilo_mulheres":false,"c0_4":12,"sigilo_c0_4":false,"c5_9":19,"sigilo_c5_9":false,"i60_69":38,"sigilo_i60_69":false,"i70m":27,"sigilo_i70m":false,"indigenas":0,"sigilo_indigenas":false,"pretos_pardos":null,"sigilo_pretos_pardos":true,"dom_ocupados":123,"sigilo_dom_ocupados":false,"dom_agua":82,"sigilo_dom_agua":false,"dom_esgoto":null,"sigilo_dom_esgoto":true,"renda_resp":2562.02,"sigilo_renda_resp":false,"n_resp":123,"sigilo_n_resp":false,"dens":16.1,"sigilo_dens":false,"na_bacia":1,"area_pct_bacia":99.9985,"metodo_recorte_bacia":"ponto_representativo_setor_2022; area_pct_geometrica"},"geometry":{"type":"Polygon","coordinates":[[[-52.32300439999995,-29.280024499999975],[-52.324297299999955,-29.28158539999998],[-52.32369539999996,-29.28226779999995],[-52.321564299999984,-29.282495499999975],[-52.32231079999997,-29.282644099999974],[-52.32232159999995,-29.284037499999943],[-52.323347199999944,-29.286055099999956],[-52.32426229999999,-29.28692779999994],[-52.324386,-29.287815699999957],[-52.323973699999954,-29.28886059999996],[-52.32453429999998,-29.28932179999998],[-52.32447559999997,-29.29062119999998],[-52.32658459999993,-29.29209369999995],[-52.327245,-29.292931699999937],[-52.32708329999997,-29.293655199999936],[-52.328736,-29.294218299999958],[-52.32883819999995,-29.294935099999968],[-52.32993179999993,-29.29615029999997],[-52.330041699999974,-29.297823799999932],[-52.33041959999998,-29.299149299999947],[-52.33145929999995,-29.30007779999994],[-52.330245,-29.302481],[-52.330158,-29.303518499999946],[-52.33081259999995,-29.303587799999928],[-52.33118729999996,-29.30397539999995],[-52.331124699999975,-29.30516159999997],[-52.33216329999993,-29.30824919999997],[-52.33337719999997,-29.30876939999996],[-52.33466179999994,-29.310706099999948],[-52.33488669999997,-29.311631799999933],[-52.335407,-29.311841099999977],[-52.33512349999995,-29.314938399999964],[-52.33537609999997,-29.31577339999995],[-52.33645949999993,-29.317370099999955],[-52.33662579999998,-29.31877929999995],[-52.33574849999996,-29.32007109999995],[-52.33623459999996,-29.320955099999935],[-52.33687939999999,-29.32081679999992],[-52.33800979999995,-29.319922],[-52.33906449999996,-29.32007979999998],[-52.339952,-29.32127689999992],[-52.33885819999995,-29.323405799999932],[-52.339484,-29.32416039999998],[-52.34027219999995,-29.326733899999965],[-52.341713299999974,-29.32750389999995],[-52.341291499999954,-29.327982699999954],[-52.34045469999995,-29.32799679999993],[-52.33995309999994,-29.328560099999947],[-52.339126299999975,-29.32889929999992],[-52.33812309999996,-29.32871989999995],[-52.33553969999997,-29.329498499999957],[-52.334248499999944,-29.329548699999968],[-52.33507119999995,-29.33040509999996],[-52.33774229999994,-29.33041109999993],[-52.33849939999993,-29.33071089999992],[-52.33933539999998,-29.330520699999976],[-52.34163669999998,-29.331752499999947],[-52.34293,-29.33349389999995],[-52.34413669999998,-29.337098699999956],[-52.345460599999974,-29.338807899999953],[-52.3460894,-29.33871429999993],[-52.346744099999974,-29.33906139999994],[-52.348461,-29.34290419999997],[-52.349950399999955,-29.34411169999994],[-52.35059689999997,-29.344287899999987],[-52.35245229999998,-29.344263899999923],[-52.35582389999997,-29.345383199999958],[-52.3571381,-29.345088499999974],[-52.35827779999994,-29.34545449999996],[-52.36136129999995,-29.345209799999964],[-52.36372329999995,-29.345476399999935],[-52.365363599999974,-29.345094399999937],[-52.365095899999965,-29.345985599999945],[-52.365346699999975,-29.347068799999942],[-52.36604959999994,-29.34750189999994],[-52.36610149999996,-29.348879],[-52.36635519999999,-29.349470699999983],[-52.366267499999935,-29.350734899999964],[-52.36681539999996,-29.35102829999993],[-52.368837499999984,-29.350902599999984],[-52.36976279999994,-29.351443],[-52.37029289999998,-29.35197619999997],[-52.370523,-29.35376879999996],[-52.37118859999999,-29.354003099999936],[-52.37139629999996,-29.354357299999943],[-52.37223509999996,-29.35879519999997],[-52.371913,-29.36197289999995],[-52.371491599999956,-29.362517399999945],[-52.372173,-29.363190699999965],[-52.373890899999935,-29.363802],[-52.37441019999995,-29.36333569999994],[-52.37720459999997,-29.35807319999998],[-52.380280899999946,-29.354833599999964],[-52.3822775,-29.354336399999962],[-52.384245,-29.352683499999948],[-52.38373549999994,-29.352955799999968],[-52.383189,-29.352420499999926],[-52.3837377,-29.351389799999936],[-52.383559399999974,-29.351251799999936],[-52.38314779999997,-29.35105129999993],[-52.380901499999936,-29.351068099999978],[-52.379466399999956,-29.349789399999953],[-52.375316699999985,-29.348446699999954],[-52.37424419999996,-29.347698299999944],[-52.374033,-29.347187899999927],[-52.37443019999995,-29.34618],[-52.373933099999924,-29.344467],[-52.37172549999997,-29.343171799999933],[-52.37111909999993,-29.342312499999927],[-52.371118399999936,-29.341743],[-52.370659599999954,-29.341014399999935],[-52.370768799999944,-29.33901329999998],[-52.370139,-29.33810679999993],[-52.37039859999993,-29.335913299999948],[-52.36939389999997,-29.33411949999993],[-52.370272299999954,-29.332141399999948],[-52.37039739999994,-29.330211299999977],[-52.37070229999995,-29.329703899999977],[-52.368567599999956,-29.326429099999924],[-52.368431,-29.323437599999984],[-52.36715409999994,-29.321697499999978],[-52.366727,-29.321530699999975],[-52.36325439999996,-29.321357799999923],[-52.36167289999997,-29.320791599999943],[-52.360313599999984,-29.320968599999947],[-52.35989049999995,-29.32045049999994],[-52.35921529999997,-29.31851729999994],[-52.358324,-29.317816199999974],[-52.35881339999998,-29.317475499999944],[-52.35917559999995,-29.316791],[-52.359399199999984,-29.315187599999945],[-52.35892749999994,-29.313647799999952],[-52.359594,-29.312132199999954],[-52.358974799999935,-29.311257],[-52.357513799999936,-29.312149799999922],[-52.35638179999995,-29.311776399999918],[-52.355806099999946,-29.311171299999952],[-52.35535079999994,-29.309710899999974],[-52.355961899999954,-29.30877949999996],[-52.35740029999994,-29.308175899999974],[-52.358124,-29.307523199999938],[-52.35919709999997,-29.307544599999968],[-52.35888349999994,-29.30670759999999],[-52.359319899999946,-29.305809899999932],[-52.35922069999998,-29.305073],[-52.35897209999996,-29.304392099999983],[-52.35750279999996,-29.30273379999994],[-52.35670619999996,-29.301139799999923],[-52.35603659999998,-29.29930429999996],[-52.35597809999995,-29.298388],[-52.35434479999998,-29.296738799999957],[-52.35425719999995,-29.296253499999974],[-52.35366389999996,-29.29589679999998],[-52.35152139999997,-29.29321359999996],[-52.351350299999986,-29.292696399999937],[-52.35221429999996,-29.292045],[-52.35135679999996,-29.29094819999994],[-52.350601,-29.29048839999996],[-52.34797179999998,-29.290459799999937],[-52.34714269999995,-29.29096189999995],[-52.34670269999999,-29.291659],[-52.34622319999994,-29.291364299999945],[-52.346038399999934,-29.290298899999975],[-52.345653699999964,-29.28994879999994],[-52.34495,-29.29000269999996],[-52.344090699999974,-29.290449699999964],[-52.34353219999997,-29.290241699999967],[-52.343003899999985,-29.289413],[-52.34304219999995,-29.28881959999995],[-52.34337309999996,-29.28849939999997],[-52.344035799999965,-29.288405799999964],[-52.344257699999964,-29.287632099999946],[-52.34482,-29.2871537],[-52.34520149999998,-29.28617319999995],[-52.34507279999996,-29.285536],[-52.34464769999994,-29.285553899999965],[-52.34396949999996,-29.285979199999925],[-52.339463,-29.285600599999952],[-52.33925329999994,-29.285830399999956],[-52.33974129999996,-29.287037599999955],[-52.33951269999994,-29.287281299999965],[-52.338316299999974,-29.287736399999975],[-52.337265499999944,-29.287796399999927],[-52.337172,-29.287043099999945],[-52.33581309999993,-29.285917099999946],[-52.33569929999994,-29.285293299999978],[-52.33588019999996,-29.284876799999935],[-52.33812759999995,-29.282914399999985],[-52.33865569999995,-29.280709699999935],[-52.338017399999956,-29.280753099999963],[-52.336642899999966,-29.28149219999994],[-52.335807,-29.28135029999993],[-52.334955499999985,-29.2802],[-52.33518039999995,-29.278954899999977],[-52.33500389999995,-29.278297399999914],[-52.33443259999995,-29.278287299999928],[-52.333423299999936,-29.279261799999965],[-52.332982799999975,-29.279288399999928],[-52.33148239999998,-29.27889979999998],[-52.33066349999995,-29.277934399999936],[-52.32960489999993,-29.27727439999995],[-52.32662329999993,-29.27766379999997],[-52.324140499999935,-29.277252899999958],[-52.322979499999974,-29.27770019999996],[-52.322816699999976,-29.27859829999994],[-52.32300439999995,-29.280024499999975]]]}},{"type":"Feature","properties":{"setor":"430245105000008","pop":231,"sigilo_pop":false,"dom":117,"sigilo_dom":false,"mulheres":119,"sigilo_mulheres":false,"c0_4":12,"sigilo_c0_4":false,"c5_9":6,"sigilo_c5_9":false,"i60_69":35,"sigilo_i60_69":false,"i70m":31,"sigilo_i70m":false,"indigenas":0,"sigilo_indigenas":false,"pretos_pardos":null,"sigilo_pretos_pardos":true,"dom_ocupados":93,"sigilo_dom_ocupados":false,"dom_agua":58,"sigilo_dom_agua":false,"dom_esgoto":0,"sigilo_dom_esgoto":false,"renda_resp":2052.3,"sigilo_renda_resp":false,"n_resp":93,"sigilo_n_resp":false,"dens":12.7,"sigilo_dens":false,"na_bacia":1,"area_pct_bacia":100.0,"metodo_recorte_bacia":"ponto_representativo_setor_2022; area_pct_geometrica"},"geometry":{"type":"Polygon","coordinates":[[[-52.28954659999994,-29.288166799999956],[-52.290499799999964,-29.288346399999977],[-52.29183639999997,-29.289313199999974],[-52.29306989999998,-29.28976219999998],[-52.29444059999998,-29.28959959999997],[-52.295456899999984,-29.289005499999963],[-52.29619119999995,-29.290462599999966],[-52.296671,-29.29084239999996],[-52.298177599999974,-29.291060499999947],[-52.29878649999995,-29.291768899999965],[-52.300125299999934,-29.292405499999973],[-52.301121499999965,-29.292225299999977],[-52.30137929999996,-29.292836099999924],[-52.30188669999996,-29.292968899999952],[-52.30321209999994,-29.29272889999992],[-52.30377739999994,-29.293578799999967],[-52.30453159999996,-29.293423299999965],[-52.30492659999994,-29.293605699999937],[-52.30532229999995,-29.29385559999997],[-52.30554019999994,-29.295149799999926],[-52.307936299999945,-29.297394199999935],[-52.30816549999997,-29.29813409999997],[-52.30801329999997,-29.298435899999955],[-52.30723349999994,-29.29853339999995],[-52.30674259999995,-29.298949699999973],[-52.307479,-29.30007969999996],[-52.307514899999944,-29.30070349999994],[-52.30600139999996,-29.301391699999954],[-52.30439759999995,-29.303763299999957],[-52.30417369999998,-29.30546449999997],[-52.30322509999996,-29.30666929999996],[-52.30254869999993,-29.30980119999999],[-52.30266039999997,-29.311176199999966],[-52.30322649999994,-29.312973],[-52.30551909999998,-29.313933399999947],[-52.30569329999997,-29.314383799999977],[-52.30578919999993,-29.316272899999937],[-52.30627,-29.317062399999934],[-52.30546749999997,-29.320203699999976],[-52.30442969999996,-29.32117],[-52.302538,-29.321411399999935],[-52.30118249999998,-29.32216439999995],[-52.300289,-29.323168],[-52.300060199999955,-29.324051099999956],[-52.298979,-29.324860699999924],[-52.29874749999993,-29.32577409999993],[-52.30021629999994,-29.326715499999985],[-52.30150249999997,-29.32667839999993],[-52.30257679999995,-29.32648309999996],[-52.30463409999993,-29.325582199999925],[-52.30517579999997,-29.324964299999973],[-52.305789199999936,-29.324763899999937],[-52.30808739999997,-29.324905199999925],[-52.30876259999996,-29.32526139999993],[-52.310069399999975,-29.32657879999994],[-52.31056229999996,-29.327687099999945],[-52.310468399999934,-29.329356499999957],[-52.310634,-29.329655],[-52.30926769999997,-29.329801899999946],[-52.30726029999994,-29.32885359999994],[-52.30610489999999,-29.328871199999984],[-52.30502769999998,-29.329273299999958],[-52.3028255,-29.328686499999954],[-52.30261929999995,-29.338328099999952],[-52.306716599999966,-29.33730009999994],[-52.30741239999997,-29.33753969999998],[-52.30905429999996,-29.337351299999966],[-52.31030789999994,-29.338178899999946],[-52.310756699999956,-29.33742839999996],[-52.31150679999996,-29.337050599999937],[-52.31152879999996,-29.337596],[-52.31206119999996,-29.33824869999996],[-52.31375659999998,-29.339223799999964],[-52.31413789999994,-29.339847899999942],[-52.31546879999997,-29.340387],[-52.316403499999986,-29.340174499999932],[-52.3169501,-29.34097979999995],[-52.31747919999998,-29.34064079999997],[-52.31778789999998,-29.33979289999996],[-52.31775939999994,-29.339380099999957],[-52.31723009999996,-29.33869289999995],[-52.31801889999997,-29.33857],[-52.31887259999996,-29.337467399999984],[-52.320776499999965,-29.33713969999996],[-52.321428899999944,-29.336527299999933],[-52.321581,-29.33561179999997],[-52.32192369999996,-29.335422099999963],[-52.322556,-29.335543699999953],[-52.32351049999994,-29.336225299999953],[-52.32499369999994,-29.336183899999984],[-52.32548389999994,-29.33646289999997],[-52.32634139999993,-29.33771749999994],[-52.327370899999956,-29.337070299999947],[-52.327799399999954,-29.337241799999973],[-52.328195,-29.33704],[-52.32945319999993,-29.337009299999973],[-52.33102409999998,-29.33752179999994],[-52.33261449999998,-29.33750649999995],[-52.33476379999996,-29.337996399999955],[-52.33512,-29.337876599999962],[-52.335529399999984,-29.33703179999998],[-52.33666939999995,-29.336530899999943],[-52.338411699999945,-29.337491199999917],[-52.33956049999995,-29.33730279999998],[-52.34191189999995,-29.33605849999999],[-52.343821799999944,-29.33621309999996],[-52.34293,-29.33349389999995],[-52.34163669999998,-29.331752499999947],[-52.33933539999998,-29.330520699999976],[-52.33849939999993,-29.33071089999992],[-52.33774229999994,-29.33041109999993],[-52.33507119999995,-29.33040509999996],[-52.334248499999944,-29.329548699999968],[-52.33553969999997,-29.329498499999957],[-52.33812309999996,-29.32871989999995],[-52.339126299999975,-29.32889929999992],[-52.33995309999994,-29.328560099999947],[-52.34045469999995,-29.32799679999993],[-52.341291499999954,-29.327982699999954],[-52.341713299999974,-29.32750389999995],[-52.34027219999995,-29.326733899999965],[-52.339484,-29.32416039999998],[-52.33885819999995,-29.323405799999932],[-52.339952,-29.32127689999992],[-52.33906449999996,-29.32007979999998],[-52.33800979999995,-29.319922],[-52.33687939999999,-29.32081679999992],[-52.33623459999996,-29.320955099999935],[-52.33574849999996,-29.32007109999995],[-52.33662579999998,-29.31877929999995],[-52.33645949999993,-29.317370099999955],[-52.33537609999997,-29.31577339999995],[-52.33512349999995,-29.314938399999964],[-52.335407,-29.311841099999977],[-52.33488669999997,-29.311631799999933],[-52.33466179999994,-29.310706099999948],[-52.33337719999997,-29.30876939999996],[-52.33216329999993,-29.30824919999997],[-52.331124699999975,-29.30516159999997],[-52.33118729999996,-29.30397539999995],[-52.33081259999995,-29.303587799999928],[-52.330418,-29.303664499999975],[-52.330122299999964,-29.303397599999975],[-52.330245,-29.302481],[-52.33145409999997,-29.29991609999996],[-52.33041959999998,-29.299149299999947],[-52.330041699999974,-29.297823799999932],[-52.32993179999993,-29.29615029999997],[-52.32883819999995,-29.294935099999968],[-52.328736,-29.294218299999958],[-52.32708329999997,-29.293655199999936],[-52.327245,-29.292931699999937],[-52.32658459999993,-29.29209369999995],[-52.32447559999997,-29.29062119999998],[-52.32453429999998,-29.28932179999998],[-52.323973699999954,-29.28886059999996],[-52.324386,-29.287815699999957],[-52.32426229999999,-29.28692779999994],[-52.323347199999944,-29.286055099999956],[-52.32232159999995,-29.284037499999943],[-52.32231079999997,-29.282644099999974],[-52.321564299999984,-29.282495499999975],[-52.3205263,-29.281899699999936],[-52.31872609999994,-29.28015069999997],[-52.31791,-29.280209],[-52.31681349999997,-29.281869299999972],[-52.31541509999994,-29.286301199999972],[-52.31339669999994,-29.286306399999944],[-52.31211809999997,-29.285889799999946],[-52.310730399999954,-29.284091699999983],[-52.30986879999995,-29.281975499999927],[-52.30919989999995,-29.28153139999995],[-52.308013,-29.281299],[-52.30482189999998,-29.281397499999976],[-52.302376599999945,-29.280580799999946],[-52.30104209999996,-29.279319099999956],[-52.30032339999997,-29.279339799999942],[-52.29862989999998,-29.279806199999932],[-52.2979572,-29.28027569999995],[-52.29776519999996,-29.280935299999943],[-52.29891919999995,-29.2818511],[-52.299022,-29.282664199999942],[-52.29789469999997,-29.284294099999958],[-52.297595,-29.28567129999994],[-52.29510739999994,-29.287528299999963],[-52.29423729999996,-29.28866629999993],[-52.293502599999954,-29.288591099999945],[-52.293143,-29.2881824],[-52.29301539999995,-29.287194],[-52.292552099999966,-29.28683089999997],[-52.29165519999998,-29.286979099999947],[-52.28954659999994,-29.288166799999956]]]}},{"type":"Feature","properties":{"setor":"430245105000009","pop":471,"sigilo_pop":false,"dom":245,"sigilo_dom":false,"mulheres":228,"sigilo_mulheres":false,"c0_4":22,"sigilo_c0_4":false,"c5_9":24,"sigilo_c5_9":false,"i60_69":64,"sigilo_i60_69":false,"i70m":34,"sigilo_i70m":false,"indigenas":0,"sigilo_indigenas":false,"pretos_pardos":59,"sigilo_pretos_pardos":false,"dom_ocupados":177,"sigilo_dom_ocupados":false,"dom_agua":104,"sigilo_dom_agua":false,"dom_esgoto":0,"sigilo_dom_esgoto":false,"renda_resp":1907.96,"sigilo_renda_resp":false,"n_resp":177,"sigilo_n_resp":false,"dens":15.4,"sigilo_dens":false,"na_bacia":1,"area_pct_bacia":100.0,"metodo_recorte_bacia":"ponto_representativo_setor_2022; area_pct_geometrica"},"geometry":{"type":"Polygon","coordinates":[[[-52.30649479999994,-29.357930599999982],[-52.308939899999984,-29.359013899999983],[-52.30967389999995,-29.359729],[-52.308687,-29.360152899999953],[-52.30740139999995,-29.362418],[-52.30739079999995,-29.362832199999954],[-52.308203299999946,-29.36409069999996],[-52.30815549999994,-29.36548019999998],[-52.30730229999994,-29.366600699999932],[-52.305617199999965,-29.367280399999974],[-52.30569509999999,-29.36835839999998],[-52.305357,-29.36867339999997],[-52.302277,-29.36897609999994],[-52.30115919999998,-29.36946729999994],[-52.30183279999995,-29.37007539999997],[-52.301944299999946,-29.370505499999975],[-52.301185799999985,-29.372174899999944],[-52.30020159999998,-29.373114599999944],[-52.3002087,-29.373702199999965],[-52.301029099999944,-29.37490149999997],[-52.30179379999998,-29.375156399999984],[-52.30268149999995,-29.375877699999933],[-52.30408959999995,-29.37584489999994],[-52.305440199999964,-29.376611399999955],[-52.30606319999998,-29.377786699999938],[-52.30759259999996,-29.378924],[-52.30887769999998,-29.378503599999924],[-52.30933879999998,-29.378020399999972],[-52.31072649999993,-29.377816799999934],[-52.31374049999994,-29.379676299999964],[-52.31618059999994,-29.379577099999953],[-52.31675409999997,-29.38000729999993],[-52.317628499999955,-29.380265699999924],[-52.317403699999936,-29.381386799999973],[-52.316462899999976,-29.38265349999995],[-52.316211599999974,-29.38381819999995],[-52.31560259999997,-29.384728099999958],[-52.315563699999984,-29.385680399999963],[-52.316061299999944,-29.38655989999995],[-52.315799199999965,-29.38814579999997],[-52.31541319999996,-29.388673599999954],[-52.31431489999994,-29.389329399999944],[-52.314448,-29.391532199999975],[-52.31474059999994,-29.392152699999944],[-52.31500259999996,-29.39244649999996],[-52.31569649999995,-29.3920323],[-52.31739569999996,-29.39236859999995],[-52.31772319999994,-29.39283059999996],[-52.31745239999998,-29.393951099999974],[-52.31802,-29.394358899999926],[-52.31849969999996,-29.394298799999934],[-52.32110889999995,-29.391976499999938],[-52.32644519999997,-29.39302589999994],[-52.329458699999975,-29.39164659999994],[-52.32959519999997,-29.389976099999963],[-52.334393699999964,-29.38950119999998],[-52.335245499999985,-29.387871099999973],[-52.33709759999994,-29.387891499999967],[-52.338224399999945,-29.38677],[-52.33857729999993,-29.38420009999993],[-52.34091269999993,-29.383949599999934],[-52.3436392,-29.381120599999967],[-52.34527939999998,-29.380855],[-52.34682819999994,-29.374523299999957],[-52.34820119999995,-29.372422399999948],[-52.35010259999996,-29.37224659999997],[-52.350895299999934,-29.370098899999952],[-52.35227789999993,-29.369768699999945],[-52.35772119999996,-29.372629299999975],[-52.36593719999997,-29.371600899999976],[-52.36769429999998,-29.372327699999975],[-52.36900809999997,-29.368684399999953],[-52.371956399999924,-29.36911819999995],[-52.37324979999993,-29.3678432],[-52.37278429999998,-29.364796],[-52.373890899999935,-29.363802],[-52.372173,-29.363190699999965],[-52.371491599999956,-29.362517399999945],[-52.371913,-29.36197289999995],[-52.37223509999996,-29.35879519999997],[-52.37139629999996,-29.354357299999943],[-52.37118859999999,-29.354003099999936],[-52.370523,-29.35376879999996],[-52.37029289999998,-29.35197619999997],[-52.36976279999994,-29.351443],[-52.368837499999984,-29.350902599999984],[-52.36681539999996,-29.35102829999993],[-52.366267499999935,-29.350734899999964],[-52.36635519999999,-29.349470699999983],[-52.36610149999996,-29.348879],[-52.36604959999994,-29.34750189999994],[-52.365346699999975,-29.347068799999942],[-52.365095899999965,-29.345985599999945],[-52.365363599999974,-29.345094399999937],[-52.36372329999995,-29.345476399999935],[-52.36136129999995,-29.345209799999964],[-52.35827779999994,-29.34545449999996],[-52.3571381,-29.345088499999974],[-52.35582389999997,-29.345383199999958],[-52.35245229999998,-29.344263899999923],[-52.35016879999995,-29.344211499999968],[-52.348461,-29.34290419999997],[-52.346744099999974,-29.33906139999994],[-52.3460894,-29.33871429999993],[-52.345460599999974,-29.338807899999953],[-52.34413669999998,-29.337098699999956],[-52.343821799999944,-29.33621309999996],[-52.342060199999935,-29.336047499999957],[-52.33956049999995,-29.33730279999998],[-52.338411699999945,-29.337491199999917],[-52.337918399999985,-29.337352699999954],[-52.3372854,-29.336765699999937],[-52.33651379999998,-29.33657159999996],[-52.335529399999984,-29.33703179999998],[-52.33512,-29.337876599999962],[-52.33476379999996,-29.337996399999955],[-52.33261449999998,-29.33750649999995],[-52.33102409999998,-29.33752179999994],[-52.32945319999993,-29.337009299999973],[-52.328195,-29.33704],[-52.327799399999954,-29.337241799999973],[-52.327370899999956,-29.337070299999947],[-52.32634139999993,-29.33771749999994],[-52.32548389999994,-29.33646289999997],[-52.32499369999994,-29.336183899999984],[-52.32351049999994,-29.336225299999953],[-52.322556,-29.335543699999953],[-52.32192369999996,-29.335422099999963],[-52.321581,-29.33561179999997],[-52.321428899999944,-29.336527299999933],[-52.320776499999965,-29.33713969999996],[-52.31887259999996,-29.337467399999984],[-52.31801889999997,-29.33857],[-52.31723009999996,-29.33869289999995],[-52.31775939999994,-29.339380099999957],[-52.31778789999998,-29.33979289999996],[-52.31747919999998,-29.34064079999997],[-52.3169501,-29.34097979999995],[-52.316403499999986,-29.340174499999932],[-52.31546879999997,-29.340387],[-52.31413789999994,-29.339847899999942],[-52.31375659999998,-29.339223799999964],[-52.31206119999996,-29.33824869999996],[-52.31152879999996,-29.337596],[-52.31150679999996,-29.337050599999937],[-52.310756699999956,-29.33742839999996],[-52.31030789999994,-29.338178899999946],[-52.30905429999996,-29.337351299999966],[-52.30741239999997,-29.33753969999998],[-52.30662909999996,-29.337305699999945],[-52.30356579999995,-29.338208499999947],[-52.301946,-29.338227299999982],[-52.30150779999996,-29.338545699999933],[-52.29950179999997,-29.339091],[-52.297814099999975,-29.339077],[-52.29622209999997,-29.33942229999996],[-52.294311499999935,-29.34064529999995],[-52.291947499999935,-29.340206799999976],[-52.29017729999998,-29.34034119999996],[-52.29019639999995,-29.34088259999994],[-52.29137629999997,-29.342826299999953],[-52.29126889999998,-29.343962699999963],[-52.29192759999996,-29.34627569999997],[-52.294722,-29.348836],[-52.296058899999935,-29.34848889999995],[-52.29642469999993,-29.348631399999935],[-52.29564449999998,-29.34920559999994],[-52.29552839999997,-29.349846],[-52.29606719999998,-29.35060639999995],[-52.296593299999984,-29.350912399999977],[-52.296401,-29.350456499999947],[-52.296768799999946,-29.350051],[-52.29686239999995,-29.350485399999975],[-52.29753439999996,-29.35119069999997],[-52.29817929999996,-29.351405299999957],[-52.29948989999997,-29.353422],[-52.301026399999955,-29.357040899999955],[-52.30253449999998,-29.357191899999968],[-52.30461379999997,-29.35642959999995],[-52.30551769999993,-29.35694179999996],[-52.30649479999994,-29.357930599999982]]]}},{"type":"Feature","properties":{"setor":"430245105000010","pop":418,"sigilo_pop":false,"dom":186,"sigilo_dom":false,"mulheres":194,"sigilo_mulheres":false,"c0_4":29,"sigilo_c0_4":false,"c5_9":30,"sigilo_c5_9":false,"i60_69":61,"sigilo_i60_69":false,"i70m":20,"sigilo_i70m":false,"indigenas":0,"sigilo_indigenas":false,"pretos_pardos":106,"sigilo_pretos_pardos":false,"dom_ocupados":150,"sigilo_dom_ocupados":false,"dom_agua":58,"sigilo_dom_agua":false,"dom_esgoto":0,"sigilo_dom_esgoto":false,"renda_resp":1727.35,"sigilo_renda_resp":false,"n_resp":150,"sigilo_n_resp":false,"dens":17.9,"sigilo_dens":false,"na_bacia":0,"area_pct_bacia":0.4958,"metodo_recorte_bacia":"ponto_representativo_setor_2022; area_pct_geometrica"},"geometry":{"type":"Polygon","coordinates":[[[-52.421084699999945,-29.314307199999966],[-52.42117029999997,-29.314652899999942],[-52.42037589999996,-29.315254],[-52.42001689999996,-29.316224],[-52.41821619999996,-29.316824599999958],[-52.41544069999998,-29.316868699999926],[-52.414407099999956,-29.318444799999963],[-52.41278839999996,-29.318592],[-52.41168859999994,-29.320241899999925],[-52.40932679999998,-29.321417],[-52.40700949999996,-29.322969399999977],[-52.406427,-29.323658599999924],[-52.405984599999954,-29.32572929999997],[-52.40534219999996,-29.32668049999995],[-52.404693399999985,-29.326848899999966],[-52.403617599999954,-29.326092],[-52.40253889999997,-29.32619119999996],[-52.402695599999966,-29.32722709999997],[-52.401193199999966,-29.32856259999993],[-52.400102199999935,-29.330452399999952],[-52.40006759999995,-29.331825],[-52.39951689999998,-29.33316009999993],[-52.39880849999997,-29.33400009999997],[-52.39703429999997,-29.33486169999997],[-52.396372,-29.33590649999996],[-52.39417039999995,-29.338218299999937],[-52.393549,-29.340106899999967],[-52.39189479999993,-29.34229229999994],[-52.39133659999994,-29.34421679999997],[-52.388262399999974,-29.34648449999996],[-52.386274,-29.35012279999995],[-52.38424459999994,-29.350516199999955],[-52.38322919999997,-29.352109899999956],[-52.383189,-29.352420499999926],[-52.38354239999995,-29.352847299999947],[-52.38373549999994,-29.352955799999968],[-52.384245,-29.352683499999948],[-52.386132499999974,-29.353945599999975],[-52.39053,-29.353495399999932],[-52.39257319999995,-29.357181299999986],[-52.39426739999993,-29.358034199999956],[-52.39562379999996,-29.363557299999968],[-52.398179899999946,-29.365162899999966],[-52.40096589999996,-29.363985799999956],[-52.40131969999993,-29.366066499999928],[-52.40301549999998,-29.365377799999976],[-52.40760289999997,-29.360433699999927],[-52.41045849999995,-29.359076899999927],[-52.410551,-29.355508699999977],[-52.412475,-29.35357519999996],[-52.415377,-29.34600489999996],[-52.41836759999996,-29.34527629999996],[-52.41883919999999,-29.343875699999945],[-52.422358,-29.344951899999952],[-52.42548479999994,-29.341913899999955],[-52.42792929999997,-29.342401799999948],[-52.43062979999996,-29.34082529999995],[-52.4313,-29.341041599999976],[-52.43043249999994,-29.34234469999996],[-52.43123959999996,-29.343305799999936],[-52.43429549999997,-29.34327219999995],[-52.43828379999997,-29.345441399999974],[-52.441709499999945,-29.34561039999993],[-52.443425,-29.346367399999952],[-52.44416309999997,-29.347876899999953],[-52.44393259999998,-29.347331699999984],[-52.44623579999996,-29.346713699999945],[-52.44679949999994,-29.346142099999952],[-52.44651589999995,-29.344610599999946],[-52.44615569999997,-29.344072199999985],[-52.444396,-29.343531799999944],[-52.44388409999994,-29.343105199999957],[-52.443988299999944,-29.34157809999993],[-52.444164599999965,-29.341427],[-52.44492709999997,-29.34164139999997],[-52.445697,-29.34156069999994],[-52.44632629999995,-29.341119099999965],[-52.446249499999965,-29.34047549999997],[-52.44578919999998,-29.339863],[-52.445022,-29.339543799999944],[-52.44289969999994,-29.339947599999963],[-52.44133769999996,-29.33987939999998],[-52.44036649999998,-29.339591499999976],[-52.43880759999997,-29.337521799999934],[-52.43893029999998,-29.336840099999964],[-52.43925509999996,-29.33659029999995],[-52.43994219999996,-29.33643729999994],[-52.44058289999998,-29.336566099999978],[-52.44274279999996,-29.338058699999984],[-52.443226599999946,-29.337841299999987],[-52.44378229999995,-29.335294],[-52.44885519999997,-29.33521319999994],[-52.44982139999996,-29.336915299999927],[-52.451378599999934,-29.338740399999953],[-52.45242529999996,-29.33959709999995],[-52.45270659999995,-29.340188699999928],[-52.45453679999997,-29.339887],[-52.45498489999995,-29.339294],[-52.45523239999995,-29.339279199999964],[-52.45634719999998,-29.340016699999985],[-52.457388299999934,-29.340090099999948],[-52.457836899999954,-29.339710599999943],[-52.458698599999934,-29.33812559999995],[-52.459891099999936,-29.338081499999927],[-52.46069789999996,-29.337513899999955],[-52.462548,-29.33745639999995],[-52.46259889999993,-29.3360355],[-52.46370559999997,-29.335085099999954],[-52.464471,-29.334984399999943],[-52.4646772,-29.334435499999987],[-52.46457069999997,-29.33295279999994],[-52.46569489999996,-29.331402],[-52.46752739999994,-29.331421],[-52.468566899999985,-29.331050199999932],[-52.46873259999995,-29.330759399999973],[-52.46991459999999,-29.326556599999947],[-52.469813199999976,-29.32523789999994],[-52.47095679999995,-29.324140099999966],[-52.47128169999997,-29.32294],[-52.470847899999974,-29.32108129999994],[-52.47043039999994,-29.320633],[-52.470226,-29.318277299999963],[-52.46558489999995,-29.314685399999977],[-52.46409619999997,-29.314204399999927],[-52.461233099999966,-29.314051],[-52.46115889999999,-29.313675699999976],[-52.46159889999995,-29.313352299999956],[-52.46160139999995,-29.313091199999974],[-52.4609157,-29.31253959999998],[-52.45834359999998,-29.312615099999967],[-52.45681649999994,-29.311953399999936],[-52.45283939999996,-29.312362399999987],[-52.45134569999993,-29.312028099999953],[-52.44868129999998,-29.312375099999933],[-52.447789599999965,-29.31210779999999],[-52.447775,-29.31266949999996],[-52.447266,-29.312766399999937],[-52.44681639999994,-29.313308199999938],[-52.44603549999994,-29.313485899999932],[-52.44639269999994,-29.313822099999975],[-52.446336899999956,-29.314224699999954],[-52.445225599999965,-29.314252799999966],[-52.44470119999993,-29.313994299999937],[-52.444317799999965,-29.314393599999967],[-52.44243069999993,-29.314971099999976],[-52.44233829999996,-29.31534859999994],[-52.44278019999996,-29.315368199999966],[-52.443262,-29.31598089999994],[-52.44179169999995,-29.317776499999983],[-52.442427,-29.318133599999946],[-52.44296679999997,-29.318036599999978],[-52.44374159999995,-29.318527599999978],[-52.44379819999994,-29.319001],[-52.44366489999994,-29.319202499999953],[-52.44291019999997,-29.319161],[-52.443176,-29.319924399999934],[-52.44205239999996,-29.320474699999973],[-52.441554,-29.320968399999973],[-52.44053029999998,-29.32129919999995],[-52.44049979999995,-29.322912],[-52.4397982,-29.322585399999973],[-52.43890209999995,-29.322884499999937],[-52.43780469999995,-29.322119],[-52.43655549999994,-29.322462499999975],[-52.435625499999965,-29.32153039999998],[-52.4363,-29.320697799999948],[-52.43481919999993,-29.319511099999936],[-52.434149,-29.319751699999976],[-52.43397419999997,-29.319379499999954],[-52.432676199999946,-29.319822299999935],[-52.432278799999956,-29.31900559999996],[-52.431133399999965,-29.318969899999956],[-52.43052029999996,-29.318266499999936],[-52.430523799999946,-29.317421],[-52.42942979999998,-29.3167304],[-52.429593299999965,-29.315927499999916],[-52.427829,-29.316156599999953],[-52.42793739999997,-29.315557599999966],[-52.43006239999994,-29.31321119999996],[-52.42974919999995,-29.312772099999957],[-52.42902589999994,-29.312396899999953],[-52.429473299999984,-29.311969499999986],[-52.42870409999995,-29.311161599999938],[-52.42824379999996,-29.311046199999968],[-52.427933,-29.311240699999928],[-52.42772179999998,-29.310913699999954],[-52.42510689999994,-29.312094599999963],[-52.42352349999993,-29.313901499999908],[-52.42185329999995,-29.314392899999966],[-52.421084699999945,-29.314307199999966]]]}},{"type":"Feature","properties":{"setor":"430245105000011","pop":430,"sigilo_pop":false,"dom":234,"sigilo_dom":false,"mulheres":207,"sigilo_mulheres":false,"c0_4":20,"sigilo_c0_4":false,"c5_9":27,"sigilo_c5_9":false,"i60_69":51,"sigilo_i60_69":false,"i70m":24,"sigilo_i70m":false,"indigenas":null,"sigilo_indigenas":true,"pretos_pardos":155,"sigilo_pretos_pardos":false,"dom_ocupados":171,"sigilo_dom_ocupados":false,"dom_agua":21,"sigilo_dom_agua":false,"dom_esgoto":0,"sigilo_dom_esgoto":false,"renda_resp":2032.65,"sigilo_renda_resp":false,"n_resp":171,"sigilo_n_resp":false,"dens":14.8,"sigilo_dens":false,"na_bacia":0,"area_pct_bacia":0.0,"metodo_recorte_bacia":"ponto_representativo_setor_2022; area_pct_geometrica"},"geometry":{"type":"Polygon","coordinates":[[[-52.45681649999994,-29.311953399999936],[-52.45834359999998,-29.312615099999967],[-52.4609157,-29.31253959999998],[-52.46160139999995,-29.313091199999974],[-52.46159889999995,-29.313352299999956],[-52.46115889999999,-29.313675699999976],[-52.46142569999995,-29.314127],[-52.463506,-29.31412269999993],[-52.46558489999995,-29.314685399999977],[-52.470226,-29.318277299999963],[-52.47043039999994,-29.320633],[-52.470847899999974,-29.32108129999994],[-52.47128169999997,-29.32294],[-52.47095679999995,-29.324140099999966],[-52.469813199999976,-29.32523789999994],[-52.46991459999999,-29.326556599999947],[-52.468566899999985,-29.331050199999932],[-52.46752739999994,-29.331421],[-52.46569489999996,-29.331402],[-52.46457069999997,-29.33295279999994],[-52.4646772,-29.334435499999987],[-52.464471,-29.334984399999943],[-52.46370559999997,-29.335085099999954],[-52.46259889999993,-29.3360355],[-52.462548,-29.33745639999995],[-52.46069789999996,-29.337513899999955],[-52.459891099999936,-29.338081499999927],[-52.458698599999934,-29.33812559999995],[-52.457836899999954,-29.339710599999943],[-52.457388299999934,-29.340090099999948],[-52.45634719999998,-29.340016699999985],[-52.45523239999995,-29.339279199999964],[-52.45498489999995,-29.339294],[-52.45453679999997,-29.339887],[-52.45270659999995,-29.340188699999928],[-52.45242529999996,-29.33959709999995],[-52.451378599999934,-29.338740399999953],[-52.44982139999996,-29.336915299999927],[-52.44885519999997,-29.33521319999994],[-52.44378229999995,-29.335294],[-52.443052799999975,-29.338],[-52.44274279999996,-29.338058699999984],[-52.44083459999996,-29.336687],[-52.43994219999996,-29.33643729999994],[-52.43893029999998,-29.336840099999964],[-52.43880759999997,-29.337521799999934],[-52.44036649999998,-29.339591499999976],[-52.44133769999996,-29.33987939999998],[-52.44289969999994,-29.339947599999963],[-52.445022,-29.339543799999944],[-52.44553419999994,-29.339679],[-52.44606109999995,-29.340151299999963],[-52.44635039999997,-29.340791],[-52.446059199999986,-29.34137379999993],[-52.44530739999993,-29.341661499999923],[-52.444164599999965,-29.341427],[-52.443988299999944,-29.34157809999993],[-52.44388409999994,-29.343105199999957],[-52.444396,-29.343531799999944],[-52.44615569999997,-29.344072199999985],[-52.44651589999995,-29.344610599999946],[-52.44679949999994,-29.346142099999952],[-52.44623579999996,-29.346713699999945],[-52.44393259999998,-29.347331699999984],[-52.44435679999998,-29.348274299999957],[-52.44816279999998,-29.349861],[-52.44795719999997,-29.35085089999996],[-52.44583269999998,-29.352137699999954],[-52.44585089999998,-29.353578399999936],[-52.449801099999945,-29.354156499999927],[-52.45169619999996,-29.358037399999944],[-52.454071099999965,-29.357292799999975],[-52.45539469999995,-29.35831109999998],[-52.45619329999994,-29.362927899999924],[-52.458442,-29.364075099999972],[-52.459920899999986,-29.366139699999966],[-52.45947819999998,-29.367426299999966],[-52.45666509999996,-29.368246199999934],[-52.456474,-29.369237099999957],[-52.46226309999998,-29.37395469999995],[-52.46340949999996,-29.37279439999999],[-52.46385679999998,-29.369077899999983],[-52.464979,-29.36828709999997],[-52.464430599999964,-29.367149699999956],[-52.46686379999994,-29.366584099999955],[-52.46809669999994,-29.36535079999994],[-52.46959729999997,-29.36604539999996],[-52.470629299999985,-29.363707499999965],[-52.47032329999996,-29.361992],[-52.47147759999995,-29.36014969999995],[-52.47456219999998,-29.359396699999937],[-52.477170099999974,-29.355379099999936],[-52.47876079999998,-29.355206899999924],[-52.48045859999997,-29.35420429999993],[-52.48064409999995,-29.352944399999952],[-52.48432339999994,-29.3515882],[-52.484598699999935,-29.348016599999948],[-52.487174299999936,-29.347042699999967],[-52.48970989999998,-29.34416419999996],[-52.49601459999997,-29.345974499999947],[-52.500998799999934,-29.345347799999956],[-52.50094129999997,-29.343434799999947],[-52.502477699999986,-29.34301549999997],[-52.50894689999996,-29.34407019999997],[-52.51195379999996,-29.34209039999996],[-52.514994799999954,-29.34173369999995],[-52.517627699999935,-29.33954129999996],[-52.52259019999997,-29.33781569999997],[-52.52216949999997,-29.335360199999965],[-52.52519109999998,-29.33476039999993],[-52.52548289999998,-29.332657399999952],[-52.526832599999985,-29.332025499999936],[-52.52527789999994,-29.327799499999976],[-52.527391699999946,-29.325937499999963],[-52.528293,-29.32361569999994],[-52.531339899999985,-29.32502489999997],[-52.53254649999997,-29.327335599999973],[-52.5351237,-29.328984],[-52.535103699999986,-29.32685949999995],[-52.536315,-29.324369599999947],[-52.53520039999995,-29.322465799999968],[-52.53215229999995,-29.32257759999994],[-52.531213799999925,-29.321541599999936],[-52.531459,-29.319733899999964],[-52.53324219999996,-29.318364399999954],[-52.533573299999944,-29.317024],[-52.53072,-29.314827699999963],[-52.52912269999997,-29.312139199999926],[-52.52948159999995,-29.310078199999957],[-52.52878549999998,-29.310421699999953],[-52.52824119999997,-29.31109739999993],[-52.526523599999955,-29.311526],[-52.522184599999946,-29.310124499999972],[-52.52115219999996,-29.309321399999924],[-52.51969559999998,-29.30877689999994],[-52.519727099999955,-29.308190499999967],[-52.51909859999996,-29.307171599999947],[-52.51917309999993,-29.306154199999977],[-52.518623599999955,-29.305735599999924],[-52.51746039999995,-29.306187799999986],[-52.516224299999976,-29.3057841],[-52.51433079999998,-29.3063059],[-52.51426159999994,-29.30694549999998],[-52.51488739999997,-29.30874349999993],[-52.51407839999995,-29.309928899999928],[-52.51408289999995,-29.311149],[-52.51324869999996,-29.31171179999995],[-52.50971079999994,-29.31089059999994],[-52.50775949999996,-29.31157279999996],[-52.506694599999946,-29.311687899999967],[-52.505528,-29.31285859999996],[-52.504244,-29.31327389999995],[-52.50104559999995,-29.313420499999953],[-52.50040919999998,-29.31261259999997],[-52.499445499999986,-29.31258039999995],[-52.498877499999935,-29.312737299999974],[-52.494529099999966,-29.315467299999973],[-52.49324049999995,-29.313801799999958],[-52.49216179999996,-29.31357],[-52.49116239999996,-29.31367339999997],[-52.490225,-29.314749099999975],[-52.48919189999998,-29.31491509999995],[-52.48771259999996,-29.315908199999974],[-52.485326,-29.316689199999928],[-52.483561,-29.31696929999997],[-52.481607199999985,-29.316811099999942],[-52.47934989999993,-29.31547039999998],[-52.47828469999996,-29.312213699999973],[-52.476758099999984,-29.30987809999994],[-52.476538299999966,-29.30912059999998],[-52.47562259999995,-29.308729699999947],[-52.47524549999997,-29.308811799999955],[-52.47515989999994,-29.309508499999943],[-52.47453439999998,-29.30943439999992],[-52.474203399999965,-29.309609399999957],[-52.47195509999994,-29.312451099999986],[-52.469747199999965,-29.31331229999995],[-52.467215299999964,-29.31342309999996],[-52.46479659999994,-29.3122772],[-52.46316809999996,-29.311756099999965],[-52.460030899999936,-29.31184959999996],[-52.45913809999996,-29.312064899999957],[-52.45779239999996,-29.311715799999952],[-52.45681649999994,-29.311953399999936]]]}},{"type":"Feature","properties":{"setor":"430245105000012","pop":288,"sigilo_pop":false,"dom":151,"sigilo_dom":false,"mulheres":131,"sigilo_mulheres":false,"c0_4":18,"sigilo_c0_4":false,"c5_9":16,"sigilo_c5_9":false,"i60_69":33,"sigilo_i60_69":false,"i70m":19,"sigilo_i70m":false,"indigenas":0,"sigilo_indigenas":false,"pretos_pardos":81,"sigilo_pretos_pardos":false,"dom_ocupados":114,"sigilo_dom_ocupados":false,"dom_agua":10,"sigilo_dom_agua":false,"dom_esgoto":0,"sigilo_dom_esgoto":false,"renda_resp":1919.44,"sigilo_renda_resp":false,"n_resp":114,"sigilo_n_resp":false,"dens":6.8,"sigilo_dens":false,"na_bacia":0,"area_pct_bacia":0.0,"metodo_recorte_bacia":"ponto_representativo_setor_2022; area_pct_geometrica"},"geometry":{"type":"Polygon","coordinates":[[[-52.48114229999993,-29.245459],[-52.48106339999998,-29.24471019999993],[-52.48071719999995,-29.245044499999942],[-52.48006259999994,-29.246813199999956],[-52.48004719999995,-29.24823089999996],[-52.47703769999998,-29.25081319999998],[-52.47567809999998,-29.25129619999996],[-52.47358159999993,-29.2502062],[-52.47162739999993,-29.24992979999996],[-52.47072239999994,-29.250244299999967],[-52.46860749999996,-29.25250269999998],[-52.469089699999984,-29.252995399999975],[-52.469102099999986,-29.253584599999947],[-52.469503799999984,-29.253720599999937],[-52.46966149999997,-29.25431939999992],[-52.47003429999995,-29.25418259999997],[-52.47083,-29.254612899999984],[-52.46930629999998,-29.255683099999942],[-52.46903319999996,-29.25619709999995],[-52.46884409999996,-29.25688779999995],[-52.46950209999994,-29.25770029999995],[-52.4692429,-29.257792299999938],[-52.469190499999975,-29.25917789999995],[-52.46815779999997,-29.259001799999957],[-52.46749229999995,-29.259702299999958],[-52.467755599999975,-29.26012859999997],[-52.46737269999994,-29.260096099999945],[-52.46736629999998,-29.260429],[-52.46768339999994,-29.260671099999964],[-52.46889279999993,-29.26084109999995],[-52.46887009999995,-29.261868299999943],[-52.46969589999998,-29.261174199999974],[-52.470574,-29.261307699999975],[-52.47029909999998,-29.261919299999942],[-52.47114649999998,-29.262826699999938],[-52.474090199999985,-29.26326779999993],[-52.47501369999998,-29.26306949999997],[-52.47563439999993,-29.26368139999994],[-52.47520479999998,-29.264561899999936],[-52.47471349999995,-29.26479139999998],[-52.47438779999993,-29.26622029999993],[-52.47408249999996,-29.26651689999994],[-52.474034599999975,-29.26688119999995],[-52.4745731,-29.267877199999933],[-52.47415209999997,-29.268168599999974],[-52.47393059999996,-29.269323399999966],[-52.47297469999996,-29.26960639999992],[-52.47311089999994,-29.270492599999958],[-52.47213609999994,-29.272086699999935],[-52.47259769999994,-29.2735398],[-52.47232059999994,-29.27390059999993],[-52.472499099999936,-29.274441699999947],[-52.47201839999997,-29.27505089999994],[-52.47222789999995,-29.275425099999953],[-52.47194019999994,-29.27602449999994],[-52.47139929999997,-29.276429599999968],[-52.47230379999997,-29.277132599999955],[-52.47211869999995,-29.27858739999993],[-52.471499499999936,-29.278803299999947],[-52.471133099999975,-29.279381299999947],[-52.47161829999993,-29.280108799999937],[-52.47155189999996,-29.280435699999934],[-52.470304,-29.280747599999973],[-52.46993659999998,-29.281534],[-52.46995779999998,-29.282117599999932],[-52.469505,-29.28238209999996],[-52.471115199999986,-29.282393599999974],[-52.471677599999964,-29.28269679999994],[-52.47135519999995,-29.284742199999986],[-52.46991909999998,-29.28591279999995],[-52.46820549999996,-29.28589209999994],[-52.46824529999998,-29.286596],[-52.46749579999994,-29.288187799999957],[-52.46536409999993,-29.28845369999994],[-52.46445429999994,-29.28889569999996],[-52.464597,-29.28982919999993],[-52.466710599999935,-29.291863599999946],[-52.46686059999996,-29.29246249999994],[-52.46668919999996,-29.29363839999997],[-52.46516339999993,-29.294429599999948],[-52.465237599999966,-29.296402299999954],[-52.46483809999995,-29.296488],[-52.464301,-29.296120099999932],[-52.46343619999993,-29.296004899999954],[-52.462337,-29.29690429999993],[-52.46118989999997,-29.297506799999947],[-52.46015079999996,-29.29768369999993],[-52.459581899999925,-29.298240399999944],[-52.458815799999975,-29.298274399999965],[-52.45759629999998,-29.297249099999913],[-52.458060399999965,-29.29807349999993],[-52.45806229999993,-29.298390899999955],[-52.45774919999997,-29.298625],[-52.45751789999997,-29.29824609999998],[-52.45716279999994,-29.298165099999945],[-52.45680449999998,-29.29859039999996],[-52.45635219999997,-29.29789589999996],[-52.45611059999993,-29.29794669999995],[-52.45605,-29.298497499999932],[-52.45517849999994,-29.297690599999967],[-52.45440009999999,-29.297647599999955],[-52.45375709999996,-29.297311],[-52.45332609999997,-29.297648199999973],[-52.45227109999996,-29.297580099999962],[-52.451825,-29.296786399999977],[-52.45013959999994,-29.296488299999965],[-52.44976969999994,-29.296686099999924],[-52.44908259999995,-29.29780739999995],[-52.448110499999984,-29.298074799999934],[-52.44784949999996,-29.298464],[-52.44852359999993,-29.30023689999995],[-52.44815169999998,-29.30174129999994],[-52.44948169999998,-29.30295539999998],[-52.450147799999975,-29.305129],[-52.449992,-29.30577039999998],[-52.44789009999994,-29.307886499999935],[-52.44873759999996,-29.30960349999998],[-52.44838349999998,-29.31049479999996],[-52.44789009999994,-29.31102349999998],[-52.447789599999965,-29.31210779999999],[-52.44868129999998,-29.312375099999933],[-52.45134569999993,-29.312028099999953],[-52.45283939999996,-29.312362399999987],[-52.45529689999995,-29.31224519999995],[-52.45779239999996,-29.311715799999952],[-52.45913809999996,-29.312064899999957],[-52.460030899999936,-29.31184959999996],[-52.46316809999996,-29.311756099999965],[-52.46479659999994,-29.3122772],[-52.467215299999964,-29.31342309999996],[-52.469747199999965,-29.31331229999995],[-52.47195509999994,-29.312451099999986],[-52.474203399999965,-29.309609399999957],[-52.47453439999998,-29.30943439999992],[-52.47515989999994,-29.309508499999943],[-52.47524549999997,-29.308811799999955],[-52.47562259999995,-29.308729699999947],[-52.476538299999966,-29.30912059999998],[-52.476758099999984,-29.30987809999994],[-52.47828469999996,-29.312213699999973],[-52.47934989999993,-29.31547039999998],[-52.481607199999985,-29.316811099999942],[-52.483561,-29.31696929999997],[-52.485326,-29.316689199999928],[-52.48771259999996,-29.315908199999974],[-52.48919189999998,-29.31491509999995],[-52.490225,-29.314749099999975],[-52.49116239999996,-29.31367339999997],[-52.49216179999996,-29.31357],[-52.49324049999995,-29.313801799999958],[-52.494529099999966,-29.315467299999973],[-52.498877499999935,-29.312737299999974],[-52.499445499999986,-29.31258039999995],[-52.50040919999998,-29.31261259999997],[-52.50104559999995,-29.313420499999953],[-52.504244,-29.31327389999995],[-52.505528,-29.31285859999996],[-52.506694599999946,-29.311687899999967],[-52.50775949999996,-29.31157279999996],[-52.50971079999994,-29.31089059999994],[-52.51324869999996,-29.31171179999995],[-52.51408289999995,-29.311149],[-52.51407839999995,-29.309928899999928],[-52.51488739999997,-29.30874349999993],[-52.514243799999974,-29.306439899999916],[-52.51454319999994,-29.306168299999978],[-52.5157473,-29.306036399999982],[-52.516224299999976,-29.3057841],[-52.517276599999946,-29.30620839999995],[-52.518428599999936,-29.305745899999977],[-52.518992499999975,-29.30590559999996],[-52.51917309999993,-29.306154199999977],[-52.51909859999996,-29.307171599999947],[-52.519727099999955,-29.308190499999967],[-52.51969559999998,-29.30877689999994],[-52.52115219999996,-29.309321399999924],[-52.521958,-29.310002299999955],[-52.523037199999976,-29.31046269999995],[-52.52406389999993,-29.310596699999973],[-52.525493,-29.31131779999997],[-52.526523599999955,-29.311526],[-52.52824119999997,-29.31109739999993],[-52.52878549999998,-29.310421699999953],[-52.52948159999995,-29.310078199999957],[-52.52938949999998,-29.3108405],[-52.53009429999997,-29.307415099999965],[-52.527428199999974,-29.30496919999996],[-52.52497609999995,-29.29774569999995],[-52.52362039999996,-29.296745699999967],[-52.525400599999955,-29.294273899999954],[-52.525773399999935,-29.29204369999996],[-52.52502869999996,-29.288429099999973],[-52.52639019999998,-29.287076599999974],[-52.52453119999996,-29.284945399999962],[-52.52311689999994,-29.28474029999996],[-52.524480099999955,-29.283341899999982],[-52.52492209999996,-29.28123239999996],[-52.52626489999994,-29.280458799999966],[-52.525443399999965,-29.27517549999992],[-52.523646,-29.272921299999947],[-52.525446099999954,-29.270973799999975],[-52.5237403,-29.267363099999958],[-52.525694199999975,-29.266592599999964],[-52.52491939999994,-29.265508899999922],[-52.526061899999945,-29.264559899999934],[-52.52549279999994,-29.263129299999942],[-52.527563,-29.261990299999972],[-52.52724969999998,-29.260947699999974],[-52.52817609999994,-29.259916899999965],[-52.52675619999997,-29.257756199999964],[-52.525779299999954,-29.25778779999996],[-52.52575829999995,-29.256383099999944],[-52.524199299999964,-29.255465699999945],[-52.52394719999995,-29.25396369999993],[-52.52067279999994,-29.25235259999993],[-52.519234199999964,-29.247722699999933],[-52.517694699999936,-29.24624879999992],[-52.51505969999994,-29.246623699999933],[-52.51117709999995,-29.245120099999944],[-52.504828399999944,-29.249713799999935],[-52.50100669999995,-29.247284199999957],[-52.49905589999997,-29.24722169999997],[-52.495838599999956,-29.24392559999996],[-52.48918429999998,-29.2456132],[-52.48520629999996,-29.244677899999942],[-52.48114229999993,-29.245459]]]}}]}