{"type":"FeatureCollection","name":"4302253","crs":{"type":"name","properties":{"name":"urn:ogc:def:crs:OGC:1.3:CRS84"}},"features":[{"type":"Feature","properties":{"setor":"430225305000002","pop":290,"sigilo_pop":false,"dom":145,"sigilo_dom":false,"mulheres":141,"sigilo_mulheres":false,"c0_4":8,"sigilo_c0_4":false,"c5_9":10,"sigilo_c5_9":false,"i60_69":55,"sigilo_i60_69":false,"i70m":46,"sigilo_i70m":false,"indigenas":0,"sigilo_indigenas":false,"pretos_pardos":8,"sigilo_pretos_pardos":false,"dom_ocupados":116,"sigilo_dom_ocupados":false,"dom_agua":96,"sigilo_dom_agua":false,"dom_esgoto":0,"sigilo_dom_esgoto":false,"renda_resp":2829.98,"sigilo_renda_resp":false,"n_resp":116,"sigilo_n_resp":false,"dens":21.3,"sigilo_dens":false,"na_bacia":1,"area_pct_bacia":100.0,"metodo_recorte_bacia":"ponto_representativo_setor_2022; area_pct_geometrica"},"geometry":{"type":"Polygon","coordinates":[[[-51.68597649999998,-29.347264699999982],[-51.686563399999955,-29.348038699999957],[-51.68633409999995,-29.34836149999996],[-51.682250599999975,-29.348555699999963],[-51.681503299999974,-29.348905099999975],[-51.680524599999956,-29.350293099999934],[-51.681157799999944,-29.351603599999983],[-51.678495199999986,-29.353925599999965],[-51.67992849999996,-29.354567899999942],[-51.68113839999996,-29.355775499999936],[-51.683055,-29.35669159999997],[-51.68409349999996,-29.357465099999953],[-51.68307739999995,-29.35856119999994],[-51.68180539999997,-29.357791],[-51.675992099999974,-29.355581799999978],[-51.67482839999997,-29.353270499999947],[-51.67435759999995,-29.35276909999993],[-51.67152029999994,-29.352061399999954],[-51.67050559999996,-29.351368299999933],[-51.66938089999997,-29.351856899999966],[-51.66742689999995,-29.351707899999937],[-51.666370899999954,-29.351873699999935],[-51.66516629999995,-29.353908799999946],[-51.666107,-29.355619399999963],[-51.66552559999997,-29.357105199999978],[-51.66558659999998,-29.357606599999947],[-51.666464499999954,-29.35846169999996],[-51.667247799999984,-29.358779599999934],[-51.667118699999946,-29.359154799999946],[-51.66535689999995,-29.360097299999957],[-51.665358499999975,-29.360371299999933],[-51.665486499999986,-29.36086639999995],[-51.66694519999999,-29.361221299999954],[-51.667507399999984,-29.361722499999928],[-51.668243099999984,-29.36389309999992],[-51.66858589999998,-29.36792679999996],[-51.669314199999974,-29.368709],[-51.670285699999965,-29.368968],[-51.67279329999997,-29.370371],[-51.67321189999996,-29.370816399999953],[-51.67334679999993,-29.371665299999954],[-51.67391789999994,-29.372566699999933],[-51.67544419999996,-29.373995099999934],[-51.676555299999954,-29.374377199999973],[-51.677966,-29.374474499999963],[-51.678943699999934,-29.376128],[-51.67905519999994,-29.37727259999997],[-51.679418699999985,-29.378101799999953],[-51.679449399999946,-29.374993199999935],[-51.67988989999998,-29.374465199999964],[-51.68173429999996,-29.373865899999952],[-51.68243049999996,-29.372857299999968],[-51.68407629999996,-29.373023],[-51.68517889999998,-29.372605499999963],[-51.68616339999994,-29.372695099999927],[-51.687274299999956,-29.371912299999956],[-51.688672499999946,-29.371405599999942],[-51.72745409999993,-29.36940539999994],[-51.72885309999998,-29.346276599999957],[-51.726034399999946,-29.345873799999943],[-51.72312979999998,-29.34599639999994],[-51.72243319999996,-29.345712199999973],[-51.721894599999985,-29.34614279999993],[-51.72035519999997,-29.346539099999976],[-51.720220799999936,-29.349931299999977],[-51.719669599999975,-29.350402699999965],[-51.717487,-29.351280199999948],[-51.715756399999975,-29.35141409999994],[-51.714951,-29.351250299999943],[-51.713866,-29.350668099999947],[-51.712945,-29.350634],[-51.71057079999997,-29.350719699999967],[-51.70957159999994,-29.35138049999995],[-51.708303699999924,-29.35074469999995],[-51.70758639999997,-29.35074049999997],[-51.70737529999997,-29.350279799999942],[-51.70686879999994,-29.350061299999922],[-51.706249,-29.350630499999973],[-51.70477269999998,-29.350820499999948],[-51.704158,-29.35160439999993],[-51.703618,-29.3519],[-51.70278579999995,-29.351832799999954],[-51.700512599999975,-29.35086569999992],[-51.695888099999934,-29.350831299999978],[-51.69419039999997,-29.348848199999964],[-51.69402649999995,-29.348922499999958],[-51.69423069999993,-29.349523499999968],[-51.69408069999998,-29.349874099999976],[-51.69303,-29.34892179999997],[-51.691873199999975,-29.34873409999994],[-51.690286499999964,-29.34899739999997],[-51.689464699999974,-29.348909899999967],[-51.68757249999993,-29.348302499999942],[-51.68664279999996,-29.34751419999999],[-51.68597649999998,-29.347264699999982]]]}},{"type":"Feature","properties":{"setor":"430225305000003","pop":170,"sigilo_pop":false,"dom":96,"sigilo_dom":false,"mulheres":80,"sigilo_mulheres":false,"c0_4":null,"sigilo_c0_4":true,"c5_9":null,"sigilo_c5_9":true,"i60_69":32,"sigilo_i60_69":false,"i70m":32,"sigilo_i70m":false,"indigenas":0,"sigilo_indigenas":false,"pretos_pardos":null,"sigilo_pretos_pardos":true,"dom_ocupados":70,"sigilo_dom_ocupados":false,"dom_agua":69,"sigilo_dom_agua":false,"dom_esgoto":null,"sigilo_dom_esgoto":true,"renda_resp":2336.9,"sigilo_renda_resp":false,"n_resp":70,"sigilo_n_resp":false,"dens":14.4,"sigilo_dens":false,"na_bacia":1,"area_pct_bacia":100.0,"metodo_recorte_bacia":"ponto_representativo_setor_2022; area_pct_geometrica"},"geometry":{"type":"Polygon","coordinates":[[[-51.60932619999995,-29.370981899999947],[-51.61064269999998,-29.37135919999997],[-51.612847399999964,-29.373873799999952],[-51.61642639999997,-29.375124499999963],[-51.616766,-29.37594659999996],[-51.61680229999996,-29.377885],[-51.61604939999995,-29.381773699999925],[-51.61406849999997,-29.383785299999946],[-51.61399,-29.38821079999997],[-51.610526599999965,-29.400805199999983],[-51.6575304,-29.399303499999967],[-51.65704219999998,-29.39791479999997],[-51.65717179999996,-29.395711399999982],[-51.65578929999998,-29.39389689999996],[-51.65449319999993,-29.392730399999937],[-51.65280829999995,-29.39182319999997],[-51.65259229999998,-29.391304699999974],[-51.65280829999994,-29.389965499999963],[-51.65211709999994,-29.388583],[-51.652073899999955,-29.386898099999932],[-51.65177149999993,-29.386466],[-51.65064819999998,-29.38633639999994],[-51.64961129999995,-29.385645199999935],[-51.64965449999995,-29.383182599999934],[-51.64904969999998,-29.3805905],[-51.64814239999998,-29.378689599999966],[-51.648056,-29.37773909999993],[-51.648531299999945,-29.376270199999958],[-51.64861769999993,-29.37501729999997],[-51.649913699999956,-29.372770799999948],[-51.649615899999965,-29.37194689999996],[-51.6457501,-29.37126229999995],[-51.60932619999995,-29.370981899999947]]]}},{"type":"Feature","properties":{"setor":"430225305000004","pop":217,"sigilo_pop":false,"dom":95,"sigilo_dom":false,"mulheres":101,"sigilo_mulheres":false,"c0_4":12,"sigilo_c0_4":false,"c5_9":8,"sigilo_c5_9":false,"i60_69":21,"sigilo_i60_69":false,"i70m":42,"sigilo_i70m":false,"indigenas":0,"sigilo_indigenas":false,"pretos_pardos":35,"sigilo_pretos_pardos":false,"dom_ocupados":83,"sigilo_dom_ocupados":false,"dom_agua":70,"sigilo_dom_agua":false,"dom_esgoto":0,"sigilo_dom_esgoto":false,"renda_resp":3839.76,"sigilo_renda_resp":false,"n_resp":83,"sigilo_n_resp":false,"dens":36.7,"sigilo_dens":false,"na_bacia":1,"area_pct_bacia":100.0,"metodo_recorte_bacia":"ponto_representativo_setor_2022; area_pct_geometrica"},"geometry":{"type":"Polygon","coordinates":[[[-51.66654689999996,-29.335737799999933],[-51.667651699999965,-29.33785779999993],[-51.668451199999936,-29.3385737],[-51.668759499999965,-29.33974819999996],[-51.67090549999995,-29.341057099999947],[-51.672436699999935,-29.343691399999962],[-51.67431319999997,-29.343059299999933],[-51.676029,-29.345201199999963],[-51.677975799999956,-29.34495219999996],[-51.68055449999997,-29.350208],[-51.681503299999974,-29.348905099999975],[-51.68201829999998,-29.348593799999936],[-51.685431,-29.348501799999948],[-51.686515,-29.348258099999956],[-51.685698899999984,-29.346624399999925],[-51.68532659999995,-29.344562899999968],[-51.686979,-29.343756],[-51.68748009999996,-29.342548],[-51.68522979999994,-29.34022529999993],[-51.685504899999955,-29.340135],[-51.686200299999946,-29.340649899999953],[-51.686812,-29.340711699999915],[-51.688044,-29.340102299999952],[-51.68815269999993,-29.338849699999958],[-51.68893829999996,-29.338200199999953],[-51.68838459999995,-29.33760529999995],[-51.68831579999994,-29.337132499999942],[-51.68968239999998,-29.334145],[-51.688634,-29.334367799999935],[-51.68651729999994,-29.334291299999965],[-51.684816,-29.33148369999998],[-51.682096499999936,-29.32976709999997],[-51.6801397,-29.329109099999982],[-51.67936219999996,-29.329139099999967],[-51.67682439999999,-29.32996539999995],[-51.674431099999936,-29.330268699999976],[-51.67423489999993,-29.329759599999925],[-51.675109299999974,-29.329237599999935],[-51.675860099999966,-29.326878699999952],[-51.67490269999997,-29.324014099999943],[-51.67384009999996,-29.32347369999996],[-51.671625699999936,-29.323761399999952],[-51.67051519999996,-29.324592599999953],[-51.66942359999996,-29.324475599999968],[-51.66712769999998,-29.32219039999995],[-51.66709829999997,-29.321395399999968],[-51.666555,-29.319980899999962],[-51.66493059999994,-29.319468699999955],[-51.66374249999995,-29.318557299999952],[-51.663383599999975,-29.317983899999952],[-51.66343759999995,-29.31618739999993],[-51.66298779999994,-29.314901299999974],[-51.66231289999997,-29.31480089999997],[-51.66111329999996,-29.315156],[-51.659626899999985,-29.313512799999966],[-51.658123499999924,-29.313047],[-51.65798019999994,-29.313229],[-51.65831739999992,-29.314261199999976],[-51.65771709999996,-29.315044599999972],[-51.65499609999995,-29.315313399999972],[-51.654517799999944,-29.315105899999935],[-51.65395969999997,-29.31414969999997],[-51.65340289999994,-29.313820899999936],[-51.651805099999926,-29.31365369999998],[-51.64856949999996,-29.312681399999967],[-51.6455304,-29.31229759999996],[-51.64600629999996,-29.3133089],[-51.64725809999993,-29.31395909999998],[-51.64784639999993,-29.31482379999994],[-51.649392,-29.315949199999984],[-51.649883099999954,-29.317244299999963],[-51.65047329999993,-29.317762699999943],[-51.65116069999994,-29.317985699999944],[-51.652186399999955,-29.319591199999934],[-51.653029699999934,-29.320178599999956],[-51.653880199999946,-29.321652299999982],[-51.65370789999997,-29.322992099999965],[-51.65419719999994,-29.32446369999999],[-51.65497829999998,-29.325302699999952],[-51.65554059999994,-29.32657779999995],[-51.65637669999995,-29.32694139999994],[-51.65693569999997,-29.326119299999966],[-51.65726079999995,-29.326019],[-51.66015939999995,-29.326524899999978],[-51.66086639999998,-29.327751499999984],[-51.66223249999995,-29.328627],[-51.66262109999997,-29.33056359999995],[-51.66351629999997,-29.33218219999998],[-51.66589349999998,-29.333452599999923],[-51.666420399999936,-29.33396189999997],[-51.66654689999996,-29.335737799999933]]]}},{"type":"Feature","properties":{"setor":"430225305000005","pop":258,"sigilo_pop":false,"dom":135,"sigilo_dom":false,"mulheres":124,"sigilo_mulheres":false,"c0_4":8,"sigilo_c0_4":false,"c5_9":12,"sigilo_c5_9":false,"i60_69":42,"sigilo_i60_69":false,"i70m":50,"sigilo_i70m":false,"indigenas":0,"sigilo_indigenas":false,"pretos_pardos":9,"sigilo_pretos_pardos":false,"dom_ocupados":92,"sigilo_dom_ocupados":false,"dom_agua":69,"sigilo_dom_agua":false,"dom_esgoto":0,"sigilo_dom_esgoto":false,"renda_resp":2657.12,"sigilo_renda_resp":false,"n_resp":92,"sigilo_n_resp":false,"dens":21.7,"sigilo_dens":false,"na_bacia":1,"area_pct_bacia":100.0,"metodo_recorte_bacia":"ponto_representativo_setor_2022; area_pct_geometrica"},"geometry":{"type":"Polygon","coordinates":[[[-51.65809639999998,-29.294300699999944],[-51.655328499999946,-29.296840399999947],[-51.65495129999993,-29.297463499999942],[-51.654772099999946,-29.29841759999994],[-51.655242899999955,-29.30063609999997],[-51.65507059999993,-29.301030899999947],[-51.65332379999996,-29.302061699999964],[-51.651248099999975,-29.30203679999994],[-51.64916039999998,-29.30262409999995],[-51.647164699999955,-29.303567],[-51.646641699999975,-29.304053499999963],[-51.64633289999995,-29.304903199999966],[-51.647015299999964,-29.30614569999995],[-51.64706349999994,-29.30679549999997],[-51.64676249999996,-29.3078738],[-51.646281199999976,-29.308546199999967],[-51.64656269999995,-29.309545299999957],[-51.64731049999995,-29.31014309999994],[-51.64734329999993,-29.310965399999922],[-51.647282,-29.311451399999957],[-51.646756,-29.312047399999983],[-51.64599549999998,-29.312257399999968],[-51.650093599999934,-29.313023699999963],[-51.651805099999926,-29.31365369999998],[-51.653551499999935,-29.31387069999994],[-51.65395969999997,-29.31414969999997],[-51.654517799999944,-29.315105899999935],[-51.65499609999995,-29.315313399999972],[-51.65771709999996,-29.315044599999972],[-51.65831739999992,-29.314261199999976],[-51.65798019999994,-29.313229],[-51.658123499999924,-29.313047],[-51.659626899999985,-29.313512799999966],[-51.66111329999996,-29.315156],[-51.66231289999997,-29.31480089999997],[-51.66298779999994,-29.314901299999974],[-51.66343759999995,-29.31618739999993],[-51.663383599999975,-29.317983899999952],[-51.66374249999995,-29.318557299999952],[-51.66493059999994,-29.319468699999955],[-51.666555,-29.319980899999962],[-51.66709829999997,-29.321395399999968],[-51.66712769999998,-29.32219039999995],[-51.66942359999996,-29.324475599999968],[-51.67051519999996,-29.324592599999953],[-51.67185919999998,-29.323688699999938],[-51.674871199999984,-29.323357],[-51.676048099999946,-29.322163],[-51.677766,-29.321677699999945],[-51.679770099999985,-29.320441699999943],[-51.68009039999998,-29.319535899999952],[-51.68089929999997,-29.318362],[-51.68126149999995,-29.31698439999997],[-51.68364159999994,-29.315436899999945],[-51.68581979999993,-29.312703199999934],[-51.68669249999994,-29.31206139999995],[-51.68747549999995,-29.312115599999963],[-51.689674099999934,-29.313430799999928],[-51.690288399999986,-29.315797899999954],[-51.69078339999999,-29.31616519999994],[-51.692122599999955,-29.316087099999955],[-51.69523779999998,-29.315299099999937],[-51.695452499999924,-29.31454839999999],[-51.69521669999995,-29.313491199999927],[-51.69544179999997,-29.313055899999938],[-51.698728,-29.311613399999946],[-51.70144359999995,-29.311736099999976],[-51.70509879999997,-29.314041199999973],[-51.705762899999975,-29.31388469999995],[-51.707829799999956,-29.31242259999993],[-51.70904919999998,-29.31203769999996],[-51.708853499999975,-29.30836649999997],[-51.70624389999995,-29.307570499999933],[-51.70348049999996,-29.305044799999962],[-51.701303199999984,-29.304858599999925],[-51.69945379999996,-29.305655499999943],[-51.700926,-29.30432539999999],[-51.6989124,-29.30349269999993],[-51.69936479999996,-29.301864599999924],[-51.694903599999975,-29.29959539999992],[-51.69306249999993,-29.29553969999995],[-51.69051469999994,-29.296542799999933],[-51.68631609999994,-29.296068799999933],[-51.683899699999984,-29.29703789999997],[-51.678659699999976,-29.29476909999993],[-51.65830179999995,-29.294494699999966],[-51.65809639999998,-29.294300699999944]]]}},{"type":"Feature","properties":{"setor":"430225305000006","pop":224,"sigilo_pop":false,"dom":115,"sigilo_dom":false,"mulheres":108,"sigilo_mulheres":false,"c0_4":null,"sigilo_c0_4":true,"c5_9":14,"sigilo_c5_9":false,"i60_69":31,"sigilo_i60_69":false,"i70m":34,"sigilo_i70m":false,"indigenas":null,"sigilo_indigenas":true,"pretos_pardos":null,"sigilo_pretos_pardos":true,"dom_ocupados":87,"sigilo_dom_ocupados":false,"dom_agua":71,"sigilo_dom_agua":false,"dom_esgoto":0,"sigilo_dom_esgoto":false,"renda_resp":3025.03,"sigilo_renda_resp":false,"n_resp":87,"sigilo_n_resp":false,"dens":36.4,"sigilo_dens":false,"na_bacia":1,"area_pct_bacia":100.0,"metodo_recorte_bacia":"ponto_representativo_setor_2022; area_pct_geometrica"},"geometry":{"type":"Polygon","coordinates":[[[-51.646551,-29.35030029999995],[-51.646573899999964,-29.35104739999997],[-51.645499099999945,-29.351077499999974],[-51.6457501,-29.37126229999995],[-51.649615899999965,-29.37194689999996],[-51.651151,-29.371774599999984],[-51.65125009999998,-29.372592599999955],[-51.65087119999998,-29.373547499999972],[-51.65099759999998,-29.37433879999998],[-51.65069939999995,-29.377639099999953],[-51.65099809999998,-29.37853019999995],[-51.65236119999997,-29.379365499999945],[-51.65396829999998,-29.379395399999957],[-51.657082899999985,-29.378454499999975],[-51.65983309999996,-29.377087499999952],[-51.66038709999998,-29.376527699999933],[-51.660742599999935,-29.375371199999964],[-51.662394499999955,-29.373006099999948],[-51.66315119999996,-29.37268019999993],[-51.662973,-29.371833899999945],[-51.6637444,-29.371002199999968],[-51.665947699999954,-29.370883699999982],[-51.66743149999997,-29.37148189999994],[-51.67028659999994,-29.371442299999956],[-51.671842799999986,-29.37204609999997],[-51.67343409999995,-29.371829599999952],[-51.67321189999996,-29.370816399999953],[-51.67279329999997,-29.370371],[-51.670285699999965,-29.368968],[-51.669314199999974,-29.368709],[-51.66858589999998,-29.36792679999996],[-51.668243099999984,-29.36389309999992],[-51.667507399999984,-29.361722499999928],[-51.66694519999999,-29.361221299999954],[-51.665486499999986,-29.36086639999995],[-51.66533259999994,-29.360256199999988],[-51.66586019999993,-29.35976],[-51.667118699999946,-29.359154799999946],[-51.667247799999984,-29.358779599999934],[-51.666464499999954,-29.35846169999996],[-51.66558659999998,-29.357606599999947],[-51.66552559999997,-29.357105199999978],[-51.666107,-29.355619399999963],[-51.665170299999936,-29.353988699999938],[-51.665401299999985,-29.353264099999926],[-51.666370899999954,-29.351873699999935],[-51.66742689999995,-29.351707899999937],[-51.66938089999997,-29.351856899999966],[-51.67050559999996,-29.351368299999933],[-51.669780299999964,-29.35077149999994],[-51.668079099999936,-29.349509],[-51.665053599999965,-29.347908499999956],[-51.66385109999994,-29.346811499999944],[-51.663496399999985,-29.347091599999942],[-51.66210369999993,-29.347282599999964],[-51.66070609999996,-29.34691009999995],[-51.66004219999997,-29.34719419999993],[-51.65898089999996,-29.347127299999958],[-51.65843339999998,-29.346989499999953],[-51.65813859999997,-29.34648609999994],[-51.657511899999975,-29.346357599999973],[-51.65702569999996,-29.346653399999983],[-51.65656569999993,-29.348125],[-51.656318899999974,-29.350188299999967],[-51.65575629999996,-29.35104829999993],[-51.653196599999944,-29.351058599999927],[-51.65211419999997,-29.350711499999925],[-51.64896149999998,-29.35097949999993],[-51.64752869999995,-29.350429099999918],[-51.646551,-29.35030029999995]]]}},{"type":"Feature","properties":{"setor":"430225305000008","pop":363,"sigilo_pop":false,"dom":150,"sigilo_dom":false,"mulheres":177,"sigilo_mulheres":false,"c0_4":20,"sigilo_c0_4":false,"c5_9":11,"sigilo_c5_9":false,"i60_69":58,"sigilo_i60_69":false,"i70m":68,"sigilo_i70m":false,"indigenas":0,"sigilo_indigenas":false,"pretos_pardos":16,"sigilo_pretos_pardos":false,"dom_ocupados":129,"sigilo_dom_ocupados":false,"dom_agua":110,"sigilo_dom_agua":false,"dom_esgoto":0,"sigilo_dom_esgoto":false,"renda_resp":2690.13,"sigilo_renda_resp":false,"n_resp":129,"sigilo_n_resp":false,"dens":22.4,"sigilo_dens":false,"na_bacia":1,"area_pct_bacia":100.0,"metodo_recorte_bacia":"ponto_representativo_setor_2022; area_pct_geometrica"},"geometry":{"type":"Polygon","coordinates":[[[-51.649615899999965,-29.37194689999996],[-51.649913699999956,-29.372770799999948],[-51.64861769999993,-29.37501729999997],[-51.648531299999945,-29.376270199999958],[-51.648056,-29.37773909999993],[-51.64814239999998,-29.378689599999966],[-51.64904969999998,-29.3805905],[-51.64965449999995,-29.383182599999934],[-51.64961129999995,-29.385645199999935],[-51.65064819999998,-29.38633639999994],[-51.65177149999993,-29.386466],[-51.652073899999955,-29.386898099999932],[-51.65211709999994,-29.388583],[-51.65280829999994,-29.389965499999963],[-51.65259229999998,-29.391304699999974],[-51.65280829999995,-29.39182319999997],[-51.65449319999993,-29.392730399999937],[-51.65578929999998,-29.39389689999996],[-51.65717179999996,-29.395711399999982],[-51.65704219999998,-29.39791479999997],[-51.658609499999955,-29.402126099999972],[-51.66471169999994,-29.410977699999926],[-51.665801,-29.414319],[-51.66945759999993,-29.41829309999996],[-51.68033429999997,-29.413407499999945],[-51.69122949999997,-29.42352549999998],[-51.69107989999998,-29.37137269999993],[-51.688672499999946,-29.371405599999942],[-51.687274299999956,-29.371912299999956],[-51.68605749999995,-29.37271709999994],[-51.68517889999998,-29.372605499999963],[-51.68407629999996,-29.373023],[-51.68289769999996,-29.372795899999975],[-51.68232159999996,-29.37290609999996],[-51.68173429999996,-29.373865899999952],[-51.680052899999964,-29.374382299999972],[-51.67956839999993,-29.374750099999975],[-51.679418699999985,-29.378101799999953],[-51.67905519999994,-29.37727259999997],[-51.678943699999934,-29.376128],[-51.677966,-29.374474499999963],[-51.676555299999954,-29.374377199999973],[-51.675562799999966,-29.37407359999997],[-51.674434099999985,-29.373189299999982],[-51.67343409999995,-29.371829599999952],[-51.671842799999986,-29.37204609999997],[-51.67028659999994,-29.371442299999956],[-51.66743149999997,-29.37148189999994],[-51.665947699999954,-29.370883699999982],[-51.6637444,-29.371002199999968],[-51.662973,-29.371833899999945],[-51.66315119999996,-29.37268019999993],[-51.662314199999976,-29.373116099999958],[-51.660742599999935,-29.375371199999964],[-51.66010909999994,-29.37688629999998],[-51.657082899999985,-29.378454499999975],[-51.65470869999996,-29.379215799999937],[-51.65305549999994,-29.37949149999998],[-51.65219069999995,-29.379297],[-51.65078969999997,-29.378275],[-51.65087119999998,-29.373547499999972],[-51.65125009999998,-29.372592599999955],[-51.65120189999993,-29.37201779999998],[-51.651151,-29.371774599999984],[-51.649615899999965,-29.37194689999996]]]}},{"type":"Feature","properties":{"setor":"430225305000009","pop":363,"sigilo_pop":false,"dom":166,"sigilo_dom":false,"mulheres":170,"sigilo_mulheres":false,"c0_4":null,"sigilo_c0_4":true,"c5_9":11,"sigilo_c5_9":false,"i60_69":66,"sigilo_i60_69":false,"i70m":63,"sigilo_i70m":false,"indigenas":null,"sigilo_indigenas":true,"pretos_pardos":null,"sigilo_pretos_pardos":true,"dom_ocupados":139,"sigilo_dom_ocupados":false,"dom_agua":112,"sigilo_dom_agua":false,"dom_esgoto":0,"sigilo_dom_esgoto":false,"renda_resp":4317.06,"sigilo_renda_resp":false,"n_resp":139,"sigilo_n_resp":false,"dens":24.7,"sigilo_dens":false,"na_bacia":1,"area_pct_bacia":100.0,"metodo_recorte_bacia":"ponto_representativo_setor_2022; area_pct_geometrica"},"geometry":{"type":"Polygon","coordinates":[[[-51.67384009999996,-29.32347369999996],[-51.67495979999996,-29.32409649999994],[-51.675842399999965,-29.326557099999942],[-51.675109299999974,-29.329237599999935],[-51.67423489999993,-29.329759599999925],[-51.674431099999936,-29.330268699999976],[-51.67682439999999,-29.32996539999995],[-51.67936219999996,-29.329139099999967],[-51.6801397,-29.329109099999982],[-51.682096499999936,-29.32976709999997],[-51.684816,-29.33148369999998],[-51.68651729999994,-29.334291299999965],[-51.688634,-29.334367799999935],[-51.68968239999998,-29.334145],[-51.68831579999994,-29.337132499999942],[-51.68838459999995,-29.33760529999995],[-51.68893829999996,-29.338200199999953],[-51.68815269999993,-29.338849699999958],[-51.688044,-29.340102299999952],[-51.686812,-29.340711699999915],[-51.686200299999946,-29.340649899999953],[-51.685504899999955,-29.340135],[-51.68521549999997,-29.340293399999947],[-51.68748009999996,-29.342548],[-51.686979,-29.343756],[-51.685486699999956,-29.344435],[-51.68531779999996,-29.344796699999968],[-51.68597649999998,-29.347264699999982],[-51.68664279999996,-29.34751419999999],[-51.68757249999993,-29.348302499999942],[-51.68993179999996,-29.348976899999972],[-51.691873199999975,-29.34873409999994],[-51.69303,-29.34892179999997],[-51.69408069999998,-29.349874099999976],[-51.69423069999993,-29.349523499999968],[-51.69402649999995,-29.348922499999958],[-51.69419039999997,-29.348848199999964],[-51.695888099999934,-29.350831299999978],[-51.700512599999975,-29.35086569999992],[-51.703038799999945,-29.351896499999967],[-51.703929199999955,-29.351800799999964],[-51.70477269999998,-29.350820499999948],[-51.706249,-29.350630499999973],[-51.70686879999994,-29.350061299999922],[-51.70737529999997,-29.350279799999942],[-51.70758639999997,-29.35074049999997],[-51.708303699999924,-29.35074469999995],[-51.70957159999994,-29.35138049999995],[-51.71057079999997,-29.350719699999967],[-51.712945,-29.350634],[-51.713866,-29.350668099999947],[-51.715292,-29.351343599999947],[-51.71660339999994,-29.35142779999995],[-51.717698,-29.351209699999963],[-51.719669599999975,-29.350402699999965],[-51.720220799999936,-29.349931299999977],[-51.72035519999997,-29.346539099999976],[-51.721894599999985,-29.34614279999993],[-51.72243319999996,-29.345712199999973],[-51.72312979999998,-29.34599639999994],[-51.726034399999946,-29.345873799999943],[-51.72885309999998,-29.346276599999957],[-51.729268599999955,-29.339397599999977],[-51.72895749999998,-29.33406259999999],[-51.701888499999946,-29.3344499],[-51.70178379999992,-29.324201699999943],[-51.700687899999934,-29.32302039999997],[-51.706051399999986,-29.32321089999994],[-51.7087456,-29.324526899999967],[-51.711013899999955,-29.324393599999954],[-51.714685,-29.32364659999996],[-51.71669729999997,-29.320908],[-51.71904349999994,-29.323472199999955],[-51.72041839999997,-29.323922299999932],[-51.72339579999994,-29.32246249999996],[-51.72677159999996,-29.32495039999998],[-51.72903789999999,-29.324859099999976],[-51.728929499999936,-29.31618529999997],[-51.72371319999997,-29.31383119999998],[-51.71666319999997,-29.313102099999977],[-51.71395239999998,-29.313559],[-51.709079899999956,-29.312612499999943],[-51.70904919999998,-29.31203769999996],[-51.707829799999956,-29.31242259999993],[-51.705762899999975,-29.31388469999995],[-51.70509879999997,-29.314041199999973],[-51.70144359999995,-29.311736099999976],[-51.69909889999996,-29.311585499999975],[-51.69836509999993,-29.311701899999946],[-51.69544179999997,-29.313055899999938],[-51.69521669999995,-29.313491199999927],[-51.695452499999924,-29.31454839999999],[-51.69523779999998,-29.315299099999937],[-51.692122599999955,-29.316087099999955],[-51.69078339999999,-29.31616519999994],[-51.690288399999986,-29.315797899999954],[-51.689674099999934,-29.313430799999928],[-51.68762979999997,-29.312193],[-51.68686,-29.312014899999944],[-51.68603319999994,-29.312472599999982],[-51.68364159999994,-29.315436899999945],[-51.68126149999995,-29.31698439999997],[-51.68089929999997,-29.318362],[-51.68009039999998,-29.319535899999952],[-51.679770099999985,-29.320441699999943],[-51.677766,-29.321677699999945],[-51.676048099999946,-29.322163],[-51.67537059999996,-29.322646399999936],[-51.675003799999956,-29.323293],[-51.67384009999996,-29.32347369999996]]]}},{"type":"Feature","properties":{"setor":"430225305000010","pop":327,"sigilo_pop":false,"dom":128,"sigilo_dom":false,"mulheres":160,"sigilo_mulheres":false,"c0_4":11,"sigilo_c0_4":false,"c5_9":23,"sigilo_c5_9":false,"i60_69":36,"sigilo_i60_69":false,"i70m":39,"sigilo_i70m":false,"indigenas":0,"sigilo_indigenas":false,"pretos_pardos":24,"sigilo_pretos_pardos":false,"dom_ocupados":107,"sigilo_dom_ocupados":false,"dom_agua":70,"sigilo_dom_agua":false,"dom_esgoto":0,"sigilo_dom_esgoto":false,"renda_resp":3486.15,"sigilo_renda_resp":false,"n_resp":107,"sigilo_n_resp":false,"dens":32.3,"sigilo_dens":false,"na_bacia":1,"area_pct_bacia":100.0,"metodo_recorte_bacia":"ponto_representativo_setor_2022; area_pct_geometrica"},"geometry":{"type":"Polygon","coordinates":[[[-51.64645379999996,-29.33354289999994],[-51.64674609999997,-29.333159699999957],[-51.649291299999966,-29.334337199999943],[-51.650562199999975,-29.335163499999968],[-51.650941899999964,-29.335648099999965],[-51.65131869999994,-29.337836399999965],[-51.653184,-29.33983109999998],[-51.65331589999994,-29.339354699999944],[-51.65360129999994,-29.339237499999964],[-51.65553539999996,-29.33963249999993],[-51.65666539999996,-29.339374599999925],[-51.66000939999998,-29.337601799999955],[-51.66125819999996,-29.337409399999963],[-51.66219339999998,-29.33781919999995],[-51.662599099999966,-29.33777449999996],[-51.66654689999996,-29.335737799999933],[-51.666420399999936,-29.33396189999997],[-51.66589349999998,-29.333452599999923],[-51.66351629999997,-29.33218219999998],[-51.66262109999997,-29.33056359999995],[-51.66223249999995,-29.328627],[-51.66086639999998,-29.327751499999984],[-51.66015939999995,-29.326524899999978],[-51.65726079999995,-29.326019],[-51.65693569999997,-29.326119299999966],[-51.65637669999995,-29.32694139999994],[-51.65554059999994,-29.32657779999995],[-51.65497829999998,-29.325302699999952],[-51.65419719999994,-29.32446369999999],[-51.65370789999997,-29.322992099999965],[-51.653880199999946,-29.321652299999982],[-51.653029699999934,-29.320178599999956],[-51.652186399999955,-29.319591199999934],[-51.65116069999994,-29.317985699999944],[-51.65047329999993,-29.317762699999943],[-51.649883099999954,-29.317244299999963],[-51.649392,-29.315949199999984],[-51.64784639999993,-29.31482379999994],[-51.64725809999993,-29.31395909999998],[-51.64600629999996,-29.3133089],[-51.6455304,-29.31229759999996],[-51.646657,-29.31213719999994],[-51.64730689999994,-29.311355399999965],[-51.64731049999995,-29.31014309999994],[-51.64656269999995,-29.309545299999957],[-51.646281199999976,-29.308546199999967],[-51.64676249999996,-29.3078738],[-51.64706349999994,-29.30679549999997],[-51.647015299999964,-29.30614569999995],[-51.64633289999995,-29.304903199999966],[-51.646641699999975,-29.304053499999963],[-51.647164699999955,-29.303567],[-51.64916039999998,-29.30262409999995],[-51.651248099999975,-29.30203679999994],[-51.65332379999996,-29.302061699999964],[-51.65513259999995,-29.300977699999976],[-51.655242899999955,-29.30063609999997],[-51.654772099999946,-29.29841759999994],[-51.65495129999993,-29.297463499999942],[-51.655328499999946,-29.296840399999947],[-51.657652199999966,-29.294769],[-51.65834149999994,-29.29383279999997],[-51.6499965,-29.293922499999955],[-51.63191169999993,-29.293495399999973],[-51.63088049999993,-29.333303],[-51.64645379999996,-29.33354289999994]]]}},{"type":"Feature","properties":{"setor":"430225305000019","pop":104,"sigilo_pop":false,"dom":53,"sigilo_dom":false,"mulheres":51,"sigilo_mulheres":false,"c0_4":null,"sigilo_c0_4":true,"c5_9":null,"sigilo_c5_9":true,"i60_69":15,"sigilo_i60_69":false,"i70m":21,"sigilo_i70m":false,"indigenas":0,"sigilo_indigenas":false,"pretos_pardos":15,"sigilo_pretos_pardos":false,"dom_ocupados":39,"sigilo_dom_ocupados":false,"dom_agua":33,"sigilo_dom_agua":false,"dom_esgoto":0,"sigilo_dom_esgoto":false,"renda_resp":2022.05,"sigilo_renda_resp":false,"n_resp":39,"sigilo_n_resp":false,"dens":36.6,"sigilo_dens":false,"na_bacia":1,"area_pct_bacia":100.0,"metodo_recorte_bacia":"ponto_representativo_setor_2022; area_pct_geometrica"},"geometry":{"type":"Polygon","coordinates":[[[-51.649291299999966,-29.334337199999943],[-51.64674609999997,-29.333159699999957],[-51.64645379999996,-29.33354289999994],[-51.646551,-29.35030029999995],[-51.64752869999995,-29.350429099999918],[-51.64896149999998,-29.35097949999993],[-51.65211419999997,-29.350711499999925],[-51.653196599999944,-29.351058599999927],[-51.65575629999996,-29.35104829999993],[-51.656318899999974,-29.350188299999967],[-51.65656569999993,-29.348125],[-51.65706529999994,-29.34655459999993],[-51.65732819999994,-29.34637319999995],[-51.65805649999999,-29.34644519999994],[-51.65843339999998,-29.346989499999953],[-51.65898089999996,-29.347127299999958],[-51.66004219999997,-29.34719419999993],[-51.66070609999996,-29.34691009999995],[-51.66210369999993,-29.347282599999964],[-51.663496399999985,-29.347091599999942],[-51.66385109999994,-29.346811499999944],[-51.665053599999965,-29.347908499999956],[-51.66617229999997,-29.348541599999976],[-51.66626689999999,-29.345769899999937],[-51.672436699999935,-29.343691399999962],[-51.67090549999995,-29.341057099999947],[-51.668759499999965,-29.33974819999996],[-51.668451199999936,-29.3385737],[-51.667651699999965,-29.33785779999993],[-51.66654689999996,-29.335737799999933],[-51.662599099999966,-29.33777449999996],[-51.66219339999998,-29.33781919999995],[-51.66125819999996,-29.337409399999963],[-51.66000939999998,-29.337601799999955],[-51.65666539999996,-29.339374599999925],[-51.65553539999996,-29.33963249999993],[-51.65360129999994,-29.339237499999964],[-51.65331589999994,-29.339354699999944],[-51.653184,-29.33983109999998],[-51.65131869999994,-29.337836399999965],[-51.650941899999964,-29.335648099999965],[-51.650562199999975,-29.335163499999968],[-51.649291299999966,-29.334337199999943]]]}},{"type":"Feature","properties":{"setor":"430225305000020","pop":463,"sigilo_pop":false,"dom":209,"sigilo_dom":false,"mulheres":235,"sigilo_mulheres":false,"c0_4":29,"sigilo_c0_4":false,"c5_9":26,"sigilo_c5_9":false,"i60_69":53,"sigilo_i60_69":false,"i70m":30,"sigilo_i70m":false,"indigenas":0,"sigilo_indigenas":false,"pretos_pardos":74,"sigilo_pretos_pardos":false,"dom_ocupados":190,"sigilo_dom_ocupados":false,"dom_agua":183,"sigilo_dom_agua":false,"dom_esgoto":4,"sigilo_dom_esgoto":false,"renda_resp":2792.93,"sigilo_renda_resp":false,"n_resp":190,"sigilo_n_resp":false,"dens":363.6,"sigilo_dens":false,"na_bacia":1,"area_pct_bacia":100.0,"metodo_recorte_bacia":"ponto_representativo_setor_2022; area_pct_geometrica"},"geometry":{"type":"Polygon","coordinates":[[[-51.66765189999995,-29.349284],[-51.67127639999996,-29.351936199999955],[-51.67435759999995,-29.35276909999993],[-51.67482839999997,-29.353270499999947],[-51.675683,-29.35521879999993],[-51.676348,-29.355774699999987],[-51.68180539999997,-29.357791],[-51.68307739999995,-29.35856119999994],[-51.68409349999996,-29.357465099999953],[-51.683055,-29.35669159999997],[-51.68113839999996,-29.355775499999936],[-51.67992849999996,-29.354567899999942],[-51.678495199999986,-29.353925599999965],[-51.681157799999944,-29.351603599999983],[-51.677975799999956,-29.34495219999996],[-51.676029,-29.345201199999963],[-51.67431319999997,-29.343059299999933],[-51.66626689999999,-29.345769899999937],[-51.66617229999997,-29.348541599999976],[-51.66765189999995,-29.349284]]]}}]}