{"type":"FeatureCollection","name":"4302659","crs":{"type":"name","properties":{"name":"urn:ogc:def:crs:OGC:1.3:CRS84"}},"features":[{"type":"Feature","properties":{"setor":"430265905000001","pop":452,"sigilo_pop":false,"dom":237,"sigilo_dom":false,"mulheres":235,"sigilo_mulheres":false,"c0_4":24,"sigilo_c0_4":false,"c5_9":18,"sigilo_c5_9":false,"i60_69":61,"sigilo_i60_69":false,"i70m":47,"sigilo_i70m":false,"indigenas":0,"sigilo_indigenas":false,"pretos_pardos":24,"sigilo_pretos_pardos":false,"dom_ocupados":201,"sigilo_dom_ocupados":false,"dom_agua":197,"sigilo_dom_agua":false,"dom_esgoto":0,"sigilo_dom_esgoto":false,"renda_resp":3645.03,"sigilo_renda_resp":false,"n_resp":201,"sigilo_n_resp":false,"dens":533.3,"sigilo_dens":false,"na_bacia":0,"area_pct_bacia":0.0,"metodo_recorte_bacia":"ponto_representativo_setor_2022; area_pct_geometrica","status_borda_bacia":"total","metodo_area_bacia":"interse??o geom?trica em EPSG:5880","metodo_na_bacia":"ponto_representativo_setor_2022_within_bacia","pop_n_validos":1,"pop_n_total":1,"pop_completude":1.0,"dom_n_validos":1,"dom_n_total":1,"dom_completude":1.0,"dom_ocupados_n_validos":1,"dom_ocupados_n_total":1,"dom_ocupados_completude":1.0,"mulheres_n_validos":1,"mulheres_n_total":1,"mulheres_completude":1.0,"c0_4_n_validos":1,"c0_4_n_total":1,"c0_4_completude":1.0,"c5_9_n_validos":1,"c5_9_n_total":1,"c5_9_completude":1.0,"i60_69_n_validos":1,"i60_69_n_total":1,"i60_69_completude":1.0,"i70m_n_validos":1,"i70m_n_total":1,"i70m_completude":1.0,"indigenas_n_validos":1,"indigenas_n_total":1,"indigenas_completude":1.0,"pretos_pardos_n_validos":1,"pretos_pardos_n_total":1,"pretos_pardos_completude":1.0,"dom_agua_n_validos":1,"dom_agua_n_total":1,"dom_agua_completude":1.0,"dom_esgoto_n_validos":1,"dom_esgoto_n_total":1,"dom_esgoto_completude":1.0,"n_resp_n_validos":1,"n_resp_n_total":1,"n_resp_completude":1.0,"renda_resp_n_validos":1,"renda_resp_n_total":1,"renda_resp_completude":1.0,"dens_n_validos":1,"dens_n_total":1,"dens_completude":1.0},"geometry":{"type":"Polygon","coordinates":[[[-51.576720199999954,-29.549331299999956],[-51.57609709999998,-29.549690399999974],[-51.575027399999954,-29.54977579999996],[-51.576004299999965,-29.551022399999976],[-51.577890199999956,-29.55171229999997],[-51.579817299999945,-29.55203109999995],[-51.581772299999955,-29.55186239999995],[-51.581915,-29.55306269999994],[-51.58448109999995,-29.551461],[-51.589593499999985,-29.550626099999924],[-51.59339759999995,-29.551903599999942],[-51.595088099999934,-29.553406299999956],[-51.59330449999994,-29.554714799999946],[-51.59257069999995,-29.55425959999997],[-51.59183949999994,-29.554286899999976],[-51.58911889999997,-29.555373699999972],[-51.589583799999964,-29.556682299999977],[-51.591287,-29.556103199999935],[-51.590545,-29.557901299999976],[-51.587572799999975,-29.558771199999963],[-51.58717119999994,-29.55963659999998],[-51.58488329999995,-29.562459],[-51.58402139999998,-29.56293639999996],[-51.58463039999998,-29.563640399999937],[-51.585490399999976,-29.563163599999935],[-51.58779979999998,-29.56029419999993],[-51.588252299999965,-29.559357099999943],[-51.58894789999994,-29.55908939999995],[-51.589978,-29.559121899999973],[-51.59204989999994,-29.558669299999966],[-51.59289629999995,-29.55646329999997],[-51.59329629999996,-29.555967299999956],[-51.59509469999994,-29.554322],[-51.59689879999996,-29.553380399999984],[-51.59805469999998,-29.553164199999962],[-51.599045899999965,-29.552701299999967],[-51.600538,-29.549973299999984],[-51.60147859999995,-29.549728499999944],[-51.60106949999994,-29.548374899999946],[-51.60055539999996,-29.548133099999976],[-51.59952569999996,-29.54834169999997],[-51.598825799999986,-29.54901249999994],[-51.59860889999993,-29.54991369999994],[-51.598193399999964,-29.550134899999932],[-51.59758649999997,-29.54997989999998],[-51.59684279999993,-29.55048679999992],[-51.59679559999995,-29.550807799999987],[-51.597268499999984,-29.551505399999932],[-51.59738889999994,-29.552264699999967],[-51.597196099999955,-29.55235639999993],[-51.59458539999997,-29.55032839999996],[-51.593549,-29.549779],[-51.59465549999993,-29.548087199999944],[-51.59309949999993,-29.54698119999994],[-51.591078,-29.54918429999998],[-51.58980829999996,-29.548947399999967],[-51.58333819999996,-29.550150299999906],[-51.579785699999945,-29.55047579999996],[-51.576720199999954,-29.549331299999956]]]}},{"type":"Feature","properties":{"setor":"430265905000002","pop":553,"sigilo_pop":false,"dom":295,"sigilo_dom":false,"mulheres":292,"sigilo_mulheres":false,"c0_4":21,"sigilo_c0_4":false,"c5_9":25,"sigilo_c5_9":false,"i60_69":84,"sigilo_i60_69":false,"i70m":88,"sigilo_i70m":false,"indigenas":null,"sigilo_indigenas":true,"pretos_pardos":32,"sigilo_pretos_pardos":false,"dom_ocupados":240,"sigilo_dom_ocupados":false,"dom_agua":152,"sigilo_dom_agua":false,"dom_esgoto":97,"sigilo_dom_esgoto":false,"renda_resp":2901.93,"sigilo_renda_resp":false,"n_resp":240,"sigilo_n_resp":false,"dens":1104.3,"sigilo_dens":false,"na_bacia":0,"area_pct_bacia":0.0,"metodo_recorte_bacia":"ponto_representativo_setor_2022; area_pct_geometrica","status_borda_bacia":"total","metodo_area_bacia":"interse??o geom?trica em EPSG:5880","metodo_na_bacia":"ponto_representativo_setor_2022_within_bacia","pop_n_validos":1,"pop_n_total":1,"pop_completude":1.0,"dom_n_validos":1,"dom_n_total":1,"dom_completude":1.0,"dom_ocupados_n_validos":1,"dom_ocupados_n_total":1,"dom_ocupados_completude":1.0,"mulheres_n_validos":1,"mulheres_n_total":1,"mulheres_completude":1.0,"c0_4_n_validos":1,"c0_4_n_total":1,"c0_4_completude":1.0,"c5_9_n_validos":1,"c5_9_n_total":1,"c5_9_completude":1.0,"i60_69_n_validos":1,"i60_69_n_total":1,"i60_69_completude":1.0,"i70m_n_validos":1,"i70m_n_total":1,"i70m_completude":1.0,"indigenas_n_validos":0,"indigenas_n_total":1,"indigenas_completude":0.0,"pretos_pardos_n_validos":1,"pretos_pardos_n_total":1,"pretos_pardos_completude":1.0,"dom_agua_n_validos":1,"dom_agua_n_total":1,"dom_agua_completude":1.0,"dom_esgoto_n_validos":1,"dom_esgoto_n_total":1,"dom_esgoto_completude":1.0,"n_resp_n_validos":1,"n_resp_n_total":1,"n_resp_completude":1.0,"renda_resp_n_validos":1,"renda_resp_n_total":1,"renda_resp_completude":1.0,"dens_n_validos":1,"dens_n_total":1,"dens_completude":1.0},"geometry":{"type":"Polygon","coordinates":[[[-51.59289629999995,-29.55646329999997],[-51.59114089999997,-29.561465899999966],[-51.59099409999993,-29.562693499999963],[-51.59243289999995,-29.562663499999932],[-51.59248569999993,-29.56126279999994],[-51.59299679999998,-29.559611],[-51.594963,-29.55897],[-51.59523019999995,-29.56061379999994],[-51.599594699999955,-29.55969439999996],[-51.598952899999965,-29.557612799999962],[-51.597580099999966,-29.555392],[-51.59748509999997,-29.55433679999994],[-51.599519499999985,-29.553552099999933],[-51.60204189999997,-29.55420539999995],[-51.60147859999995,-29.549728499999944],[-51.600538,-29.549973299999984],[-51.599045899999965,-29.552701299999967],[-51.59805469999998,-29.553164199999962],[-51.59689879999996,-29.553380399999984],[-51.59509469999994,-29.554322],[-51.59329629999996,-29.555967299999956],[-51.59289629999995,-29.55646329999997]]]}},{"type":"Feature","properties":{"setor":"430265905000003","pop":459,"sigilo_pop":false,"dom":199,"sigilo_dom":false,"mulheres":239,"sigilo_mulheres":false,"c0_4":33,"sigilo_c0_4":false,"c5_9":33,"sigilo_c5_9":false,"i60_69":33,"sigilo_i60_69":false,"i70m":31,"sigilo_i70m":false,"indigenas":null,"sigilo_indigenas":true,"pretos_pardos":70,"sigilo_pretos_pardos":false,"dom_ocupados":174,"sigilo_dom_ocupados":false,"dom_agua":172,"sigilo_dom_agua":false,"dom_esgoto":0,"sigilo_dom_esgoto":false,"renda_resp":2224.37,"sigilo_renda_resp":false,"n_resp":174,"sigilo_n_resp":false,"dens":597.9,"sigilo_dens":false,"na_bacia":0,"area_pct_bacia":0.0,"metodo_recorte_bacia":"ponto_representativo_setor_2022; area_pct_geometrica","status_borda_bacia":"total","metodo_area_bacia":"interse??o geom?trica em EPSG:5880","metodo_na_bacia":"ponto_representativo_setor_2022_within_bacia","pop_n_validos":1,"pop_n_total":1,"pop_completude":1.0,"dom_n_validos":1,"dom_n_total":1,"dom_completude":1.0,"dom_ocupados_n_validos":1,"dom_ocupados_n_total":1,"dom_ocupados_completude":1.0,"mulheres_n_validos":1,"mulheres_n_total":1,"mulheres_completude":1.0,"c0_4_n_validos":1,"c0_4_n_total":1,"c0_4_completude":1.0,"c5_9_n_validos":1,"c5_9_n_total":1,"c5_9_completude":1.0,"i60_69_n_validos":1,"i60_69_n_total":1,"i60_69_completude":1.0,"i70m_n_validos":1,"i70m_n_total":1,"i70m_completude":1.0,"indigenas_n_validos":0,"indigenas_n_total":1,"indigenas_completude":0.0,"pretos_pardos_n_validos":1,"pretos_pardos_n_total":1,"pretos_pardos_completude":1.0,"dom_agua_n_validos":1,"dom_agua_n_total":1,"dom_agua_completude":1.0,"dom_esgoto_n_validos":1,"dom_esgoto_n_total":1,"dom_esgoto_completude":1.0,"n_resp_n_validos":1,"n_resp_n_total":1,"n_resp_completude":1.0,"renda_resp_n_validos":1,"renda_resp_n_total":1,"renda_resp_completude":1.0,"dens_n_validos":1,"dens_n_total":1,"dens_completude":1.0},"geometry":{"type":"Polygon","coordinates":[[[-51.58463859999995,-29.574558599999918],[-51.58462379999998,-29.57377489999994],[-51.586060499999974,-29.571647599999952],[-51.58646759999993,-29.570241899999928],[-51.58746919999999,-29.56959619999998],[-51.58934609999995,-29.568961199999926],[-51.59026679999994,-29.56817169999994],[-51.590484,-29.567535299999967],[-51.590021399999955,-29.564987799999983],[-51.590899899999954,-29.56316479999999],[-51.58956329999996,-29.56298969999993],[-51.58786449999997,-29.563116499999982],[-51.58796869999997,-29.564092199999955],[-51.58483839999997,-29.5646139],[-51.58463039999998,-29.563640399999937],[-51.58402139999998,-29.56293639999996],[-51.58238289999997,-29.563708],[-51.58134649999994,-29.565298699999968],[-51.58009419999997,-29.56542749999994],[-51.580453199999965,-29.568548699999944],[-51.578704,-29.568784099999952],[-51.57885569999996,-29.570147],[-51.58203229999998,-29.569847799999938],[-51.58296219999995,-29.571103799999936],[-51.58365909999998,-29.574706799999944],[-51.58463859999995,-29.574558599999918]]]}},{"type":"Feature","properties":{"setor":"430265905000004","pop":158,"sigilo_pop":false,"dom":70,"sigilo_dom":false,"mulheres":77,"sigilo_mulheres":false,"c0_4":15,"sigilo_c0_4":false,"c5_9":7,"sigilo_c5_9":false,"i60_69":14,"sigilo_i60_69":false,"i70m":13,"sigilo_i70m":false,"indigenas":0,"sigilo_indigenas":false,"pretos_pardos":null,"sigilo_pretos_pardos":true,"dom_ocupados":64,"sigilo_dom_ocupados":false,"dom_agua":53,"sigilo_dom_agua":false,"dom_esgoto":0,"sigilo_dom_esgoto":false,"renda_resp":2439.4,"sigilo_renda_resp":false,"n_resp":64,"sigilo_n_resp":false,"dens":677.2,"sigilo_dens":false,"na_bacia":0,"area_pct_bacia":0.0,"metodo_recorte_bacia":"ponto_representativo_setor_2022; area_pct_geometrica","status_borda_bacia":"total","metodo_area_bacia":"interse??o geom?trica em EPSG:5880","metodo_na_bacia":"ponto_representativo_setor_2022_within_bacia","pop_n_validos":1,"pop_n_total":1,"pop_completude":1.0,"dom_n_validos":1,"dom_n_total":1,"dom_completude":1.0,"dom_ocupados_n_validos":1,"dom_ocupados_n_total":1,"dom_ocupados_completude":1.0,"mulheres_n_validos":1,"mulheres_n_total":1,"mulheres_completude":1.0,"c0_4_n_validos":1,"c0_4_n_total":1,"c0_4_completude":1.0,"c5_9_n_validos":1,"c5_9_n_total":1,"c5_9_completude":1.0,"i60_69_n_validos":1,"i60_69_n_total":1,"i60_69_completude":1.0,"i70m_n_validos":1,"i70m_n_total":1,"i70m_completude":1.0,"indigenas_n_validos":1,"indigenas_n_total":1,"indigenas_completude":1.0,"pretos_pardos_n_validos":0,"pretos_pardos_n_total":1,"pretos_pardos_completude":0.0,"dom_agua_n_validos":1,"dom_agua_n_total":1,"dom_agua_completude":1.0,"dom_esgoto_n_validos":1,"dom_esgoto_n_total":1,"dom_esgoto_completude":1.0,"n_resp_n_validos":1,"n_resp_n_total":1,"n_resp_completude":1.0,"renda_resp_n_validos":1,"renda_resp_n_total":1,"renda_resp_completude":1.0,"dens_n_validos":1,"dens_n_total":1,"dens_completude":1.0},"geometry":{"type":"Polygon","coordinates":[[[-51.59523019999995,-29.56061379999994],[-51.59577049999996,-29.56441459999996],[-51.601525,-29.56265079999995],[-51.60256059999995,-29.561700099999946],[-51.60116119999997,-29.56033859999998],[-51.599594699999955,-29.55969439999996],[-51.59523019999995,-29.56061379999994]]]}},{"type":"Feature","properties":{"setor":"430265905000005","pop":121,"sigilo_pop":false,"dom":49,"sigilo_dom":false,"mulheres":60,"sigilo_mulheres":false,"c0_4":null,"sigilo_c0_4":true,"c5_9":null,"sigilo_c5_9":true,"i60_69":9,"sigilo_i60_69":false,"i70m":12,"sigilo_i70m":false,"indigenas":0,"sigilo_indigenas":false,"pretos_pardos":null,"sigilo_pretos_pardos":true,"dom_ocupados":47,"sigilo_dom_ocupados":false,"dom_agua":47,"sigilo_dom_agua":false,"dom_esgoto":0,"sigilo_dom_esgoto":false,"renda_resp":2117.42,"sigilo_renda_resp":false,"n_resp":47,"sigilo_n_resp":false,"dens":1319.9,"sigilo_dens":false,"na_bacia":0,"area_pct_bacia":0.0,"metodo_recorte_bacia":"ponto_representativo_setor_2022; area_pct_geometrica","status_borda_bacia":"total","metodo_area_bacia":"interse??o geom?trica em EPSG:5880","metodo_na_bacia":"ponto_representativo_setor_2022_within_bacia","pop_n_validos":1,"pop_n_total":1,"pop_completude":1.0,"dom_n_validos":1,"dom_n_total":1,"dom_completude":1.0,"dom_ocupados_n_validos":1,"dom_ocupados_n_total":1,"dom_ocupados_completude":1.0,"mulheres_n_validos":1,"mulheres_n_total":1,"mulheres_completude":1.0,"c0_4_n_validos":0,"c0_4_n_total":1,"c0_4_completude":0.0,"c5_9_n_validos":0,"c5_9_n_total":1,"c5_9_completude":0.0,"i60_69_n_validos":1,"i60_69_n_total":1,"i60_69_completude":1.0,"i70m_n_validos":1,"i70m_n_total":1,"i70m_completude":1.0,"indigenas_n_validos":1,"indigenas_n_total":1,"indigenas_completude":1.0,"pretos_pardos_n_validos":0,"pretos_pardos_n_total":1,"pretos_pardos_completude":0.0,"dom_agua_n_validos":1,"dom_agua_n_total":1,"dom_agua_completude":1.0,"dom_esgoto_n_validos":1,"dom_esgoto_n_total":1,"dom_esgoto_completude":1.0,"n_resp_n_validos":1,"n_resp_n_total":1,"n_resp_completude":1.0,"renda_resp_n_validos":1,"renda_resp_n_total":1,"renda_resp_completude":1.0,"dens_n_validos":1,"dens_n_total":1,"dens_completude":1.0},"geometry":{"type":"Polygon","coordinates":[[[-51.60204189999997,-29.55420539999995],[-51.60430329999996,-29.554438],[-51.60554709999997,-29.554300099999985],[-51.60575969999996,-29.556225799999936],[-51.60790389999993,-29.556021],[-51.607645599999955,-29.55358029999995],[-51.60614889999994,-29.553423],[-51.604212,-29.553696199999948],[-51.601958199999956,-29.55318919999996],[-51.60204189999997,-29.55420539999995]]]}},{"type":"Feature","properties":{"setor":"430265905000006","pop":143,"sigilo_pop":false,"dom":62,"sigilo_dom":false,"mulheres":81,"sigilo_mulheres":false,"c0_4":11,"sigilo_c0_4":false,"c5_9":null,"sigilo_c5_9":true,"i60_69":16,"sigilo_i60_69":false,"i70m":13,"sigilo_i70m":false,"indigenas":0,"sigilo_indigenas":false,"pretos_pardos":null,"sigilo_pretos_pardos":true,"dom_ocupados":56,"sigilo_dom_ocupados":false,"dom_agua":56,"sigilo_dom_agua":false,"dom_esgoto":0,"sigilo_dom_esgoto":false,"renda_resp":1943.88,"sigilo_renda_resp":false,"n_resp":56,"sigilo_n_resp":false,"dens":522.2,"sigilo_dens":false,"na_bacia":0,"area_pct_bacia":0.0,"metodo_recorte_bacia":"ponto_representativo_setor_2022; area_pct_geometrica","status_borda_bacia":"total","metodo_area_bacia":"interse??o geom?trica em EPSG:5880","metodo_na_bacia":"ponto_representativo_setor_2022_within_bacia","pop_n_validos":1,"pop_n_total":1,"pop_completude":1.0,"dom_n_validos":1,"dom_n_total":1,"dom_completude":1.0,"dom_ocupados_n_validos":1,"dom_ocupados_n_total":1,"dom_ocupados_completude":1.0,"mulheres_n_validos":1,"mulheres_n_total":1,"mulheres_completude":1.0,"c0_4_n_validos":1,"c0_4_n_total":1,"c0_4_completude":1.0,"c5_9_n_validos":0,"c5_9_n_total":1,"c5_9_completude":0.0,"i60_69_n_validos":1,"i60_69_n_total":1,"i60_69_completude":1.0,"i70m_n_validos":1,"i70m_n_total":1,"i70m_completude":1.0,"indigenas_n_validos":1,"indigenas_n_total":1,"indigenas_completude":1.0,"pretos_pardos_n_validos":0,"pretos_pardos_n_total":1,"pretos_pardos_completude":0.0,"dom_agua_n_validos":1,"dom_agua_n_total":1,"dom_agua_completude":1.0,"dom_esgoto_n_validos":1,"dom_esgoto_n_total":1,"dom_esgoto_completude":1.0,"n_resp_n_validos":1,"n_resp_n_total":1,"n_resp_completude":1.0,"renda_resp_n_validos":1,"renda_resp_n_total":1,"renda_resp_completude":1.0,"dens_n_validos":1,"dens_n_total":1,"dens_completude":1.0},"geometry":{"type":"Polygon","coordinates":[[[-51.60120669999998,-29.548826399999935],[-51.601958199999956,-29.55318919999996],[-51.604212,-29.553696199999948],[-51.60614889999994,-29.553423],[-51.607645599999955,-29.55358029999995],[-51.60587879999997,-29.548262899999948],[-51.60343139999998,-29.548753299999923],[-51.60120669999998,-29.548826399999935]]]}},{"type":"Feature","properties":{"setor":"430265905000007","pop":42,"sigilo_pop":false,"dom":23,"sigilo_dom":false,"mulheres":19,"sigilo_mulheres":false,"c0_4":null,"sigilo_c0_4":true,"c5_9":null,"sigilo_c5_9":true,"i60_69":null,"sigilo_i60_69":true,"i70m":null,"sigilo_i70m":true,"indigenas":0,"sigilo_indigenas":false,"pretos_pardos":null,"sigilo_pretos_pardos":true,"dom_ocupados":20,"sigilo_dom_ocupados":false,"dom_agua":18,"sigilo_dom_agua":false,"dom_esgoto":0,"sigilo_dom_esgoto":false,"renda_resp":2302.44,"sigilo_renda_resp":false,"n_resp":20,"sigilo_n_resp":false,"dens":149.1,"sigilo_dens":false,"na_bacia":0,"area_pct_bacia":0.0,"metodo_recorte_bacia":"ponto_representativo_setor_2022; area_pct_geometrica","status_borda_bacia":"total","metodo_area_bacia":"interse??o geom?trica em EPSG:5880","metodo_na_bacia":"ponto_representativo_setor_2022_within_bacia","pop_n_validos":1,"pop_n_total":1,"pop_completude":1.0,"dom_n_validos":1,"dom_n_total":1,"dom_completude":1.0,"dom_ocupados_n_validos":1,"dom_ocupados_n_total":1,"dom_ocupados_completude":1.0,"mulheres_n_validos":1,"mulheres_n_total":1,"mulheres_completude":1.0,"c0_4_n_validos":0,"c0_4_n_total":1,"c0_4_completude":0.0,"c5_9_n_validos":0,"c5_9_n_total":1,"c5_9_completude":0.0,"i60_69_n_validos":0,"i60_69_n_total":1,"i60_69_completude":0.0,"i70m_n_validos":0,"i70m_n_total":1,"i70m_completude":0.0,"indigenas_n_validos":1,"indigenas_n_total":1,"indigenas_completude":1.0,"pretos_pardos_n_validos":0,"pretos_pardos_n_total":1,"pretos_pardos_completude":0.0,"dom_agua_n_validos":1,"dom_agua_n_total":1,"dom_agua_completude":1.0,"dom_esgoto_n_validos":1,"dom_esgoto_n_total":1,"dom_esgoto_completude":1.0,"n_resp_n_validos":1,"n_resp_n_total":1,"n_resp_completude":1.0,"renda_resp_n_validos":1,"renda_resp_n_total":1,"renda_resp_completude":1.0,"dens_n_validos":1,"dens_n_total":1,"dens_completude":1.0},"geometry":{"type":"Polygon","coordinates":[[[-51.59918189999996,-29.536408799999954],[-51.597337599999946,-29.536517799999963],[-51.59678929999996,-29.53754449999996],[-51.5961334,-29.541118399999966],[-51.594466299999965,-29.542972399999933],[-51.59394089999994,-29.544623299999955],[-51.59407849999997,-29.54548019999993],[-51.59309949999993,-29.54698119999994],[-51.59465549999993,-29.548087199999944],[-51.59577269999995,-29.546818499999958],[-51.59619429999998,-29.54572139999993],[-51.59608869999994,-29.54441639999992],[-51.59840909999997,-29.541350499999954],[-51.59918189999996,-29.536408799999954]]]}},{"type":"Feature","properties":{"setor":"430265905000008","pop":23,"sigilo_pop":false,"dom":16,"sigilo_dom":false,"mulheres":13,"sigilo_mulheres":false,"c0_4":null,"sigilo_c0_4":true,"c5_9":0,"sigilo_c5_9":false,"i60_69":null,"sigilo_i60_69":true,"i70m":6,"sigilo_i70m":false,"indigenas":0,"sigilo_indigenas":false,"pretos_pardos":3,"sigilo_pretos_pardos":false,"dom_ocupados":10,"sigilo_dom_ocupados":false,"dom_agua":7,"sigilo_dom_agua":false,"dom_esgoto":0,"sigilo_dom_esgoto":false,"renda_resp":3049.6,"sigilo_renda_resp":false,"n_resp":10,"sigilo_n_resp":false,"dens":21.0,"sigilo_dens":false,"na_bacia":0,"area_pct_bacia":0.0,"metodo_recorte_bacia":"ponto_representativo_setor_2022; area_pct_geometrica","status_borda_bacia":"total","metodo_area_bacia":"interse??o geom?trica em EPSG:5880","metodo_na_bacia":"ponto_representativo_setor_2022_within_bacia","pop_n_validos":1,"pop_n_total":1,"pop_completude":1.0,"dom_n_validos":1,"dom_n_total":1,"dom_completude":1.0,"dom_ocupados_n_validos":1,"dom_ocupados_n_total":1,"dom_ocupados_completude":1.0,"mulheres_n_validos":1,"mulheres_n_total":1,"mulheres_completude":1.0,"c0_4_n_validos":0,"c0_4_n_total":1,"c0_4_completude":0.0,"c5_9_n_validos":1,"c5_9_n_total":1,"c5_9_completude":1.0,"i60_69_n_validos":0,"i60_69_n_total":1,"i60_69_completude":0.0,"i70m_n_validos":1,"i70m_n_total":1,"i70m_completude":1.0,"indigenas_n_validos":1,"indigenas_n_total":1,"indigenas_completude":1.0,"pretos_pardos_n_validos":1,"pretos_pardos_n_total":1,"pretos_pardos_completude":1.0,"dom_agua_n_validos":1,"dom_agua_n_total":1,"dom_agua_completude":1.0,"dom_esgoto_n_validos":1,"dom_esgoto_n_total":1,"dom_esgoto_completude":1.0,"n_resp_n_validos":1,"n_resp_n_total":1,"n_resp_completude":1.0,"renda_resp_n_validos":1,"renda_resp_n_total":1,"renda_resp_completude":1.0,"dens_n_validos":1,"dens_n_total":1,"dens_completude":1.0},"geometry":{"type":"Polygon","coordinates":[[[-51.579296099999965,-29.546911499999965],[-51.57810719999998,-29.547769299999956],[-51.57792589999997,-29.548172],[-51.57705579999998,-29.548213499999967],[-51.576803599999955,-29.54850929999998],[-51.577139399999965,-29.549069299999925],[-51.576720199999954,-29.549331299999956],[-51.579785699999945,-29.55047579999996],[-51.58333819999996,-29.550150299999906],[-51.58980829999996,-29.548947399999967],[-51.591078,-29.54918429999998],[-51.593920599999926,-29.545887799999942],[-51.59410749999996,-29.543942099999974],[-51.594466299999965,-29.542972399999933],[-51.5961334,-29.541118399999966],[-51.59655829999997,-29.538242899999943],[-51.597145,-29.536866299999925],[-51.591124599999944,-29.540622799999944],[-51.590512199999985,-29.54196249999995],[-51.579296099999965,-29.546911499999965]]]}},{"type":"Feature","properties":{"setor":"430265905000009","pop":224,"sigilo_pop":false,"dom":104,"sigilo_dom":false,"mulheres":102,"sigilo_mulheres":false,"c0_4":10,"sigilo_c0_4":false,"c5_9":null,"sigilo_c5_9":true,"i60_69":31,"sigilo_i60_69":false,"i70m":27,"sigilo_i70m":false,"indigenas":0,"sigilo_indigenas":false,"pretos_pardos":null,"sigilo_pretos_pardos":true,"dom_ocupados":87,"sigilo_dom_ocupados":false,"dom_agua":77,"sigilo_dom_agua":false,"dom_esgoto":0,"sigilo_dom_esgoto":false,"renda_resp":2426.62,"sigilo_renda_resp":false,"n_resp":87,"sigilo_n_resp":false,"dens":34.7,"sigilo_dens":false,"na_bacia":0,"area_pct_bacia":17.9307,"metodo_recorte_bacia":"ponto_representativo_setor_2022; area_pct_geometrica","status_borda_bacia":"parcial","metodo_area_bacia":"interse??o geom?trica em EPSG:5880","metodo_na_bacia":"ponto_representativo_setor_2022_within_bacia","pop_n_validos":1,"pop_n_total":1,"pop_completude":1.0,"dom_n_validos":1,"dom_n_total":1,"dom_completude":1.0,"dom_ocupados_n_validos":1,"dom_ocupados_n_total":1,"dom_ocupados_completude":1.0,"mulheres_n_validos":1,"mulheres_n_total":1,"mulheres_completude":1.0,"c0_4_n_validos":1,"c0_4_n_total":1,"c0_4_completude":1.0,"c5_9_n_validos":0,"c5_9_n_total":1,"c5_9_completude":0.0,"i60_69_n_validos":1,"i60_69_n_total":1,"i60_69_completude":1.0,"i70m_n_validos":1,"i70m_n_total":1,"i70m_completude":1.0,"indigenas_n_validos":1,"indigenas_n_total":1,"indigenas_completude":1.0,"pretos_pardos_n_validos":0,"pretos_pardos_n_total":1,"pretos_pardos_completude":0.0,"dom_agua_n_validos":1,"dom_agua_n_total":1,"dom_agua_completude":1.0,"dom_esgoto_n_validos":1,"dom_esgoto_n_total":1,"dom_esgoto_completude":1.0,"n_resp_n_validos":1,"n_resp_n_total":1,"n_resp_completude":1.0,"renda_resp_n_validos":1,"renda_resp_n_total":1,"renda_resp_completude":1.0,"dens_n_validos":1,"dens_n_total":1,"dens_completude":1.0},"geometry":{"type":"Polygon","coordinates":[[[-51.576730699999985,-29.581687599999945],[-51.57987779999996,-29.587169299999974],[-51.580158,-29.58794],[-51.57969479999997,-29.589676599999958],[-51.58271559999997,-29.59222949999997],[-51.584028699999976,-29.594803699999943],[-51.58220179999994,-29.59655079999994],[-51.58175209999996,-29.59747109999995],[-51.58059039999995,-29.598774899999952],[-51.57906239999995,-29.599894599999967],[-51.57714009999995,-29.602829299999936],[-51.575714699999935,-29.61295769999999],[-51.57769429999996,-29.61235179999994],[-51.57849969999995,-29.610975199999928],[-51.57997919999997,-29.609950299999984],[-51.58147989999998,-29.60955009999998],[-51.58245439999996,-29.60899669999998],[-51.58314429999996,-29.60808509999998],[-51.58414449999998,-29.604599],[-51.583991099999935,-29.603640299999938],[-51.58419249999997,-29.60303309999994],[-51.587463299999975,-29.599537199999926],[-51.58807979999995,-29.598614199999925],[-51.58792239999997,-29.596146699999967],[-51.58904949999993,-29.594883499999987],[-51.58912379999999,-29.594482099999944],[-51.588830899999955,-29.594012399999944],[-51.58783219999997,-29.59355139999996],[-51.58753279999996,-29.59285119999998],[-51.587886799999985,-29.591087199999954],[-51.587127599999974,-29.589819499999976],[-51.58463859999995,-29.574558599999918],[-51.58365909999998,-29.574706799999944],[-51.58296219999995,-29.571103799999936],[-51.58203229999998,-29.569847799999938],[-51.57885569999996,-29.570147],[-51.578704,-29.568784099999952],[-51.580453199999965,-29.568548699999944],[-51.58009419999997,-29.56542749999994],[-51.58134649999994,-29.565298699999968],[-51.58238289999997,-29.563708],[-51.58488329999995,-29.562459],[-51.58717119999994,-29.55963659999998],[-51.587572799999975,-29.558771199999963],[-51.590545,-29.557901299999976],[-51.591287,-29.556103199999935],[-51.589583799999964,-29.556682299999977],[-51.58911889999997,-29.555373699999972],[-51.59183949999994,-29.554286899999976],[-51.59257069999995,-29.55425959999997],[-51.59330449999994,-29.554714799999946],[-51.595088099999934,-29.553406299999956],[-51.59339759999995,-29.551903599999942],[-51.589593499999985,-29.550626099999924],[-51.58448109999995,-29.551461],[-51.581915,-29.55306269999994],[-51.581772299999955,-29.55186239999995],[-51.579817299999945,-29.55203109999995],[-51.577890199999956,-29.55171229999997],[-51.576004299999965,-29.551022399999976],[-51.575027399999954,-29.54977579999996],[-51.57302469999996,-29.54991139999992],[-51.57079079999994,-29.55065869999993],[-51.57086019999997,-29.552609399999945],[-51.57168079999996,-29.554082399999967],[-51.57179,-29.55530889999994],[-51.571016699999966,-29.556425],[-51.570076599999936,-29.55695359999993],[-51.570079599999985,-29.55722819999993],[-51.57048839999993,-29.557444699999962],[-51.570359,-29.558431199999976],[-51.57096939999996,-29.559955599999963],[-51.569991699999946,-29.560843899999956],[-51.56975019999994,-29.562153],[-51.56998329999993,-29.563014],[-51.570429899999965,-29.563197599999963],[-51.576730699999985,-29.581687599999945]]]}},{"type":"Feature","properties":{"setor":"430265905000010","pop":401,"sigilo_pop":false,"dom":201,"sigilo_dom":false,"mulheres":188,"sigilo_mulheres":false,"c0_4":24,"sigilo_c0_4":false,"c5_9":20,"sigilo_c5_9":false,"i60_69":67,"sigilo_i60_69":false,"i70m":54,"sigilo_i70m":false,"indigenas":0,"sigilo_indigenas":false,"pretos_pardos":14,"sigilo_pretos_pardos":false,"dom_ocupados":158,"sigilo_dom_ocupados":false,"dom_agua":140,"sigilo_dom_agua":false,"dom_esgoto":null,"sigilo_dom_esgoto":true,"renda_resp":2551.42,"sigilo_renda_resp":false,"n_resp":158,"sigilo_n_resp":false,"dens":31.2,"sigilo_dens":false,"na_bacia":0,"area_pct_bacia":43.0602,"metodo_recorte_bacia":"ponto_representativo_setor_2022; area_pct_geometrica","status_borda_bacia":"parcial","metodo_area_bacia":"interse??o geom?trica em EPSG:5880","metodo_na_bacia":"ponto_representativo_setor_2022_within_bacia","pop_n_validos":1,"pop_n_total":1,"pop_completude":1.0,"dom_n_validos":1,"dom_n_total":1,"dom_completude":1.0,"dom_ocupados_n_validos":1,"dom_ocupados_n_total":1,"dom_ocupados_completude":1.0,"mulheres_n_validos":1,"mulheres_n_total":1,"mulheres_completude":1.0,"c0_4_n_validos":1,"c0_4_n_total":1,"c0_4_completude":1.0,"c5_9_n_validos":1,"c5_9_n_total":1,"c5_9_completude":1.0,"i60_69_n_validos":1,"i60_69_n_total":1,"i60_69_completude":1.0,"i70m_n_validos":1,"i70m_n_total":1,"i70m_completude":1.0,"indigenas_n_validos":1,"indigenas_n_total":1,"indigenas_completude":1.0,"pretos_pardos_n_validos":1,"pretos_pardos_n_total":1,"pretos_pardos_completude":1.0,"dom_agua_n_validos":1,"dom_agua_n_total":1,"dom_agua_completude":1.0,"dom_esgoto_n_validos":0,"dom_esgoto_n_total":1,"dom_esgoto_completude":0.0,"n_resp_n_validos":1,"n_resp_n_total":1,"n_resp_completude":1.0,"renda_resp_n_validos":1,"renda_resp_n_total":1,"renda_resp_completude":1.0,"dens_n_validos":1,"dens_n_total":1,"dens_completude":1.0},"geometry":{"type":"Polygon","coordinates":[[[-51.59243289999995,-29.562663499999932],[-51.59105619999997,-29.56540969999997],[-51.59150189999997,-29.568504399999934],[-51.58724889999996,-29.571158799999974],[-51.58571529999995,-29.573938],[-51.5858894,-29.57556759999994],[-51.584982899999936,-29.575743499999923],[-51.587127599999974,-29.589819499999976],[-51.587886799999985,-29.591087199999954],[-51.58753279999996,-29.59285119999998],[-51.58783219999997,-29.59355139999996],[-51.588830899999955,-29.594012399999944],[-51.58912379999999,-29.594482099999944],[-51.58904949999993,-29.594883499999987],[-51.58792239999997,-29.596146699999967],[-51.58807979999995,-29.598614199999925],[-51.587463299999975,-29.599537199999926],[-51.58419249999997,-29.60303309999994],[-51.583991099999935,-29.603640299999938],[-51.58414449999998,-29.604599],[-51.58314429999996,-29.60808509999998],[-51.58245439999996,-29.60899669999998],[-51.58147989999998,-29.60955009999998],[-51.57997919999997,-29.609950299999984],[-51.57849969999995,-29.610975199999928],[-51.57769429999996,-29.61235179999994],[-51.591015599999935,-29.61054559999998],[-51.593877,-29.605680199999934],[-51.597172599999965,-29.60291109999997],[-51.599286,-29.59834409999996],[-51.601569099999956,-29.597900299999925],[-51.60291369999994,-29.59649649999994],[-51.604765399999955,-29.59590109999993],[-51.60678249999996,-29.593882299999954],[-51.60739049999995,-29.592664299999964],[-51.60814789999995,-29.59223389999994],[-51.62132239999995,-29.594455],[-51.62249259999998,-29.59667049999995],[-51.630035599999985,-29.59235959999995],[-51.63050719999996,-29.589188399999948],[-51.62988209999998,-29.585765],[-51.63038319999998,-29.584807099999985],[-51.628601299999964,-29.5834407],[-51.62878219999993,-29.58261819999996],[-51.62975729999994,-29.58125639999997],[-51.629755399999965,-29.5806666],[-51.62886579999997,-29.580865699999944],[-51.628059199999946,-29.580678],[-51.62587869999993,-29.58162459999993],[-51.62499349999996,-29.581262199999973],[-51.623751599999935,-29.581372399999964],[-51.622904,-29.58064789999996],[-51.62220119999995,-29.580930599999927],[-51.62172549999997,-29.58067289999998],[-51.621666,-29.579961],[-51.62001029999993,-29.579703699999975],[-51.61836569999997,-29.578288599999954],[-51.616661499999964,-29.577535599999973],[-51.61647629999994,-29.577095199999977],[-51.61579139999998,-29.576629299999976],[-51.61543659999995,-29.57505639999993],[-51.61470959999997,-29.5744299],[-51.612126799999935,-29.573171],[-51.610999299999946,-29.57120649999996],[-51.609732099999974,-29.569917399999948],[-51.607603,-29.568763699999984],[-51.60370439999997,-29.56554279999995],[-51.602940399999966,-29.564242299999922],[-51.60274689999995,-29.563370199999955],[-51.601972,-29.562279],[-51.601525,-29.56265079999995],[-51.59577049999996,-29.56441459999996],[-51.594963,-29.55897],[-51.59299679999998,-29.559611],[-51.59248569999993,-29.56126279999994],[-51.59243289999995,-29.562663499999932]]]}},{"type":"Feature","properties":{"setor":"430265905000011","pop":225,"sigilo_pop":false,"dom":137,"sigilo_dom":0,"mulheres":126,"sigilo_mulheres":0,"c0_4":9,"sigilo_c0_4":0,"c5_9":7,"sigilo_c5_9":0,"i60_69":47,"sigilo_i60_69":0,"i70m":29,"sigilo_i70m":0,"indigenas":0,"sigilo_indigenas":0,"pretos_pardos":12,"sigilo_pretos_pardos":0,"dom_ocupados":95,"sigilo_dom_ocupados":0,"dom_agua":76,"sigilo_dom_agua":0,"dom_esgoto":0,"sigilo_dom_esgoto":0,"renda_resp":1932.61,"sigilo_renda_resp":0,"n_resp":95,"sigilo_n_resp":0,"dens":22.3,"sigilo_dens":false,"na_bacia":1,"area_pct_bacia":44.8426,"metodo_recorte_bacia":"ponto_representativo_setor_2022; area_pct_geometrica","pop_n_validos":1,"pop_n_total":1,"pop_completude":1.0,"dom_n_validos":1,"dom_n_total":1,"dom_completude":1.0,"dom_ocupados_n_validos":1,"dom_ocupados_n_total":1,"dom_ocupados_completude":1.0,"mulheres_n_validos":1,"mulheres_n_total":1,"mulheres_completude":1.0,"c0_4_n_validos":1,"c0_4_n_total":1,"c0_4_completude":1.0,"c5_9_n_validos":1,"c5_9_n_total":1,"c5_9_completude":1.0,"i60_69_n_validos":1,"i60_69_n_total":1,"i60_69_completude":1.0,"i70m_n_validos":1,"i70m_n_total":1,"i70m_completude":1.0,"indigenas_n_validos":1,"indigenas_n_total":1,"indigenas_completude":1.0,"pretos_pardos_n_validos":1,"pretos_pardos_n_total":1,"pretos_pardos_completude":1.0,"dom_agua_n_validos":1,"dom_agua_n_total":1,"dom_agua_completude":1.0,"dom_esgoto_n_validos":1,"dom_esgoto_n_total":1,"dom_esgoto_completude":1.0,"n_resp_n_validos":1,"n_resp_n_total":1,"n_resp_completude":1.0,"renda_resp_n_validos":1,"renda_resp_n_total":1,"renda_resp_completude":1.0,"dens_n_validos":1,"dens_n_total":1,"dens_completude":1.0,"status_borda_bacia":"parcial","metodo_area_bacia":"interse??o geom?trica em EPSG:5880","metodo_na_bacia":"ponto_representativo_setor_2022_within_bacia","municipio":"Brochier","cod_mun":"4302659","mun_pct_na_bacia":28.6,"mun_pop_total":4966,"mun_pop_na_bacia":437.0,"mun_ubs_iede":5,"mun_hospitais_iede":null,"mun_escolas_iede":4,"mun_bombeiros_iede":null,"mun_servicos_cobertura":"cadastro_IEDE_parcial_nao_inventario","mun_icm_faixa":"A","mun_icm_pontos":12,"mun_icm_prioritario":"não","mun_ubs_iede_status":"published","mun_hospitais_iede_status":"unknown","mun_escolas_iede_status":"published","mun_bombeiros_iede_status":"unknown"},"geometry":{"type":"Polygon","coordinates":[[[-51.599594699999955,-29.55969439999996],[-51.60116119999997,-29.56033859999998],[-51.60256059999995,-29.561700099999946],[-51.601972,-29.562279],[-51.60274689999995,-29.563370199999955],[-51.602940399999966,-29.564242299999922],[-51.60370439999997,-29.56554279999995],[-51.607603,-29.568763699999984],[-51.609732099999974,-29.569917399999948],[-51.610999299999946,-29.57120649999996],[-51.612126799999935,-29.573171],[-51.61470959999997,-29.5744299],[-51.61543659999995,-29.57505639999993],[-51.61579139999998,-29.576629299999976],[-51.61647629999994,-29.577095199999977],[-51.616661499999964,-29.577535599999973],[-51.61836569999997,-29.578288599999954],[-51.62001029999993,-29.579703699999975],[-51.621666,-29.579961],[-51.62172549999997,-29.58067289999998],[-51.62220119999995,-29.580930599999927],[-51.622904,-29.58064789999996],[-51.623751599999935,-29.581372399999964],[-51.62499349999996,-29.581262199999973],[-51.62587869999993,-29.58162459999993],[-51.628059199999946,-29.580678],[-51.62886579999997,-29.580865699999944],[-51.629755399999965,-29.5806666],[-51.62975729999994,-29.58125639999997],[-51.62878219999993,-29.58261819999996],[-51.628601299999964,-29.5834407],[-51.63038319999998,-29.584807099999985],[-51.63018859999994,-29.585197899999955],[-51.631207199999956,-29.58330969999997],[-51.63759279999994,-29.57841509999997],[-51.63857379999996,-29.575738],[-51.64041739999993,-29.574545299999947],[-51.642722499999934,-29.574631299999965],[-51.64833909999993,-29.57676249999997],[-51.64798129999998,-29.585556499999928],[-51.64961949999998,-29.58823489999998],[-51.649461,-29.590170799999953],[-51.650477,-29.59016629999996],[-51.65024389999997,-29.590125],[-51.651171799999986,-29.587805699999937],[-51.650821,-29.586071599999975],[-51.65023819999993,-29.585219099999957],[-51.64985009999998,-29.58516249999996],[-51.649359799999964,-29.584636699999983],[-51.650475599999936,-29.583393399999977],[-51.65010929999994,-29.582353399999924],[-51.65018329999998,-29.58093869999992],[-51.64955469999996,-29.578968],[-51.650261299999954,-29.577225599999956],[-51.64986059999995,-29.5757273],[-51.65075559999997,-29.574614099999973],[-51.6510732,-29.573650099999945],[-51.65095809999997,-29.573518099999937],[-51.64994849999994,-29.574096499999932],[-51.648821,-29.57415389999994],[-51.648514199999966,-29.573977],[-51.64808449999999,-29.573023599999942],[-51.646873299999974,-29.572691699999936],[-51.64671719999995,-29.572458699999977],[-51.646608,-29.570610099999946],[-51.64823749999994,-29.567893599999937],[-51.646783099999936,-29.56826929999994],[-51.64617349999997,-29.568150699999933],[-51.64499509999996,-29.568337499999977],[-51.64459819999997,-29.56830259999997],[-51.64442679999997,-29.567661599999955],[-51.644673099999984,-29.56697639999993],[-51.646118799999954,-29.565687],[-51.64679369999993,-29.56410079999994],[-51.64676319999996,-29.563538399999974],[-51.64707329999993,-29.562935499999977],[-51.646997899999974,-29.55980509999996],[-51.64651379999998,-29.55954729999997],[-51.64582249999995,-29.559592799999947],[-51.64293269999997,-29.558384499999935],[-51.64065629999994,-29.557851599999932],[-51.640277699999956,-29.55698349999994],[-51.63962209999994,-29.556829299999936],[-51.637440099999935,-29.557101099999947],[-51.63602419999995,-29.556907499999955],[-51.634512,-29.557409],[-51.631912899999975,-29.55784],[-51.63007669999996,-29.55783029999999],[-51.62936239999994,-29.558135399999976],[-51.62871779999995,-29.558924899999962],[-51.62754159999998,-29.559103499999942],[-51.62610749999993,-29.558661699999956],[-51.625392799999986,-29.557551699999976],[-51.623979099999985,-29.557334199999964],[-51.62289979999997,-29.55682059999997],[-51.62232779999994,-29.556039799999958],[-51.617944,-29.554795099999975],[-51.61026819999995,-29.55416],[-51.607645599999955,-29.55358029999995],[-51.60790389999993,-29.556021],[-51.60575969999996,-29.556225799999936],[-51.60554709999997,-29.554300099999985],[-51.60430329999996,-29.554438],[-51.602259499999946,-29.554288299999925],[-51.599519499999985,-29.553552099999933],[-51.59748509999997,-29.55433679999994],[-51.597580099999966,-29.555392],[-51.598952899999965,-29.557612799999962],[-51.599594699999955,-29.55969439999996]]]}},{"type":"Feature","properties":{"setor":"430265905000012","pop":421,"sigilo_pop":false,"dom":234,"sigilo_dom":false,"mulheres":203,"sigilo_mulheres":false,"c0_4":25,"sigilo_c0_4":false,"c5_9":25,"sigilo_c5_9":false,"i60_69":69,"sigilo_i60_69":false,"i70m":46,"sigilo_i70m":false,"indigenas":0,"sigilo_indigenas":false,"pretos_pardos":25,"sigilo_pretos_pardos":false,"dom_ocupados":167,"sigilo_dom_ocupados":false,"dom_agua":135,"sigilo_dom_agua":false,"dom_esgoto":0,"sigilo_dom_esgoto":false,"renda_resp":2546.06,"sigilo_renda_resp":false,"n_resp":167,"sigilo_n_resp":false,"dens":22.8,"sigilo_dens":false,"na_bacia":0,"area_pct_bacia":39.3967,"metodo_recorte_bacia":"ponto_representativo_setor_2022; area_pct_geometrica","status_borda_bacia":"parcial","metodo_area_bacia":"interse??o geom?trica em EPSG:5880","metodo_na_bacia":"ponto_representativo_setor_2022_within_bacia","pop_n_validos":1,"pop_n_total":1,"pop_completude":1.0,"dom_n_validos":1,"dom_n_total":1,"dom_completude":1.0,"dom_ocupados_n_validos":1,"dom_ocupados_n_total":1,"dom_ocupados_completude":1.0,"mulheres_n_validos":1,"mulheres_n_total":1,"mulheres_completude":1.0,"c0_4_n_validos":1,"c0_4_n_total":1,"c0_4_completude":1.0,"c5_9_n_validos":1,"c5_9_n_total":1,"c5_9_completude":1.0,"i60_69_n_validos":1,"i60_69_n_total":1,"i60_69_completude":1.0,"i70m_n_validos":1,"i70m_n_total":1,"i70m_completude":1.0,"indigenas_n_validos":1,"indigenas_n_total":1,"indigenas_completude":1.0,"pretos_pardos_n_validos":1,"pretos_pardos_n_total":1,"pretos_pardos_completude":1.0,"dom_agua_n_validos":1,"dom_agua_n_total":1,"dom_agua_completude":1.0,"dom_esgoto_n_validos":1,"dom_esgoto_n_total":1,"dom_esgoto_completude":1.0,"n_resp_n_validos":1,"n_resp_n_total":1,"n_resp_completude":1.0,"renda_resp_n_validos":1,"renda_resp_n_total":1,"renda_resp_completude":1.0,"dens_n_validos":1,"dens_n_total":1,"dens_completude":1.0},"geometry":{"type":"Polygon","coordinates":[[[-51.653611499999954,-29.530162199999957],[-51.65054029999993,-29.531502399999965],[-51.649643,-29.533356699999967],[-51.647695499999934,-29.533763],[-51.64645689999998,-29.534491199999938],[-51.64567119999998,-29.535450399999945],[-51.6437,-29.536887899999957],[-51.64136229999997,-29.537632],[-51.638783399999966,-29.539849899999982],[-51.638169199999936,-29.540931099999966],[-51.63558619999998,-29.541213699999954],[-51.634166799999946,-29.539353299999963],[-51.630181,-29.53783029999994],[-51.62910389999997,-29.53718949999996],[-51.628355499999934,-29.537123299999955],[-51.62662359999996,-29.53812449999997],[-51.625291,-29.537855099999945],[-51.621912799999954,-29.53879829999995],[-51.621113299999934,-29.538664299999933],[-51.61724049999998,-29.539022199999977],[-51.61591359999994,-29.53864689999994],[-51.61291309999996,-29.53863289999998],[-51.61217489999996,-29.538430799999954],[-51.61063879999995,-29.538573],[-51.610129599999944,-29.54049949999996],[-51.60873179999999,-29.541928299999945],[-51.60814549999998,-29.54340769999993],[-51.60927349999998,-29.544919899999968],[-51.60931019999999,-29.546407799999937],[-51.608659799999934,-29.547468599999945],[-51.60857979999998,-29.548411599999945],[-51.60804269999994,-29.548907499999924],[-51.60620069999993,-29.549007699999944],[-51.607645599999955,-29.55358029999995],[-51.61026819999995,-29.55416],[-51.6151129,-29.55446449999993],[-51.61875009999994,-29.555016299999973],[-51.621114,-29.555835],[-51.62232779999994,-29.556039799999958],[-51.62289979999997,-29.55682059999997],[-51.623979099999985,-29.557334199999964],[-51.625392799999986,-29.557551699999976],[-51.62610749999993,-29.558661699999956],[-51.627225099999976,-29.55904919999995],[-51.628347499999954,-29.55910509999995],[-51.62936239999994,-29.558135399999976],[-51.63007669999996,-29.55783029999999],[-51.631912899999975,-29.55784],[-51.634512,-29.557409],[-51.63602419999995,-29.556907499999955],[-51.637440099999935,-29.557101099999947],[-51.63962209999994,-29.556829299999936],[-51.640277699999956,-29.55698349999994],[-51.64065629999994,-29.557851599999932],[-51.64293269999997,-29.558384499999935],[-51.64582249999995,-29.559592799999947],[-51.64651379999998,-29.55954729999997],[-51.646997899999974,-29.55980509999996],[-51.64707329999993,-29.562935499999977],[-51.64676319999996,-29.563538399999974],[-51.64679369999993,-29.56410079999994],[-51.646118799999954,-29.565687],[-51.644673099999984,-29.56697639999993],[-51.64442679999997,-29.567661599999955],[-51.64459819999997,-29.56830259999997],[-51.64499509999996,-29.568337499999977],[-51.64617349999997,-29.568150699999933],[-51.646783099999936,-29.56826929999994],[-51.64823749999994,-29.567893599999937],[-51.646608,-29.570610099999946],[-51.64671719999995,-29.572458699999977],[-51.646873299999974,-29.572691699999936],[-51.64808449999999,-29.573023599999942],[-51.648514199999966,-29.573977],[-51.648821,-29.57415389999994],[-51.64994849999994,-29.574096499999932],[-51.65095809999997,-29.573518099999937],[-51.6510732,-29.573650099999945],[-51.65075559999997,-29.574614099999973],[-51.64986059999995,-29.5757273],[-51.650261299999954,-29.577225599999956],[-51.64955469999996,-29.578968],[-51.65018329999998,-29.58093869999992],[-51.65010929999994,-29.582353399999924],[-51.650475599999936,-29.583393399999977],[-51.649359799999964,-29.584636699999983],[-51.64985009999998,-29.58516249999996],[-51.65023819999993,-29.585219099999957],[-51.650821,-29.586071599999975],[-51.651171799999986,-29.587805699999937],[-51.65024389999997,-29.590125],[-51.662737299999954,-29.590103899999967],[-51.6621,-29.588775199999922],[-51.663363,-29.581546299999953],[-51.664746499999985,-29.513160299999985],[-51.66124949999994,-29.51263969999995],[-51.66181089999998,-29.51331],[-51.661892799999976,-29.513752],[-51.66166949999997,-29.516082099999952],[-51.661857199999986,-29.51646589999995],[-51.66178639999998,-29.52270339999995],[-51.66039379999995,-29.524297499999935],[-51.660429799999974,-29.525132499999984],[-51.658941599999935,-29.52590289999995],[-51.658802399999956,-29.527512],[-51.658190399999974,-29.527949099999944],[-51.65710789999997,-29.529711299999978],[-51.656647,-29.52933],[-51.655552899999975,-29.529213699999968],[-51.65412839999994,-29.530176699999963],[-51.653611499999954,-29.530162199999957]]]}},{"type":"Feature","properties":{"setor":"430265905000013","pop":186,"sigilo_pop":false,"dom":96,"sigilo_dom":false,"mulheres":83,"sigilo_mulheres":false,"c0_4":9,"sigilo_c0_4":false,"c5_9":null,"sigilo_c5_9":true,"i60_69":21,"sigilo_i60_69":false,"i70m":18,"sigilo_i70m":false,"indigenas":null,"sigilo_indigenas":true,"pretos_pardos":18,"sigilo_pretos_pardos":false,"dom_ocupados":78,"sigilo_dom_ocupados":false,"dom_agua":68,"sigilo_dom_agua":false,"dom_esgoto":0,"sigilo_dom_esgoto":false,"renda_resp":2485.74,"sigilo_renda_resp":false,"n_resp":78,"sigilo_n_resp":false,"dens":32.1,"sigilo_dens":false,"na_bacia":0,"area_pct_bacia":0.0,"metodo_recorte_bacia":"ponto_representativo_setor_2022; area_pct_geometrica","status_borda_bacia":"total","metodo_area_bacia":"interse??o geom?trica em EPSG:5880","metodo_na_bacia":"ponto_representativo_setor_2022_within_bacia","pop_n_validos":1,"pop_n_total":1,"pop_completude":1.0,"dom_n_validos":1,"dom_n_total":1,"dom_completude":1.0,"dom_ocupados_n_validos":1,"dom_ocupados_n_total":1,"dom_ocupados_completude":1.0,"mulheres_n_validos":1,"mulheres_n_total":1,"mulheres_completude":1.0,"c0_4_n_validos":1,"c0_4_n_total":1,"c0_4_completude":1.0,"c5_9_n_validos":0,"c5_9_n_total":1,"c5_9_completude":0.0,"i60_69_n_validos":1,"i60_69_n_total":1,"i60_69_completude":1.0,"i70m_n_validos":1,"i70m_n_total":1,"i70m_completude":1.0,"indigenas_n_validos":0,"indigenas_n_total":1,"indigenas_completude":0.0,"pretos_pardos_n_validos":1,"pretos_pardos_n_total":1,"pretos_pardos_completude":1.0,"dom_agua_n_validos":1,"dom_agua_n_total":1,"dom_agua_completude":1.0,"dom_esgoto_n_validos":1,"dom_esgoto_n_total":1,"dom_esgoto_completude":1.0,"n_resp_n_validos":1,"n_resp_n_total":1,"n_resp_completude":1.0,"renda_resp_n_validos":1,"renda_resp_n_total":1,"renda_resp_completude":1.0,"dens_n_validos":1,"dens_n_total":1,"dens_completude":1.0},"geometry":{"type":"Polygon","coordinates":[[[-51.60521259999996,-29.530207699999934],[-51.601124199999965,-29.53532189999993],[-51.598341699999935,-29.53470039999997],[-51.59818809999995,-29.53636029999996],[-51.59918189999996,-29.536408799999954],[-51.59840909999997,-29.541350499999954],[-51.59608869999994,-29.54441639999992],[-51.59619429999998,-29.54572139999993],[-51.59577269999995,-29.546818499999958],[-51.593549,-29.549779],[-51.59458539999997,-29.55032839999996],[-51.597196099999955,-29.55235639999993],[-51.59738889999994,-29.552264699999967],[-51.597268499999984,-29.551505399999932],[-51.59679559999995,-29.550807799999987],[-51.59684279999993,-29.55048679999992],[-51.59758649999997,-29.54997989999998],[-51.598193399999964,-29.550134899999932],[-51.59860889999993,-29.54991369999994],[-51.59904659999995,-29.54870269999998],[-51.59982739999998,-29.548205799999945],[-51.60055539999996,-29.548133099999976],[-51.60106949999994,-29.548374899999946],[-51.60120669999998,-29.548826399999935],[-51.60343139999998,-29.548753299999923],[-51.60587879999997,-29.548262899999948],[-51.60620069999993,-29.549007699999944],[-51.60753549999998,-29.548978799999926],[-51.60836709999996,-29.548706599999953],[-51.608659799999934,-29.547468599999945],[-51.6093489,-29.546159],[-51.60927349999998,-29.544919899999968],[-51.60814549999998,-29.54340769999993],[-51.60873179999999,-29.541928299999945],[-51.610129599999944,-29.54049949999996],[-51.61063879999995,-29.538573],[-51.61217489999996,-29.538430799999954],[-51.61291309999996,-29.53863289999998],[-51.61591359999994,-29.53864689999994],[-51.61724049999998,-29.539022199999977],[-51.621113299999934,-29.538664299999933],[-51.621912799999954,-29.53879829999995],[-51.625291,-29.537855099999945],[-51.62662359999996,-29.53812449999997],[-51.628355499999934,-29.537123299999955],[-51.62910389999997,-29.53718949999996],[-51.630181,-29.53783029999994],[-51.634166799999946,-29.539353299999963],[-51.63558619999998,-29.541213699999954],[-51.638169199999936,-29.540931099999966],[-51.638783399999966,-29.539849899999982],[-51.64136229999997,-29.537632],[-51.6437,-29.536887899999957],[-51.64567119999998,-29.535450399999945],[-51.64645689999998,-29.534491199999938],[-51.647695499999934,-29.533763],[-51.649643,-29.533356699999967],[-51.65054029999993,-29.531502399999965],[-51.651669,-29.531079],[-51.65284679999996,-29.52950269999996],[-51.651894,-29.528048699999946],[-51.650771299999974,-29.52810709999995],[-51.64958839999997,-29.52777549999995],[-51.64812239999998,-29.52814349999995],[-51.629611599999976,-29.52986839999994],[-51.62370869999996,-29.530547],[-51.621963499999936,-29.530944399999942],[-51.61826119999996,-29.530629799999925],[-51.61660889999996,-29.53070089999994],[-51.61327979999999,-29.53149869999992],[-51.61216609999997,-29.531974799999933],[-51.60866429999999,-29.530987599999943],[-51.60812339999996,-29.530604699999962],[-51.60521259999996,-29.530207699999934]]]}},{"type":"Feature","properties":{"setor":"430265905000014","pop":274,"sigilo_pop":false,"dom":161,"sigilo_dom":false,"mulheres":133,"sigilo_mulheres":false,"c0_4":12,"sigilo_c0_4":false,"c5_9":13,"sigilo_c5_9":false,"i60_69":31,"sigilo_i60_69":false,"i70m":37,"sigilo_i70m":false,"indigenas":0,"sigilo_indigenas":false,"pretos_pardos":34,"sigilo_pretos_pardos":false,"dom_ocupados":108,"sigilo_dom_ocupados":false,"dom_agua":89,"sigilo_dom_agua":false,"dom_esgoto":0,"sigilo_dom_esgoto":false,"renda_resp":3076.72,"sigilo_renda_resp":false,"n_resp":108,"sigilo_n_resp":false,"dens":23.1,"sigilo_dens":false,"na_bacia":0,"area_pct_bacia":3.1655,"metodo_recorte_bacia":"ponto_representativo_setor_2022; area_pct_geometrica","status_borda_bacia":"parcial","metodo_area_bacia":"interse??o geom?trica em EPSG:5880","metodo_na_bacia":"ponto_representativo_setor_2022_within_bacia","pop_n_validos":1,"pop_n_total":1,"pop_completude":1.0,"dom_n_validos":1,"dom_n_total":1,"dom_completude":1.0,"dom_ocupados_n_validos":1,"dom_ocupados_n_total":1,"dom_ocupados_completude":1.0,"mulheres_n_validos":1,"mulheres_n_total":1,"mulheres_completude":1.0,"c0_4_n_validos":1,"c0_4_n_total":1,"c0_4_completude":1.0,"c5_9_n_validos":1,"c5_9_n_total":1,"c5_9_completude":1.0,"i60_69_n_validos":1,"i60_69_n_total":1,"i60_69_completude":1.0,"i70m_n_validos":1,"i70m_n_total":1,"i70m_completude":1.0,"indigenas_n_validos":1,"indigenas_n_total":1,"indigenas_completude":1.0,"pretos_pardos_n_validos":1,"pretos_pardos_n_total":1,"pretos_pardos_completude":1.0,"dom_agua_n_validos":1,"dom_agua_n_total":1,"dom_agua_completude":1.0,"dom_esgoto_n_validos":1,"dom_esgoto_n_total":1,"dom_esgoto_completude":1.0,"n_resp_n_validos":1,"n_resp_n_total":1,"n_resp_completude":1.0,"renda_resp_n_validos":1,"renda_resp_n_total":1,"renda_resp_completude":1.0,"dens_n_validos":1,"dens_n_total":1,"dens_completude":1.0},"geometry":{"type":"Polygon","coordinates":[[[-51.60894949999994,-29.523462599999945],[-51.60896029999998,-29.524484],[-51.60521259999996,-29.530207699999934],[-51.60812339999996,-29.530604699999962],[-51.60866429999999,-29.530987599999943],[-51.611817199999955,-29.53195759999995],[-51.61660889999996,-29.53070089999994],[-51.61826119999996,-29.530629799999925],[-51.621963499999936,-29.530944399999942],[-51.62370869999996,-29.530547],[-51.629611599999976,-29.52986839999994],[-51.64812239999998,-29.52814349999995],[-51.64958839999997,-29.52777549999995],[-51.650771299999974,-29.52810709999995],[-51.651894,-29.528048699999946],[-51.65284679999996,-29.52950269999996],[-51.651669,-29.531079],[-51.653611499999954,-29.530162199999957],[-51.65412839999994,-29.530176699999963],[-51.655552899999975,-29.529213699999968],[-51.656647,-29.52933],[-51.65710789999997,-29.529711299999978],[-51.658190399999974,-29.527949099999944],[-51.658934,-29.527282399999926],[-51.658941599999935,-29.52590289999995],[-51.660429799999974,-29.525132499999984],[-51.66039379999995,-29.524297499999935],[-51.66178639999998,-29.52270339999995],[-51.66181089999998,-29.51331],[-51.66097389999993,-29.512248899999975],[-51.65959779999997,-29.511354],[-51.657333499999936,-29.509338099999972],[-51.657244399999975,-29.504692699999953],[-51.65553049999994,-29.50224729999995],[-51.653434499999946,-29.501587499999964],[-51.65270519999995,-29.50041559999994],[-51.65080859999994,-29.499116499999957],[-51.649567,-29.498542],[-51.648392399999985,-29.497506399999956],[-51.648256,-29.49667509999995],[-51.64754969999995,-29.496353599999953],[-51.64604029999998,-29.498563],[-51.64444549999996,-29.499571399999983],[-51.64201869999994,-29.50263529999995],[-51.641910799999955,-29.503890199999947],[-51.64122279999998,-29.505942399999974],[-51.64016029999994,-29.506548899999935],[-51.64014369999996,-29.507175],[-51.63908369999996,-29.507824599999935],[-51.63864739999997,-29.50779479999993],[-51.637305699999956,-29.508345199999944],[-51.63713949999994,-29.509019499999976],[-51.63632679999996,-29.510130199999935],[-51.63501709999996,-29.511077599999968],[-51.63476929999995,-29.511753],[-51.63480839999994,-29.512916],[-51.634480899999964,-29.513012399999983],[-51.63418919999999,-29.512815399999955],[-51.63300159999994,-29.511539],[-51.632162599999965,-29.511325699999922],[-51.63019,-29.51009629999993],[-51.629012499999924,-29.50992639999998],[-51.62456089999994,-29.511159899999942],[-51.62264,-29.5115],[-51.619501699999944,-29.511625],[-51.618235399999946,-29.512279799999927],[-51.616832,-29.513379399999952],[-51.61586129999995,-29.514491199999945],[-51.615093,-29.516061899999944],[-51.61498819999997,-29.516853],[-51.614525199999946,-29.5172444],[-51.614440199999926,-29.51795109999995],[-51.613854499999945,-29.51882619999998],[-51.613777899999945,-29.520725499999966],[-51.61295169999993,-29.521422899999944],[-51.611833099999956,-29.521758],[-51.6096242,-29.523261],[-51.60894949999994,-29.523462599999945]]]}},{"type":"Feature","properties":{"setor":"430265905000015","pop":212,"sigilo_pop":false,"dom":121,"sigilo_dom":0,"mulheres":95,"sigilo_mulheres":0,"c0_4":8,"sigilo_c0_4":0,"c5_9":13,"sigilo_c5_9":0,"i60_69":41,"sigilo_i60_69":0,"i70m":34,"sigilo_i70m":0,"indigenas":0,"sigilo_indigenas":0,"pretos_pardos":26,"sigilo_pretos_pardos":0,"dom_ocupados":91,"sigilo_dom_ocupados":0,"dom_agua":73,"sigilo_dom_agua":0,"dom_esgoto":0,"sigilo_dom_esgoto":0,"renda_resp":2675.29,"sigilo_renda_resp":0,"n_resp":91,"sigilo_n_resp":0,"dens":22.7,"sigilo_dens":false,"na_bacia":1,"area_pct_bacia":95.2895,"metodo_recorte_bacia":"ponto_representativo_setor_2022; area_pct_geometrica","pop_n_validos":1,"pop_n_total":1,"pop_completude":1.0,"dom_n_validos":1,"dom_n_total":1,"dom_completude":1.0,"dom_ocupados_n_validos":1,"dom_ocupados_n_total":1,"dom_ocupados_completude":1.0,"mulheres_n_validos":1,"mulheres_n_total":1,"mulheres_completude":1.0,"c0_4_n_validos":1,"c0_4_n_total":1,"c0_4_completude":1.0,"c5_9_n_validos":1,"c5_9_n_total":1,"c5_9_completude":1.0,"i60_69_n_validos":1,"i60_69_n_total":1,"i60_69_completude":1.0,"i70m_n_validos":1,"i70m_n_total":1,"i70m_completude":1.0,"indigenas_n_validos":1,"indigenas_n_total":1,"indigenas_completude":1.0,"pretos_pardos_n_validos":1,"pretos_pardos_n_total":1,"pretos_pardos_completude":1.0,"dom_agua_n_validos":1,"dom_agua_n_total":1,"dom_agua_completude":1.0,"dom_esgoto_n_validos":1,"dom_esgoto_n_total":1,"dom_esgoto_completude":1.0,"n_resp_n_validos":1,"n_resp_n_total":1,"n_resp_completude":1.0,"renda_resp_n_validos":1,"renda_resp_n_total":1,"renda_resp_completude":1.0,"dens_n_validos":1,"dens_n_total":1,"dens_completude":1.0,"status_borda_bacia":"parcial","metodo_area_bacia":"interse??o geom?trica em EPSG:5880","metodo_na_bacia":"ponto_representativo_setor_2022_within_bacia","municipio":"Brochier","cod_mun":"4302659","mun_pct_na_bacia":28.6,"mun_pop_total":4966,"mun_pop_na_bacia":437.0,"mun_ubs_iede":5,"mun_hospitais_iede":null,"mun_escolas_iede":4,"mun_bombeiros_iede":null,"mun_servicos_cobertura":"cadastro_IEDE_parcial_nao_inventario","mun_icm_faixa":"A","mun_icm_pontos":12,"mun_icm_prioritario":"não","mun_ubs_iede_status":"published","mun_hospitais_iede_status":"unknown","mun_escolas_iede_status":"published","mun_bombeiros_iede_status":"unknown"},"geometry":{"type":"Polygon","coordinates":[[[-51.64454839999996,-29.48174],[-51.64293239999995,-29.48235219999998],[-51.64242529999996,-29.483435399999973],[-51.64233039999994,-29.485513099999945],[-51.64187369999997,-29.486891699999934],[-51.64120669999995,-29.487546799999958],[-51.63937159999995,-29.48849679999995],[-51.638353299999956,-29.489907299999974],[-51.63691479999994,-29.493204099999954],[-51.63819929999994,-29.493321899999955],[-51.63915,-29.491797299999973],[-51.644398199999955,-29.493400499999947],[-51.64590819999995,-29.49344759999997],[-51.6480926,-29.494530899999976],[-51.64754969999995,-29.496353599999953],[-51.648256,-29.49667509999995],[-51.648392399999985,-29.497506399999956],[-51.649567,-29.498542],[-51.65080859999994,-29.499116499999957],[-51.65270519999995,-29.50041559999994],[-51.653434499999946,-29.501587499999964],[-51.65553049999994,-29.50224729999995],[-51.657244399999975,-29.504692699999953],[-51.657333499999936,-29.509338099999972],[-51.66124949999994,-29.51263969999995],[-51.664746499999985,-29.513160299999985],[-51.66499679999998,-29.500774299999932],[-51.69077329999993,-29.500759599999988],[-51.690417099999934,-29.487774899999973],[-51.66808449999996,-29.487479299999965],[-51.66937369999994,-29.480862099999975],[-51.64715739999996,-29.480980099999957],[-51.647102099999984,-29.4813948],[-51.64457019999997,-29.481514],[-51.64454839999996,-29.48174]]]}},{"type":"Feature","properties":{"setor":"430265905000016","pop":279,"sigilo_pop":false,"dom":149,"sigilo_dom":false,"mulheres":138,"sigilo_mulheres":false,"c0_4":18,"sigilo_c0_4":false,"c5_9":13,"sigilo_c5_9":false,"i60_69":40,"sigilo_i60_69":false,"i70m":50,"sigilo_i70m":false,"indigenas":0,"sigilo_indigenas":false,"pretos_pardos":50,"sigilo_pretos_pardos":false,"dom_ocupados":102,"sigilo_dom_ocupados":false,"dom_agua":78,"sigilo_dom_agua":false,"dom_esgoto":0,"sigilo_dom_esgoto":false,"renda_resp":2986.79,"sigilo_renda_resp":false,"n_resp":102,"sigilo_n_resp":false,"dens":19.3,"sigilo_dens":false,"na_bacia":0,"area_pct_bacia":16.6033,"metodo_recorte_bacia":"ponto_representativo_setor_2022; area_pct_geometrica","status_borda_bacia":"parcial","metodo_area_bacia":"interse??o geom?trica em EPSG:5880","metodo_na_bacia":"ponto_representativo_setor_2022_within_bacia","pop_n_validos":1,"pop_n_total":1,"pop_completude":1.0,"dom_n_validos":1,"dom_n_total":1,"dom_completude":1.0,"dom_ocupados_n_validos":1,"dom_ocupados_n_total":1,"dom_ocupados_completude":1.0,"mulheres_n_validos":1,"mulheres_n_total":1,"mulheres_completude":1.0,"c0_4_n_validos":1,"c0_4_n_total":1,"c0_4_completude":1.0,"c5_9_n_validos":1,"c5_9_n_total":1,"c5_9_completude":1.0,"i60_69_n_validos":1,"i60_69_n_total":1,"i60_69_completude":1.0,"i70m_n_validos":1,"i70m_n_total":1,"i70m_completude":1.0,"indigenas_n_validos":1,"indigenas_n_total":1,"indigenas_completude":1.0,"pretos_pardos_n_validos":1,"pretos_pardos_n_total":1,"pretos_pardos_completude":1.0,"dom_agua_n_validos":1,"dom_agua_n_total":1,"dom_agua_completude":1.0,"dom_esgoto_n_validos":1,"dom_esgoto_n_total":1,"dom_esgoto_completude":1.0,"n_resp_n_validos":1,"n_resp_n_total":1,"n_resp_completude":1.0,"renda_resp_n_validos":1,"renda_resp_n_total":1,"renda_resp_completude":1.0,"dens_n_validos":1,"dens_n_total":1,"dens_completude":1.0},"geometry":{"type":"Polygon","coordinates":[[[-51.601757099999986,-29.475654699999943],[-51.59891319999997,-29.47620849999993],[-51.59108849999996,-29.475817899999985],[-51.59049339999996,-29.476170899999936],[-51.588202099999926,-29.476811799999954],[-51.58803779999994,-29.478072799999946],[-51.59166209999995,-29.479897099999956],[-51.592871499999944,-29.479005499999964],[-51.59404569999998,-29.479248299999938],[-51.59406,-29.479710199999943],[-51.592561899999964,-29.48077489999998],[-51.59328339999996,-29.48208879999993],[-51.594733299999966,-29.480743299999972],[-51.59521259999997,-29.48080109999995],[-51.60115629999996,-29.47876729999996],[-51.60198619999994,-29.478853],[-51.60327149999995,-29.480254499999937],[-51.604226,-29.480930499999932],[-51.60345509999997,-29.48184579999998],[-51.60215519999997,-29.482736099999943],[-51.60147559999995,-29.483792],[-51.601299099999956,-29.485510299999916],[-51.60098339999996,-29.485532799999923],[-51.600664299999956,-29.48489789999997],[-51.60041769999998,-29.485133899999937],[-51.602343099999985,-29.491125799999956],[-51.602197599999954,-29.492389899999985],[-51.60249229999994,-29.49353619999993],[-51.60223659999997,-29.49514589999994],[-51.60184919999995,-29.495610099999972],[-51.60154509999995,-29.496750299999984],[-51.60181769999996,-29.499876199999953],[-51.601360299999946,-29.502184499999938],[-51.601523899999954,-29.502762199999946],[-51.603071399999976,-29.50473219999997],[-51.60578839999994,-29.509633899999983],[-51.60654159999995,-29.51053579999995],[-51.60675039999996,-29.51141269999994],[-51.60797069999996,-29.511949599999973],[-51.60756059999994,-29.512556699999955],[-51.60723,-29.51384579999995],[-51.609783,-29.516775399999972],[-51.61003709999994,-29.519140599999947],[-51.60907129999999,-29.52037709999995],[-51.60894949999994,-29.523462599999945],[-51.60927629999997,-29.523432099999976],[-51.611833099999956,-29.521758],[-51.61295169999993,-29.521422899999944],[-51.613777899999945,-29.520725499999966],[-51.613854499999945,-29.51882619999998],[-51.614440199999926,-29.51795109999995],[-51.614525199999946,-29.5172444],[-51.61498819999997,-29.516853],[-51.615093,-29.516061899999944],[-51.61586129999995,-29.514491199999945],[-51.616832,-29.513379399999952],[-51.618235399999946,-29.512279799999927],[-51.619501699999944,-29.511625],[-51.62264,-29.5115],[-51.62456089999994,-29.511159899999942],[-51.629012499999924,-29.50992639999998],[-51.63019,-29.51009629999993],[-51.632162599999965,-29.511325699999922],[-51.63300159999994,-29.511539],[-51.63418919999999,-29.512815399999955],[-51.634480899999964,-29.513012399999983],[-51.63480839999994,-29.512916],[-51.63476929999995,-29.511753],[-51.63501709999996,-29.511077599999968],[-51.63632679999996,-29.510130199999935],[-51.63713949999994,-29.509019499999976],[-51.637305699999956,-29.508345199999944],[-51.63864739999997,-29.50779479999993],[-51.63908369999996,-29.507824599999935],[-51.64014369999996,-29.507175],[-51.64016029999994,-29.506548899999935],[-51.64138159999993,-29.505755099999934],[-51.64201869999994,-29.50263529999995],[-51.64444549999996,-29.499571399999983],[-51.64604029999998,-29.498563],[-51.64754969999995,-29.496353599999953],[-51.6480926,-29.494530899999976],[-51.64590819999995,-29.49344759999997],[-51.644398199999955,-29.493400499999947],[-51.63915,-29.491797299999973],[-51.63819929999994,-29.493321899999955],[-51.63691479999994,-29.493204099999954],[-51.638353299999956,-29.489907299999974],[-51.63937159999995,-29.48849679999995],[-51.64120669999995,-29.487546799999958],[-51.64187369999997,-29.486891699999934],[-51.64233039999994,-29.485513099999945],[-51.64242529999996,-29.483435399999973],[-51.64293239999995,-29.48235219999998],[-51.64454839999996,-29.48174],[-51.63565639999995,-29.481781899999927],[-51.63565639999995,-29.482168899999984],[-51.61533859999997,-29.48246279999994],[-51.6152972,-29.481203199999978],[-51.613756799999976,-29.47974459999994],[-51.613346499999984,-29.478985499999958],[-51.61203349999994,-29.47508749999997],[-51.609653599999945,-29.47449249999994],[-51.607909799999966,-29.47432839999993],[-51.60353989999993,-29.47592859999997],[-51.601757099999986,-29.475654699999943]]]}},{"type":"Feature","properties":{"setor":"430265905000017","pop":183,"sigilo_pop":false,"dom":91,"sigilo_dom":false,"mulheres":81,"sigilo_mulheres":false,"c0_4":4,"sigilo_c0_4":false,"c5_9":null,"sigilo_c5_9":true,"i60_69":20,"sigilo_i60_69":false,"i70m":28,"sigilo_i70m":false,"indigenas":0,"sigilo_indigenas":false,"pretos_pardos":7,"sigilo_pretos_pardos":false,"dom_ocupados":72,"sigilo_dom_ocupados":false,"dom_agua":63,"sigilo_dom_agua":false,"dom_esgoto":0,"sigilo_dom_esgoto":false,"renda_resp":2568.32,"sigilo_renda_resp":false,"n_resp":72,"sigilo_n_resp":false,"dens":17.4,"sigilo_dens":false,"na_bacia":0,"area_pct_bacia":0.0,"metodo_recorte_bacia":"ponto_representativo_setor_2022; area_pct_geometrica","status_borda_bacia":"total","metodo_area_bacia":"interse??o geom?trica em EPSG:5880","metodo_na_bacia":"ponto_representativo_setor_2022_within_bacia","pop_n_validos":1,"pop_n_total":1,"pop_completude":1.0,"dom_n_validos":1,"dom_n_total":1,"dom_completude":1.0,"dom_ocupados_n_validos":1,"dom_ocupados_n_total":1,"dom_ocupados_completude":1.0,"mulheres_n_validos":1,"mulheres_n_total":1,"mulheres_completude":1.0,"c0_4_n_validos":1,"c0_4_n_total":1,"c0_4_completude":1.0,"c5_9_n_validos":0,"c5_9_n_total":1,"c5_9_completude":0.0,"i60_69_n_validos":1,"i60_69_n_total":1,"i60_69_completude":1.0,"i70m_n_validos":1,"i70m_n_total":1,"i70m_completude":1.0,"indigenas_n_validos":1,"indigenas_n_total":1,"indigenas_completude":1.0,"pretos_pardos_n_validos":1,"pretos_pardos_n_total":1,"pretos_pardos_completude":1.0,"dom_agua_n_validos":1,"dom_agua_n_total":1,"dom_agua_completude":1.0,"dom_esgoto_n_validos":1,"dom_esgoto_n_total":1,"dom_esgoto_completude":1.0,"n_resp_n_validos":1,"n_resp_n_total":1,"n_resp_completude":1.0,"renda_resp_n_validos":1,"renda_resp_n_total":1,"renda_resp_completude":1.0,"dens_n_validos":1,"dens_n_total":1,"dens_completude":1.0},"geometry":{"type":"Polygon","coordinates":[[[-51.58244539999998,-29.51572279999992],[-51.58295959999998,-29.51617739999996],[-51.58288069999998,-29.516732499999932],[-51.58378109999996,-29.5172621],[-51.58385509999993,-29.517545199999972],[-51.584551,-29.517918799999972],[-51.58538829999998,-29.51804269999996],[-51.58616569999998,-29.518562399999944],[-51.58640829999996,-29.51965559999996],[-51.58697409999996,-29.520076],[-51.58693249999993,-29.520558799999947],[-51.587551,-29.521216199999976],[-51.587993,-29.52227389999995],[-51.58992409999997,-29.523026499999958],[-51.590106299999945,-29.525117199999958],[-51.58954769999997,-29.525855599999936],[-51.58979209999996,-29.527342],[-51.58968619999997,-29.528430199999953],[-51.590057299999955,-29.53011809999997],[-51.58910209999994,-29.531334599999973],[-51.58902549999994,-29.531603099999977],[-51.589319,-29.53201059999998],[-51.589016399999934,-29.533311299999976],[-51.588505399999974,-29.533784899999944],[-51.588592199999944,-29.53449979999994],[-51.58832069999995,-29.53522559999993],[-51.58856819999994,-29.535573099999976],[-51.58841469999993,-29.536309399999926],[-51.58865949999995,-29.53765449999997],[-51.58779789999994,-29.538617599999945],[-51.58505449999995,-29.540464699999976],[-51.58440349999996,-29.54136659999995],[-51.58387589999995,-29.54161179999994],[-51.5825521,-29.54172739999995],[-51.58205309999993,-29.541945],[-51.581466399999954,-29.542774099999967],[-51.57944349999997,-29.543522599999964],[-51.579075,-29.544072399999948],[-51.57908979999996,-29.544918699999986],[-51.57826259999996,-29.545714299999922],[-51.578302,-29.54599129999996],[-51.579296099999965,-29.546911499999965],[-51.590512199999985,-29.54196249999995],[-51.591124599999944,-29.540622799999944],[-51.597145,-29.536866299999925],[-51.597337599999946,-29.536517799999963],[-51.59818809999995,-29.53636029999996],[-51.598341699999935,-29.53470039999997],[-51.59600469999998,-29.53414839999994],[-51.59476769999998,-29.53205379999998],[-51.59132869999996,-29.529431699999975],[-51.60747159999993,-29.52259569999995],[-51.60903229999997,-29.522469699999927],[-51.60907129999999,-29.52037709999995],[-51.61004249999996,-29.518891799999952],[-51.60971869999997,-29.516612799999947],[-51.60723,-29.51384579999995],[-51.60756059999994,-29.512556699999955],[-51.60797069999996,-29.511949599999973],[-51.60675039999996,-29.51141269999994],[-51.60654159999995,-29.51053579999995],[-51.60578839999994,-29.509633899999983],[-51.603071399999976,-29.50473219999997],[-51.601523899999954,-29.502762199999946],[-51.601360299999946,-29.502184499999938],[-51.60181769999996,-29.499876199999953],[-51.60154509999995,-29.496750299999984],[-51.60184919999995,-29.495610099999972],[-51.60223659999997,-29.49514589999994],[-51.60249229999994,-29.49353619999993],[-51.602197599999954,-29.492389899999985],[-51.602343099999985,-29.491125799999956],[-51.60041769999998,-29.485133899999937],[-51.600664299999956,-29.48489789999997],[-51.60098339999996,-29.485532799999923],[-51.601299099999956,-29.485510299999916],[-51.60147559999995,-29.483792],[-51.60215519999997,-29.482736099999943],[-51.60345509999997,-29.48184579999998],[-51.604226,-29.480930499999932],[-51.60327149999995,-29.480254499999937],[-51.60198619999994,-29.478853],[-51.60115629999996,-29.47876729999996],[-51.59521259999997,-29.48080109999995],[-51.594733299999966,-29.480743299999972],[-51.59328339999996,-29.48208879999993],[-51.592561899999964,-29.48077489999998],[-51.59406,-29.479710199999943],[-51.59404569999998,-29.479248299999938],[-51.592871499999944,-29.479005499999964],[-51.59166209999995,-29.479897099999956],[-51.58803779999994,-29.478072799999946],[-51.589519699999975,-29.488205699999977],[-51.58741189999995,-29.496413699999945],[-51.58258149999994,-29.502604499999958],[-51.58356989999998,-29.50693219999994],[-51.577976,-29.5105627],[-51.57885749999998,-29.51070559999994],[-51.57973019999998,-29.51123449999994],[-51.57985609999997,-29.511731299999944],[-51.57948059999996,-29.51213279999996],[-51.58021519999994,-29.512509699999942],[-51.580214099999985,-29.513254199999945],[-51.58119969999996,-29.51363819999993],[-51.58087579999995,-29.514534],[-51.58122639999994,-29.51474659999997],[-51.581990099999985,-29.514739699999947],[-51.58244539999998,-29.51572279999992]]]}},{"type":"Feature","properties":{"setor":"430265905000018","pop":370,"sigilo_pop":false,"dom":158,"sigilo_dom":false,"mulheres":207,"sigilo_mulheres":false,"c0_4":17,"sigilo_c0_4":false,"c5_9":24,"sigilo_c5_9":false,"i60_69":33,"sigilo_i60_69":false,"i70m":39,"sigilo_i70m":false,"indigenas":0,"sigilo_indigenas":false,"pretos_pardos":30,"sigilo_pretos_pardos":false,"dom_ocupados":146,"sigilo_dom_ocupados":false,"dom_agua":146,"sigilo_dom_agua":false,"dom_esgoto":null,"sigilo_dom_esgoto":true,"renda_resp":2588.13,"sigilo_renda_resp":false,"n_resp":146,"sigilo_n_resp":false,"dens":1640.1,"sigilo_dens":false,"na_bacia":0,"area_pct_bacia":0.0,"metodo_recorte_bacia":"ponto_representativo_setor_2022; area_pct_geometrica","status_borda_bacia":"total","metodo_area_bacia":"interse??o geom?trica em EPSG:5880","metodo_na_bacia":"ponto_representativo_setor_2022_within_bacia","pop_n_validos":1,"pop_n_total":1,"pop_completude":1.0,"dom_n_validos":1,"dom_n_total":1,"dom_completude":1.0,"dom_ocupados_n_validos":1,"dom_ocupados_n_total":1,"dom_ocupados_completude":1.0,"mulheres_n_validos":1,"mulheres_n_total":1,"mulheres_completude":1.0,"c0_4_n_validos":1,"c0_4_n_total":1,"c0_4_completude":1.0,"c5_9_n_validos":1,"c5_9_n_total":1,"c5_9_completude":1.0,"i60_69_n_validos":1,"i60_69_n_total":1,"i60_69_completude":1.0,"i70m_n_validos":1,"i70m_n_total":1,"i70m_completude":1.0,"indigenas_n_validos":1,"indigenas_n_total":1,"indigenas_completude":1.0,"pretos_pardos_n_validos":1,"pretos_pardos_n_total":1,"pretos_pardos_completude":1.0,"dom_agua_n_validos":1,"dom_agua_n_total":1,"dom_agua_completude":1.0,"dom_esgoto_n_validos":0,"dom_esgoto_n_total":1,"dom_esgoto_completude":0.0,"n_resp_n_validos":1,"n_resp_n_total":1,"n_resp_completude":1.0,"renda_resp_n_validos":1,"renda_resp_n_total":1,"renda_resp_completude":1.0,"dens_n_validos":1,"dens_n_total":1,"dens_completude":1.0},"geometry":{"type":"Polygon","coordinates":[[[-51.58463039999998,-29.563640399999937],[-51.58483839999997,-29.5646139],[-51.58796869999997,-29.564092199999955],[-51.58786449999997,-29.563116499999982],[-51.58956329999996,-29.56298969999993],[-51.590899899999954,-29.56316479999999],[-51.59114089999997,-29.561465899999966],[-51.59204989999994,-29.558669299999966],[-51.589978,-29.559121899999973],[-51.58894789999994,-29.55908939999995],[-51.588252299999965,-29.559357099999943],[-51.58779979999998,-29.56029419999993],[-51.585490399999976,-29.563163599999935],[-51.58463039999998,-29.563640399999937]]]}},{"type":"Feature","properties":{"setor":"430265905000019","pop":56,"sigilo_pop":false,"dom":23,"sigilo_dom":false,"mulheres":27,"sigilo_mulheres":false,"c0_4":null,"sigilo_c0_4":true,"c5_9":null,"sigilo_c5_9":true,"i60_69":null,"sigilo_i60_69":true,"i70m":null,"sigilo_i70m":true,"indigenas":0,"sigilo_indigenas":false,"pretos_pardos":3,"sigilo_pretos_pardos":false,"dom_ocupados":20,"sigilo_dom_ocupados":false,"dom_agua":20,"sigilo_dom_agua":false,"dom_esgoto":0,"sigilo_dom_esgoto":false,"renda_resp":3126.21,"sigilo_renda_resp":false,"n_resp":20,"sigilo_n_resp":false,"dens":314.4,"sigilo_dens":false,"na_bacia":0,"area_pct_bacia":0.0,"metodo_recorte_bacia":"ponto_representativo_setor_2022; area_pct_geometrica","status_borda_bacia":"total","metodo_area_bacia":"interse??o geom?trica em EPSG:5880","metodo_na_bacia":"ponto_representativo_setor_2022_within_bacia","pop_n_validos":1,"pop_n_total":1,"pop_completude":1.0,"dom_n_validos":1,"dom_n_total":1,"dom_completude":1.0,"dom_ocupados_n_validos":1,"dom_ocupados_n_total":1,"dom_ocupados_completude":1.0,"mulheres_n_validos":1,"mulheres_n_total":1,"mulheres_completude":1.0,"c0_4_n_validos":0,"c0_4_n_total":1,"c0_4_completude":0.0,"c5_9_n_validos":0,"c5_9_n_total":1,"c5_9_completude":0.0,"i60_69_n_validos":0,"i60_69_n_total":1,"i60_69_completude":0.0,"i70m_n_validos":0,"i70m_n_total":1,"i70m_completude":0.0,"indigenas_n_validos":1,"indigenas_n_total":1,"indigenas_completude":1.0,"pretos_pardos_n_validos":1,"pretos_pardos_n_total":1,"pretos_pardos_completude":1.0,"dom_agua_n_validos":1,"dom_agua_n_total":1,"dom_agua_completude":1.0,"dom_esgoto_n_validos":1,"dom_esgoto_n_total":1,"dom_esgoto_completude":1.0,"n_resp_n_validos":1,"n_resp_n_total":1,"n_resp_completude":1.0,"renda_resp_n_validos":1,"renda_resp_n_total":1,"renda_resp_completude":1.0,"dens_n_validos":1,"dens_n_total":1,"dens_completude":1.0},"geometry":{"type":"Polygon","coordinates":[[[-51.59099409999993,-29.562693499999963],[-51.590021399999955,-29.564987799999983],[-51.590431,-29.567865499999975],[-51.58934609999995,-29.568961199999926],[-51.58746919999999,-29.56959619999998],[-51.58646759999993,-29.570241899999928],[-51.586060499999974,-29.571647599999952],[-51.58457489999996,-29.573909],[-51.584982899999936,-29.575743499999923],[-51.5858894,-29.57556759999994],[-51.58571529999995,-29.573938],[-51.58724889999996,-29.571158799999974],[-51.59150189999997,-29.568504399999934],[-51.59105619999997,-29.56540969999997],[-51.59243289999995,-29.562663499999932],[-51.59099409999993,-29.562693499999963]]]}},{"type":"Feature","properties":{"setor":"430265920000001","pop":49,"sigilo_pop":false,"dom":32,"sigilo_dom":false,"mulheres":24,"sigilo_mulheres":false,"c0_4":null,"sigilo_c0_4":true,"c5_9":null,"sigilo_c5_9":true,"i60_69":null,"sigilo_i60_69":true,"i70m":null,"sigilo_i70m":true,"indigenas":0,"sigilo_indigenas":false,"pretos_pardos":4,"sigilo_pretos_pardos":false,"dom_ocupados":20,"sigilo_dom_ocupados":false,"dom_agua":18,"sigilo_dom_agua":false,"dom_esgoto":null,"sigilo_dom_esgoto":true,"renda_resp":3066.8,"sigilo_renda_resp":false,"n_resp":20,"sigilo_n_resp":false,"dens":646.2,"sigilo_dens":false,"na_bacia":0,"area_pct_bacia":0.0,"metodo_recorte_bacia":"ponto_representativo_setor_2022; area_pct_geometrica","status_borda_bacia":"total","metodo_area_bacia":"interse??o geom?trica em EPSG:5880","metodo_na_bacia":"ponto_representativo_setor_2022_within_bacia","pop_n_validos":1,"pop_n_total":1,"pop_completude":1.0,"dom_n_validos":1,"dom_n_total":1,"dom_completude":1.0,"dom_ocupados_n_validos":1,"dom_ocupados_n_total":1,"dom_ocupados_completude":1.0,"mulheres_n_validos":1,"mulheres_n_total":1,"mulheres_completude":1.0,"c0_4_n_validos":0,"c0_4_n_total":1,"c0_4_completude":0.0,"c5_9_n_validos":0,"c5_9_n_total":1,"c5_9_completude":0.0,"i60_69_n_validos":0,"i60_69_n_total":1,"i60_69_completude":0.0,"i70m_n_validos":0,"i70m_n_total":1,"i70m_completude":0.0,"indigenas_n_validos":1,"indigenas_n_total":1,"indigenas_completude":1.0,"pretos_pardos_n_validos":1,"pretos_pardos_n_total":1,"pretos_pardos_completude":1.0,"dom_agua_n_validos":1,"dom_agua_n_total":1,"dom_agua_completude":1.0,"dom_esgoto_n_validos":0,"dom_esgoto_n_total":1,"dom_esgoto_completude":0.0,"n_resp_n_validos":1,"n_resp_n_total":1,"n_resp_completude":1.0,"renda_resp_n_validos":1,"renda_resp_n_total":1,"renda_resp_completude":1.0,"dens_n_validos":1,"dens_n_total":1,"dens_completude":1.0},"geometry":{"type":"Polygon","coordinates":[[[-51.59851789999994,-29.532995199999952],[-51.59942969999997,-29.533069799999957],[-51.59981979999998,-29.530994299999964],[-51.600654899999945,-29.52952289999996],[-51.60264169999993,-29.530036],[-51.60432849999996,-29.53004439999993],[-51.60363129999997,-29.52949049999994],[-51.60040689999994,-29.52845369999995],[-51.59888889999996,-29.530676099999937],[-51.59851789999994,-29.532995199999952]]]}},{"type":"Feature","properties":{"setor":"430265920000002","pop":31,"sigilo_pop":false,"dom":15,"sigilo_dom":false,"mulheres":14,"sigilo_mulheres":false,"c0_4":null,"sigilo_c0_4":true,"c5_9":null,"sigilo_c5_9":true,"i60_69":null,"sigilo_i60_69":true,"i70m":7,"sigilo_i70m":false,"indigenas":0,"sigilo_indigenas":false,"pretos_pardos":null,"sigilo_pretos_pardos":true,"dom_ocupados":13,"sigilo_dom_ocupados":false,"dom_agua":12,"sigilo_dom_agua":false,"dom_esgoto":0,"sigilo_dom_esgoto":false,"renda_resp":2718.0,"sigilo_renda_resp":false,"n_resp":13,"sigilo_n_resp":false,"dens":317.5,"sigilo_dens":false,"na_bacia":0,"area_pct_bacia":0.0,"metodo_recorte_bacia":"ponto_representativo_setor_2022; area_pct_geometrica","status_borda_bacia":"total","metodo_area_bacia":"interse??o geom?trica em EPSG:5880","metodo_na_bacia":"ponto_representativo_setor_2022_within_bacia","pop_n_validos":1,"pop_n_total":1,"pop_completude":1.0,"dom_n_validos":1,"dom_n_total":1,"dom_completude":1.0,"dom_ocupados_n_validos":1,"dom_ocupados_n_total":1,"dom_ocupados_completude":1.0,"mulheres_n_validos":1,"mulheres_n_total":1,"mulheres_completude":1.0,"c0_4_n_validos":0,"c0_4_n_total":1,"c0_4_completude":0.0,"c5_9_n_validos":0,"c5_9_n_total":1,"c5_9_completude":0.0,"i60_69_n_validos":0,"i60_69_n_total":1,"i60_69_completude":0.0,"i70m_n_validos":1,"i70m_n_total":1,"i70m_completude":1.0,"indigenas_n_validos":1,"indigenas_n_total":1,"indigenas_completude":1.0,"pretos_pardos_n_validos":0,"pretos_pardos_n_total":1,"pretos_pardos_completude":0.0,"dom_agua_n_validos":1,"dom_agua_n_total":1,"dom_agua_completude":1.0,"dom_esgoto_n_validos":1,"dom_esgoto_n_total":1,"dom_esgoto_completude":1.0,"n_resp_n_validos":1,"n_resp_n_total":1,"n_resp_completude":1.0,"renda_resp_n_validos":1,"renda_resp_n_total":1,"renda_resp_completude":1.0,"dens_n_validos":1,"dens_n_total":1,"dens_completude":1.0},"geometry":{"type":"Polygon","coordinates":[[[-51.60040689999994,-29.52845369999995],[-51.60363129999997,-29.52949049999994],[-51.60432849999996,-29.53004439999993],[-51.60449739999996,-29.526666599999942],[-51.60395529999994,-29.526043799999968],[-51.60248839999997,-29.526835],[-51.60163359999996,-29.52685089999994],[-51.60079559999998,-29.52770029999993],[-51.60040689999994,-29.52845369999995]]]}},{"type":"Feature","properties":{"setor":"430265920000003","pop":33,"sigilo_pop":false,"dom":23,"sigilo_dom":false,"mulheres":16,"sigilo_mulheres":false,"c0_4":null,"sigilo_c0_4":true,"c5_9":null,"sigilo_c5_9":true,"i60_69":null,"sigilo_i60_69":true,"i70m":null,"sigilo_i70m":true,"indigenas":0,"sigilo_indigenas":false,"pretos_pardos":null,"sigilo_pretos_pardos":true,"dom_ocupados":17,"sigilo_dom_ocupados":false,"dom_agua":17,"sigilo_dom_agua":false,"dom_esgoto":0,"sigilo_dom_esgoto":false,"renda_resp":2385.88,"sigilo_renda_resp":false,"n_resp":17,"sigilo_n_resp":false,"dens":293.0,"sigilo_dens":false,"na_bacia":0,"area_pct_bacia":0.0,"metodo_recorte_bacia":"ponto_representativo_setor_2022; area_pct_geometrica","status_borda_bacia":"total","metodo_area_bacia":"interse??o geom?trica em EPSG:5880","metodo_na_bacia":"ponto_representativo_setor_2022_within_bacia","pop_n_validos":1,"pop_n_total":1,"pop_completude":1.0,"dom_n_validos":1,"dom_n_total":1,"dom_completude":1.0,"dom_ocupados_n_validos":1,"dom_ocupados_n_total":1,"dom_ocupados_completude":1.0,"mulheres_n_validos":1,"mulheres_n_total":1,"mulheres_completude":1.0,"c0_4_n_validos":0,"c0_4_n_total":1,"c0_4_completude":0.0,"c5_9_n_validos":0,"c5_9_n_total":1,"c5_9_completude":0.0,"i60_69_n_validos":0,"i60_69_n_total":1,"i60_69_completude":0.0,"i70m_n_validos":0,"i70m_n_total":1,"i70m_completude":0.0,"indigenas_n_validos":1,"indigenas_n_total":1,"indigenas_completude":1.0,"pretos_pardos_n_validos":0,"pretos_pardos_n_total":1,"pretos_pardos_completude":0.0,"dom_agua_n_validos":1,"dom_agua_n_total":1,"dom_agua_completude":1.0,"dom_esgoto_n_validos":1,"dom_esgoto_n_total":1,"dom_esgoto_completude":1.0,"n_resp_n_validos":1,"n_resp_n_total":1,"n_resp_completude":1.0,"renda_resp_n_validos":1,"renda_resp_n_total":1,"renda_resp_completude":1.0,"dens_n_validos":1,"dens_n_total":1,"dens_completude":1.0},"geometry":{"type":"Polygon","coordinates":[[[-51.59851789999994,-29.532995199999952],[-51.59863589999998,-29.531623899999936],[-51.599102799999976,-29.530287],[-51.601261099999924,-29.52713039999998],[-51.60163359999996,-29.52685089999994],[-51.60248839999997,-29.526835],[-51.60395529999994,-29.526043799999968],[-51.603283099999935,-29.52538539999996],[-51.60215139999997,-29.526057599999945],[-51.60115839999998,-29.526178299999966],[-51.59997159999994,-29.527266499999925],[-51.59870829999995,-29.527601],[-51.59882059999996,-29.52902319999997],[-51.59811679999996,-29.52980959999997],[-51.59752609999998,-29.531511399999943],[-51.59744029999996,-29.532921499999926],[-51.59851789999994,-29.532995199999952]]]}},{"type":"Feature","properties":{"setor":"430265920000004","pop":17,"sigilo_pop":false,"dom":6,"sigilo_dom":false,"mulheres":8,"sigilo_mulheres":false,"c0_4":null,"sigilo_c0_4":true,"c5_9":0,"sigilo_c5_9":false,"i60_69":null,"sigilo_i60_69":true,"i70m":null,"sigilo_i70m":true,"indigenas":0,"sigilo_indigenas":false,"pretos_pardos":0,"sigilo_pretos_pardos":false,"dom_ocupados":6,"sigilo_dom_ocupados":false,"dom_agua":4,"sigilo_dom_agua":false,"dom_esgoto":0,"sigilo_dom_esgoto":false,"renda_resp":2460.67,"sigilo_renda_resp":false,"n_resp":6,"sigilo_n_resp":false,"dens":75.0,"sigilo_dens":false,"na_bacia":0,"area_pct_bacia":0.0,"metodo_recorte_bacia":"ponto_representativo_setor_2022; area_pct_geometrica","status_borda_bacia":"total","metodo_area_bacia":"interse??o geom?trica em EPSG:5880","metodo_na_bacia":"ponto_representativo_setor_2022_within_bacia","pop_n_validos":1,"pop_n_total":1,"pop_completude":1.0,"dom_n_validos":1,"dom_n_total":1,"dom_completude":1.0,"dom_ocupados_n_validos":1,"dom_ocupados_n_total":1,"dom_ocupados_completude":1.0,"mulheres_n_validos":1,"mulheres_n_total":1,"mulheres_completude":1.0,"c0_4_n_validos":0,"c0_4_n_total":1,"c0_4_completude":0.0,"c5_9_n_validos":1,"c5_9_n_total":1,"c5_9_completude":1.0,"i60_69_n_validos":0,"i60_69_n_total":1,"i60_69_completude":0.0,"i70m_n_validos":0,"i70m_n_total":1,"i70m_completude":0.0,"indigenas_n_validos":1,"indigenas_n_total":1,"indigenas_completude":1.0,"pretos_pardos_n_validos":1,"pretos_pardos_n_total":1,"pretos_pardos_completude":1.0,"dom_agua_n_validos":1,"dom_agua_n_total":1,"dom_agua_completude":1.0,"dom_esgoto_n_validos":1,"dom_esgoto_n_total":1,"dom_esgoto_completude":1.0,"n_resp_n_validos":1,"n_resp_n_total":1,"n_resp_completude":1.0,"renda_resp_n_validos":1,"renda_resp_n_total":1,"renda_resp_completude":1.0,"dens_n_validos":1,"dens_n_total":1,"dens_completude":1.0},"geometry":{"type":"Polygon","coordinates":[[[-51.59851789999994,-29.532995199999952],[-51.598341699999935,-29.53470039999997],[-51.601124199999965,-29.53532189999993],[-51.60521259999996,-29.530207699999934],[-51.60264169999993,-29.530036],[-51.600654899999945,-29.52952289999996],[-51.59981979999998,-29.530994299999964],[-51.59942969999997,-29.533069799999957],[-51.59851789999994,-29.532995199999952]]]}},{"type":"Feature","properties":{"setor":"430265920000005","pop":25,"sigilo_pop":false,"dom":12,"sigilo_dom":false,"mulheres":11,"sigilo_mulheres":false,"c0_4":0,"sigilo_c0_4":false,"c5_9":0,"sigilo_c5_9":false,"i60_69":null,"sigilo_i60_69":true,"i70m":6,"sigilo_i70m":false,"indigenas":0,"sigilo_indigenas":false,"pretos_pardos":0,"sigilo_pretos_pardos":false,"dom_ocupados":11,"sigilo_dom_ocupados":false,"dom_agua":11,"sigilo_dom_agua":false,"dom_esgoto":0,"sigilo_dom_esgoto":false,"renda_resp":2240.73,"sigilo_renda_resp":false,"n_resp":11,"sigilo_n_resp":false,"dens":143.8,"sigilo_dens":false,"na_bacia":0,"area_pct_bacia":0.0,"metodo_recorte_bacia":"ponto_representativo_setor_2022; area_pct_geometrica","status_borda_bacia":"total","metodo_area_bacia":"interse??o geom?trica em EPSG:5880","metodo_na_bacia":"ponto_representativo_setor_2022_within_bacia","pop_n_validos":1,"pop_n_total":1,"pop_completude":1.0,"dom_n_validos":1,"dom_n_total":1,"dom_completude":1.0,"dom_ocupados_n_validos":1,"dom_ocupados_n_total":1,"dom_ocupados_completude":1.0,"mulheres_n_validos":1,"mulheres_n_total":1,"mulheres_completude":1.0,"c0_4_n_validos":1,"c0_4_n_total":1,"c0_4_completude":1.0,"c5_9_n_validos":1,"c5_9_n_total":1,"c5_9_completude":1.0,"i60_69_n_validos":0,"i60_69_n_total":1,"i60_69_completude":0.0,"i70m_n_validos":1,"i70m_n_total":1,"i70m_completude":1.0,"indigenas_n_validos":1,"indigenas_n_total":1,"indigenas_completude":1.0,"pretos_pardos_n_validos":1,"pretos_pardos_n_total":1,"pretos_pardos_completude":1.0,"dom_agua_n_validos":1,"dom_agua_n_total":1,"dom_agua_completude":1.0,"dom_esgoto_n_validos":1,"dom_esgoto_n_total":1,"dom_esgoto_completude":1.0,"n_resp_n_validos":1,"n_resp_n_total":1,"n_resp_completude":1.0,"renda_resp_n_validos":1,"renda_resp_n_total":1,"renda_resp_completude":1.0,"dens_n_validos":1,"dens_n_total":1,"dens_completude":1.0},"geometry":{"type":"Polygon","coordinates":[[[-51.60395529999994,-29.526043799999968],[-51.60449739999996,-29.526666599999942],[-51.60432849999996,-29.53004439999993],[-51.60521259999996,-29.530207699999934],[-51.60896029999998,-29.524484],[-51.60894949999994,-29.523462599999945],[-51.60717809999995,-29.523693399999953],[-51.60651649999994,-29.524509599999938],[-51.60395529999994,-29.526043799999968]]]}},{"type":"Feature","properties":{"setor":"430265920000006","pop":29,"sigilo_pop":false,"dom":21,"sigilo_dom":false,"mulheres":15,"sigilo_mulheres":false,"c0_4":null,"sigilo_c0_4":true,"c5_9":null,"sigilo_c5_9":true,"i60_69":null,"sigilo_i60_69":true,"i70m":13,"sigilo_i70m":false,"indigenas":0,"sigilo_indigenas":false,"pretos_pardos":null,"sigilo_pretos_pardos":true,"dom_ocupados":16,"sigilo_dom_ocupados":false,"dom_agua":15,"sigilo_dom_agua":false,"dom_esgoto":0,"sigilo_dom_esgoto":false,"renda_resp":3792.13,"sigilo_renda_resp":false,"n_resp":16,"sigilo_n_resp":false,"dens":61.8,"sigilo_dens":false,"na_bacia":0,"area_pct_bacia":0.0,"metodo_recorte_bacia":"ponto_representativo_setor_2022; area_pct_geometrica","status_borda_bacia":"total","metodo_area_bacia":"interse??o geom?trica em EPSG:5880","metodo_na_bacia":"ponto_representativo_setor_2022_within_bacia","pop_n_validos":1,"pop_n_total":1,"pop_completude":1.0,"dom_n_validos":1,"dom_n_total":1,"dom_completude":1.0,"dom_ocupados_n_validos":1,"dom_ocupados_n_total":1,"dom_ocupados_completude":1.0,"mulheres_n_validos":1,"mulheres_n_total":1,"mulheres_completude":1.0,"c0_4_n_validos":0,"c0_4_n_total":1,"c0_4_completude":0.0,"c5_9_n_validos":0,"c5_9_n_total":1,"c5_9_completude":0.0,"i60_69_n_validos":0,"i60_69_n_total":1,"i60_69_completude":0.0,"i70m_n_validos":1,"i70m_n_total":1,"i70m_completude":1.0,"indigenas_n_validos":1,"indigenas_n_total":1,"indigenas_completude":1.0,"pretos_pardos_n_validos":0,"pretos_pardos_n_total":1,"pretos_pardos_completude":0.0,"dom_agua_n_validos":1,"dom_agua_n_total":1,"dom_agua_completude":1.0,"dom_esgoto_n_validos":1,"dom_esgoto_n_total":1,"dom_esgoto_completude":1.0,"n_resp_n_validos":1,"n_resp_n_total":1,"n_resp_completude":1.0,"renda_resp_n_validos":1,"renda_resp_n_total":1,"renda_resp_completude":1.0,"dens_n_validos":1,"dens_n_total":1,"dens_completude":1.0},"geometry":{"type":"Polygon","coordinates":[[[-51.598341699999935,-29.53470039999997],[-51.59851789999994,-29.532995199999952],[-51.59744029999996,-29.532921499999926],[-51.59752609999998,-29.531511399999943],[-51.59811679999996,-29.52980959999997],[-51.59882059999996,-29.52902319999997],[-51.59870829999995,-29.527601],[-51.59997159999994,-29.527266499999925],[-51.60115839999998,-29.526178299999966],[-51.60215139999997,-29.526057599999945],[-51.603283099999935,-29.52538539999996],[-51.60395529999994,-29.526043799999968],[-51.60651649999994,-29.524509599999938],[-51.60717809999995,-29.523693399999953],[-51.60894949999994,-29.523462599999945],[-51.60903229999997,-29.522469699999927],[-51.60747159999993,-29.52259569999995],[-51.59132869999996,-29.529431699999975],[-51.59476769999998,-29.53205379999998],[-51.59600469999998,-29.53414839999994],[-51.598341699999935,-29.53470039999997]]]}}]}
