{"type":"FeatureCollection","name":"4303673","crs":{"type":"name","properties":{"name":"urn:ogc:def:crs:OGC:1.3:CRS84"}},"features":[{"type":"Feature","properties":{"setor":"430367305000001","pop":798,"sigilo_pop":false,"dom":378,"sigilo_dom":false,"mulheres":402,"sigilo_mulheres":false,"c0_4":40,"sigilo_c0_4":false,"c5_9":42,"sigilo_c5_9":false,"i60_69":99,"sigilo_i60_69":false,"i70m":105,"sigilo_i70m":false,"indigenas":0,"sigilo_indigenas":false,"pretos_pardos":140,"sigilo_pretos_pardos":false,"dom_ocupados":331,"sigilo_dom_ocupados":false,"dom_agua":286,"sigilo_dom_agua":false,"dom_esgoto":211,"sigilo_dom_esgoto":false,"renda_resp":2639.48,"sigilo_renda_resp":false,"n_resp":331,"sigilo_n_resp":false,"dens":725.9,"sigilo_dens":false,"na_bacia":1,"area_pct_bacia":100.0,"metodo_recorte_bacia":"ponto_representativo_setor_2022; area_pct_geometrica"},"geometry":{"type":"Polygon","coordinates":[[[-51.09481879999998,-28.80417489999996],[-51.095987799999925,-28.804476499999968],[-51.101047599999966,-28.80462],[-51.10045229999998,-28.80344339999993],[-51.100937,-28.80219979999998],[-51.09901309999997,-28.79614889999994],[-51.10028379999994,-28.791851399999942],[-51.09518329999997,-28.789574399999932],[-51.09340269999996,-28.790571299999957],[-51.09149009999993,-28.80000119999994],[-51.093750899999975,-28.802800799999943],[-51.09514459999997,-28.803643899999933],[-51.09481879999998,-28.80417489999996]]]}},{"type":"Feature","properties":{"setor":"430367305000002","pop":217,"sigilo_pop":false,"dom":132,"sigilo_dom":false,"mulheres":107,"sigilo_mulheres":false,"c0_4":null,"sigilo_c0_4":true,"c5_9":9,"sigilo_c5_9":false,"i60_69":45,"sigilo_i60_69":false,"i70m":31,"sigilo_i70m":false,"indigenas":0,"sigilo_indigenas":false,"pretos_pardos":27,"sigilo_pretos_pardos":false,"dom_ocupados":94,"sigilo_dom_ocupados":false,"dom_agua":64,"sigilo_dom_agua":false,"dom_esgoto":70,"sigilo_dom_esgoto":false,"renda_resp":2806.04,"sigilo_renda_resp":false,"n_resp":94,"sigilo_n_resp":false,"dens":170.5,"sigilo_dens":false,"na_bacia":1,"area_pct_bacia":100.0,"metodo_recorte_bacia":"ponto_representativo_setor_2022; area_pct_geometrica"},"geometry":{"type":"Polygon","coordinates":[[[-51.13214319999998,-28.83731509999995],[-51.13198809999995,-28.83946879999996],[-51.132663,-28.840028],[-51.132941,-28.840998499999948],[-51.133326599999975,-28.841332699999946],[-51.13268309999995,-28.84204609999994],[-51.13265279999995,-28.84292679999993],[-51.132022,-28.842675699999965],[-51.13118739999993,-28.840881499999966],[-51.1305139,-28.840676299999988],[-51.13107549999995,-28.842533799999966],[-51.12978919999995,-28.844270799999947],[-51.129744199999955,-28.844990599999967],[-51.12904,-28.84506689999995],[-51.128214499999956,-28.845801199999983],[-51.128939199999934,-28.845887799999954],[-51.12932569999998,-28.84666409999993],[-51.13003349999996,-28.847026399999944],[-51.13526769999998,-28.847440199999937],[-51.13605579999995,-28.847649899999965],[-51.13614339999997,-28.84816569999998],[-51.13637959999994,-28.847640199999937],[-51.136709,-28.848281399999948],[-51.13986879999993,-28.850187],[-51.14427669999998,-28.842626399999975],[-51.14389909999995,-28.84205679999997],[-51.14295949999996,-28.84135219999996],[-51.14196889999994,-28.841148699999955],[-51.13512419999995,-28.83608539999995],[-51.13214319999998,-28.83731509999995]]]}},{"type":"Feature","properties":{"setor":"430367305000003","pop":123,"sigilo_pop":false,"dom":62,"sigilo_dom":false,"mulheres":70,"sigilo_mulheres":false,"c0_4":null,"sigilo_c0_4":true,"c5_9":null,"sigilo_c5_9":true,"i60_69":20,"sigilo_i60_69":false,"i70m":24,"sigilo_i70m":false,"indigenas":0,"sigilo_indigenas":false,"pretos_pardos":15,"sigilo_pretos_pardos":false,"dom_ocupados":49,"sigilo_dom_ocupados":false,"dom_agua":0,"sigilo_dom_agua":false,"dom_esgoto":null,"sigilo_dom_esgoto":true,"renda_resp":1385.27,"sigilo_renda_resp":false,"n_resp":49,"sigilo_n_resp":false,"dens":211.7,"sigilo_dens":false,"na_bacia":1,"area_pct_bacia":100.0,"metodo_recorte_bacia":"ponto_representativo_setor_2022; area_pct_geometrica"},"geometry":{"type":"Polygon","coordinates":[[[-51.007306,-28.78141719999996],[-51.007276,-28.78436019999998],[-51.009258099999954,-28.784555399999935],[-51.01337229999996,-28.785801699999983],[-51.014348299999945,-28.786687599999944],[-51.017922,-28.78773869999998],[-51.018462599999964,-28.78643239999997],[-51.01870279999998,-28.784645499999957],[-51.01875319999994,-28.781007099999957],[-51.007306,-28.78141719999996]]]}},{"type":"Feature","properties":{"setor":"430367305000004","pop":37,"sigilo_pop":false,"dom":23,"sigilo_dom":false,"mulheres":16,"sigilo_mulheres":false,"c0_4":3,"sigilo_c0_4":false,"c5_9":null,"sigilo_c5_9":true,"i60_69":null,"sigilo_i60_69":true,"i70m":null,"sigilo_i70m":true,"indigenas":0,"sigilo_indigenas":false,"pretos_pardos":9,"sigilo_pretos_pardos":false,"dom_ocupados":14,"sigilo_dom_ocupados":false,"dom_agua":null,"sigilo_dom_agua":true,"dom_esgoto":0,"sigilo_dom_esgoto":false,"renda_resp":2246.45,"sigilo_renda_resp":false,"n_resp":14,"sigilo_n_resp":false,"dens":89.5,"sigilo_dens":false,"na_bacia":1,"area_pct_bacia":100.0,"metodo_recorte_bacia":"ponto_representativo_setor_2022; area_pct_geometrica"},"geometry":{"type":"Polygon","coordinates":[[[-51.087469399999975,-28.714188299999932],[-51.08761629999998,-28.71464209999994],[-51.086879,-28.725952],[-51.08770879999997,-28.725479899999975],[-51.09040679999998,-28.722503399999948],[-51.09122209999998,-28.71957379999999],[-51.091455,-28.714136299999957],[-51.087469399999975,-28.714188299999932]]]}},{"type":"Feature","properties":{"setor":"430367305000005","pop":345,"sigilo_pop":false,"dom":212,"sigilo_dom":false,"mulheres":161,"sigilo_mulheres":false,"c0_4":18,"sigilo_c0_4":false,"c5_9":28,"sigilo_c5_9":false,"i60_69":36,"sigilo_i60_69":false,"i70m":45,"sigilo_i70m":false,"indigenas":0,"sigilo_indigenas":false,"pretos_pardos":61,"sigilo_pretos_pardos":false,"dom_ocupados":127,"sigilo_dom_ocupados":false,"dom_agua":37,"sigilo_dom_agua":false,"dom_esgoto":null,"sigilo_dom_esgoto":true,"renda_resp":2441.87,"sigilo_renda_resp":false,"n_resp":127,"sigilo_n_resp":false,"dens":2.5,"sigilo_dens":false,"na_bacia":1,"area_pct_bacia":100.0,"metodo_recorte_bacia":"ponto_representativo_setor_2022; area_pct_geometrica"},"geometry":{"type":"Polygon","coordinates":[[[-50.97886439999996,-28.789272699999966],[-50.98030959999995,-28.79058509999993],[-50.98195469999996,-28.791314599999957],[-50.98293369999993,-28.792577499999933],[-50.98396129999997,-28.79272859999997],[-50.98595409999996,-28.791631199999973],[-50.98654679999998,-28.79106519999994],[-50.98794659999999,-28.790531899999973],[-50.98943049999997,-28.79028679999994],[-50.989482099999975,-28.78985389999997],[-50.98869229999997,-28.788009799999944],[-50.988774699999965,-28.78681919999997],[-50.98926549999993,-28.786314799999964],[-50.990276799999954,-28.78618779999993],[-50.99235029999995,-28.786355899999936],[-50.993714899999986,-28.78581469999995],[-50.995778799999975,-28.78631879999995],[-50.99693879999996,-28.786090699999928],[-50.997700799999954,-28.78457309999992],[-51.00123819999993,-28.783397899999954],[-51.003412099999935,-28.782342199999967],[-51.004914,-28.78234579999997],[-51.007302399999965,-28.783066399999942],[-51.007306,-28.78141719999996],[-51.01875319999994,-28.781007099999957],[-51.01875049999995,-28.78253719999998],[-51.019762,-28.782564699999963],[-51.020464299999965,-28.78289849999993],[-51.020604299999945,-28.783574699999974],[-51.024398,-28.786110599999976],[-51.024996,-28.787341199999954],[-51.02631139999994,-28.788344899999974],[-51.02763009999995,-28.78818929999995],[-51.02860829999997,-28.787596699999927],[-51.02932219999996,-28.786754],[-51.03152919999996,-28.786781599999976],[-51.03221409999998,-28.787071099999945],[-51.03372969999999,-28.78653939999998],[-51.034697,-28.78647239999997],[-51.03520389999994,-28.786653699999942],[-51.038193,-28.789165599999933],[-51.0390144,-28.790494499999962],[-51.03933409999996,-28.792029],[-51.03903719999994,-28.794303599999974],[-51.040106,-28.792681299999963],[-51.04082209999996,-28.792560399999957],[-51.04156489999996,-28.792932899999975],[-51.04278849999997,-28.79304439999994],[-51.043186799999944,-28.7925317],[-51.04475489999999,-28.79264159999999],[-51.04528929999997,-28.7923244],[-51.04566649999998,-28.792926099999935],[-51.04639129999998,-28.79329209999997],[-51.04877549999998,-28.792908699999934],[-51.05047719999993,-28.793020599999974],[-51.05315879999994,-28.793948399999962],[-51.053599099999985,-28.793827799999978],[-51.053918299999964,-28.79312309999994],[-51.05455189999998,-28.792821499999945],[-51.055554799999975,-28.79304],[-51.05600519999995,-28.792349],[-51.05648689999998,-28.79222539999995],[-51.059888499999936,-28.79181839999995],[-51.06143559999999,-28.791992399999963],[-51.06171349999995,-28.79194409999997],[-51.062185599999964,-28.79127789999995],[-51.06275279999995,-28.79158869999998],[-51.06457569999998,-28.79143829999999],[-51.06528219999996,-28.79088549999995],[-51.06551129999997,-28.79020359999998],[-51.06580649999996,-28.790079799999937],[-51.066538099999946,-28.790150799999942],[-51.068298599999935,-28.790844899999975],[-51.06808109999997,-28.790427699999945],[-51.06826909999995,-28.790165299999956],[-51.06913309999993,-28.78960419999992],[-51.070101,-28.788435199999974],[-51.072682499999985,-28.788192899999967],[-51.07468109999997,-28.786791199999975],[-51.07800649999995,-28.787577399999968],[-51.079247399999986,-28.787488299999936],[-51.07977839999995,-28.787644799999956],[-51.08036629999997,-28.788209299999956],[-51.08106239999996,-28.78809209999996],[-51.08251779999995,-28.788404099999976],[-51.08293029999999,-28.78894739999998],[-51.084074699999974,-28.789594699999952],[-51.084446,-28.79020929999995],[-51.08545479999998,-28.790577599999956],[-51.08634829999993,-28.791318299999947],[-51.08673049999993,-28.79170559999995],[-51.08684379999994,-28.792395899999956],[-51.08732089999995,-28.792642],[-51.087675399999966,-28.792564],[-51.08869529999998,-28.79324939999998],[-51.08905859999993,-28.793881399999957],[-51.08917509999998,-28.7953128],[-51.089627,-28.795633799999962],[-51.089675899999975,-28.796594299999978],[-51.09051089999996,-28.797729],[-51.091856,-28.7982737],[-51.09340269999996,-28.790571299999957],[-51.09518329999997,-28.789574399999932],[-51.095379099999946,-28.789687599999986],[-51.095105399999966,-28.789320799999924],[-51.09535149999993,-28.788509099999946],[-51.098084,-28.786226],[-51.09865089999993,-28.785259899999964],[-51.09851239999995,-28.784184699999976],[-51.09559649999994,-28.77978449999995],[-51.095026,-28.779369699999954],[-51.0930853,-28.779058],[-51.092406,-28.778430099999976],[-51.09249579999994,-28.77776309999996],[-51.093603899999955,-28.776349299999925],[-51.09373569999997,-28.775514599999944],[-51.092838,-28.771641199999976],[-51.09261219999996,-28.769326099999944],[-51.091467499999965,-28.76688119999995],[-51.09129879999994,-28.76584659999997],[-51.09450149999998,-28.75855629999995],[-51.09563019999996,-28.75067609999998],[-51.09475469999995,-28.748950899999944],[-51.09580429999994,-28.74462],[-51.09561949999994,-28.74373639999993],[-51.091089099999984,-28.733228699999987],[-51.089138899999966,-28.730256],[-51.087428099999954,-28.729407299999927],[-51.086788799999965,-28.72766979999994],[-51.08761629999998,-28.71464209999994],[-51.087469399999975,-28.714188299999932],[-51.08723839999994,-28.71380379999994],[-51.08170919999998,-28.709485799999985],[-51.08080549999995,-28.708307499999933],[-51.07933029999999,-28.706123399999967],[-51.07869989999995,-28.703859599999916],[-51.077669199999946,-28.70241349999997],[-51.075351,-28.700049099999944],[-51.07566589999993,-28.69753589999993],[-51.07350779999996,-28.694533699999962],[-51.071343799999966,-28.687902799999954],[-51.06673859999995,-28.685114299999945],[-51.06547859999994,-28.683051399999947],[-51.06509589999996,-28.682203699999945],[-51.06489149999993,-28.679526399999922],[-51.0644784,-28.67884049999998],[-51.063056299999964,-28.677498899999932],[-51.06290659999996,-28.676961199999937],[-51.06351289999998,-28.675043],[-51.06330289999994,-28.673666799999978],[-51.06413119999996,-28.671841299999976],[-51.064174899999955,-28.671086699999925],[-51.06343929999997,-28.669755899999927],[-51.06210859999993,-28.66953919999997],[-51.061649,-28.669223299999945],[-51.061201199999964,-28.66760009999995],[-51.05940429999998,-28.664682599999935],[-51.05858649999994,-28.661538199999924],[-51.05916929999995,-28.660366499999967],[-51.05920139999996,-28.65972909999993],[-51.0584904,-28.659160899999954],[-51.05502489999998,-28.657692],[-51.054351299999944,-28.656632199999933],[-51.05411009999994,-28.654870499999962],[-51.05326869999993,-28.653968199999948],[-51.05170929999998,-28.652882399999942],[-51.048338099999974,-28.652027099999934],[-51.04713419999996,-28.65093279999997],[-51.04398369999996,-28.637823499999968],[-51.038152,-28.62694189999997],[-51.038607299999974,-28.625421299999967],[-51.04429979999998,-28.619811099999932],[-51.044625199999984,-28.61922349999998],[-51.04294479999999,-28.61882539999994],[-51.04192349999994,-28.619472799999983],[-51.040890899999965,-28.61968439999998],[-51.04031159999993,-28.619231099999983],[-51.03870939999996,-28.619136099999935],[-51.038511599999936,-28.61929759999998],[-51.03853979999996,-28.61993869999997],[-51.038118699999984,-28.620113099999966],[-51.03740819999996,-28.619481299999972],[-51.03701749999993,-28.619457599999972],[-51.036509499999966,-28.62045959999995],[-51.03500709999997,-28.62054009999997],[-51.03430969999993,-28.62084749999996],[-51.033797899999975,-28.621356099999968],[-51.03346959999994,-28.622237699999964],[-51.03311789999998,-28.622467],[-51.030337799999984,-28.622878299999975],[-51.02974279999996,-28.622645499999965],[-51.029379699999936,-28.62273839999995],[-51.02879029999997,-28.62400709999997],[-51.02792739999995,-28.624508899999963],[-51.026755,-28.624706899999964],[-51.02619359999995,-28.623706899999938],[-51.02541789999998,-28.62379529999998],[-51.024790899999964,-28.62598749999996],[-51.02226689999998,-28.62968389999997],[-51.02201309999998,-28.631687399999972],[-51.02216189999996,-28.63335839999996],[-51.02117319999997,-28.63542319999994],[-51.02067689999996,-28.63898259999996],[-51.01947639999997,-28.63967559999997],[-51.01810429999995,-28.639784099999922],[-51.015468699999985,-28.640806099999967],[-51.012923,-28.640585],[-51.01212689999994,-28.640769799999926],[-51.011435699999936,-28.64123239999998],[-51.00943179999996,-28.64398169999998],[-51.01021089999995,-28.645510599999977],[-51.012923,-28.648935799999943],[-51.01490539999998,-28.650664799999966],[-51.01558049999995,-28.65242439999997],[-51.017252299999946,-28.653863199999947],[-51.01743969999996,-28.65441919999995],[-51.01654069999994,-28.65470349999998],[-51.01436819999998,-28.654432599999954],[-51.012113099999965,-28.654806499999946],[-51.008762599999955,-28.656137699999938],[-51.005036,-28.658117299999965],[-51.00435349999998,-28.65899269999995],[-51.00476689999993,-28.661654499999937],[-51.00435349999998,-28.66241779999995],[-51.00044559999998,-28.66430639999993],[-50.99975409999996,-28.66518339999993],[-50.999826,-28.66592179999998],[-51.000744599999955,-28.666923499999925],[-51.00180869999997,-28.66723],[-51.003675699999974,-28.667352399999956],[-51.005784,-28.667011],[-51.00673759999996,-28.667081],[-51.00798429999998,-28.667846499999925],[-51.00833859999995,-28.668585799999963],[-51.00825109999994,-28.669421299999954],[-51.00749049999996,-28.67038929999995],[-51.00419969999996,-28.672589199999944],[-51.00229849999994,-28.674523399999934],[-51.00165889999994,-28.67643359999994],[-51.00223189999997,-28.677527199999922],[-51.003119899999945,-28.677811499999958],[-51.005293199999976,-28.67776869999994],[-51.008457799999974,-28.677137799999976],[-51.01130069999994,-28.676225799999937],[-51.01236639999996,-28.67627609999993],[-51.013259199999936,-28.67670129999993],[-51.01323209999998,-28.677096799999962],[-51.01240009999998,-28.678133699999936],[-51.01023059999994,-28.679692499999927],[-51.00954379999996,-28.680742399999925],[-51.00957439999996,-28.68212469999997],[-51.01005389999995,-28.682943899999948],[-51.01054989999995,-28.683200799999955],[-51.01235269999996,-28.6834507],[-51.01633389999995,-28.682280499999937],[-51.01805649999995,-28.682098499999935],[-51.02017119999993,-28.68236369999995],[-51.02060679999994,-28.683065199999938],[-51.01982449999996,-28.68452029999998],[-51.01715089999993,-28.68625419999995],[-51.01536289999996,-28.688262],[-51.01336049999998,-28.694801799999944],[-51.01247179999996,-28.69615579999992],[-51.011715599999945,-28.696379199999967],[-51.01120609999998,-28.696271599999925],[-51.00853549999994,-28.69348509999997],[-51.007402499999955,-28.69288149999994],[-51.0056527,-28.692807099999982],[-51.00430319999998,-28.693008299999974],[-51.003633899999954,-28.693196399999973],[-51.002912099999946,-28.693891899999976],[-51.002492199999956,-28.695121199999956],[-51.00237409999993,-28.69743959999994],[-51.003607699999975,-28.700108],[-51.003682,-28.70111419999995],[-51.00313519999998,-28.702089699999934],[-51.00040469999993,-28.704536399999935],[-50.99972969999993,-28.70543609999993],[-50.99963349999996,-28.70623219999994],[-51.00017989999998,-28.708826799999937],[-51.00136139999995,-28.709456199999977],[-51.002665,-28.709311899999918],[-51.003020299999946,-28.709768299999944],[-51.00192569999996,-28.711232199999976],[-51.001326399999975,-28.713913799999943],[-50.999445399999956,-28.719762399999986],[-50.99987409999994,-28.720169199999926],[-51.00074829999994,-28.720118],[-51.001816,-28.719669299999957],[-51.004267899999945,-28.7180226],[-51.00765289999998,-28.717054599999972],[-51.009222299999976,-28.717207699999967],[-51.009520099999975,-28.717450299999932],[-51.009555199999966,-28.717853499999936],[-51.008064899999965,-28.71950539999995],[-51.006956299999956,-28.720287299999928],[-51.00479309999998,-28.720632899999938],[-51.00191819999998,-28.72162739999993],[-51.00161289999994,-28.722004299999966],[-51.00167849999997,-28.72352659999995],[-51.001361399999944,-28.72415209999996],[-51.000778199999964,-28.724717299999945],[-50.997736499999974,-28.725884099999984],[-50.996905499999976,-28.726673299999963],[-50.996608599999945,-28.727767599999936],[-50.99670039999996,-28.728423799999977],[-50.99889639999998,-28.731153399999982],[-50.99900139999994,-28.732387],[-50.99749659999998,-28.736175299999957],[-50.994047299999984,-28.74006849999994],[-50.993439299999984,-28.741512099999966],[-50.9932118,-28.742780699999972],[-50.992669399999954,-28.743581199999937],[-50.99238709999997,-28.743789499999934],[-50.99189419999993,-28.743601799999965],[-50.99155369999994,-28.743840699999957],[-50.9908157,-28.743506899999943],[-50.989674,-28.7424832],[-50.98829929999994,-28.740418499999983],[-50.98630459999998,-28.739779799999948],[-50.98296579999993,-28.740475399999973],[-50.980443299999926,-28.74024169999996],[-50.97901129999997,-28.740659099999956],[-50.97579059999998,-28.742527],[-50.97360919999994,-28.743234299999983],[-50.9731647,-28.743204599999945],[-50.97277969999993,-28.742803799999933],[-50.972057,-28.742850699999963],[-50.971312299999965,-28.74345489999996],[-50.97135709999998,-28.744320499999947],[-50.97173329999998,-28.744775399999984],[-50.972360599999945,-28.74499569999995],[-50.975398,-28.745239099999942],[-50.97632919999995,-28.74587969999993],[-50.97762359999996,-28.74743],[-50.978270899999984,-28.748865499999958],[-50.97810029999994,-28.75002479999995],[-50.97738289999996,-28.75136339999995],[-50.97646139999995,-28.752267599999982],[-50.974445499999945,-28.753161399999946],[-50.97396509999999,-28.75379639999993],[-50.973625,-28.75501769999995],[-50.974115199999964,-28.755444699999945],[-50.97540129999992,-28.755317799999943],[-50.97616609999994,-28.755505899999942],[-50.97752729999996,-28.75733449999995],[-50.980351,-28.760344099999926],[-50.979666299999955,-28.761280399999983],[-50.97858819999993,-28.76175379999996],[-50.97670269999998,-28.76092589999996],[-50.97572059999993,-28.760803399999926],[-50.97461389999995,-28.761245199999955],[-50.97425079999994,-28.76203259999994],[-50.974596399999946,-28.764364199999935],[-50.97415119999994,-28.767060799999964],[-50.97419809999997,-28.76816339999994],[-50.97656489999997,-28.769635399999963],[-50.97906159999997,-28.772421899999983],[-50.979136,-28.773239899999968],[-50.978282899999954,-28.775457799999973],[-50.97874659999996,-28.778428],[-50.97852349999994,-28.780838299999964],[-50.97803359999995,-28.781892599999935],[-50.97723749999995,-28.782316899999962],[-50.97389869999994,-28.782093799999934],[-50.970259,-28.782165699999943],[-50.968455,-28.78192709999996],[-50.967271299999936,-28.78100209999997],[-50.967741099999955,-28.77859769999997],[-50.96739279999998,-28.777916199999932],[-50.96680619999995,-28.777571799999976],[-50.96590109999994,-28.777618699999948],[-50.963752699999986,-28.778511699999967],[-50.96349809999999,-28.77896319999997],[-50.96348859999995,-28.779928499999983],[-50.965199,-28.785256499999935],[-50.96812749999998,-28.78857919999995],[-50.96888869999999,-28.788233599999955],[-50.97015739999995,-28.78824569999996],[-50.97149139999994,-28.787853],[-50.97226469999998,-28.788390699999976],[-50.97377749999998,-28.788278299999938],[-50.9756503,-28.78885109999993],[-50.976960099999985,-28.788544099999967],[-50.97886439999996,-28.789272699999966]]]}},{"type":"Feature","properties":{"setor":"430367305000006","pop":150,"sigilo_pop":false,"dom":97,"sigilo_dom":false,"mulheres":66,"sigilo_mulheres":false,"c0_4":7,"sigilo_c0_4":false,"c5_9":9,"sigilo_c5_9":false,"i60_69":18,"sigilo_i60_69":false,"i70m":15,"sigilo_i70m":false,"indigenas":0,"sigilo_indigenas":false,"pretos_pardos":28,"sigilo_pretos_pardos":false,"dom_ocupados":62,"sigilo_dom_ocupados":false,"dom_agua":28,"sigilo_dom_agua":false,"dom_esgoto":0,"sigilo_dom_esgoto":false,"renda_resp":2219.58,"sigilo_renda_resp":false,"n_resp":62,"sigilo_n_resp":false,"dens":6.9,"sigilo_dens":false,"na_bacia":1,"area_pct_bacia":100.0,"metodo_recorte_bacia":"ponto_representativo_setor_2022; area_pct_geometrica"},"geometry":{"type":"Polygon","coordinates":[[[-51.001362,-28.820858299999934],[-51.00427789999998,-28.82535129999996],[-51.010984699999945,-28.831785],[-51.01115149999998,-28.831359099999922],[-51.01156869999994,-28.831139599999982],[-51.01282739999994,-28.831038699999954],[-51.013134099999945,-28.830407599999944],[-51.013135799999986,-28.829311299999986],[-51.0138477,-28.82831919999994],[-51.01343719999994,-28.826962699999978],[-51.0135638,-28.82646109999996],[-51.014086,-28.825717099999952],[-51.01521069999996,-28.825085499999943],[-51.01620909999997,-28.823370599999976],[-51.01568539999993,-28.82103509999997],[-51.01443189999997,-28.820368699999953],[-51.01410679999998,-28.819895399999954],[-51.01432529999993,-28.819279699999978],[-51.01550179999998,-28.819243499999967],[-51.016987899999954,-28.818632699999966],[-51.01806959999993,-28.817841299999937],[-51.01814889999997,-28.817098499999922],[-51.01663079999997,-28.815756399999948],[-51.01655009999996,-28.815307799999964],[-51.017835599999955,-28.814864],[-51.01884009999998,-28.814817799999954],[-51.019696,-28.810692699999944],[-51.01967079999997,-28.809875399999957],[-51.02053939999996,-28.80843519999996],[-51.01963669999998,-28.807495499999952],[-51.020060299999955,-28.80709729999995],[-51.02118359999997,-28.807249599999963],[-51.02221619999995,-28.808686399999942],[-51.022619,-28.808792599999943],[-51.02306159999995,-28.808581499999946],[-51.023414499999944,-28.806836399999945],[-51.02424179999997,-28.806572],[-51.0249439,-28.806005399999954],[-51.027738899999974,-28.805727299999937],[-51.02958879999994,-28.80683269999996],[-51.030843699999934,-28.806625899999965],[-51.03198429999998,-28.805902299999957],[-51.033178899999946,-28.80552],[-51.032852,-28.804868699999922],[-51.03172509999995,-28.80429729999997],[-51.030673899999954,-28.80255759999994],[-51.03278749999998,-28.80148609999998],[-51.03266879999995,-28.80018469999992],[-51.03321219999998,-28.80008959999997],[-51.03342829999996,-28.800545799999952],[-51.03495259999994,-28.8003],[-51.03549769999995,-28.79909139999995],[-51.03707579999997,-28.79747329999997],[-51.03725209999994,-28.796484499999956],[-51.03768089999994,-28.795821499999924],[-51.03903719999994,-28.794303599999974],[-51.03933409999996,-28.792029],[-51.0390144,-28.790494499999962],[-51.038193,-28.789165599999933],[-51.03520389999994,-28.786653699999942],[-51.034697,-28.78647239999997],[-51.03372969999999,-28.78653939999998],[-51.03221409999998,-28.787071099999945],[-51.03152919999996,-28.786781599999976],[-51.02932219999996,-28.786754],[-51.02805859999995,-28.78795289999994],[-51.02650669999998,-28.788408099999973],[-51.024996,-28.787341199999954],[-51.024398,-28.786110599999976],[-51.020604299999945,-28.783574699999974],[-51.020464299999965,-28.78289849999993],[-51.019762,-28.782564699999963],[-51.01875049999995,-28.78253719999998],[-51.018462599999964,-28.78643239999997],[-51.017922,-28.78773869999998],[-51.014348299999945,-28.786687599999944],[-51.01337229999996,-28.785801699999983],[-51.009258099999954,-28.784555399999935],[-51.007276,-28.78436019999998],[-51.007302399999965,-28.783066399999942],[-51.00525,-28.78242569999998],[-51.00397159999995,-28.782258],[-50.997700799999954,-28.78457309999992],[-50.99693879999996,-28.786090699999928],[-50.995778799999975,-28.78631879999995],[-50.993714899999986,-28.78581469999995],[-50.99235029999995,-28.786355899999936],[-50.990030299999944,-28.786191499999976],[-50.989048399999945,-28.786406099999958],[-50.988774699999965,-28.78681919999997],[-50.98869229999997,-28.788009799999944],[-50.989482099999975,-28.78985389999997],[-50.98943049999997,-28.79028679999994],[-50.98794659999999,-28.790531899999973],[-50.98654679999998,-28.79106519999994],[-50.98595409999996,-28.791631199999973],[-50.98396129999997,-28.79272859999997],[-50.98293369999993,-28.792577499999933],[-50.98195469999996,-28.791314599999957],[-50.98030959999995,-28.79058509999993],[-50.978688,-28.789154299999947],[-50.976960099999985,-28.788544099999967],[-50.9756503,-28.78885109999993],[-50.97377749999998,-28.788278299999938],[-50.97226469999998,-28.788390699999976],[-50.97149139999994,-28.787853],[-50.97015739999995,-28.78824569999996],[-50.968424699999964,-28.78838219999995],[-50.96812749999998,-28.78857919999995],[-50.96798469999994,-28.789382199999977],[-50.96759829999997,-28.789531499999946],[-50.96660619999994,-28.78946349999996],[-50.96442969999998,-28.788392499999933],[-50.96330159999996,-28.788299499999944],[-50.95850919999998,-28.790056199999974],[-50.958395,-28.79034169999995],[-50.958742299999976,-28.790944899999943],[-50.96054829999997,-28.79199319999998],[-50.962386299999935,-28.793674299999957],[-50.964497,-28.797470899999947],[-50.967357399999976,-28.80046269999997],[-50.975443,-28.81323339999995],[-50.97675339999995,-28.8146412],[-50.978297199999986,-28.815552499999974],[-50.98048989999995,-28.816033099999956],[-50.99363869999997,-28.815984099999973],[-50.996123499999946,-28.81678139999996],[-50.997175399999946,-28.817396699999964],[-50.9997901,-28.819065699999953],[-51.001362,-28.820858299999934]]]}},{"type":"Feature","properties":{"setor":"430367305000007","pop":163,"sigilo_pop":false,"dom":74,"sigilo_dom":false,"mulheres":79,"sigilo_mulheres":false,"c0_4":15,"sigilo_c0_4":false,"c5_9":null,"sigilo_c5_9":true,"i60_69":28,"sigilo_i60_69":false,"i70m":19,"sigilo_i70m":false,"indigenas":0,"sigilo_indigenas":false,"pretos_pardos":22,"sigilo_pretos_pardos":false,"dom_ocupados":60,"sigilo_dom_ocupados":false,"dom_agua":null,"sigilo_dom_agua":true,"dom_esgoto":0,"sigilo_dom_esgoto":false,"renda_resp":1993.79,"sigilo_renda_resp":false,"n_resp":60,"sigilo_n_resp":false,"dens":14.2,"sigilo_dens":false,"na_bacia":1,"area_pct_bacia":100.0,"metodo_recorte_bacia":"ponto_representativo_setor_2022; area_pct_geometrica"},"geometry":{"type":"Polygon","coordinates":[[[-51.040106,-28.792681299999963],[-51.03768089999994,-28.795821499999924],[-51.03725209999994,-28.796484499999956],[-51.03707579999997,-28.79747329999997],[-51.03549769999995,-28.79909139999995],[-51.03495259999994,-28.8003],[-51.03342829999996,-28.800545799999952],[-51.03321219999998,-28.80008959999997],[-51.03266879999995,-28.80018469999992],[-51.03278749999998,-28.80148609999998],[-51.030673899999954,-28.80255759999994],[-51.03172509999995,-28.80429729999997],[-51.032852,-28.804868699999922],[-51.033178899999946,-28.80552],[-51.03198429999998,-28.805902299999957],[-51.030843699999934,-28.806625899999965],[-51.02958879999994,-28.80683269999996],[-51.027738899999974,-28.805727299999937],[-51.0249439,-28.806005399999954],[-51.02424179999997,-28.806572],[-51.023414499999944,-28.806836399999945],[-51.02306159999995,-28.808581499999946],[-51.022619,-28.808792599999943],[-51.02221619999995,-28.808686399999942],[-51.02118359999997,-28.807249599999963],[-51.020060299999955,-28.80709729999995],[-51.01963669999998,-28.807495499999952],[-51.02053939999996,-28.80843519999996],[-51.01967079999997,-28.809875399999957],[-51.019696,-28.810692699999944],[-51.01884009999998,-28.814817799999954],[-51.017835599999955,-28.814864],[-51.01655009999996,-28.815307799999964],[-51.01663079999997,-28.815756399999948],[-51.01814889999997,-28.817098499999922],[-51.01806959999993,-28.817841299999937],[-51.016987899999954,-28.818632699999966],[-51.01550179999998,-28.819243499999967],[-51.01432529999993,-28.819279699999978],[-51.01410679999998,-28.819895399999954],[-51.01443189999997,-28.820368699999953],[-51.01568539999993,-28.82103509999997],[-51.01620909999997,-28.823370599999976],[-51.01521069999996,-28.825085499999943],[-51.014086,-28.825717099999952],[-51.0135638,-28.82646109999996],[-51.01343719999994,-28.826962699999978],[-51.0138477,-28.82831919999994],[-51.013135799999986,-28.829311299999986],[-51.013134099999945,-28.830407599999944],[-51.01282739999994,-28.831038699999954],[-51.01156869999994,-28.831139599999982],[-51.01115149999998,-28.831359099999922],[-51.010984699999945,-28.831785],[-51.013553799999954,-28.83663069999994],[-51.01581779999999,-28.840037],[-51.01907719999997,-28.838745399999947],[-51.021031499999935,-28.833872899999967],[-51.02195039999998,-28.831258599999956],[-51.021564699999935,-28.830956399999938],[-51.020501199999956,-28.831292299999962],[-51.02016649999997,-28.83056919999995],[-51.02101189999996,-28.828951799999977],[-51.021704,-28.82850129999997],[-51.02094339999997,-28.82705269999997],[-51.020942,-28.826487599999947],[-51.02165649999995,-28.826091],[-51.023068399999936,-28.826450899999926],[-51.025498599999935,-28.825335599999963],[-51.02549079999994,-28.82457159999996],[-51.02407419999998,-28.82357679999995],[-51.02427339999997,-28.82314],[-51.024859499999934,-28.82307159999993],[-51.02490479999994,-28.822878399999972],[-51.024018299999966,-28.822119],[-51.02303679999994,-28.820758099999974],[-51.02435279999998,-28.819364399999966],[-51.02524649999997,-28.8190643],[-51.02548029999997,-28.818297299999983],[-51.02580819999997,-28.81806709999995],[-51.027421299999965,-28.8174466],[-51.02920409999996,-28.81711479999996],[-51.031283099999946,-28.815491699999935],[-51.03466179999999,-28.813852],[-51.036654,-28.813603399999977],[-51.03804249999995,-28.813819099999943],[-51.03832639999997,-28.81346679999995],[-51.041286599999985,-28.812771299999955],[-51.043332099999986,-28.81317829999994],[-51.04413379999995,-28.813091799999935],[-51.04463969999995,-28.812631799999956],[-51.05019939999995,-28.81176919999995],[-51.05139139999995,-28.811244399999957],[-51.05187879999995,-28.81070919999996],[-51.051564699999965,-28.810078799999932],[-51.0517,-28.809902],[-51.05310819999994,-28.809396599999943],[-51.053426599999966,-28.80902239999995],[-51.05336889999995,-28.807264499999967],[-51.05503989999994,-28.80558329999996],[-51.05523259999995,-28.804343499999945],[-51.05604649999998,-28.802974699999922],[-51.057598699999964,-28.802332099999926],[-51.05790539999998,-28.80185009999998],[-51.057750399999975,-28.80127729999998],[-51.05797629999995,-28.800879599999973],[-51.05895859999998,-28.799720199999967],[-51.06041909999993,-28.79871549999995],[-51.061274,-28.798623],[-51.06251929999996,-28.799226499999964],[-51.06546389999995,-28.799926799999973],[-51.066604699999964,-28.798991699999927],[-51.06934469999993,-28.799160599999926],[-51.070334299999956,-28.798327099999938],[-51.070979499999964,-28.798241],[-51.07242969999999,-28.799469499999933],[-51.073374299999955,-28.79990389999995],[-51.07343149999997,-28.80162079999996],[-51.07364739999997,-28.80185359999995],[-51.075448,-28.802649899999942],[-51.076899099999935,-28.802986899999944],[-51.077571,-28.802717199999964],[-51.07859769999993,-28.801133399999962],[-51.08065279999994,-28.800780399999955],[-51.08185459999998,-28.80005729999992],[-51.0854581,-28.79931389999997],[-51.08749889999995,-28.798246899999974],[-51.088783099999944,-28.79661049999992],[-51.08917509999998,-28.7953128],[-51.08905859999993,-28.793881399999957],[-51.08869529999998,-28.79324939999998],[-51.087675399999966,-28.792564],[-51.08732089999995,-28.792642],[-51.08684379999994,-28.792395899999956],[-51.08673049999993,-28.79170559999995],[-51.08634829999993,-28.791318299999947],[-51.08545479999998,-28.790577599999956],[-51.084446,-28.79020929999995],[-51.084074699999974,-28.789594699999952],[-51.08293029999999,-28.78894739999998],[-51.08251779999995,-28.788404099999976],[-51.08106239999996,-28.78809209999996],[-51.08036629999997,-28.788209299999956],[-51.07977839999995,-28.787644799999956],[-51.079247399999986,-28.787488299999936],[-51.07800649999995,-28.787577399999968],[-51.07468109999997,-28.786791199999975],[-51.072682499999985,-28.788192899999967],[-51.070101,-28.788435199999974],[-51.06913309999993,-28.78960419999992],[-51.06826909999995,-28.790165299999956],[-51.06808109999997,-28.790427699999945],[-51.068298599999935,-28.790844899999975],[-51.066538099999946,-28.790150799999942],[-51.06580649999996,-28.790079799999937],[-51.06551129999997,-28.79020359999998],[-51.06528219999996,-28.79088549999995],[-51.06457569999998,-28.79143829999999],[-51.06275279999995,-28.79158869999998],[-51.062185599999964,-28.79127789999995],[-51.06171349999995,-28.79194409999997],[-51.06143559999999,-28.791992399999963],[-51.059888499999936,-28.79181839999995],[-51.05648689999998,-28.79222539999995],[-51.05600519999995,-28.792349],[-51.055554799999975,-28.79304],[-51.05455189999998,-28.792821499999945],[-51.053918299999964,-28.79312309999994],[-51.053599099999985,-28.793827799999978],[-51.05315879999994,-28.793948399999962],[-51.05047719999993,-28.793020599999974],[-51.04877549999998,-28.792908699999934],[-51.04639129999998,-28.79329209999997],[-51.04566649999998,-28.792926099999935],[-51.04528929999997,-28.7923244],[-51.04475489999999,-28.79264159999999],[-51.043186799999944,-28.7925317],[-51.04278849999997,-28.79304439999994],[-51.04156489999996,-28.792932899999975],[-51.04082209999996,-28.792560399999957],[-51.040106,-28.792681299999963]]]}},{"type":"Feature","properties":{"setor":"430367305000010","pop":234,"sigilo_pop":false,"dom":184,"sigilo_dom":false,"mulheres":117,"sigilo_mulheres":false,"c0_4":null,"sigilo_c0_4":true,"c5_9":10,"sigilo_c5_9":false,"i60_69":24,"sigilo_i60_69":false,"i70m":36,"sigilo_i70m":false,"indigenas":0,"sigilo_indigenas":false,"pretos_pardos":88,"sigilo_pretos_pardos":false,"dom_ocupados":99,"sigilo_dom_ocupados":false,"dom_agua":null,"sigilo_dom_agua":true,"dom_esgoto":0,"sigilo_dom_esgoto":false,"renda_resp":2006.1,"sigilo_renda_resp":false,"n_resp":99,"sigilo_n_resp":false,"dens":2.5,"sigilo_dens":false,"na_bacia":1,"area_pct_bacia":100.0,"metodo_recorte_bacia":"ponto_representativo_setor_2022; area_pct_geometrica"},"geometry":{"type":"Polygon","coordinates":[[[-51.159349099999986,-28.83697849999993],[-51.158705099999956,-28.84154929999994],[-51.16027479999997,-28.84264589999998],[-51.161669899999936,-28.842782599999964],[-51.163593799999944,-28.842521299999916],[-51.16570579999995,-28.84341259999997],[-51.16677949999996,-28.84356809999997],[-51.169125099999974,-28.843447199999954],[-51.17097939999997,-28.842108299999957],[-51.17123449999996,-28.84138129999997],[-51.17088759999996,-28.840869799999947],[-51.167941799999944,-28.840176199999974],[-51.167587499999975,-28.839931699999966],[-51.166101799999986,-28.837439499999945],[-51.164301499999965,-28.835819199999953],[-51.16409489999995,-28.834546899999953],[-51.164602,-28.83356769999995],[-51.16630379999998,-28.832289199999924],[-51.16887319999995,-28.829652499999938],[-51.17074039999994,-28.828887099999974],[-51.171111099999955,-28.82718339999996],[-51.169897499999934,-28.825026],[-51.169994,-28.824175599999926],[-51.171508399999944,-28.823138399999944],[-51.17308849999995,-28.822930799999934],[-51.173648199999946,-28.822527],[-51.17381839999996,-28.819779],[-51.174324199999944,-28.81834179999992],[-51.17484509999997,-28.81768139999997],[-51.17590859999996,-28.81715569999995],[-51.17735459999995,-28.817060399999946],[-51.18024019999995,-28.816232299999967],[-51.181115099999936,-28.816322499999952],[-51.18245009999998,-28.817455699999986],[-51.183392099999935,-28.817714099999943],[-51.184037899999964,-28.817598499999978],[-51.184507,-28.81708219999994],[-51.18430409999996,-28.814741],[-51.18373639999999,-28.812813099999957],[-51.1839801,-28.81206449999996],[-51.1858266,-28.81189079999995],[-51.188834,-28.81226979999996],[-51.189735,-28.81178289999997],[-51.19226349999997,-28.80938379999999],[-51.19283689999998,-28.80914249999995],[-51.196486,-28.81029319999994],[-51.20066129999998,-28.81091139999995],[-51.20142119999998,-28.810239],[-51.20271949999995,-28.807811499999953],[-51.203361799999975,-28.807570399999985],[-51.2038788,-28.80781519999994],[-51.204713099999935,-28.809318],[-51.205142,-28.809640699999925],[-51.20821559999995,-28.810194],[-51.210645199999924,-28.810061099999928],[-51.211219,-28.809842699999933],[-51.211947899999984,-28.809105],[-51.21237849999995,-28.808033599999934],[-51.212259599999975,-28.807021599999935],[-51.21304559999999,-28.80563619999998],[-51.2136895,-28.805161099999964],[-51.21511749999996,-28.80475459999997],[-51.21724359999997,-28.803622],[-51.217809699999975,-28.802679],[-51.21790669999996,-28.80171279999996],[-51.21772629999999,-28.8012629],[-51.21649179999997,-28.800111899999933],[-51.21489529999997,-28.799320699999953],[-51.21401929999996,-28.798599799999987],[-51.21384249999995,-28.798181899999967],[-51.21297259999995,-28.797832099999933],[-51.212556,-28.79741649999994],[-51.208622899999966,-28.79729519999995],[-51.206524,-28.79776939999994],[-51.20599709999994,-28.800447799999965],[-51.20473039999996,-28.801779899999918],[-51.204159499999946,-28.801674499999937],[-51.203165,-28.79941759999997],[-51.202629299999955,-28.798991699999934],[-51.20166769999997,-28.798805599999977],[-51.20059629999997,-28.798930199999965],[-51.200003599999945,-28.799285899999973],[-51.19977739999996,-28.80007409999996],[-51.200139699999966,-28.801045],[-51.19980819999995,-28.80152309999993],[-51.19886629999996,-28.801826599999963],[-51.19785859999996,-28.801573499999954],[-51.19714289999996,-28.80088639999996],[-51.19705729999998,-28.800434099999947],[-51.19777739999995,-28.79927109999994],[-51.198820199999936,-28.798351699999955],[-51.199042,-28.797242499999978],[-51.198919,-28.796662899999944],[-51.19689039999997,-28.794072299999986],[-51.19634459999998,-28.7924652],[-51.19596829999995,-28.792561799999916],[-51.195257,-28.793387299999942],[-51.19205389999996,-28.795038799999933],[-51.19103819999999,-28.795077199999966],[-51.19152479999997,-28.792122699999943],[-51.19110649999993,-28.790684099999957],[-51.191516,-28.789444299999943],[-51.19108569999998,-28.78786359999998],[-51.19141939999997,-28.785501299999975],[-51.19130519999993,-28.784948],[-51.19095289999995,-28.784460099999926],[-51.18924039999996,-28.783834399999947],[-51.18846709999997,-28.785088499999972],[-51.188166799999976,-28.78502979999996],[-51.187652,-28.78440349999993],[-51.187542,-28.782644399999974],[-51.18679139999995,-28.78260769999997],[-51.186577599999964,-28.782117],[-51.18701089999996,-28.781084],[-51.187080399999964,-28.78019709999996],[-51.18763139999999,-28.779796399999945],[-51.18822689999996,-28.777250799999933],[-51.188587,-28.776900599999983],[-51.18677679999996,-28.774039899999938],[-51.18990009999993,-28.772969699999972],[-51.19058069999994,-28.772104699999943],[-51.190205,-28.771607399999933],[-51.188486,-28.77066989999997],[-51.18820959999994,-28.76922859999996],[-51.18769589999994,-28.768534899999963],[-51.18678669999998,-28.768413],[-51.18571559999999,-28.769061799999964],[-51.18480669999997,-28.768394399999973],[-51.18482869999997,-28.768091399999953],[-51.18591729999998,-28.767824599999987],[-51.186203,-28.767191299999972],[-51.18536869999998,-28.766102299999936],[-51.18512919999995,-28.764524899999973],[-51.185386,-28.76438],[-51.18752329999995,-28.764854199999938],[-51.187335899999944,-28.766444799999935],[-51.188696799999946,-28.766528199999986],[-51.189483,-28.766102299999936],[-51.19023579999999,-28.766879499999956],[-51.19059249999998,-28.76686739999996],[-51.19068169999997,-28.76560609999995],[-51.19022779999995,-28.763484],[-51.19134909999997,-28.762998],[-51.19244879999996,-28.762046199999922],[-51.19281979999994,-28.762029799999933],[-51.19353549999994,-28.76148639999997],[-51.19333819999997,-28.758589499999967],[-51.19384069999995,-28.757070299999953],[-51.19305719999994,-28.756192099999964],[-51.19299539999997,-28.755368799999943],[-51.194178799999975,-28.754196399999955],[-51.1942691,-28.753320399999957],[-51.19539309999993,-28.752969199999946],[-51.19616679999996,-28.751962599999953],[-51.197352,-28.75151329999994],[-51.197347899999954,-28.750103],[-51.196572899999985,-28.748943799999942],[-51.197393199999965,-28.74827969999996],[-51.19785859999997,-28.74712929999997],[-51.19759519999996,-28.746101799999966],[-51.19783229999996,-28.745048],[-51.197481,-28.744011799999946],[-51.197551299999986,-28.743397],[-51.19872359999993,-28.742367599999962],[-51.198923399999956,-28.741770499999966],[-51.197888299999924,-28.739932899999936],[-51.199567499999944,-28.73800829999993],[-51.19945029999997,-28.736979499999972],[-51.199882799999955,-28.736905899999957],[-51.20061609999993,-28.737241],[-51.20099229999994,-28.736875499999936],[-51.200719299999946,-28.734931399999923],[-51.201461299999956,-28.733084799999965],[-51.201177899999955,-28.732603099999952],[-51.200447,-28.73211439999994],[-51.19907019999994,-28.73174909999995],[-51.19976209999999,-28.73032979999993],[-51.19974449999995,-28.72831869999993],[-51.20025169999997,-28.727985],[-51.20107709999997,-28.728266],[-51.20161469999993,-28.728218799999965],[-51.203386699999946,-28.72764249999994],[-51.20440739999998,-28.72706839999995],[-51.20528359999997,-28.727150799999947],[-51.20559289999995,-28.726818099999942],[-51.20603879999993,-28.725394399999974],[-51.20601579999993,-28.72486719999994],[-51.20551389999997,-28.72414409999993],[-51.20322619999995,-28.72244039999999],[-51.20303549999994,-28.721240599999923],[-51.20418589999998,-28.719097899999955],[-51.205869499999956,-28.717500699999956],[-51.20702019999994,-28.716955099999943],[-51.20768079999994,-28.715513799999933],[-51.207000099999966,-28.714191499999966],[-51.204745399999986,-28.7124841],[-51.20399859999997,-28.711495799999973],[-51.20263919999997,-28.711330099999934],[-51.20240759999996,-28.710250199999955],[-51.202588599999956,-28.70982489999994],[-51.20346109999998,-28.709392799999932],[-51.20427709999996,-28.70927349999995],[-51.20499639999998,-28.708684599999977],[-51.205250699999965,-28.708322299999956],[-51.20515379999995,-28.70744769999993],[-51.20404729999995,-28.70659149999994],[-51.2029381,-28.70647509999998],[-51.20155029999996,-28.706647199999956],[-51.19903069999998,-28.70524129999996],[-51.19891739999998,-28.704066899999923],[-51.19858059999996,-28.703469599999934],[-51.1971238,-28.70281679999993],[-51.19519229999998,-28.70235509999998],[-51.19523309999994,-28.701482099999964],[-51.194167799999946,-28.70059139999995],[-51.19318449999997,-28.698623199999908],[-51.19243369999998,-28.697943899999927],[-51.191548599999976,-28.697675799999963],[-51.19027529999994,-28.697579199999947],[-51.188598,-28.69835639999997],[-51.188297499999976,-28.698802799999957],[-51.188410499999975,-28.700138],[-51.188187,-28.701270799999975],[-51.18767,-28.701833799999974],[-51.18696889999995,-28.702074],[-51.18361679999998,-28.701713499999983],[-51.18296909999997,-28.70184609999994],[-51.18188019999997,-28.701657299999965],[-51.18137959999996,-28.70183869999994],[-51.18044409999993,-28.701290599999936],[-51.17959229999997,-28.70171329999993],[-51.17801949999994,-28.700954699999954],[-51.17632539999994,-28.700962399999973],[-51.17519829999997,-28.70057709999998],[-51.17189349999995,-28.700495099999955],[-51.17121739999993,-28.70074569999997],[-51.169862,-28.700074899999958],[-51.15934859999994,-28.699221399999942],[-51.15670719999997,-28.697100599999942],[-51.15579829999996,-28.69609509999998],[-51.15463909999994,-28.69283269999994],[-51.154725499999984,-28.691731199999936],[-51.15435839999998,-28.69128489999997],[-51.154330899999934,-28.689676699999946],[-51.15368189999998,-28.687357199999955],[-51.15289839999998,-28.68588629999994],[-51.15189289999996,-28.685186],[-51.151729,-28.684029899999924],[-51.15115489999994,-28.683484499999963],[-51.14924559999998,-28.682480399999974],[-51.148720499999975,-28.681916899999983],[-51.148510499999986,-28.681216299999956],[-51.147352099999985,-28.680567699999973],[-51.14715809999995,-28.67973769999998],[-51.14628349999998,-28.67929229999992],[-51.14597319999996,-28.677709699999983],[-51.1462064,-28.675150599999935],[-51.146044,-28.67460579999993],[-51.14375659999997,-28.673192199999963],[-51.14228279999998,-28.673005499999924],[-51.14063139999996,-28.676503899999943],[-51.14074839999995,-28.67933209999995],[-51.139715499999966,-28.683751599999923],[-51.13943359999997,-28.691214799999965],[-51.14022239999997,-28.694232899999967],[-51.13926249999998,-28.69577349999997],[-51.13993709999994,-28.69879589999994],[-51.14168049999995,-28.702534199999942],[-51.14237079999998,-28.702922899999972],[-51.14410779999997,-28.703118099999976],[-51.14575149999997,-28.70375469999994],[-51.14674279999997,-28.705024199999972],[-51.14886869999998,-28.705403399999966],[-51.14969409999998,-28.706426399999938],[-51.15173339999996,-28.707925199999973],[-51.15426259999998,-28.71041079999997],[-51.15585139999997,-28.71014489999993],[-51.155151099999955,-28.710559199999974],[-51.15473349999996,-28.711921499999946],[-51.15728549999994,-28.714225699999925],[-51.158378,-28.716310199999953],[-51.159820899999936,-28.717702899999946],[-51.16002439999995,-28.718584399999934],[-51.15987489999998,-28.71955219999995],[-51.160182599999985,-28.720190899999963],[-51.160802,-28.72075269999993],[-51.161709299999984,-28.72110979999996],[-51.16106159999998,-28.72220559999995],[-51.16082589999996,-28.72338939999997],[-51.16193089999996,-28.72464129999998],[-51.16353429999998,-28.725107],[-51.16372219999994,-28.72581869999992],[-51.16441569999996,-28.72631329999996],[-51.16494709999995,-28.727601699999983],[-51.16537049999994,-28.727907899999938],[-51.16438459999994,-28.728657299999956],[-51.1654329,-28.72926789999997],[-51.16503339999998,-28.729523199999967],[-51.163865899999955,-28.729674],[-51.16194549999995,-28.728937899999945],[-51.159632399999964,-28.72925879999997],[-51.158163,-28.728735],[-51.15775519999994,-28.728772499999945],[-51.15489969999993,-28.73095669999998],[-51.15475989999993,-28.730614399999983],[-51.15406889999997,-28.73054379999996],[-51.1523931,-28.732542499999965],[-51.15204049999994,-28.733406],[-51.150172,-28.73423979999996],[-51.14839089999998,-28.734462399999977],[-51.14765339999997,-28.73478],[-51.14644589999995,-28.734788799999933],[-51.14449529999996,-28.735513199999957],[-51.14003949999995,-28.736336599999944],[-51.13938209999998,-28.736768199999965],[-51.138367,-28.738020299999956],[-51.135637899999956,-28.737303799999953],[-51.13358219999998,-28.736336899999966],[-51.134212899999966,-28.737114599999988],[-51.13420279999997,-28.737653799999972],[-51.132428,-28.738866299999987],[-51.13194,-28.741285799999954],[-51.130306099999984,-28.74206029999993],[-51.13080019999995,-28.744206099999932],[-51.13015019999995,-28.744841299999955],[-51.13056189999998,-28.74671109999997],[-51.130476,-28.748326799999965],[-51.13172039999995,-28.74988079999997],[-51.132129899999946,-28.75127989999993],[-51.13335559999996,-28.753690899999977],[-51.13469369999996,-28.75438329999997],[-51.13481159999998,-28.755301299999925],[-51.133776,-28.759690799999937],[-51.134182899999985,-28.76071119999995],[-51.13516379999998,-28.761392399999973],[-51.13539449999996,-28.761896699999973],[-51.135423,-28.76287909999995],[-51.134983099999936,-28.763991],[-51.134076499999935,-28.764679499999954],[-51.13381649999997,-28.765225899999965],[-51.134025,-28.765685499999968],[-51.13329079999995,-28.765705399999952],[-51.13066889999994,-28.760364799999937],[-51.12934219999994,-28.75948009999996],[-51.12859,-28.75934509999995],[-51.12320519999998,-28.76223859999993],[-51.122371699999974,-28.763683399999923],[-51.12299779999995,-28.765578399999967],[-51.12310049999997,-28.766836599999973],[-51.12415759999994,-28.76874089999995],[-51.12445839999998,-28.770281899999926],[-51.12434179999997,-28.771768899999984],[-51.12506789999997,-28.77379049999997],[-51.1246273,-28.775066],[-51.12327119999998,-28.775767499999972],[-51.12214369999999,-28.775645199999936],[-51.12081989999995,-28.77662239999995],[-51.11888439999995,-28.780029099999975],[-51.11876619999998,-28.78265209999994],[-51.118523,-28.783113099999984],[-51.11804309999996,-28.78353929999996],[-51.11574179999997,-28.783886899999967],[-51.1137437,-28.78573309999996],[-51.113788899999975,-28.78620789999996],[-51.111549099999934,-28.787743899999953],[-51.11103939999999,-28.78854509999996],[-51.11156429999994,-28.790240299999926],[-51.11144359999997,-28.790874299999928],[-51.10949239999997,-28.791631499999934],[-51.109182299999986,-28.791927599999944],[-51.10892719999998,-28.792969],[-51.107920199999974,-28.794343199999947],[-51.10705589999998,-28.794700399999947],[-51.10654559999995,-28.794597499999952],[-51.105388699999935,-28.795301499999947],[-51.10520289999994,-28.795810299999967],[-51.105979,-28.797261199999976],[-51.10755,-28.798012499999956],[-51.107344,-28.799188],[-51.10822629999996,-28.799954499999956],[-51.10836379999996,-28.80038039999993],[-51.108928899999974,-28.80027909999995],[-51.11025209999997,-28.800924199999937],[-51.10937,-28.8013534],[-51.10919279999996,-28.80167989999995],[-51.10913289999996,-28.80286529999995],[-51.108354799999965,-28.805506199999968],[-51.10855209999994,-28.805797699999978],[-51.11039879999998,-28.806776799999966],[-51.11152469999996,-28.807995499999944],[-51.11454489999994,-28.80797889999996],[-51.1149655,-28.808203099999943],[-51.11505029999995,-28.808447499999943],[-51.11418359999993,-28.809751],[-51.11415049999993,-28.810258799999918],[-51.1148252,-28.81180449999993],[-51.1153212,-28.81424959999999],[-51.11685529999994,-28.815191],[-51.11783169999996,-28.81551769999993],[-51.11824959999996,-28.815443099999975],[-51.11910649999999,-28.814727599999976],[-51.120142299999934,-28.814584199999967],[-51.12145169999997,-28.813671799999945],[-51.122076599999964,-28.813481699999947],[-51.124580099999946,-28.814825799999923],[-51.12563619999997,-28.81505739999995],[-51.12600779999997,-28.81551429999996],[-51.12671639999997,-28.815368199999952],[-51.12762209999994,-28.814514899999956],[-51.12820859999994,-28.81334429999998],[-51.129285099999954,-28.813048699999978],[-51.13008959999996,-28.813968199999962],[-51.13007879999998,-28.81442179999994],[-51.131411499999956,-28.815389899999957],[-51.13171129999996,-28.81608879999993],[-51.13284379999993,-28.816474799999973],[-51.132883399999976,-28.81696969999996],[-51.13209169999993,-28.818360599999952],[-51.13237669999995,-28.818751099999915],[-51.13221219999997,-28.81936929999994],[-51.13022459999997,-28.82056269999999],[-51.12964549999998,-28.82207559999995],[-51.13148959999995,-28.825759799999958],[-51.12976579999997,-28.827489899999925],[-51.13088059999995,-28.82908789999994],[-51.132189,-28.82983939999996],[-51.134481299999955,-28.83031279999993],[-51.13477019999994,-28.83058209999996],[-51.13482169999998,-28.831317],[-51.135076099999935,-28.831393399999953],[-51.136891499999926,-28.83082649999993],[-51.138954199999944,-28.830574],[-51.14051319999999,-28.82992209999997],[-51.143423,-28.828188799999957],[-51.14422419999994,-28.82806779999992],[-51.14459949999997,-28.828910899999983],[-51.14623549999993,-28.828902099999937],[-51.14713409999996,-28.829589],[-51.147690599999976,-28.829639699999962],[-51.14876679999998,-28.830491299999952],[-51.149360799999954,-28.83146819999996],[-51.149437399999954,-28.832535799999956],[-51.14976109999998,-28.83283179999995],[-51.153224499999965,-28.83315129999994],[-51.154349199999956,-28.83259879999997],[-51.15578539999996,-28.83225559999994],[-51.15862379999998,-28.832699],[-51.15891809999994,-28.83293749999995],[-51.15953339999999,-28.834647899999926],[-51.15914129999993,-28.835968799999943],[-51.159349099999986,-28.83697849999993]]]}},{"type":"Feature","properties":{"setor":"430367305000011","pop":119,"sigilo_pop":false,"dom":90,"sigilo_dom":false,"mulheres":58,"sigilo_mulheres":false,"c0_4":8,"sigilo_c0_4":false,"c5_9":11,"sigilo_c5_9":false,"i60_69":null,"sigilo_i60_69":true,"i70m":null,"sigilo_i70m":true,"indigenas":0,"sigilo_indigenas":false,"pretos_pardos":42,"sigilo_pretos_pardos":false,"dom_ocupados":43,"sigilo_dom_ocupados":false,"dom_agua":0,"sigilo_dom_agua":false,"dom_esgoto":0,"sigilo_dom_esgoto":false,"renda_resp":2053.03,"sigilo_renda_resp":false,"n_resp":43,"sigilo_n_resp":false,"dens":0.7,"sigilo_dens":false,"na_bacia":1,"area_pct_bacia":100.0,"metodo_recorte_bacia":"ponto_representativo_setor_2022; area_pct_geometrica"},"geometry":{"type":"Polygon","coordinates":[[[-51.11780229999994,-28.55567009999992],[-51.115469899999944,-28.556795199999957],[-51.11517559999998,-28.557220199999975],[-51.11541729999994,-28.558494299999946],[-51.11695229999998,-28.559181899999942],[-51.117024899999926,-28.559540799999986],[-51.115893,-28.559426],[-51.11433439999996,-28.56073569999995],[-51.1131683,-28.56264509999993],[-51.11174,-28.564412699999934],[-51.109605,-28.56674],[-51.10534659999996,-28.570259],[-51.103667,-28.57261849999997],[-51.10033679999998,-28.57622929999997],[-51.099106,-28.57787829999994],[-51.095209599999976,-28.583644599999946],[-51.09364569999997,-28.58980529999997],[-51.089905699999974,-28.59389879999997],[-51.08939609999993,-28.59520639999993],[-51.08926309999998,-28.597227399999962],[-51.08884389999998,-28.59799739999994],[-51.085240099999965,-28.601513199999935],[-51.084982099999934,-28.60251639999996],[-51.084190399999954,-28.60315689999994],[-51.083235,-28.603456099999956],[-51.081593,-28.603245899999937],[-51.08002319999997,-28.604298499999974],[-51.078751799999964,-28.605666],[-51.07900119999994,-28.60691819999995],[-51.07940359999997,-28.60760939999995],[-51.08134639999997,-28.60907869999995],[-51.08157109999997,-28.610687899999952],[-51.07991009999995,-28.613864199999963],[-51.07762759999997,-28.616189799999955],[-51.076745,-28.619538499999972],[-51.07706329999996,-28.622180599999965],[-51.076851099999935,-28.623090499999936],[-51.07703379999998,-28.623893199999944],[-51.076768,-28.624293499999958],[-51.07603969999996,-28.62368549999997],[-51.07003169999996,-28.621053699999944],[-51.06894189999997,-28.621334199999982],[-51.06641629999996,-28.62281889999997],[-51.06556889999996,-28.622937399999945],[-51.062924,-28.62254989999997],[-51.05668449999996,-28.61962609999994],[-51.054183,-28.619789199999953],[-51.04934209999993,-28.619688499999935],[-51.04841419999997,-28.620070299999952],[-51.047367399999985,-28.62257429999994],[-51.046231499999976,-28.623408299999934],[-51.04532019999994,-28.623449199999982],[-51.04229739999993,-28.621863499999964],[-51.038607299999974,-28.625421299999967],[-51.038152,-28.62694189999997],[-51.04398369999996,-28.637823499999968],[-51.04691089999995,-28.650422899999963],[-51.047323,-28.65122689999998],[-51.048338099999974,-28.652027099999934],[-51.05170929999998,-28.652882399999942],[-51.05326869999993,-28.653968199999948],[-51.05411009999994,-28.654870499999962],[-51.054351299999944,-28.656632199999933],[-51.05502489999998,-28.657692],[-51.0584904,-28.659160899999954],[-51.05920139999996,-28.65972909999993],[-51.05916929999995,-28.660366499999967],[-51.05858649999994,-28.661538199999924],[-51.05940429999998,-28.664682599999935],[-51.061201199999964,-28.66760009999995],[-51.061649,-28.669223299999945],[-51.06210859999993,-28.66953919999997],[-51.06343929999997,-28.669755899999927],[-51.064174899999955,-28.671086699999925],[-51.06413119999996,-28.671841299999976],[-51.06330289999994,-28.673666799999978],[-51.06351289999998,-28.675043],[-51.06290659999996,-28.676961199999937],[-51.06298,-28.67738159999994],[-51.0644784,-28.67884049999998],[-51.06489149999993,-28.679526399999922],[-51.06509589999996,-28.682203699999945],[-51.06633039999997,-28.684603299999935],[-51.06711389999999,-28.68538],[-51.071343799999966,-28.687902799999954],[-51.07350779999996,-28.694533699999962],[-51.07566589999993,-28.69753589999993],[-51.075708299999974,-28.698315199999964],[-51.07536289999996,-28.699612399999975],[-51.07549639999996,-28.700297399999947],[-51.077669199999946,-28.70241349999997],[-51.07869989999995,-28.703859599999916],[-51.07933029999999,-28.706123399999967],[-51.08170919999998,-28.709485799999985],[-51.08723839999994,-28.71380379999994],[-51.087469399999975,-28.714188299999932],[-51.091455,-28.714136299999957],[-51.09122209999998,-28.71957379999999],[-51.09040679999998,-28.722503399999948],[-51.08770879999997,-28.725479899999975],[-51.09497229999994,-28.720753399999982],[-51.09804489999994,-28.720029],[-51.102645199999984,-28.718412099999952],[-51.10545679999996,-28.718096],[-51.106325,-28.717629499999923],[-51.108366599999954,-28.717703],[-51.109142,-28.717058199999936],[-51.10941729999996,-28.715793499999958],[-51.11097929999994,-28.71508619999997],[-51.11173649999996,-28.715084899999958],[-51.11497469999995,-28.715851699999973],[-51.11766369999998,-28.715637299999955],[-51.11830839999993,-28.71590159999993],[-51.119245199999966,-28.715890499999936],[-51.12060809999998,-28.716284899999952],[-51.121531,-28.717472799999943],[-51.122546299999954,-28.718197899999947],[-51.12374909999994,-28.718483199999984],[-51.12533719999993,-28.719604799999953],[-51.12568789999995,-28.72275509999997],[-51.12742969999994,-28.725440499999937],[-51.12826979999995,-28.727256199999946],[-51.12846949999994,-28.728392599999946],[-51.12974389999994,-28.72962619999993],[-51.130332,-28.73111689999996],[-51.13024889999997,-28.73296989999995],[-51.13118229999998,-28.733761199999957],[-51.132351699999965,-28.734164199999967],[-51.13241559999995,-28.735372299999923],[-51.13358219999998,-28.736336899999966],[-51.135637899999956,-28.737303799999953],[-51.138367,-28.738020299999956],[-51.13938209999998,-28.736768199999965],[-51.14003949999995,-28.736336599999944],[-51.14449529999996,-28.735513199999957],[-51.14644589999995,-28.734788799999933],[-51.14765339999997,-28.73478],[-51.14839089999998,-28.734462399999977],[-51.150172,-28.73423979999996],[-51.15204049999994,-28.733406],[-51.1523931,-28.732542499999965],[-51.15406889999997,-28.73054379999996],[-51.15475989999993,-28.730614399999983],[-51.15489969999993,-28.73095669999998],[-51.15775519999994,-28.728772499999945],[-51.158163,-28.728735],[-51.159632399999964,-28.72925879999997],[-51.16194549999995,-28.728937899999945],[-51.163865899999955,-28.729674],[-51.16503339999998,-28.729523199999967],[-51.1654329,-28.72926789999997],[-51.16438459999994,-28.728657299999956],[-51.16537049999994,-28.727907899999938],[-51.16494709999995,-28.727601699999983],[-51.16441569999996,-28.72631329999996],[-51.16372219999994,-28.72581869999992],[-51.16353429999998,-28.725107],[-51.16193089999996,-28.72464129999998],[-51.16082589999996,-28.72338939999997],[-51.16106159999998,-28.72220559999995],[-51.161709299999984,-28.72110979999996],[-51.160802,-28.72075269999993],[-51.160182599999985,-28.720190899999963],[-51.15987489999998,-28.71955219999995],[-51.16002439999995,-28.718584399999934],[-51.159820899999936,-28.717702899999946],[-51.158378,-28.716310199999953],[-51.15728549999994,-28.714225699999925],[-51.15473349999996,-28.711921499999946],[-51.155151099999955,-28.710559199999974],[-51.15585139999997,-28.71014489999993],[-51.15426259999998,-28.71041079999997],[-51.15173339999996,-28.707925199999973],[-51.14969409999998,-28.706426399999938],[-51.14886869999998,-28.705403399999966],[-51.14674279999997,-28.705024199999972],[-51.14575149999997,-28.70375469999994],[-51.14410779999997,-28.703118099999976],[-51.14237079999998,-28.702922899999972],[-51.14168049999995,-28.702534199999942],[-51.139734699999956,-28.698166],[-51.13926249999998,-28.69577349999997],[-51.14022239999997,-28.694232899999967],[-51.13943359999997,-28.691214799999965],[-51.139673399999936,-28.684237899999964],[-51.14074839999995,-28.67933209999995],[-51.14063139999996,-28.676503899999943],[-51.14213009999998,-28.67316129999994],[-51.14228279999998,-28.673005499999924],[-51.14375659999997,-28.673192199999963],[-51.14343139999995,-28.671927699999962],[-51.14268989999994,-28.670958899999956],[-51.14266769999995,-28.667487799999947],[-51.14319169999993,-28.666563],[-51.14439189999997,-28.66577249999995],[-51.14397609999998,-28.664812199999975],[-51.14393,-28.663787],[-51.144870099999935,-28.662612499999966],[-51.14511119999998,-28.661696899999967],[-51.1458181,-28.660581599999944],[-51.14558649999998,-28.65971859999997],[-51.14482579999997,-28.658632099999974],[-51.14515729999994,-28.657637499999975],[-51.145135,-28.65623429999993],[-51.145707699999946,-28.655074599999974],[-51.146118899999976,-28.65268459999993],[-51.14713279999996,-28.652378499999934],[-51.14835579999993,-28.652625099999963],[-51.1488212,-28.652515299999944],[-51.149365899999964,-28.65161539999997],[-51.150534499999935,-28.650921099999938],[-51.150727699999955,-28.64979119999998],[-51.15030669999994,-28.649313499999945],[-51.151486699999964,-28.647801899999926],[-51.152247699999975,-28.64795209999994],[-51.15232569999995,-28.648662299999955],[-51.15327449999995,-28.649601799999957],[-51.153766099999984,-28.65092089999996],[-51.15577659999997,-28.650469399999963],[-51.157023599999945,-28.650555],[-51.158831099999986,-28.64969049999997],[-51.15939569999995,-28.64912689999994],[-51.159816199999966,-28.647966599999958],[-51.160603599999945,-28.647481099999933],[-51.1609,-28.646365799999952],[-51.16356369999994,-28.64581619999996],[-51.16439879999996,-28.645344099999928],[-51.164688199999944,-28.64428349999997],[-51.16194139999994,-28.642527899999955],[-51.16177019999998,-28.641997199999935],[-51.16377619999997,-28.641558],[-51.165553399999965,-28.640465799999962],[-51.1665359,-28.640163299999987],[-51.166771399999966,-28.638989399999957],[-51.16641029999993,-28.63896309999996],[-51.165821299999955,-28.639327199999965],[-51.165856899999945,-28.63780449999996],[-51.166920699999935,-28.63782579999998],[-51.16749589999995,-28.637434],[-51.16844889999994,-28.63765649999993],[-51.16905689999993,-28.637103499999963],[-51.168415799999934,-28.63649759999993],[-51.168587,-28.63604969999995],[-51.16843339999998,-28.635876299999946],[-51.16562319999996,-28.635024499999933],[-51.164989599999956,-28.63433189999995],[-51.165887599999955,-28.63320229999993],[-51.166879,-28.632832699999945],[-51.166589,-28.632183499999933],[-51.16658029999997,-28.63078989999998],[-51.166751099999935,-28.63038049999994],[-51.16761669999994,-28.629860799999967],[-51.167126,-28.629030299999943],[-51.167269799999985,-28.628675199999975],[-51.17015339999995,-28.62872689999995],[-51.171478399999955,-28.627779499999967],[-51.17294319999997,-28.627441799999932],[-51.17527849999993,-28.627154],[-51.178131,-28.627386599999973],[-51.181152699999984,-28.62663019999996],[-51.183218599999975,-28.627157099999973],[-51.183684,-28.627563199999937],[-51.18413629999997,-28.626955099999968],[-51.18490609999998,-28.626646699999974],[-51.18727,-28.62790459999996],[-51.189804899999956,-28.628551899999927],[-51.190206899999964,-28.62915879999996],[-51.19050379999993,-28.62921909999994],[-51.19082139999994,-28.62867409999996],[-51.19246359999995,-28.62799139999992],[-51.19255359999994,-28.627340399999984],[-51.192976699999974,-28.62700389999998],[-51.19373579999996,-28.62728659999994],[-51.19427349999995,-28.626833299999934],[-51.19476519999996,-28.626785],[-51.19650649999994,-28.627839499999943],[-51.197176099999986,-28.6276137],[-51.198094399999945,-28.62671029999996],[-51.198109199999976,-28.62637219999993],[-51.19649409999994,-28.624789299999975],[-51.195595399999945,-28.62340729999994],[-51.195631499999934,-28.622914899999962],[-51.196064699999965,-28.622501099999972],[-51.19680379999995,-28.622307099999954],[-51.19899269999997,-28.62247479999996],[-51.19990289999998,-28.62186719999994],[-51.20070929999998,-28.621720599999943],[-51.20274809999995,-28.620809],[-51.205252899999955,-28.621456599999927],[-51.20672479999996,-28.620751099999953],[-51.20712089999995,-28.620157499999948],[-51.208232399999986,-28.619790299999984],[-51.20879879999996,-28.619992299999986],[-51.211370699999975,-28.622457899999972],[-51.21194339999993,-28.62337039999994],[-51.21296349999995,-28.623601599999972],[-51.21338509999998,-28.622914899999955],[-51.214609,-28.62273],[-51.21480879999996,-28.62241549999992],[-51.214615599999945,-28.622056],[-51.214753099999946,-28.621702499999966],[-51.21603639999996,-28.62077159999995],[-51.21695709999995,-28.61976939999993],[-51.21656859999996,-28.618578399999933],[-51.216628399999934,-28.616988499999934],[-51.216888599999955,-28.61629439999996],[-51.21750519999994,-28.615798299999938],[-51.21792849999997,-28.615047],[-51.21671229999998,-28.611611199999967],[-51.216732,-28.61064519999996],[-51.21724549999993,-28.608780099999926],[-51.21762749999994,-28.608130299999967],[-51.218824,-28.607691199999966],[-51.22049059999995,-28.606462799999974],[-51.2211339,-28.605573699999972],[-51.222458399999944,-28.605143499999933],[-51.22401649999995,-28.60568349999994],[-51.22449769999997,-28.60561969999998],[-51.225355699999966,-28.604289299999955],[-51.22539739999996,-28.603628499999946],[-51.22741069999996,-28.602937],[-51.228870599999944,-28.603180599999988],[-51.22985529999993,-28.603930399999957],[-51.231241699999934,-28.603514399999945],[-51.23243709999997,-28.603629199999947],[-51.23348189999995,-28.60342319999994],[-51.23513619999994,-28.60229919999995],[-51.237055199999986,-28.601450599999964],[-51.23864149999998,-28.600084],[-51.239026799999976,-28.600282699999976],[-51.23931219999997,-28.600862299999946],[-51.23912119999995,-28.60180739999993],[-51.241081099999974,-28.602111499999978],[-51.24153179999996,-28.602006099999976],[-51.24227389999999,-28.601426],[-51.243422599999974,-28.598499399999984],[-51.244411599999985,-28.59827159999998],[-51.244786499999975,-28.597963199999985],[-51.24536169999993,-28.59629239999998],[-51.24723549999994,-28.59603119999997],[-51.24959339999998,-28.59639119999996],[-51.251850099999956,-28.59518589999994],[-51.255268399999984,-28.594540499999933],[-51.25572919999996,-28.594611799999925],[-51.25682519999999,-28.595493299999934],[-51.258758299999954,-28.595603099999938],[-51.259118099999974,-28.595054199999932],[-51.25949819999994,-28.592832399999967],[-51.260429,-28.59256459999994],[-51.26139169999993,-28.5918],[-51.261133799999975,-28.591593099999937],[-51.26013629999994,-28.591753],[-51.25891849999994,-28.591455699999976],[-51.25747929999994,-28.589968199999934],[-51.25572339999997,-28.58859169999994],[-51.25557269999996,-28.58897389999993],[-51.254645899999964,-28.589118099999943],[-51.25425649999994,-28.5889673],[-51.25379,-28.586425],[-51.25413149999997,-28.585944],[-51.25355179999997,-28.584811399999975],[-51.252987599999976,-28.584998],[-51.252394299999935,-28.585646199999935],[-51.24956979999996,-28.586612199999934],[-51.248630599999956,-28.58737329999996],[-51.24669869999997,-28.58817259999994],[-51.24626949999998,-28.588609499999954],[-51.24552279999995,-28.588573299999947],[-51.24110889999997,-28.586812499999944],[-51.239913699999924,-28.586983799999924],[-51.23947539999995,-28.587848799999957],[-51.23903549999994,-28.587956299999963],[-51.238375499999954,-28.587097899999936],[-51.238171199999954,-28.58610969999994],[-51.23623319999996,-28.585891499999935],[-51.233652,-28.584906899999975],[-51.23185839999996,-28.584643399999937],[-51.23134929999998,-28.584377799999967],[-51.23004489999994,-28.583071499999964],[-51.228815699999984,-28.581312899999936],[-51.22778829999998,-28.58068939999998],[-51.22708659999996,-28.581069199999934],[-51.22539829999993,-28.58275529999997],[-51.22289219999994,-28.583976],[-51.217970299999934,-28.585104499999947],[-51.216958199999965,-28.586131899999945],[-51.21681189999999,-28.587194499999946],[-51.21650589999996,-28.58768409999993],[-51.21416969999995,-28.58797169999998],[-51.21326949999997,-28.587427199999983],[-51.21293939999999,-28.586197799999976],[-51.21171229999993,-28.586257399999965],[-51.21136389999998,-28.586544699999937],[-51.21022689999995,-28.589364699999976],[-51.206087299999986,-28.587811299999935],[-51.203878799999984,-28.587473299999942],[-51.20245619999997,-28.585622599999958],[-51.200477,-28.58514509999998],[-51.19999869999998,-28.586004599999974],[-51.19908879999997,-28.589119299999933],[-51.196066299999984,-28.58911879999993],[-51.19509249999993,-28.58876719999994],[-51.19454279999997,-28.58896829999998],[-51.19253619999996,-28.59065249999998],[-51.18838979999998,-28.59034949999995],[-51.186556199999984,-28.591232499999926],[-51.18350869999995,-28.590175199999983],[-51.180101899999954,-28.59235539999997],[-51.179634499999956,-28.592427399999966],[-51.179193199999986,-28.592076099999925],[-51.17913089999996,-28.591265199999953],[-51.17821649999996,-28.58871489999996],[-51.178131699999945,-28.58755619999993],[-51.17716789999997,-28.586781299999938],[-51.17707279999996,-28.58533689999996],[-51.17743939999997,-28.584087699999944],[-51.17736,-28.583023199999957],[-51.17656109999996,-28.581702499999945],[-51.176200299999955,-28.579432],[-51.175420899999956,-28.579019199999944],[-51.17519989999993,-28.57865969999995],[-51.17499419999996,-28.575186099999925],[-51.173825399999934,-28.57397689999993],[-51.17333579999996,-28.57399329999998],[-51.17124839999996,-28.57602129999998],[-51.170606,-28.575181299999944],[-51.17026879999998,-28.573559199999973],[-51.16968429999997,-28.57373029999997],[-51.16889879999997,-28.57439889999995],[-51.168537499999964,-28.575118399999955],[-51.168916399999944,-28.576660199999928],[-51.17041419999998,-28.577788699999935],[-51.17043119999994,-28.578056499999946],[-51.169083,-28.57920749999994],[-51.16764149999995,-28.579564199999936],[-51.16626209999998,-28.580219099999965],[-51.16500879999995,-28.583400099999942],[-51.164093,-28.58451769999993],[-51.163544099999974,-28.584568199999982],[-51.16302849999994,-28.584124199999966],[-51.162360099999944,-28.581388899999975],[-51.16170269999997,-28.58082829999995],[-51.16094719999995,-28.581269499999962],[-51.160565599999984,-28.583076299999952],[-51.159887599999934,-28.583442],[-51.15638419999994,-28.582772699999953],[-51.15561089999995,-28.58231349999994],[-51.154133299999955,-28.5828777],[-51.153338599999984,-28.582688899999937],[-51.15318279999997,-28.582190899999958],[-51.15357569999998,-28.58107309999997],[-51.15579539999993,-28.578220699999978],[-51.15652359999995,-28.576661899999973],[-51.15656309999997,-28.575586099999946],[-51.157634099999946,-28.57454849999994],[-51.157767399999955,-28.573970099999933],[-51.157214099999976,-28.57355729999994],[-51.15638939999996,-28.573671499999932],[-51.15489,-28.574488799999983],[-51.15371569999997,-28.576008699999935],[-51.152233699999954,-28.576085599999942],[-51.150760599999956,-28.575534499999943],[-51.150882299999985,-28.574231599999965],[-51.15065849999997,-28.573487299999957],[-51.15089009999997,-28.57287579999996],[-51.14850819999998,-28.57280679999996],[-51.14818059999994,-28.572527499999985],[-51.14776139999998,-28.571415599999963],[-51.147969699999976,-28.570617],[-51.151063699999945,-28.56900239999993],[-51.15344449999998,-28.568488299999952],[-51.15355429999994,-28.567772499999936],[-51.15334049999995,-28.56709319999992],[-51.15248489999993,-28.56597969999996],[-51.15253279999995,-28.562819399999974],[-51.15199769999999,-28.561410099999925],[-51.15004379999994,-28.559667],[-51.14865629999998,-28.559535199999967],[-51.148081099999956,-28.559197099999942],[-51.14753729999995,-28.55678129999996],[-51.146454199999944,-28.555368299999945],[-51.1458186,-28.555085099999918],[-51.14279549999997,-28.555250799999957],[-51.139100499999984,-28.558634199999968],[-51.13826979999994,-28.56158059999996],[-51.138257099999976,-28.56257839999995],[-51.137429899999965,-28.563280699999954],[-51.13686609999996,-28.565390899999947],[-51.13565129999995,-28.567274399999974],[-51.135284899999924,-28.568435599999933],[-51.13489189999996,-28.56870119999996],[-51.132332,-28.567454199999933],[-51.131293599999935,-28.566226899999958],[-51.130894,-28.56484819999997],[-51.12881489999995,-28.563059299999967],[-51.126041499999985,-28.55984109999997],[-51.12554809999995,-28.559563199999953],[-51.12490049999996,-28.559528599999965],[-51.12416719999994,-28.55906539999996],[-51.12378639999997,-28.55850529999998],[-51.1238178,-28.55758689999993],[-51.123438799999974,-28.556973499999973],[-51.12202989999998,-28.556653699999966],[-51.11956109999995,-28.556891899999982],[-51.11851829999994,-28.55662849999992],[-51.11780229999994,-28.55567009999992]]]}},{"type":"Feature","properties":{"setor":"430367305000012","pop":571,"sigilo_pop":false,"dom":262,"sigilo_dom":false,"mulheres":262,"sigilo_mulheres":false,"c0_4":26,"sigilo_c0_4":false,"c5_9":23,"sigilo_c5_9":false,"i60_69":73,"sigilo_i60_69":false,"i70m":73,"sigilo_i70m":false,"indigenas":0,"sigilo_indigenas":false,"pretos_pardos":53,"sigilo_pretos_pardos":false,"dom_ocupados":206,"sigilo_dom_ocupados":false,"dom_agua":25,"sigilo_dom_agua":false,"dom_esgoto":null,"sigilo_dom_esgoto":true,"renda_resp":1908.9,"sigilo_renda_resp":false,"n_resp":206,"sigilo_n_resp":false,"dens":11.6,"sigilo_dens":false,"na_bacia":1,"area_pct_bacia":100.0,"metodo_recorte_bacia":"ponto_representativo_setor_2022; area_pct_geometrica"},"geometry":{"type":"Polygon","coordinates":[[[-51.128214499999956,-28.845801199999983],[-51.12403559999996,-28.837081899999934],[-51.12570069999999,-28.835983599999956],[-51.124828399999956,-28.834814299999938],[-51.12147139999996,-28.833405099999943],[-51.12056409999997,-28.832288],[-51.12049119999995,-28.831450399999937],[-51.12121309999998,-28.829104299999983],[-51.120950299999954,-28.827960199999932],[-51.11462579999994,-28.820118399999956],[-51.113978,-28.819553699999975],[-51.11175609999999,-28.818779899999974],[-51.10943779999997,-28.81587249999996],[-51.10853049999998,-28.814173599999943],[-51.10652959999993,-28.812860199999925],[-51.105307699999976,-28.810244099999984],[-51.10393929999998,-28.8093456],[-51.10132979999997,-28.805789799999957],[-51.101047599999966,-28.80462],[-51.095987799999925,-28.804476499999968],[-51.09481879999998,-28.80417489999996],[-51.09514459999997,-28.803643899999933],[-51.093750899999975,-28.802800799999943],[-51.09149009999993,-28.80000119999994],[-51.091856,-28.7982737],[-51.09051089999996,-28.797729],[-51.089675899999975,-28.796594299999978],[-51.089627,-28.795633799999962],[-51.08917509999998,-28.7953128],[-51.088783099999944,-28.79661049999992],[-51.08749889999995,-28.798246899999974],[-51.0854581,-28.79931389999997],[-51.08185459999998,-28.80005729999992],[-51.08065279999994,-28.800780399999955],[-51.07859769999993,-28.801133399999962],[-51.077571,-28.802717199999964],[-51.076899099999935,-28.802986899999944],[-51.075448,-28.802649899999942],[-51.07364739999997,-28.80185359999995],[-51.07343149999997,-28.80162079999996],[-51.073374299999955,-28.79990389999995],[-51.07242969999999,-28.799469499999933],[-51.070979499999964,-28.798241],[-51.070334299999956,-28.798327099999938],[-51.06934469999993,-28.799160599999926],[-51.066604699999964,-28.798991699999927],[-51.06546389999995,-28.799926799999973],[-51.06251929999996,-28.799226499999964],[-51.061274,-28.798623],[-51.06041909999993,-28.79871549999995],[-51.05895859999998,-28.799720199999967],[-51.05797629999995,-28.800879599999973],[-51.057750399999975,-28.80127729999998],[-51.05790539999998,-28.80185009999998],[-51.057598699999964,-28.802332099999926],[-51.05604649999998,-28.802974699999922],[-51.05523259999995,-28.804343499999945],[-51.05503989999994,-28.80558329999996],[-51.05336889999995,-28.807264499999967],[-51.053426599999966,-28.80902239999995],[-51.05310819999994,-28.809396599999943],[-51.0517,-28.809902],[-51.051564699999965,-28.810078799999932],[-51.05187879999995,-28.81070919999996],[-51.05139139999995,-28.811244399999957],[-51.05019939999995,-28.81176919999995],[-51.04463969999995,-28.812631799999956],[-51.04413379999995,-28.813091799999935],[-51.043332099999986,-28.81317829999994],[-51.041286599999985,-28.812771299999955],[-51.03832639999997,-28.81346679999995],[-51.03804249999995,-28.813819099999943],[-51.036654,-28.813603399999977],[-51.03466179999999,-28.813852],[-51.031283099999946,-28.815491699999935],[-51.02920409999996,-28.81711479999996],[-51.027421299999965,-28.8174466],[-51.02580819999997,-28.81806709999995],[-51.02548029999997,-28.818297299999983],[-51.02524649999997,-28.8190643],[-51.02435279999998,-28.819364399999966],[-51.02303679999994,-28.820758099999974],[-51.024018299999966,-28.822119],[-51.02490479999994,-28.822878399999972],[-51.024859499999934,-28.82307159999993],[-51.02427339999997,-28.82314],[-51.02407419999998,-28.82357679999995],[-51.02549079999994,-28.82457159999996],[-51.025498599999935,-28.825335599999963],[-51.023068399999936,-28.826450899999926],[-51.02165649999995,-28.826091],[-51.020942,-28.826487599999947],[-51.02094339999997,-28.82705269999997],[-51.021704,-28.82850129999997],[-51.02101189999996,-28.828951799999977],[-51.02016649999997,-28.83056919999995],[-51.020501199999956,-28.831292299999962],[-51.021564699999935,-28.830956399999938],[-51.02195039999998,-28.831258599999956],[-51.021031499999935,-28.833872899999967],[-51.01907719999997,-28.838745399999947],[-51.01581779999999,-28.840037],[-51.01699679999996,-28.84125589999996],[-51.01765,-28.841620599999956],[-51.01897719999994,-28.84182449999998],[-51.01981459999997,-28.841584],[-51.02496069999995,-28.838859799999973],[-51.027624799999955,-28.836773499999946],[-51.0304599,-28.833897199999967],[-51.03134179999995,-28.833244],[-51.03240839999995,-28.832872299999956],[-51.036185,-28.83257269999995],[-51.03864559999994,-28.83332409999996],[-51.04072739999999,-28.834356799999963],[-51.041972,-28.835255099999987],[-51.043668399999945,-28.83705229999999],[-51.045660699999985,-28.84067659999993],[-51.04696389999998,-28.843786899999937],[-51.0477284,-28.847684],[-51.047916499999985,-28.851979699999955],[-51.04694139999998,-28.859087299999945],[-51.04695589999994,-28.86026169999996],[-51.04737189999997,-28.861432299999937],[-51.048239799999976,-28.86229929999996],[-51.05341769999996,-28.863965299999972],[-51.056610299999925,-28.864693699999965],[-51.06028169999996,-28.86499379999998],[-51.063413799999985,-28.864824199999934],[-51.06954149999996,-28.863307],[-51.07220489999998,-28.86248019999994],[-51.076250899999934,-28.860503299999944],[-51.079841699999974,-28.858158899999978],[-51.082604499999945,-28.85601339999993],[-51.085572599999985,-28.852998199999934],[-51.087107,-28.849135399999966],[-51.087957399999944,-28.84396669999996],[-51.08865059999994,-28.843078099999968],[-51.090021699999966,-28.841919399999945],[-51.091317799999956,-28.84128089999996],[-51.094875,-28.84104179999997],[-51.09703839999998,-28.841429399999974],[-51.104199,-28.844604699999934],[-51.10900479999999,-28.847716399999953],[-51.11276979999997,-28.85125419999997],[-51.114448799999934,-28.85383779999995],[-51.114916,-28.85516859999995],[-51.114998,-28.85717029999996],[-51.10921319999994,-28.86413969999995],[-51.10841429999994,-28.86620889999994],[-51.108647399999946,-28.86848389999994],[-51.11250609999997,-28.87212779999993],[-51.11475989999997,-28.873629099999963],[-51.11740169999997,-28.87485679999997],[-51.13297139999998,-28.87915059999994],[-51.137396699999954,-28.881531799999948],[-51.13965149999996,-28.882355],[-51.14109629999996,-28.88313619999997],[-51.143852099999954,-28.8837339],[-51.145304499999945,-28.88358589999995],[-51.14627939999997,-28.882916499999958],[-51.146718,-28.88215969999993],[-51.147166599999935,-28.879350699999975],[-51.148032299999954,-28.877415],[-51.147081699999944,-28.877266399999947],[-51.14676419999995,-28.877572299999933],[-51.14606889999993,-28.87897029999994],[-51.14579379999998,-28.88091269999995],[-51.14487719999994,-28.882419399999943],[-51.144019499999956,-28.882714399999944],[-51.14308079999996,-28.88253479999998],[-51.13930539999996,-28.880754399999937],[-51.13856709999993,-28.880068299999955],[-51.133830899999964,-28.87755969999995],[-51.12968989999996,-28.874920799999977],[-51.128847,-28.87389129999997],[-51.12853009999998,-28.872485599999965],[-51.128058899999985,-28.872383199999938],[-51.1265423,-28.872970199999937],[-51.12481919999993,-28.872461],[-51.12452589999998,-28.871799699999933],[-51.12481859999997,-28.870658799999944],[-51.125558799999965,-28.870030499999928],[-51.12544979999995,-28.869025399999945],[-51.125904599999956,-28.868243899999978],[-51.12560479999996,-28.867779],[-51.125108299999965,-28.867754799999943],[-51.121473099999946,-28.869589199999947],[-51.12064079999994,-28.869806199999978],[-51.11974049999998,-28.86919549999994],[-51.11814689999994,-28.86925],[-51.116583099999964,-28.868931799999935],[-51.115105,-28.867414699999987],[-51.11471989999996,-28.86581679999995],[-51.11727509999997,-28.86277119999995],[-51.11861829999997,-28.862061299999937],[-51.11952709999998,-28.861129099999975],[-51.120763,-28.860948],[-51.12152569999996,-28.860548],[-51.122222299999976,-28.85970949999996],[-51.122970099999975,-28.859543199999962],[-51.12376249999995,-28.859658199999952],[-51.125906,-28.85919669999998],[-51.12612809999996,-28.85785619999995],[-51.12747359999997,-28.856954],[-51.12830759999997,-28.853757],[-51.129705599999966,-28.852289],[-51.130471599999964,-28.851948899999968],[-51.13197679999996,-28.852683099999975],[-51.13282879999997,-28.85271019999993],[-51.13379649999996,-28.852181699999957],[-51.13482729999998,-28.8512072],[-51.134919,-28.849926699999966],[-51.13614339999997,-28.84816569999998],[-51.13605579999995,-28.847649899999965],[-51.13003349999996,-28.847026399999944],[-51.12932569999998,-28.84666409999993],[-51.128939199999934,-28.845887799999954],[-51.128214499999956,-28.845801199999983]]]}},{"type":"Feature","properties":{"setor":"430367305000013","pop":65,"sigilo_pop":false,"dom":34,"sigilo_dom":false,"mulheres":32,"sigilo_mulheres":false,"c0_4":null,"sigilo_c0_4":true,"c5_9":null,"sigilo_c5_9":true,"i60_69":9,"sigilo_i60_69":false,"i70m":13,"sigilo_i70m":false,"indigenas":0,"sigilo_indigenas":false,"pretos_pardos":7,"sigilo_pretos_pardos":false,"dom_ocupados":28,"sigilo_dom_ocupados":false,"dom_agua":18,"sigilo_dom_agua":false,"dom_esgoto":7,"sigilo_dom_esgoto":false,"renda_resp":2085.38,"sigilo_renda_resp":false,"n_resp":28,"sigilo_n_resp":false,"dens":222.0,"sigilo_dens":false,"na_bacia":1,"area_pct_bacia":100.0,"metodo_recorte_bacia":"ponto_representativo_setor_2022; area_pct_geometrica"},"geometry":{"type":"Polygon","coordinates":[[[-51.12570069999999,-28.835983599999956],[-51.12403559999996,-28.837081899999934],[-51.128214499999956,-28.845801199999983],[-51.12904,-28.84506689999995],[-51.129744199999955,-28.844990599999967],[-51.12978919999995,-28.844270799999947],[-51.13107549999995,-28.842533799999966],[-51.1305139,-28.840676299999988],[-51.128723099999945,-28.840765499999975],[-51.12804869999997,-28.840339799999974],[-51.12741409999996,-28.838368799999962],[-51.12570069999999,-28.835983599999956]]]}},{"type":"Feature","properties":{"setor":"430367305000014","pop":119,"sigilo_pop":false,"dom":62,"sigilo_dom":false,"mulheres":58,"sigilo_mulheres":false,"c0_4":null,"sigilo_c0_4":true,"c5_9":null,"sigilo_c5_9":true,"i60_69":21,"sigilo_i60_69":false,"i70m":6,"sigilo_i70m":false,"indigenas":0,"sigilo_indigenas":false,"pretos_pardos":null,"sigilo_pretos_pardos":true,"dom_ocupados":46,"sigilo_dom_ocupados":false,"dom_agua":31,"sigilo_dom_agua":false,"dom_esgoto":20,"sigilo_dom_esgoto":false,"renda_resp":2379.82,"sigilo_renda_resp":false,"n_resp":46,"sigilo_n_resp":false,"dens":397.4,"sigilo_dens":false,"na_bacia":1,"area_pct_bacia":100.0,"metodo_recorte_bacia":"ponto_representativo_setor_2022; area_pct_geometrica"},"geometry":{"type":"Polygon","coordinates":[[[-51.13210179999999,-28.83736609999994],[-51.12807079999993,-28.83470809999995],[-51.12570069999999,-28.835983599999956],[-51.12741409999996,-28.838368799999962],[-51.12833919999997,-28.840667699999976],[-51.13102219999996,-28.840749499999948],[-51.13153449999999,-28.841405799999958],[-51.132022,-28.842675699999965],[-51.13265279999995,-28.84292679999993],[-51.13268309999995,-28.84204609999994],[-51.133326599999975,-28.841332699999946],[-51.132941,-28.840998499999948],[-51.132663,-28.840028],[-51.13198809999995,-28.83946879999996],[-51.13210179999999,-28.83736609999994]]]}},{"type":"Feature","properties":{"setor":"430367305000015","pop":73,"sigilo_pop":false,"dom":45,"sigilo_dom":false,"mulheres":37,"sigilo_mulheres":false,"c0_4":8,"sigilo_c0_4":false,"c5_9":null,"sigilo_c5_9":true,"i60_69":7,"sigilo_i60_69":false,"i70m":null,"sigilo_i70m":true,"indigenas":0,"sigilo_indigenas":false,"pretos_pardos":18,"sigilo_pretos_pardos":false,"dom_ocupados":24,"sigilo_dom_ocupados":false,"dom_agua":0,"sigilo_dom_agua":false,"dom_esgoto":0,"sigilo_dom_esgoto":false,"renda_resp":2671.45,"sigilo_renda_resp":false,"n_resp":24,"sigilo_n_resp":false,"dens":2.8,"sigilo_dens":false,"na_bacia":1,"area_pct_bacia":100.0,"metodo_recorte_bacia":"ponto_representativo_setor_2022; area_pct_geometrica"},"geometry":{"type":"Polygon","coordinates":[[[-51.09962219999995,-28.794088799999937],[-51.105306,-28.795515],[-51.10654559999995,-28.794597499999952],[-51.10705589999998,-28.794700399999947],[-51.107920199999974,-28.794343199999947],[-51.10892719999998,-28.792969],[-51.109182299999986,-28.791927599999944],[-51.11005819999997,-28.791305899999948],[-51.11144359999997,-28.790874299999928],[-51.11156429999994,-28.790240299999926],[-51.11103939999999,-28.78854509999996],[-51.111549099999934,-28.787743899999953],[-51.113788899999975,-28.78620789999996],[-51.1137437,-28.78573309999996],[-51.11574179999997,-28.783886899999967],[-51.11804309999996,-28.78353929999996],[-51.118523,-28.783113099999984],[-51.11876619999998,-28.78265209999994],[-51.11888439999995,-28.780029099999975],[-51.12081989999995,-28.77662239999995],[-51.12214369999999,-28.775645199999936],[-51.12327119999998,-28.775767499999972],[-51.1246273,-28.775066],[-51.12506789999997,-28.77379049999997],[-51.12434179999997,-28.771768899999984],[-51.12445839999998,-28.770281899999926],[-51.12415759999994,-28.76874089999995],[-51.12310049999997,-28.766836599999973],[-51.12299779999995,-28.765578399999967],[-51.122371699999974,-28.763683399999923],[-51.12320519999998,-28.76223859999993],[-51.12859,-28.75934509999995],[-51.12934219999994,-28.75948009999996],[-51.13066889999994,-28.760364799999937],[-51.13329079999995,-28.765705399999952],[-51.134025,-28.765685499999968],[-51.13381649999997,-28.765225899999965],[-51.133938,-28.764930799999952],[-51.134983099999936,-28.763991],[-51.135423,-28.76287909999995],[-51.13527129999995,-28.76156609999998],[-51.134182899999985,-28.76071119999995],[-51.133776,-28.759690799999937],[-51.13481159999998,-28.755301299999925],[-51.13469369999996,-28.75438329999997],[-51.13335559999996,-28.753690899999977],[-51.132129899999946,-28.75127989999993],[-51.13172039999995,-28.74988079999997],[-51.130476,-28.748326799999965],[-51.13056189999998,-28.74671109999997],[-51.13015019999995,-28.744841299999955],[-51.13080019999995,-28.744206099999932],[-51.130306099999984,-28.74206029999993],[-51.13194,-28.741285799999954],[-51.132428,-28.738866299999987],[-51.13403759999994,-28.737862899999968],[-51.134212899999966,-28.737114599999988],[-51.13358219999998,-28.736336899999966],[-51.13252219999998,-28.73555859999994],[-51.132351699999965,-28.734164199999967],[-51.13118229999998,-28.733761199999957],[-51.130156,-28.732862199999946],[-51.130268299999955,-28.730847799999935],[-51.12956449999996,-28.729364299999922],[-51.12846949999994,-28.728392599999946],[-51.12826979999995,-28.727256199999946],[-51.12742969999994,-28.725440499999937],[-51.12568789999995,-28.72275509999997],[-51.12533719999993,-28.719604799999953],[-51.12374909999994,-28.718483199999984],[-51.122546299999954,-28.718197899999947],[-51.121531,-28.717472799999943],[-51.12060809999998,-28.716284899999952],[-51.119245199999966,-28.715890499999936],[-51.11830839999993,-28.71590159999993],[-51.11766369999998,-28.715637299999955],[-51.11497469999995,-28.715851699999973],[-51.11173649999996,-28.715084899999958],[-51.11097929999994,-28.71508619999997],[-51.10941729999996,-28.715793499999958],[-51.109142,-28.717058199999936],[-51.108366599999954,-28.717703],[-51.106325,-28.717629499999923],[-51.10545679999996,-28.718096],[-51.102645199999984,-28.718412099999952],[-51.09804489999994,-28.720029],[-51.09497229999994,-28.720753399999982],[-51.08688509999997,-28.72595139999992],[-51.08682829999998,-28.72616419999996],[-51.086788799999965,-28.72766979999994],[-51.08725569999996,-28.72908709999995],[-51.08784839999998,-28.729755299999965],[-51.089138899999966,-28.730256],[-51.091089099999984,-28.733228699999987],[-51.09575159999997,-28.744208499999957],[-51.09580289999997,-28.745017899999947],[-51.09475469999995,-28.748950899999944],[-51.09563019999996,-28.75067609999998],[-51.09450149999998,-28.75855629999995],[-51.091466,-28.765305],[-51.09127889999996,-28.766372499999935],[-51.09261219999996,-28.769326099999944],[-51.092838,-28.771641199999976],[-51.09373569999997,-28.775514599999944],[-51.093603899999955,-28.776349299999925],[-51.09249579999994,-28.77776309999996],[-51.092406,-28.778430099999976],[-51.0930853,-28.779058],[-51.095026,-28.779369699999954],[-51.09559649999994,-28.77978449999995],[-51.09851239999995,-28.784184699999976],[-51.09870019999994,-28.784987899999976],[-51.098084,-28.786226],[-51.09535149999993,-28.788509099999946],[-51.095105399999966,-28.789320799999924],[-51.095379099999946,-28.789687599999986],[-51.10028379999994,-28.791851399999942],[-51.09962219999995,-28.794088799999937]]]}},{"type":"Feature","properties":{"setor":"430367305000016","pop":228,"sigilo_pop":false,"dom":164,"sigilo_dom":false,"mulheres":110,"sigilo_mulheres":false,"c0_4":6,"sigilo_c0_4":false,"c5_9":null,"sigilo_c5_9":true,"i60_69":49,"sigilo_i60_69":false,"i70m":27,"sigilo_i70m":false,"indigenas":0,"sigilo_indigenas":false,"pretos_pardos":null,"sigilo_pretos_pardos":true,"dom_ocupados":101,"sigilo_dom_ocupados":false,"dom_agua":11,"sigilo_dom_agua":false,"dom_esgoto":null,"sigilo_dom_esgoto":true,"renda_resp":1750.67,"sigilo_renda_resp":false,"n_resp":101,"sigilo_n_resp":false,"dens":10.5,"sigilo_dens":false,"na_bacia":1,"area_pct_bacia":100.0,"metodo_recorte_bacia":"ponto_representativo_setor_2022; area_pct_geometrica"},"geometry":{"type":"Polygon","coordinates":[[[-51.105306,-28.795515],[-51.09962219999995,-28.794088799999937],[-51.09901309999997,-28.79614889999994],[-51.100937,-28.80219979999998],[-51.10045229999998,-28.80344339999993],[-51.10096009999996,-28.80418469999996],[-51.10132979999997,-28.805789799999957],[-51.10393929999998,-28.8093456],[-51.105307699999976,-28.810244099999984],[-51.10667319999994,-28.813028099999936],[-51.10853049999998,-28.814173599999943],[-51.10943779999997,-28.81587249999996],[-51.111444499999955,-28.81849],[-51.114371099999964,-28.819858599999975],[-51.120950299999954,-28.827960199999932],[-51.12121309999998,-28.829104299999983],[-51.12044219999996,-28.831898499999962],[-51.12104489999996,-28.83293429999998],[-51.12147139999996,-28.833405099999943],[-51.124828399999956,-28.834814299999938],[-51.12570069999999,-28.835983599999956],[-51.12807079999993,-28.83470809999995],[-51.13210179999999,-28.83736609999994],[-51.133241099999964,-28.836722099999974],[-51.13512419999995,-28.83608539999995],[-51.14196889999994,-28.841148699999955],[-51.14295949999996,-28.84135219999996],[-51.14389909999995,-28.84205679999997],[-51.14427669999998,-28.842626399999975],[-51.13986879999993,-28.850187],[-51.136709,-28.848281399999948],[-51.13637959999994,-28.847640199999937],[-51.134919,-28.849926699999966],[-51.13482729999998,-28.8512072],[-51.13379649999996,-28.852181699999957],[-51.13282879999997,-28.85271019999993],[-51.132246,-28.852748],[-51.130629099999965,-28.85197139999996],[-51.1299911,-28.852055499999945],[-51.12830759999997,-28.853757],[-51.12747359999997,-28.856954],[-51.12612809999996,-28.85785619999995],[-51.125906,-28.85919669999998],[-51.12376249999995,-28.859658199999952],[-51.122970099999975,-28.859543199999962],[-51.122222299999976,-28.85970949999996],[-51.12152569999996,-28.860548],[-51.120763,-28.860948],[-51.11952709999998,-28.861129099999975],[-51.11861829999997,-28.862061299999937],[-51.11727509999997,-28.86277119999995],[-51.11471989999996,-28.86581679999995],[-51.115105,-28.867414699999987],[-51.116583099999964,-28.868931799999935],[-51.11814689999994,-28.86925],[-51.11974049999998,-28.86919549999994],[-51.12064079999994,-28.869806199999978],[-51.121473099999946,-28.869589199999947],[-51.125108299999965,-28.867754799999943],[-51.12560479999996,-28.867779],[-51.125904599999956,-28.868243899999978],[-51.12544979999995,-28.869025399999945],[-51.125558799999965,-28.870030499999928],[-51.12481859999997,-28.870658799999944],[-51.12452589999998,-28.871799699999933],[-51.12504179999996,-28.872639799999938],[-51.1265423,-28.872970199999937],[-51.128058899999985,-28.872383199999938],[-51.12853009999998,-28.872485599999965],[-51.128847,-28.87389129999997],[-51.129284899999966,-28.87457519999998],[-51.13234769999997,-28.876644399999975],[-51.141429499999965,-28.881836],[-51.14308079999996,-28.88253479999998],[-51.14455719999995,-28.882658899999953],[-51.14579379999998,-28.88091269999995],[-51.14606889999993,-28.87897029999994],[-51.14684509999995,-28.877446199999945],[-51.14743579999998,-28.877226599999982],[-51.148032299999954,-28.877415],[-51.14995829999998,-28.87462079999995],[-51.151300299999946,-28.873389899999943],[-51.153469,-28.872762099999925],[-51.15797,-28.87315539999997],[-51.16051119999998,-28.874043499999967],[-51.160561899999955,-28.87363989999994],[-51.16121119999997,-28.873235],[-51.16304219999994,-28.873072599999936],[-51.16350539999996,-28.871812399999953],[-51.16436239999996,-28.871034699999935],[-51.164832299999944,-28.870044799999956],[-51.164879799999945,-28.8685455],[-51.16646679999997,-28.866747599999947],[-51.16762189999997,-28.865933],[-51.170263699999964,-28.865384799999948],[-51.17243869999999,-28.86402949999996],[-51.17417309999996,-28.861034099999987],[-51.17678779999994,-28.85891629999997],[-51.17688879999997,-28.857794499999954],[-51.17458309999995,-28.855986],[-51.17147159999996,-28.855016],[-51.169681899999944,-28.854819699999954],[-51.16647779999994,-28.85549359999993],[-51.164741299999946,-28.854743499999977],[-51.163355699999954,-28.85378969999994],[-51.16102449999994,-28.85356089999994],[-51.159557699999944,-28.85393689999995],[-51.15856129999997,-28.85391069999998],[-51.15811119999996,-28.85334209999996],[-51.15821139999997,-28.85247319999997],[-51.16078719999996,-28.850776099999955],[-51.161351699999955,-28.849774699999948],[-51.16120509999997,-28.84889269999997],[-51.160871499999985,-28.84850619999997],[-51.15828639999996,-28.846909699999976],[-51.15734429999998,-28.845477799999966],[-51.15769529999995,-28.842352899999973],[-51.15874219999995,-28.84149819999992],[-51.15868659999995,-28.84058709999994],[-51.159349099999986,-28.83697849999993],[-51.15914129999993,-28.835968799999943],[-51.15953339999999,-28.834647899999926],[-51.15891809999994,-28.83293749999995],[-51.15862379999998,-28.832699],[-51.15578539999996,-28.83225559999994],[-51.154349199999956,-28.83259879999997],[-51.153224499999965,-28.83315129999994],[-51.14976109999998,-28.83283179999995],[-51.149437399999954,-28.832535799999956],[-51.149360799999954,-28.83146819999996],[-51.14876679999998,-28.830491299999952],[-51.147690599999976,-28.829639699999962],[-51.14713409999996,-28.829589],[-51.14623549999993,-28.828902099999937],[-51.14459949999997,-28.828910899999983],[-51.14422419999994,-28.82806779999992],[-51.143423,-28.828188799999957],[-51.14051319999999,-28.82992209999997],[-51.138954199999944,-28.830574],[-51.136891499999926,-28.83082649999993],[-51.135076099999935,-28.831393399999953],[-51.13482169999998,-28.831317],[-51.13477019999994,-28.83058209999996],[-51.134481299999955,-28.83031279999993],[-51.133694299999945,-28.830059899999974],[-51.133133799999946,-28.830122799999963],[-51.13155119999993,-28.82957669999997],[-51.13088059999995,-28.82908789999994],[-51.12977289999998,-28.82769339999994],[-51.129858599999984,-28.827197],[-51.13148959999995,-28.825759799999958],[-51.12964549999998,-28.82207559999995],[-51.13022459999997,-28.82056269999999],[-51.13221219999997,-28.81936929999994],[-51.13237669999995,-28.818751099999915],[-51.13209169999993,-28.818360599999952],[-51.132883399999976,-28.81696969999996],[-51.13284379999993,-28.816474799999973],[-51.13171129999996,-28.81608879999993],[-51.131411499999956,-28.815389899999957],[-51.13007879999998,-28.81442179999994],[-51.13008959999996,-28.813968199999962],[-51.129285099999954,-28.813048699999978],[-51.12820859999994,-28.81334429999998],[-51.12762209999994,-28.814514899999956],[-51.12671639999997,-28.815368199999952],[-51.12600779999997,-28.81551429999996],[-51.12563619999997,-28.81505739999995],[-51.124580099999946,-28.814825799999923],[-51.122076599999964,-28.813481699999947],[-51.12145169999997,-28.813671799999945],[-51.120142299999934,-28.814584199999967],[-51.11910649999999,-28.814727599999976],[-51.11824959999996,-28.815443099999975],[-51.11783169999996,-28.81551769999993],[-51.11685529999994,-28.815191],[-51.1153212,-28.81424959999999],[-51.1148252,-28.81180449999993],[-51.11415049999993,-28.810258799999918],[-51.11418359999993,-28.809751],[-51.11505029999995,-28.808447499999943],[-51.1149655,-28.808203099999943],[-51.11454489999994,-28.80797889999996],[-51.11152469999996,-28.807995499999944],[-51.11039879999998,-28.806776799999966],[-51.10855209999994,-28.805797699999978],[-51.108354799999965,-28.805506199999968],[-51.10913289999996,-28.80286529999995],[-51.10919279999996,-28.80167989999995],[-51.10937,-28.8013534],[-51.11025209999997,-28.800924199999937],[-51.108928899999974,-28.80027909999995],[-51.10836379999996,-28.80038039999993],[-51.10822629999996,-28.799954499999956],[-51.107344,-28.799188],[-51.10755,-28.798012499999956],[-51.105979,-28.797261199999976],[-51.10529889999997,-28.79621279999998],[-51.105306,-28.795515]]]}}]}