{"type":"FeatureCollection","name":"4304903","crs":{"type":"name","properties":{"name":"urn:ogc:def:crs:OGC:1.3:CRS84"}},"features":[{"type":"Feature","properties":{"setor":"430490305000001","pop":739,"sigilo_pop":false,"dom":345,"sigilo_dom":0,"mulheres":382,"sigilo_mulheres":0,"c0_4":38,"sigilo_c0_4":0,"c5_9":48,"sigilo_c5_9":0,"i60_69":76,"sigilo_i60_69":0,"i70m":97,"sigilo_i70m":0,"indigenas":null,"sigilo_indigenas":1,"pretos_pardos":85,"sigilo_pretos_pardos":0,"dom_ocupados":296,"sigilo_dom_ocupados":0,"dom_agua":290,"sigilo_dom_agua":0,"dom_esgoto":null,"sigilo_dom_esgoto":1,"renda_resp":4339.51,"sigilo_renda_resp":0,"n_resp":296,"sigilo_n_resp":0,"dens":399.9,"sigilo_dens":false,"na_bacia":1,"area_pct_bacia":100.0,"metodo_recorte_bacia":"ponto_representativo_setor_2022; area_pct_geometrica","pop_n_validos":1,"pop_n_total":1,"pop_completude":1.0,"dom_n_validos":1,"dom_n_total":1,"dom_completude":1.0,"dom_ocupados_n_validos":1,"dom_ocupados_n_total":1,"dom_ocupados_completude":1.0,"mulheres_n_validos":1,"mulheres_n_total":1,"mulheres_completude":1.0,"c0_4_n_validos":1,"c0_4_n_total":1,"c0_4_completude":1.0,"c5_9_n_validos":1,"c5_9_n_total":1,"c5_9_completude":1.0,"i60_69_n_validos":1,"i60_69_n_total":1,"i60_69_completude":1.0,"i70m_n_validos":1,"i70m_n_total":1,"i70m_completude":1.0,"indigenas_n_validos":0,"indigenas_n_total":1,"indigenas_completude":0.0,"pretos_pardos_n_validos":1,"pretos_pardos_n_total":1,"pretos_pardos_completude":1.0,"dom_agua_n_validos":1,"dom_agua_n_total":1,"dom_agua_completude":1.0,"dom_esgoto_n_validos":0,"dom_esgoto_n_total":1,"dom_esgoto_completude":0.0,"n_resp_n_validos":1,"n_resp_n_total":1,"n_resp_completude":1.0,"renda_resp_n_validos":1,"renda_resp_n_total":1,"renda_resp_completude":1.0,"dens_n_validos":1,"dens_n_total":1,"dens_completude":1.0,"status_borda_bacia":"total","metodo_area_bacia":"interseção geométrica em EPSG:5880","metodo_na_bacia":"ponto_representativo_setor_2022_within_bacia","municipio":"Casca","cod_mun":"4304903","mun_pct_na_bacia":100.0,"mun_pop_total":9465,"mun_pop_na_bacia":9465.0,"mun_ubs_iede":6,"mun_hospitais_iede":null,"mun_escolas_iede":null,"mun_bombeiros_iede":null,"mun_servicos_cobertura":"cadastro_IEDE_parcial_nao_inventario","mun_icm_faixa":"A","mun_icm_pontos":11,"mun_icm_prioritario":"não","mun_ubs_iede_status":"published","mun_hospitais_iede_status":"unknown","mun_escolas_iede_status":"unknown","mun_bombeiros_iede_status":"unknown"},"geometry":{"type":"Polygon","coordinates":[[[-51.97759359999998,-28.559606599999928],[-51.977178299999935,-28.56607819999993],[-51.9848396,-28.56648539999997],[-51.98496489999997,-28.56823739999993],[-51.98888409999995,-28.566998499999954],[-51.988968299999954,-28.560491199999937],[-51.99082789999994,-28.560363499999927],[-51.99320089999998,-28.560937099999933],[-51.99496679999998,-28.560875499999952],[-51.99343979999997,-28.55957259999997],[-51.99178429999995,-28.55754329999996],[-51.988959199999954,-28.557213699999977],[-51.98898,-28.552185299999948],[-51.98000119999995,-28.551931],[-51.97879809999995,-28.557853399999928],[-51.97759359999998,-28.559606599999928]]]}},{"type":"Feature","properties":{"setor":"430490305000002","pop":1341,"sigilo_pop":false,"dom":568,"sigilo_dom":0,"mulheres":705,"sigilo_mulheres":0,"c0_4":109,"sigilo_c0_4":0,"c5_9":96,"sigilo_c5_9":0,"i60_69":81,"sigilo_i60_69":0,"i70m":49,"sigilo_i70m":0,"indigenas":0,"sigilo_indigenas":0,"pretos_pardos":413,"sigilo_pretos_pardos":0,"dom_ocupados":514,"sigilo_dom_ocupados":0,"dom_agua":498,"sigilo_dom_agua":0,"dom_esgoto":49,"sigilo_dom_esgoto":0,"renda_resp":2430.8,"sigilo_renda_resp":0,"n_resp":514,"sigilo_n_resp":0,"dens":1300.7,"sigilo_dens":false,"na_bacia":1,"area_pct_bacia":100.0,"metodo_recorte_bacia":"ponto_representativo_setor_2022; area_pct_geometrica","pop_n_validos":1,"pop_n_total":1,"pop_completude":1.0,"dom_n_validos":1,"dom_n_total":1,"dom_completude":1.0,"dom_ocupados_n_validos":1,"dom_ocupados_n_total":1,"dom_ocupados_completude":1.0,"mulheres_n_validos":1,"mulheres_n_total":1,"mulheres_completude":1.0,"c0_4_n_validos":1,"c0_4_n_total":1,"c0_4_completude":1.0,"c5_9_n_validos":1,"c5_9_n_total":1,"c5_9_completude":1.0,"i60_69_n_validos":1,"i60_69_n_total":1,"i60_69_completude":1.0,"i70m_n_validos":1,"i70m_n_total":1,"i70m_completude":1.0,"indigenas_n_validos":1,"indigenas_n_total":1,"indigenas_completude":1.0,"pretos_pardos_n_validos":1,"pretos_pardos_n_total":1,"pretos_pardos_completude":1.0,"dom_agua_n_validos":1,"dom_agua_n_total":1,"dom_agua_completude":1.0,"dom_esgoto_n_validos":1,"dom_esgoto_n_total":1,"dom_esgoto_completude":1.0,"n_resp_n_validos":1,"n_resp_n_total":1,"n_resp_completude":1.0,"renda_resp_n_validos":1,"renda_resp_n_total":1,"renda_resp_completude":1.0,"dens_n_validos":1,"dens_n_total":1,"dens_completude":1.0,"status_borda_bacia":"total","metodo_area_bacia":"interseção geométrica em EPSG:5880","metodo_na_bacia":"ponto_representativo_setor_2022_within_bacia","municipio":"Casca","cod_mun":"4304903","mun_pct_na_bacia":100.0,"mun_pop_total":9465,"mun_pop_na_bacia":9465.0,"mun_ubs_iede":6,"mun_hospitais_iede":null,"mun_escolas_iede":null,"mun_bombeiros_iede":null,"mun_servicos_cobertura":"cadastro_IEDE_parcial_nao_inventario","mun_icm_faixa":"A","mun_icm_pontos":11,"mun_icm_prioritario":"não","mun_ubs_iede_status":"published","mun_hospitais_iede_status":"unknown","mun_escolas_iede_status":"unknown","mun_bombeiros_iede_status":"unknown"},"geometry":{"type":"Polygon","coordinates":[[[-51.962593,-28.551334199999925],[-51.961612199999934,-28.561286799999944],[-51.96453939999998,-28.561110399999958],[-51.96855369999997,-28.560284099999937],[-51.972317,-28.560428],[-51.972556199999985,-28.55164719999993],[-51.962593,-28.551334199999925]]]}},{"type":"Feature","properties":{"setor":"430490305000003","pop":855,"sigilo_pop":false,"dom":367,"sigilo_dom":0,"mulheres":444,"sigilo_mulheres":0,"c0_4":43,"sigilo_c0_4":0,"c5_9":43,"sigilo_c5_9":0,"i60_69":85,"sigilo_i60_69":0,"i70m":82,"sigilo_i70m":0,"indigenas":0,"sigilo_indigenas":0,"pretos_pardos":104,"sigilo_pretos_pardos":0,"dom_ocupados":330,"sigilo_dom_ocupados":0,"dom_agua":330,"sigilo_dom_agua":0,"dom_esgoto":21,"sigilo_dom_esgoto":0,"renda_resp":3429.74,"sigilo_renda_resp":0,"n_resp":330,"sigilo_n_resp":0,"dens":3303.0,"sigilo_dens":false,"na_bacia":1,"area_pct_bacia":100.0,"metodo_recorte_bacia":"ponto_representativo_setor_2022; area_pct_geometrica","pop_n_validos":1,"pop_n_total":1,"pop_completude":1.0,"dom_n_validos":1,"dom_n_total":1,"dom_completude":1.0,"dom_ocupados_n_validos":1,"dom_ocupados_n_total":1,"dom_ocupados_completude":1.0,"mulheres_n_validos":1,"mulheres_n_total":1,"mulheres_completude":1.0,"c0_4_n_validos":1,"c0_4_n_total":1,"c0_4_completude":1.0,"c5_9_n_validos":1,"c5_9_n_total":1,"c5_9_completude":1.0,"i60_69_n_validos":1,"i60_69_n_total":1,"i60_69_completude":1.0,"i70m_n_validos":1,"i70m_n_total":1,"i70m_completude":1.0,"indigenas_n_validos":1,"indigenas_n_total":1,"indigenas_completude":1.0,"pretos_pardos_n_validos":1,"pretos_pardos_n_total":1,"pretos_pardos_completude":1.0,"dom_agua_n_validos":1,"dom_agua_n_total":1,"dom_agua_completude":1.0,"dom_esgoto_n_validos":1,"dom_esgoto_n_total":1,"dom_esgoto_completude":1.0,"n_resp_n_validos":1,"n_resp_n_total":1,"n_resp_completude":1.0,"renda_resp_n_validos":1,"renda_resp_n_total":1,"renda_resp_completude":1.0,"dens_n_validos":1,"dens_n_total":1,"dens_completude":1.0,"status_borda_bacia":"total","metodo_area_bacia":"interseção geométrica em EPSG:5880","metodo_na_bacia":"ponto_representativo_setor_2022_within_bacia","municipio":"Casca","cod_mun":"4304903","mun_pct_na_bacia":100.0,"mun_pop_total":9465,"mun_pop_na_bacia":9465.0,"mun_ubs_iede":6,"mun_hospitais_iede":null,"mun_escolas_iede":null,"mun_bombeiros_iede":null,"mun_servicos_cobertura":"cadastro_IEDE_parcial_nao_inventario","mun_icm_faixa":"A","mun_icm_pontos":11,"mun_icm_prioritario":"não","mun_ubs_iede_status":"published","mun_hospitais_iede_status":"unknown","mun_escolas_iede_status":"unknown","mun_bombeiros_iede_status":"unknown"},"geometry":{"type":"Polygon","coordinates":[[[-51.97195489999996,-28.570609099999956],[-51.97439529999997,-28.570714],[-51.974845899999934,-28.563802],[-51.97115689999998,-28.563622699999943],[-51.970795599999974,-28.569258799999954],[-51.972056899999984,-28.569074099999973],[-51.97195489999996,-28.570609099999956]]]}},{"type":"Feature","properties":{"setor":"430490305000004","pop":710,"sigilo_pop":false,"dom":295,"sigilo_dom":0,"mulheres":353,"sigilo_mulheres":0,"c0_4":40,"sigilo_c0_4":0,"c5_9":41,"sigilo_c5_9":0,"i60_69":77,"sigilo_i60_69":0,"i70m":64,"sigilo_i70m":0,"indigenas":0,"sigilo_indigenas":0,"pretos_pardos":115,"sigilo_pretos_pardos":0,"dom_ocupados":264,"sigilo_dom_ocupados":0,"dom_agua":249,"sigilo_dom_agua":0,"dom_esgoto":0,"sigilo_dom_esgoto":0,"renda_resp":4079.66,"sigilo_renda_resp":0,"n_resp":264,"sigilo_n_resp":0,"dens":252.5,"sigilo_dens":false,"na_bacia":1,"area_pct_bacia":100.0,"metodo_recorte_bacia":"ponto_representativo_setor_2022; area_pct_geometrica","pop_n_validos":1,"pop_n_total":1,"pop_completude":1.0,"dom_n_validos":1,"dom_n_total":1,"dom_completude":1.0,"dom_ocupados_n_validos":1,"dom_ocupados_n_total":1,"dom_ocupados_completude":1.0,"mulheres_n_validos":1,"mulheres_n_total":1,"mulheres_completude":1.0,"c0_4_n_validos":1,"c0_4_n_total":1,"c0_4_completude":1.0,"c5_9_n_validos":1,"c5_9_n_total":1,"c5_9_completude":1.0,"i60_69_n_validos":1,"i60_69_n_total":1,"i60_69_completude":1.0,"i70m_n_validos":1,"i70m_n_total":1,"i70m_completude":1.0,"indigenas_n_validos":1,"indigenas_n_total":1,"indigenas_completude":1.0,"pretos_pardos_n_validos":1,"pretos_pardos_n_total":1,"pretos_pardos_completude":1.0,"dom_agua_n_validos":1,"dom_agua_n_total":1,"dom_agua_completude":1.0,"dom_esgoto_n_validos":1,"dom_esgoto_n_total":1,"dom_esgoto_completude":1.0,"n_resp_n_validos":1,"n_resp_n_total":1,"n_resp_completude":1.0,"renda_resp_n_validos":1,"renda_resp_n_total":1,"renda_resp_completude":1.0,"dens_n_validos":1,"dens_n_total":1,"dens_completude":1.0,"status_borda_bacia":"total","metodo_area_bacia":"interseção geométrica em EPSG:5880","metodo_na_bacia":"ponto_representativo_setor_2022_within_bacia","municipio":"Casca","cod_mun":"4304903","mun_pct_na_bacia":100.0,"mun_pop_total":9465,"mun_pop_na_bacia":9465.0,"mun_ubs_iede":6,"mun_hospitais_iede":null,"mun_escolas_iede":null,"mun_bombeiros_iede":null,"mun_servicos_cobertura":"cadastro_IEDE_parcial_nao_inventario","mun_icm_faixa":"A","mun_icm_pontos":11,"mun_icm_prioritario":"não","mun_ubs_iede_status":"published","mun_hospitais_iede_status":"unknown","mun_escolas_iede_status":"unknown","mun_bombeiros_iede_status":"unknown"},"geometry":{"type":"Polygon","coordinates":[[[-51.98888409999995,-28.566998499999954],[-51.98245289999995,-28.568987699999983],[-51.97942239999997,-28.568894299999954],[-51.979360199999974,-28.570058699999937],[-51.974478199999965,-28.569798599999956],[-51.97439529999997,-28.570714],[-51.96698,-28.570393799999977],[-51.966992199999936,-28.56982029999994],[-51.96579889999998,-28.570141599999943],[-51.962342099999944,-28.572106499999965],[-51.96223429999998,-28.57882289999998],[-51.988611799999944,-28.580133799999928],[-51.98888409999995,-28.566998499999954]]]}},{"type":"Feature","properties":{"setor":"430490305000007","pop":458,"sigilo_pop":false,"dom":234,"sigilo_dom":0,"mulheres":230,"sigilo_mulheres":0,"c0_4":23,"sigilo_c0_4":0,"c5_9":12,"sigilo_c5_9":0,"i60_69":90,"sigilo_i60_69":0,"i70m":74,"sigilo_i70m":0,"indigenas":0,"sigilo_indigenas":0,"pretos_pardos":21,"sigilo_pretos_pardos":0,"dom_ocupados":168,"sigilo_dom_ocupados":0,"dom_agua":141,"sigilo_dom_agua":0,"dom_esgoto":0,"sigilo_dom_esgoto":0,"renda_resp":3959.57,"sigilo_renda_resp":0,"n_resp":168,"sigilo_n_resp":0,"dens":11.1,"sigilo_dens":false,"na_bacia":1,"area_pct_bacia":100.0,"metodo_recorte_bacia":"ponto_representativo_setor_2022; area_pct_geometrica","pop_n_validos":1,"pop_n_total":1,"pop_completude":1.0,"dom_n_validos":1,"dom_n_total":1,"dom_completude":1.0,"dom_ocupados_n_validos":1,"dom_ocupados_n_total":1,"dom_ocupados_completude":1.0,"mulheres_n_validos":1,"mulheres_n_total":1,"mulheres_completude":1.0,"c0_4_n_validos":1,"c0_4_n_total":1,"c0_4_completude":1.0,"c5_9_n_validos":1,"c5_9_n_total":1,"c5_9_completude":1.0,"i60_69_n_validos":1,"i60_69_n_total":1,"i60_69_completude":1.0,"i70m_n_validos":1,"i70m_n_total":1,"i70m_completude":1.0,"indigenas_n_validos":1,"indigenas_n_total":1,"indigenas_completude":1.0,"pretos_pardos_n_validos":1,"pretos_pardos_n_total":1,"pretos_pardos_completude":1.0,"dom_agua_n_validos":1,"dom_agua_n_total":1,"dom_agua_completude":1.0,"dom_esgoto_n_validos":1,"dom_esgoto_n_total":1,"dom_esgoto_completude":1.0,"n_resp_n_validos":1,"n_resp_n_total":1,"n_resp_completude":1.0,"renda_resp_n_validos":1,"renda_resp_n_total":1,"renda_resp_completude":1.0,"dens_n_validos":1,"dens_n_total":1,"dens_completude":1.0,"status_borda_bacia":"total","metodo_area_bacia":"interseção geométrica em EPSG:5880","metodo_na_bacia":"ponto_representativo_setor_2022_within_bacia","municipio":"Casca","cod_mun":"4304903","mun_pct_na_bacia":100.0,"mun_pop_total":9465,"mun_pop_na_bacia":9465.0,"mun_ubs_iede":6,"mun_hospitais_iede":null,"mun_escolas_iede":null,"mun_bombeiros_iede":null,"mun_servicos_cobertura":"cadastro_IEDE_parcial_nao_inventario","mun_icm_faixa":"A","mun_icm_pontos":11,"mun_icm_prioritario":"não","mun_ubs_iede_status":"published","mun_hospitais_iede_status":"unknown","mun_escolas_iede_status":"unknown","mun_bombeiros_iede_status":"unknown"},"geometry":{"type":"Polygon","coordinates":[[[-51.87188969999995,-28.57962519999995],[-51.86375389999995,-28.58190109999998],[-51.86286339999998,-28.58139729999994],[-51.862031799999954,-28.57798109999993],[-51.859924599999935,-28.57617289999996],[-51.85891049999998,-28.573448399999958],[-51.85788289999994,-28.572698899999974],[-51.85698759999996,-28.574657299999952],[-51.858707599999946,-28.578313],[-51.857299199999936,-28.583387599999966],[-51.85766359999997,-28.585182],[-51.85612669999995,-28.587413499999965],[-51.85443589999994,-28.58781129999994],[-51.85365239999994,-28.59042579999994],[-51.85435249999995,-28.590869],[-51.855007,-28.591697],[-51.856569,-28.596227499999937],[-51.857166699999944,-28.59706709999995],[-51.857603,-28.597304299999955],[-51.85914159999999,-28.59738749999996],[-51.85998019999994,-28.596284199999957],[-51.86166749999995,-28.595564699999965],[-51.86519119999997,-28.593040899999956],[-51.869735499999926,-28.592858699999958],[-51.87132379999998,-28.593707199999976],[-51.871559899999966,-28.594200699999934],[-51.871439,-28.595071599999976],[-51.869574299999954,-28.59821049999993],[-51.8688413,-28.598807199999957],[-51.86801289999994,-28.599079899999932],[-51.866050499999965,-28.598929599999963],[-51.86531209999998,-28.599660899999936],[-51.866872099999966,-28.608872199999944],[-51.867439,-28.610869099999945],[-51.86724619999996,-28.61309019999993],[-51.866700799999926,-28.613757899999936],[-51.86611519999997,-28.61370859999994],[-51.86220209999994,-28.611683],[-51.86168509999993,-28.610807499999968],[-51.85774849999996,-28.606631799999928],[-51.85707119999995,-28.606153],[-51.855800099999946,-28.605806899999948],[-51.85391379999999,-28.605874899999947],[-51.85055139999997,-28.60664279999997],[-51.849147599999974,-28.60738019999997],[-51.848377,-28.608680499999934],[-51.84825489999997,-28.60994169999998],[-51.848696099999984,-28.61093829999993],[-51.850672299999985,-28.612602799999923],[-51.851782699999944,-28.61335109999992],[-51.85358209999998,-28.613973],[-51.854962899999975,-28.615260599999946],[-51.855171,-28.617274399999932],[-51.856761099999964,-28.621821299999976],[-51.857678299999975,-28.621452199999958],[-51.858833599999976,-28.62146549999994],[-51.859911,-28.621927099999933],[-51.86044609999993,-28.62188129999998],[-51.860322,-28.622335899999932],[-51.86096629999998,-28.622559199999955],[-51.862968199999955,-28.622489499999975],[-51.863562399999985,-28.622708499999927],[-51.864039599999955,-28.62216719999998],[-51.86452839999998,-28.622179399999936],[-51.864256099999984,-28.622871599999932],[-51.863489299999976,-28.623685399999943],[-51.86354209999996,-28.625189399999943],[-51.863878299999946,-28.625622499999963],[-51.864835299999974,-28.625518],[-51.864959099999965,-28.625926299999946],[-51.86645679999998,-28.626121],[-51.86776359999993,-28.624961599999942],[-51.86896669999994,-28.62130179999997],[-51.869512,-28.620652],[-51.86980759999995,-28.619172],[-51.86890219999998,-28.61836739999995],[-51.868860799999936,-28.618086699999917],[-51.86982709999995,-28.6172481],[-51.87223119999993,-28.616692],[-51.87295579999994,-28.616706399999934],[-51.8733898,-28.616866599999977],[-51.874216,-28.617889399999967],[-51.874919,-28.61793869999997],[-51.87609849999996,-28.617375399999954],[-51.876243,-28.61706169999995],[-51.87664519999998,-28.617040899999942],[-51.877572499999985,-28.618365199999968],[-51.87882889999998,-28.617503],[-51.879181699999954,-28.616361799999936],[-51.879444699999965,-28.616245],[-51.88115409999995,-28.61597479999995],[-51.882237799999984,-28.616368],[-51.882741599999974,-28.61595269999997],[-51.88315459999995,-28.616352599999967],[-51.88349909999994,-28.616197099999955],[-51.884645299999924,-28.612883299999954],[-51.88448409999995,-28.612253599999985],[-51.883880199999965,-28.611776799999976],[-51.88333279999995,-28.610072699999936],[-51.883504199999955,-28.609384],[-51.88406569999995,-28.60884589999995],[-51.88472969999998,-28.608996099999956],[-51.886919099999936,-28.60793519999993],[-51.888373,-28.606929499999982],[-51.88927179999996,-28.60698959999996],[-51.88984969999996,-28.607563799999976],[-51.891439,-28.607831199999968],[-51.89234689999995,-28.608326399999953],[-51.89344829999994,-28.608433],[-51.89466919999996,-28.607947399999944],[-51.894791299999945,-28.607099099999974],[-51.89550819999993,-28.60549319999996],[-51.897436599999935,-28.603224],[-51.89768589999995,-28.603162099999953],[-51.89818919999994,-28.603832699999945],[-51.899718,-28.602741099999943],[-51.899428,-28.601103],[-51.89961549999998,-28.600575899999964],[-51.899255799999935,-28.599666199999945],[-51.899342299999944,-28.599027799999934],[-51.89967,-28.598676599999976],[-51.900757099999964,-28.598817],[-51.901633,-28.600097399999978],[-51.90307319999994,-28.60084039999998],[-51.90386169999994,-28.60093819999997],[-51.90540809999993,-28.60046849999997],[-51.90570429999997,-28.60117609999997],[-51.90715389999997,-28.601293199999926],[-51.907722099999944,-28.600720499999955],[-51.90874759999997,-28.600537299999917],[-51.91020319999996,-28.599324899999942],[-51.91111429999995,-28.599363299999926],[-51.91340069999996,-28.597476799999978],[-51.91478559999996,-28.596727399999974],[-51.916429499999936,-28.594336199999923],[-51.917889299999956,-28.593665799999943],[-51.918842899999966,-28.593532099999944],[-51.92119839999998,-28.59374239999994],[-51.922202199999965,-28.594032899999945],[-51.92321179999993,-28.595576499999936],[-51.92326449999996,-28.59613719999992],[-51.92387039999994,-28.596007799999942],[-51.924187899999936,-28.59567],[-51.92516359999996,-28.595812],[-51.92515389999995,-28.59642729999996],[-51.92446229999996,-28.597693099999947],[-51.92501719999995,-28.59807969999997],[-51.924711599999966,-28.598477499999944],[-51.92489469999998,-28.59908569999993],[-51.925780599999946,-28.599226299999934],[-51.92592679999996,-28.599628099999947],[-51.92696239999999,-28.599165299999985],[-51.92768139999998,-28.599572],[-51.92888519999997,-28.59864709999994],[-51.931464299999966,-28.598490399999946],[-51.93311029999995,-28.59886439999997],[-51.934367399999985,-28.595839],[-51.9357103,-28.59168509999995],[-51.943425599999955,-28.592395299999964],[-51.94390159999995,-28.590201799999928],[-51.94628309999997,-28.585889],[-51.94482409999995,-28.583530899999975],[-51.94631979999997,-28.583175299999926],[-51.95067709999995,-28.58135069999997],[-51.95483379999995,-28.580770199999957],[-51.95605829999994,-28.57990909999994],[-51.95699129999997,-28.57862139999997],[-51.955187299999984,-28.578493],[-51.955917,-28.56980239999996],[-51.95881859999998,-28.569904499999947],[-51.959079699999954,-28.561379799999944],[-51.95323819999994,-28.561672099999953],[-51.95208619999994,-28.56139989999997],[-51.936851599999954,-28.551819599999927],[-51.935356399999925,-28.550444],[-51.93394869999997,-28.548286799999975],[-51.93262839999995,-28.54763019999995],[-51.931350399999985,-28.547689899999956],[-51.92947049999999,-28.549163399999944],[-51.92411519999996,-28.550272199999927],[-51.92319909999998,-28.550122299999934],[-51.91844109999994,-28.548106199999946],[-51.91740419999997,-28.54738739999993],[-51.91533049999999,-28.543282199999968],[-51.91506979999997,-28.540134],[-51.91429339999996,-28.538941],[-51.91147129999996,-28.540237699999988],[-51.914395799999966,-28.54663159999995],[-51.91381849999994,-28.548234599999954],[-51.91227,-28.548913399999943],[-51.91222759999994,-28.550334199999956],[-51.91554979999996,-28.55264379999994],[-51.91579669999993,-28.556817399999954],[-51.91686239999996,-28.558962399999935],[-51.91581309999998,-28.561636899999943],[-51.91060179999994,-28.56382789999998],[-51.90811119999995,-28.561223499999972],[-51.90682149999997,-28.56105479999997],[-51.902208299999984,-28.564258599999963],[-51.89910069999997,-28.56437019999993],[-51.89632489999997,-28.563166399999943],[-51.89305919999998,-28.563362899999955],[-51.88871249999994,-28.56697],[-51.88717989999998,-28.569642099999953],[-51.887404199999935,-28.570799199999954],[-51.88991679999998,-28.573158099999944],[-51.88992859999996,-28.574357899999942],[-51.888594299999966,-28.57534379999992],[-51.88476259999994,-28.575657499999977],[-51.87556609999996,-28.580025499999966],[-51.87188969999995,-28.57962519999995]]]}},{"type":"Feature","properties":{"setor":"430490305000008","pop":559,"sigilo_pop":false,"dom":312,"sigilo_dom":0,"mulheres":303,"sigilo_mulheres":0,"c0_4":29,"sigilo_c0_4":0,"c5_9":28,"sigilo_c5_9":0,"i60_69":75,"sigilo_i60_69":0,"i70m":77,"sigilo_i70m":0,"indigenas":0,"sigilo_indigenas":0,"pretos_pardos":74,"sigilo_pretos_pardos":0,"dom_ocupados":249,"sigilo_dom_ocupados":0,"dom_agua":249,"sigilo_dom_agua":0,"dom_esgoto":null,"sigilo_dom_esgoto":1,"renda_resp":6643.34,"sigilo_renda_resp":0,"n_resp":249,"sigilo_n_resp":0,"dens":3203.3,"sigilo_dens":false,"na_bacia":1,"area_pct_bacia":100.0,"metodo_recorte_bacia":"ponto_representativo_setor_2022; area_pct_geometrica","pop_n_validos":1,"pop_n_total":1,"pop_completude":1.0,"dom_n_validos":1,"dom_n_total":1,"dom_completude":1.0,"dom_ocupados_n_validos":1,"dom_ocupados_n_total":1,"dom_ocupados_completude":1.0,"mulheres_n_validos":1,"mulheres_n_total":1,"mulheres_completude":1.0,"c0_4_n_validos":1,"c0_4_n_total":1,"c0_4_completude":1.0,"c5_9_n_validos":1,"c5_9_n_total":1,"c5_9_completude":1.0,"i60_69_n_validos":1,"i60_69_n_total":1,"i60_69_completude":1.0,"i70m_n_validos":1,"i70m_n_total":1,"i70m_completude":1.0,"indigenas_n_validos":1,"indigenas_n_total":1,"indigenas_completude":1.0,"pretos_pardos_n_validos":1,"pretos_pardos_n_total":1,"pretos_pardos_completude":1.0,"dom_agua_n_validos":1,"dom_agua_n_total":1,"dom_agua_completude":1.0,"dom_esgoto_n_validos":0,"dom_esgoto_n_total":1,"dom_esgoto_completude":0.0,"n_resp_n_validos":1,"n_resp_n_total":1,"n_resp_completude":1.0,"renda_resp_n_validos":1,"renda_resp_n_total":1,"renda_resp_completude":1.0,"dens_n_validos":1,"dens_n_total":1,"dens_completude":1.0,"status_borda_bacia":"total","metodo_area_bacia":"interseção geométrica em EPSG:5880","metodo_na_bacia":"ponto_representativo_setor_2022_within_bacia","municipio":"Casca","cod_mun":"4304903","mun_pct_na_bacia":100.0,"mun_pop_total":9465,"mun_pop_na_bacia":9465.0,"mun_ubs_iede":6,"mun_hospitais_iede":null,"mun_escolas_iede":null,"mun_bombeiros_iede":null,"mun_servicos_cobertura":"cadastro_IEDE_parcial_nao_inventario","mun_icm_faixa":"A","mun_icm_pontos":11,"mun_icm_prioritario":"não","mun_ubs_iede_status":"published","mun_hospitais_iede_status":"unknown","mun_escolas_iede_status":"unknown","mun_bombeiros_iede_status":"unknown"},"geometry":{"type":"Polygon","coordinates":[[[-51.97512059999997,-28.559489499999987],[-51.97471329999996,-28.56597369999998],[-51.977178299999935,-28.56607819999993],[-51.97759359999998,-28.559606599999928],[-51.97512059999997,-28.559489499999987]]]}},{"type":"Feature","properties":{"setor":"430490305000009","pop":755,"sigilo_pop":false,"dom":340,"sigilo_dom":0,"mulheres":413,"sigilo_mulheres":0,"c0_4":35,"sigilo_c0_4":0,"c5_9":49,"sigilo_c5_9":0,"i60_69":85,"sigilo_i60_69":0,"i70m":47,"sigilo_i70m":0,"indigenas":0,"sigilo_indigenas":0,"pretos_pardos":180,"sigilo_pretos_pardos":0,"dom_ocupados":301,"sigilo_dom_ocupados":0,"dom_agua":294,"sigilo_dom_agua":0,"dom_esgoto":4,"sigilo_dom_esgoto":0,"renda_resp":3192.51,"sigilo_renda_resp":0,"n_resp":301,"sigilo_n_resp":0,"dens":613.9,"sigilo_dens":false,"na_bacia":1,"area_pct_bacia":100.0,"metodo_recorte_bacia":"ponto_representativo_setor_2022; area_pct_geometrica","pop_n_validos":1,"pop_n_total":1,"pop_completude":1.0,"dom_n_validos":1,"dom_n_total":1,"dom_completude":1.0,"dom_ocupados_n_validos":1,"dom_ocupados_n_total":1,"dom_ocupados_completude":1.0,"mulheres_n_validos":1,"mulheres_n_total":1,"mulheres_completude":1.0,"c0_4_n_validos":1,"c0_4_n_total":1,"c0_4_completude":1.0,"c5_9_n_validos":1,"c5_9_n_total":1,"c5_9_completude":1.0,"i60_69_n_validos":1,"i60_69_n_total":1,"i60_69_completude":1.0,"i70m_n_validos":1,"i70m_n_total":1,"i70m_completude":1.0,"indigenas_n_validos":1,"indigenas_n_total":1,"indigenas_completude":1.0,"pretos_pardos_n_validos":1,"pretos_pardos_n_total":1,"pretos_pardos_completude":1.0,"dom_agua_n_validos":1,"dom_agua_n_total":1,"dom_agua_completude":1.0,"dom_esgoto_n_validos":1,"dom_esgoto_n_total":1,"dom_esgoto_completude":1.0,"n_resp_n_validos":1,"n_resp_n_total":1,"n_resp_completude":1.0,"renda_resp_n_validos":1,"renda_resp_n_total":1,"renda_resp_completude":1.0,"dens_n_validos":1,"dens_n_total":1,"dens_completude":1.0,"status_borda_bacia":"total","metodo_area_bacia":"interseção geométrica em EPSG:5880","metodo_na_bacia":"ponto_representativo_setor_2022_within_bacia","municipio":"Casca","cod_mun":"4304903","mun_pct_na_bacia":100.0,"mun_pop_total":9465,"mun_pop_na_bacia":9465.0,"mun_ubs_iede":6,"mun_hospitais_iede":null,"mun_escolas_iede":null,"mun_bombeiros_iede":null,"mun_servicos_cobertura":"cadastro_IEDE_parcial_nao_inventario","mun_icm_faixa":"A","mun_icm_pontos":11,"mun_icm_prioritario":"não","mun_ubs_iede_status":"published","mun_hospitais_iede_status":"unknown","mun_escolas_iede_status":"unknown","mun_bombeiros_iede_status":"unknown"},"geometry":{"type":"Polygon","coordinates":[[[-51.972556199999985,-28.55164719999993],[-51.972317,-28.560428],[-51.97137809999998,-28.560395399999948],[-51.97115689999998,-28.563622699999943],[-51.974845899999934,-28.563802],[-51.97512059999997,-28.559489499999987],[-51.97759359999998,-28.559606599999928],[-51.97854449999995,-28.55833549999994],[-51.98000119999995,-28.551931],[-51.98351679999997,-28.551972],[-51.98358359999998,-28.54292039999995],[-51.97847319999994,-28.542825099999966],[-51.97824819999994,-28.551834899999957],[-51.972556199999985,-28.55164719999993]]]}},{"type":"Feature","properties":{"setor":"430490305000010","pop":871,"sigilo_pop":false,"dom":386,"sigilo_dom":0,"mulheres":458,"sigilo_mulheres":0,"c0_4":44,"sigilo_c0_4":0,"c5_9":49,"sigilo_c5_9":0,"i60_69":97,"sigilo_i60_69":0,"i70m":52,"sigilo_i70m":0,"indigenas":0,"sigilo_indigenas":0,"pretos_pardos":108,"sigilo_pretos_pardos":0,"dom_ocupados":341,"sigilo_dom_ocupados":0,"dom_agua":340,"sigilo_dom_agua":0,"dom_esgoto":7,"sigilo_dom_esgoto":0,"renda_resp":5186.34,"sigilo_renda_resp":0,"n_resp":341,"sigilo_n_resp":0,"dens":706.9,"sigilo_dens":false,"na_bacia":1,"area_pct_bacia":100.0,"metodo_recorte_bacia":"ponto_representativo_setor_2022; area_pct_geometrica","pop_n_validos":1,"pop_n_total":1,"pop_completude":1.0,"dom_n_validos":1,"dom_n_total":1,"dom_completude":1.0,"dom_ocupados_n_validos":1,"dom_ocupados_n_total":1,"dom_ocupados_completude":1.0,"mulheres_n_validos":1,"mulheres_n_total":1,"mulheres_completude":1.0,"c0_4_n_validos":1,"c0_4_n_total":1,"c0_4_completude":1.0,"c5_9_n_validos":1,"c5_9_n_total":1,"c5_9_completude":1.0,"i60_69_n_validos":1,"i60_69_n_total":1,"i60_69_completude":1.0,"i70m_n_validos":1,"i70m_n_total":1,"i70m_completude":1.0,"indigenas_n_validos":1,"indigenas_n_total":1,"indigenas_completude":1.0,"pretos_pardos_n_validos":1,"pretos_pardos_n_total":1,"pretos_pardos_completude":1.0,"dom_agua_n_validos":1,"dom_agua_n_total":1,"dom_agua_completude":1.0,"dom_esgoto_n_validos":1,"dom_esgoto_n_total":1,"dom_esgoto_completude":1.0,"n_resp_n_validos":1,"n_resp_n_total":1,"n_resp_completude":1.0,"renda_resp_n_validos":1,"renda_resp_n_total":1,"renda_resp_completude":1.0,"dens_n_validos":1,"dens_n_total":1,"dens_completude":1.0,"status_borda_bacia":"total","metodo_area_bacia":"interseção geométrica em EPSG:5880","metodo_na_bacia":"ponto_representativo_setor_2022_within_bacia","municipio":"Casca","cod_mun":"4304903","mun_pct_na_bacia":100.0,"mun_pop_total":9465,"mun_pop_na_bacia":9465.0,"mun_ubs_iede":6,"mun_hospitais_iede":null,"mun_escolas_iede":null,"mun_bombeiros_iede":null,"mun_servicos_cobertura":"cadastro_IEDE_parcial_nao_inventario","mun_icm_faixa":"A","mun_icm_pontos":11,"mun_icm_prioritario":"não","mun_ubs_iede_status":"published","mun_hospitais_iede_status":"unknown","mun_escolas_iede_status":"unknown","mun_bombeiros_iede_status":"unknown"},"geometry":{"type":"Polygon","coordinates":[[[-51.96453939999998,-28.561110399999958],[-51.959079699999954,-28.561379799999944],[-51.95881859999998,-28.569904499999947],[-51.96162919999995,-28.570032299999983],[-51.962994299999934,-28.569524499999932],[-51.96544659999996,-28.570318899999958],[-51.966992199999936,-28.56982029999994],[-51.96698,-28.570393799999977],[-51.97195489999996,-28.570609099999956],[-51.972056899999984,-28.569074099999973],[-51.970795599999974,-28.569258799999954],[-51.97137809999998,-28.560395399999948],[-51.96855369999997,-28.560284099999937],[-51.96453939999998,-28.561110399999958]]]}},{"type":"Feature","properties":{"setor":"430490305000011","pop":492,"sigilo_pop":false,"dom":255,"sigilo_dom":0,"mulheres":257,"sigilo_mulheres":0,"c0_4":24,"sigilo_c0_4":0,"c5_9":28,"sigilo_c5_9":0,"i60_69":67,"sigilo_i60_69":0,"i70m":61,"sigilo_i70m":0,"indigenas":0,"sigilo_indigenas":0,"pretos_pardos":78,"sigilo_pretos_pardos":0,"dom_ocupados":215,"sigilo_dom_ocupados":0,"dom_agua":211,"sigilo_dom_agua":0,"dom_esgoto":0,"sigilo_dom_esgoto":0,"renda_resp":3725.15,"sigilo_renda_resp":0,"n_resp":215,"sigilo_n_resp":0,"dens":1405.0,"sigilo_dens":false,"na_bacia":1,"area_pct_bacia":100.0,"metodo_recorte_bacia":"ponto_representativo_setor_2022; area_pct_geometrica","pop_n_validos":1,"pop_n_total":1,"pop_completude":1.0,"dom_n_validos":1,"dom_n_total":1,"dom_completude":1.0,"dom_ocupados_n_validos":1,"dom_ocupados_n_total":1,"dom_ocupados_completude":1.0,"mulheres_n_validos":1,"mulheres_n_total":1,"mulheres_completude":1.0,"c0_4_n_validos":1,"c0_4_n_total":1,"c0_4_completude":1.0,"c5_9_n_validos":1,"c5_9_n_total":1,"c5_9_completude":1.0,"i60_69_n_validos":1,"i60_69_n_total":1,"i60_69_completude":1.0,"i70m_n_validos":1,"i70m_n_total":1,"i70m_completude":1.0,"indigenas_n_validos":1,"indigenas_n_total":1,"indigenas_completude":1.0,"pretos_pardos_n_validos":1,"pretos_pardos_n_total":1,"pretos_pardos_completude":1.0,"dom_agua_n_validos":1,"dom_agua_n_total":1,"dom_agua_completude":1.0,"dom_esgoto_n_validos":1,"dom_esgoto_n_total":1,"dom_esgoto_completude":1.0,"n_resp_n_validos":1,"n_resp_n_total":1,"n_resp_completude":1.0,"renda_resp_n_validos":1,"renda_resp_n_total":1,"renda_resp_completude":1.0,"dens_n_validos":1,"dens_n_total":1,"dens_completude":1.0,"status_borda_bacia":"total","metodo_area_bacia":"interseção geométrica em EPSG:5880","metodo_na_bacia":"ponto_representativo_setor_2022_within_bacia","municipio":"Casca","cod_mun":"4304903","mun_pct_na_bacia":100.0,"mun_pop_total":9465,"mun_pop_na_bacia":9465.0,"mun_ubs_iede":6,"mun_hospitais_iede":null,"mun_escolas_iede":null,"mun_bombeiros_iede":null,"mun_servicos_cobertura":"cadastro_IEDE_parcial_nao_inventario","mun_icm_faixa":"A","mun_icm_pontos":11,"mun_icm_prioritario":"não","mun_ubs_iede_status":"published","mun_hospitais_iede_status":"unknown","mun_escolas_iede_status":"unknown","mun_bombeiros_iede_status":"unknown"},"geometry":{"type":"Polygon","coordinates":[[[-51.974478199999965,-28.569798599999956],[-51.979360199999974,-28.570058699999937],[-51.97942239999997,-28.568894299999954],[-51.982258199999926,-28.56900369999994],[-51.98333719999993,-28.568791899999948],[-51.98496489999997,-28.56823739999993],[-51.9848396,-28.56648539999997],[-51.97471329999996,-28.56597369999998],[-51.974478199999965,-28.569798599999956]]]}},{"type":"Feature","properties":{"setor":"430490305000012","pop":10,"sigilo_pop":false,"dom":5,"sigilo_dom":0,"mulheres":null,"sigilo_mulheres":1,"c0_4":null,"sigilo_c0_4":1,"c5_9":null,"sigilo_c5_9":1,"i60_69":null,"sigilo_i60_69":1,"i70m":null,"sigilo_i70m":1,"indigenas":null,"sigilo_indigenas":1,"pretos_pardos":null,"sigilo_pretos_pardos":1,"dom_ocupados":null,"sigilo_dom_ocupados":1,"dom_agua":null,"sigilo_dom_agua":1,"dom_esgoto":null,"sigilo_dom_esgoto":1,"renda_resp":null,"sigilo_renda_resp":1,"n_resp":null,"sigilo_n_resp":1,"dens":43.2,"sigilo_dens":false,"na_bacia":1,"area_pct_bacia":100.0,"metodo_recorte_bacia":"ponto_representativo_setor_2022; area_pct_geometrica","pop_n_validos":1,"pop_n_total":1,"pop_completude":1.0,"dom_n_validos":1,"dom_n_total":1,"dom_completude":1.0,"dom_ocupados_n_validos":0,"dom_ocupados_n_total":1,"dom_ocupados_completude":0.0,"mulheres_n_validos":0,"mulheres_n_total":1,"mulheres_completude":0.0,"c0_4_n_validos":0,"c0_4_n_total":1,"c0_4_completude":0.0,"c5_9_n_validos":0,"c5_9_n_total":1,"c5_9_completude":0.0,"i60_69_n_validos":0,"i60_69_n_total":1,"i60_69_completude":0.0,"i70m_n_validos":0,"i70m_n_total":1,"i70m_completude":0.0,"indigenas_n_validos":0,"indigenas_n_total":1,"indigenas_completude":0.0,"pretos_pardos_n_validos":0,"pretos_pardos_n_total":1,"pretos_pardos_completude":0.0,"dom_agua_n_validos":0,"dom_agua_n_total":1,"dom_agua_completude":0.0,"dom_esgoto_n_validos":0,"dom_esgoto_n_total":1,"dom_esgoto_completude":0.0,"n_resp_n_validos":0,"n_resp_n_total":1,"n_resp_completude":0.0,"renda_resp_n_validos":0,"renda_resp_n_total":1,"renda_resp_completude":0.0,"dens_n_validos":1,"dens_n_total":1,"dens_completude":1.0,"status_borda_bacia":"total","metodo_area_bacia":"interseção geométrica em EPSG:5880","metodo_na_bacia":"ponto_representativo_setor_2022_within_bacia","municipio":"Casca","cod_mun":"4304903","mun_pct_na_bacia":100.0,"mun_pop_total":9465,"mun_pop_na_bacia":9465.0,"mun_ubs_iede":6,"mun_hospitais_iede":null,"mun_escolas_iede":null,"mun_bombeiros_iede":null,"mun_servicos_cobertura":"cadastro_IEDE_parcial_nao_inventario","mun_icm_faixa":"A","mun_icm_pontos":11,"mun_icm_prioritario":"não","mun_ubs_iede_status":"published","mun_hospitais_iede_status":"unknown","mun_escolas_iede_status":"unknown","mun_bombeiros_iede_status":"unknown"},"geometry":{"type":"Polygon","coordinates":[[[-51.95699129999997,-28.57862139999997],[-51.96223429999998,-28.57882289999998],[-51.962342099999944,-28.572106499999965],[-51.95978329999997,-28.57377729999996],[-51.957974,-28.577265],[-51.95699129999997,-28.57862139999997]]]}},{"type":"Feature","properties":{"setor":"430490305000013","pop":44,"sigilo_pop":false,"dom":20,"sigilo_dom":0,"mulheres":20,"sigilo_mulheres":0,"c0_4":null,"sigilo_c0_4":1,"c5_9":8,"sigilo_c5_9":0,"i60_69":null,"sigilo_i60_69":1,"i70m":null,"sigilo_i70m":1,"indigenas":0,"sigilo_indigenas":0,"pretos_pardos":null,"sigilo_pretos_pardos":1,"dom_ocupados":15,"sigilo_dom_ocupados":0,"dom_agua":11,"sigilo_dom_agua":0,"dom_esgoto":3,"sigilo_dom_esgoto":0,"renda_resp":1891.85,"sigilo_renda_resp":0,"n_resp":15,"sigilo_n_resp":0,"dens":96.3,"sigilo_dens":false,"na_bacia":1,"area_pct_bacia":100.0,"metodo_recorte_bacia":"ponto_representativo_setor_2022; area_pct_geometrica","pop_n_validos":1,"pop_n_total":1,"pop_completude":1.0,"dom_n_validos":1,"dom_n_total":1,"dom_completude":1.0,"dom_ocupados_n_validos":1,"dom_ocupados_n_total":1,"dom_ocupados_completude":1.0,"mulheres_n_validos":1,"mulheres_n_total":1,"mulheres_completude":1.0,"c0_4_n_validos":0,"c0_4_n_total":1,"c0_4_completude":0.0,"c5_9_n_validos":1,"c5_9_n_total":1,"c5_9_completude":1.0,"i60_69_n_validos":0,"i60_69_n_total":1,"i60_69_completude":0.0,"i70m_n_validos":0,"i70m_n_total":1,"i70m_completude":0.0,"indigenas_n_validos":1,"indigenas_n_total":1,"indigenas_completude":1.0,"pretos_pardos_n_validos":0,"pretos_pardos_n_total":1,"pretos_pardos_completude":0.0,"dom_agua_n_validos":1,"dom_agua_n_total":1,"dom_agua_completude":1.0,"dom_esgoto_n_validos":1,"dom_esgoto_n_total":1,"dom_esgoto_completude":1.0,"n_resp_n_validos":1,"n_resp_n_total":1,"n_resp_completude":1.0,"renda_resp_n_validos":1,"renda_resp_n_total":1,"renda_resp_completude":1.0,"dens_n_validos":1,"dens_n_total":1,"dens_completude":1.0,"status_borda_bacia":"total","metodo_area_bacia":"interseção geométrica em EPSG:5880","metodo_na_bacia":"ponto_representativo_setor_2022_within_bacia","municipio":"Casca","cod_mun":"4304903","mun_pct_na_bacia":100.0,"mun_pop_total":9465,"mun_pop_na_bacia":9465.0,"mun_ubs_iede":6,"mun_hospitais_iede":null,"mun_escolas_iede":null,"mun_bombeiros_iede":null,"mun_servicos_cobertura":"cadastro_IEDE_parcial_nao_inventario","mun_icm_faixa":"A","mun_icm_pontos":11,"mun_icm_prioritario":"não","mun_ubs_iede_status":"published","mun_hospitais_iede_status":"unknown","mun_escolas_iede_status":"unknown","mun_bombeiros_iede_status":"unknown"},"geometry":{"type":"Polygon","coordinates":[[[-51.96162919999995,-28.570032299999983],[-51.955917,-28.56980239999996],[-51.955187299999984,-28.578493],[-51.95699129999997,-28.57862139999997],[-51.957974,-28.577265],[-51.959939,-28.573607],[-51.96544659999996,-28.570318899999958],[-51.962994299999934,-28.569524499999932],[-51.96162919999995,-28.570032299999983]]]}},{"type":"Feature","properties":{"setor":"430490305000014","pop":217,"sigilo_pop":false,"dom":84,"sigilo_dom":0,"mulheres":108,"sigilo_mulheres":0,"c0_4":21,"sigilo_c0_4":0,"c5_9":11,"sigilo_c5_9":0,"i60_69":30,"sigilo_i60_69":0,"i70m":28,"sigilo_i70m":0,"indigenas":0,"sigilo_indigenas":0,"pretos_pardos":null,"sigilo_pretos_pardos":1,"dom_ocupados":69,"sigilo_dom_ocupados":0,"dom_agua":50,"sigilo_dom_agua":0,"dom_esgoto":0,"sigilo_dom_esgoto":0,"renda_resp":7699.36,"sigilo_renda_resp":0,"n_resp":69,"sigilo_n_resp":0,"dens":13.1,"sigilo_dens":false,"na_bacia":1,"area_pct_bacia":100.0,"metodo_recorte_bacia":"ponto_representativo_setor_2022; area_pct_geometrica","pop_n_validos":1,"pop_n_total":1,"pop_completude":1.0,"dom_n_validos":1,"dom_n_total":1,"dom_completude":1.0,"dom_ocupados_n_validos":1,"dom_ocupados_n_total":1,"dom_ocupados_completude":1.0,"mulheres_n_validos":1,"mulheres_n_total":1,"mulheres_completude":1.0,"c0_4_n_validos":1,"c0_4_n_total":1,"c0_4_completude":1.0,"c5_9_n_validos":1,"c5_9_n_total":1,"c5_9_completude":1.0,"i60_69_n_validos":1,"i60_69_n_total":1,"i60_69_completude":1.0,"i70m_n_validos":1,"i70m_n_total":1,"i70m_completude":1.0,"indigenas_n_validos":1,"indigenas_n_total":1,"indigenas_completude":1.0,"pretos_pardos_n_validos":0,"pretos_pardos_n_total":1,"pretos_pardos_completude":0.0,"dom_agua_n_validos":1,"dom_agua_n_total":1,"dom_agua_completude":1.0,"dom_esgoto_n_validos":1,"dom_esgoto_n_total":1,"dom_esgoto_completude":1.0,"n_resp_n_validos":1,"n_resp_n_total":1,"n_resp_completude":1.0,"renda_resp_n_validos":1,"renda_resp_n_total":1,"renda_resp_completude":1.0,"dens_n_validos":1,"dens_n_total":1,"dens_completude":1.0,"status_borda_bacia":"total","metodo_area_bacia":"interseção geométrica em EPSG:5880","metodo_na_bacia":"ponto_representativo_setor_2022_within_bacia","municipio":"Casca","cod_mun":"4304903","mun_pct_na_bacia":100.0,"mun_pop_total":9465,"mun_pop_na_bacia":9465.0,"mun_ubs_iede":6,"mun_hospitais_iede":null,"mun_escolas_iede":null,"mun_bombeiros_iede":null,"mun_servicos_cobertura":"cadastro_IEDE_parcial_nao_inventario","mun_icm_faixa":"A","mun_icm_pontos":11,"mun_icm_prioritario":"não","mun_ubs_iede_status":"published","mun_hospitais_iede_status":"unknown","mun_escolas_iede_status":"unknown","mun_bombeiros_iede_status":"unknown"},"geometry":{"type":"Polygon","coordinates":[[[-51.91652279999994,-28.510262499999957],[-51.91352429999995,-28.51233429999997],[-51.910039,-28.511577199999977],[-51.90768639999993,-28.514044899999938],[-51.907510699999925,-28.516317899999926],[-51.90892429999997,-28.51862159999997],[-51.907312299999944,-28.52113949999994],[-51.90742759999995,-28.522339099999947],[-51.913104399999945,-28.524320499999924],[-51.91607889999995,-28.527278599999928],[-51.91552189999993,-28.530968099999942],[-51.91636109999996,-28.532095799999972],[-51.921187,-28.531753],[-51.924254099999985,-28.53636659999996],[-51.924319099999934,-28.537482399999934],[-51.92319719999995,-28.53788919999993],[-51.91732169999994,-28.53754949999995],[-51.91429339999996,-28.538941],[-51.91506979999997,-28.540134],[-51.91533049999999,-28.543282199999968],[-51.91754479999997,-28.547569799999955],[-51.9192609,-28.548494399999978],[-51.92390769999997,-28.550276899999975],[-51.92947049999999,-28.549163399999944],[-51.93016929999993,-28.54879309999996],[-51.931226399999964,-28.547752499999945],[-51.932507699999974,-28.547591],[-51.93394869999997,-28.548286799999975],[-51.935356399999925,-28.550444],[-51.936851599999954,-28.551819599999927],[-51.95208619999994,-28.56139989999997],[-51.95323819999994,-28.561672099999953],[-51.961612199999934,-28.561286799999944],[-51.962571,-28.551980099999977],[-51.95865029999994,-28.550453899999972],[-51.957099899999946,-28.549377499999924],[-51.955484499999955,-28.548818799999935],[-51.955028899999945,-28.547923499999964],[-51.955856299999944,-28.54536449999995],[-51.955876099999955,-28.54393049999992],[-51.954937399999956,-28.54030339999997],[-51.956199099999935,-28.53633469999993],[-51.95623029999996,-28.53391639999996],[-51.956660899999974,-28.531749599999962],[-51.95524929999994,-28.527952499999962],[-51.956656,-28.52229809999994],[-51.95662829999998,-28.521528299999922],[-51.955677399999956,-28.5206118],[-51.92537389999995,-28.520417],[-51.925007,-28.512853699999937],[-51.92388439999996,-28.510497799999932],[-51.92218779999996,-28.509384],[-51.91652279999994,-28.510262499999957]]]}},{"type":"Feature","properties":{"setor":"430490305000015","pop":353,"sigilo_pop":false,"dom":146,"sigilo_dom":0,"mulheres":170,"sigilo_mulheres":0,"c0_4":13,"sigilo_c0_4":0,"c5_9":12,"sigilo_c5_9":0,"i60_69":75,"sigilo_i60_69":0,"i70m":47,"sigilo_i70m":0,"indigenas":0,"sigilo_indigenas":0,"pretos_pardos":32,"sigilo_pretos_pardos":0,"dom_ocupados":129,"sigilo_dom_ocupados":0,"dom_agua":102,"sigilo_dom_agua":0,"dom_esgoto":0,"sigilo_dom_esgoto":0,"renda_resp":6458.53,"sigilo_renda_resp":0,"n_resp":129,"sigilo_n_resp":0,"dens":13.2,"sigilo_dens":false,"na_bacia":1,"area_pct_bacia":100.0,"metodo_recorte_bacia":"ponto_representativo_setor_2022; area_pct_geometrica","pop_n_validos":1,"pop_n_total":1,"pop_completude":1.0,"dom_n_validos":1,"dom_n_total":1,"dom_completude":1.0,"dom_ocupados_n_validos":1,"dom_ocupados_n_total":1,"dom_ocupados_completude":1.0,"mulheres_n_validos":1,"mulheres_n_total":1,"mulheres_completude":1.0,"c0_4_n_validos":1,"c0_4_n_total":1,"c0_4_completude":1.0,"c5_9_n_validos":1,"c5_9_n_total":1,"c5_9_completude":1.0,"i60_69_n_validos":1,"i60_69_n_total":1,"i60_69_completude":1.0,"i70m_n_validos":1,"i70m_n_total":1,"i70m_completude":1.0,"indigenas_n_validos":1,"indigenas_n_total":1,"indigenas_completude":1.0,"pretos_pardos_n_validos":1,"pretos_pardos_n_total":1,"pretos_pardos_completude":1.0,"dom_agua_n_validos":1,"dom_agua_n_total":1,"dom_agua_completude":1.0,"dom_esgoto_n_validos":1,"dom_esgoto_n_total":1,"dom_esgoto_completude":1.0,"n_resp_n_validos":1,"n_resp_n_total":1,"n_resp_completude":1.0,"renda_resp_n_validos":1,"renda_resp_n_total":1,"renda_resp_completude":1.0,"dens_n_validos":1,"dens_n_total":1,"dens_completude":1.0,"status_borda_bacia":"total","metodo_area_bacia":"interseção geométrica em EPSG:5880","metodo_na_bacia":"ponto_representativo_setor_2022_within_bacia","municipio":"Casca","cod_mun":"4304903","mun_pct_na_bacia":100.0,"mun_pop_total":9465,"mun_pop_na_bacia":9465.0,"mun_ubs_iede":6,"mun_hospitais_iede":null,"mun_escolas_iede":null,"mun_bombeiros_iede":null,"mun_servicos_cobertura":"cadastro_IEDE_parcial_nao_inventario","mun_icm_faixa":"A","mun_icm_pontos":11,"mun_icm_prioritario":"não","mun_ubs_iede_status":"published","mun_hospitais_iede_status":"unknown","mun_escolas_iede_status":"unknown","mun_bombeiros_iede_status":"unknown"},"geometry":{"type":"Polygon","coordinates":[[[-52.00306189999997,-28.56121729999996],[-52.00243789999996,-28.57416389999996],[-52.00269989999998,-28.574232799999947],[-52.004794199999935,-28.57419869999996],[-52.005902799999944,-28.573578199999925],[-52.00701159999995,-28.57350269999994],[-52.007511,-28.572837599999954],[-52.00763639999997,-28.57178359999996],[-52.008123599999976,-28.57122919999995],[-52.01130939999996,-28.569811599999987],[-52.011014599999946,-28.569176599999935],[-52.01316789999998,-28.567392799999944],[-52.014139,-28.567584099999976],[-52.014951,-28.568271899999953],[-52.015430699999975,-28.569246399999926],[-52.01624229999993,-28.569815899999984],[-52.01836909999997,-28.570251099999947],[-52.01967319999994,-28.57093429999997],[-52.020646099999965,-28.57211989999996],[-52.03115939999998,-28.578313],[-52.03627529999995,-28.58070979999997],[-52.042974699999945,-28.581574299999936],[-52.04746329999995,-28.579483699999965],[-52.049620299999965,-28.579367199999975],[-52.05223369999993,-28.579627],[-52.054443299999946,-28.579166499999925],[-52.057168399999966,-28.57766429999998],[-52.06192639999995,-28.57783539999996],[-52.064446299999986,-28.578851399999966],[-52.066222699999976,-28.579970099999965],[-52.067371099999946,-28.580111199999976],[-52.07115529999999,-28.57924959999996],[-52.07355219999994,-28.579965899999934],[-52.07443079999995,-28.579964],[-52.07542479999995,-28.57866459999996],[-52.07796559999996,-28.578800399999977],[-52.07963829999995,-28.579133599999984],[-52.081982,-28.578922599999938],[-52.081981,-28.57953469999995],[-52.08309239999995,-28.580354],[-52.084536499999956,-28.580281199999952],[-52.08457749999997,-28.581539299999978],[-52.08634569999999,-28.580525699999946],[-52.08664059999996,-28.579622799999985],[-52.08768319999995,-28.57906839999998],[-52.088372899999975,-28.57939549999998],[-52.089017,-28.580323799999967],[-52.09114919999996,-28.579502599999955],[-52.092993,-28.582291099999964],[-52.093660599999964,-28.580764299999938],[-52.094883599999946,-28.580344899999943],[-52.095533799999934,-28.578817899999933],[-52.09615009999993,-28.578366499999962],[-52.09851569999996,-28.55027869999997],[-52.09609619999998,-28.55082229999994],[-52.092463599999974,-28.552872099999934],[-52.088845,-28.553164499999976],[-52.08756409999995,-28.55297589999998],[-52.08156109999994,-28.550775899999966],[-52.07014669999995,-28.55040269999995],[-52.06693689999997,-28.54952679999996],[-52.06102639999995,-28.54850509999994],[-52.03834209999997,-28.549913399999973],[-52.03126709999997,-28.55140929999993],[-52.02577909999997,-28.551846799999968],[-52.02510969999998,-28.552084599999937],[-52.023919199999966,-28.553118099999942],[-52.0232266,-28.553283499999957],[-52.02034969999994,-28.553066099999974],[-52.00735009999995,-28.554470299999934],[-52.005332,-28.55562189999995],[-52.004396199999974,-28.556663],[-52.00364129999997,-28.560943399999932],[-52.00306189999997,-28.56121729999996]]]}},{"type":"Feature","properties":{"setor":"430490305000017","pop":61,"sigilo_pop":false,"dom":29,"sigilo_dom":0,"mulheres":33,"sigilo_mulheres":0,"c0_4":null,"sigilo_c0_4":1,"c5_9":3,"sigilo_c5_9":0,"i60_69":null,"sigilo_i60_69":1,"i70m":8,"sigilo_i70m":0,"indigenas":0,"sigilo_indigenas":0,"pretos_pardos":null,"sigilo_pretos_pardos":1,"dom_ocupados":22,"sigilo_dom_ocupados":0,"dom_agua":17,"sigilo_dom_agua":0,"dom_esgoto":0,"sigilo_dom_esgoto":0,"renda_resp":3532.18,"sigilo_renda_resp":0,"n_resp":22,"sigilo_n_resp":0,"dens":35.3,"sigilo_dens":false,"na_bacia":1,"area_pct_bacia":100.0,"metodo_recorte_bacia":"ponto_representativo_setor_2022; area_pct_geometrica","pop_n_validos":1,"pop_n_total":1,"pop_completude":1.0,"dom_n_validos":1,"dom_n_total":1,"dom_completude":1.0,"dom_ocupados_n_validos":1,"dom_ocupados_n_total":1,"dom_ocupados_completude":1.0,"mulheres_n_validos":1,"mulheres_n_total":1,"mulheres_completude":1.0,"c0_4_n_validos":0,"c0_4_n_total":1,"c0_4_completude":0.0,"c5_9_n_validos":1,"c5_9_n_total":1,"c5_9_completude":1.0,"i60_69_n_validos":0,"i60_69_n_total":1,"i60_69_completude":0.0,"i70m_n_validos":1,"i70m_n_total":1,"i70m_completude":1.0,"indigenas_n_validos":1,"indigenas_n_total":1,"indigenas_completude":1.0,"pretos_pardos_n_validos":0,"pretos_pardos_n_total":1,"pretos_pardos_completude":0.0,"dom_agua_n_validos":1,"dom_agua_n_total":1,"dom_agua_completude":1.0,"dom_esgoto_n_validos":1,"dom_esgoto_n_total":1,"dom_esgoto_completude":1.0,"n_resp_n_validos":1,"n_resp_n_total":1,"n_resp_completude":1.0,"renda_resp_n_validos":1,"renda_resp_n_total":1,"renda_resp_completude":1.0,"dens_n_validos":1,"dens_n_total":1,"dens_completude":1.0,"status_borda_bacia":"total","metodo_area_bacia":"interseção geométrica em EPSG:5880","metodo_na_bacia":"ponto_representativo_setor_2022_within_bacia","municipio":"Casca","cod_mun":"4304903","mun_pct_na_bacia":100.0,"mun_pop_total":9465,"mun_pop_na_bacia":9465.0,"mun_ubs_iede":6,"mun_hospitais_iede":null,"mun_escolas_iede":null,"mun_bombeiros_iede":null,"mun_servicos_cobertura":"cadastro_IEDE_parcial_nao_inventario","mun_icm_faixa":"A","mun_icm_pontos":11,"mun_icm_prioritario":"não","mun_ubs_iede_status":"published","mun_hospitais_iede_status":"unknown","mun_escolas_iede_status":"unknown","mun_bombeiros_iede_status":"unknown"},"geometry":{"type":"Polygon","coordinates":[[[-51.988968299999954,-28.560491199999937],[-51.988854499999945,-28.571736899999962],[-51.98939839999998,-28.571496499999963],[-51.99019239999996,-28.572044599999977],[-51.995166,-28.572234199999976],[-51.998636,-28.570877699999986],[-52.00139269999994,-28.573889199999947],[-52.00243789999996,-28.57416389999996],[-52.00257919999996,-28.574022699999947],[-52.00306189999997,-28.56121729999996],[-52.002362,-28.56132659999997],[-51.99972379999997,-28.560463799999965],[-51.99728219999997,-28.56098239999993],[-51.99320089999998,-28.560937099999933],[-51.99082789999994,-28.560363499999927],[-51.988968299999954,-28.560491199999937]]]}},{"type":"Feature","properties":{"setor":"430490305000019","pop":312,"sigilo_pop":false,"dom":139,"sigilo_dom":0,"mulheres":147,"sigilo_mulheres":0,"c0_4":16,"sigilo_c0_4":0,"c5_9":12,"sigilo_c5_9":0,"i60_69":46,"sigilo_i60_69":0,"i70m":50,"sigilo_i70m":0,"indigenas":0,"sigilo_indigenas":0,"pretos_pardos":19,"sigilo_pretos_pardos":0,"dom_ocupados":110,"sigilo_dom_ocupados":0,"dom_agua":91,"sigilo_dom_agua":0,"dom_esgoto":0,"sigilo_dom_esgoto":0,"renda_resp":6830.05,"sigilo_renda_resp":0,"n_resp":110,"sigilo_n_resp":0,"dens":11.5,"sigilo_dens":false,"na_bacia":1,"area_pct_bacia":100.0,"metodo_recorte_bacia":"ponto_representativo_setor_2022; area_pct_geometrica","pop_n_validos":1,"pop_n_total":1,"pop_completude":1.0,"dom_n_validos":1,"dom_n_total":1,"dom_completude":1.0,"dom_ocupados_n_validos":1,"dom_ocupados_n_total":1,"dom_ocupados_completude":1.0,"mulheres_n_validos":1,"mulheres_n_total":1,"mulheres_completude":1.0,"c0_4_n_validos":1,"c0_4_n_total":1,"c0_4_completude":1.0,"c5_9_n_validos":1,"c5_9_n_total":1,"c5_9_completude":1.0,"i60_69_n_validos":1,"i60_69_n_total":1,"i60_69_completude":1.0,"i70m_n_validos":1,"i70m_n_total":1,"i70m_completude":1.0,"indigenas_n_validos":1,"indigenas_n_total":1,"indigenas_completude":1.0,"pretos_pardos_n_validos":1,"pretos_pardos_n_total":1,"pretos_pardos_completude":1.0,"dom_agua_n_validos":1,"dom_agua_n_total":1,"dom_agua_completude":1.0,"dom_esgoto_n_validos":1,"dom_esgoto_n_total":1,"dom_esgoto_completude":1.0,"n_resp_n_validos":1,"n_resp_n_total":1,"n_resp_completude":1.0,"renda_resp_n_validos":1,"renda_resp_n_total":1,"renda_resp_completude":1.0,"dens_n_validos":1,"dens_n_total":1,"dens_completude":1.0,"status_borda_bacia":"total","metodo_area_bacia":"interseção geométrica em EPSG:5880","metodo_na_bacia":"ponto_representativo_setor_2022_within_bacia","municipio":"Casca","cod_mun":"4304903","mun_pct_na_bacia":100.0,"mun_pop_total":9465,"mun_pop_na_bacia":9465.0,"mun_ubs_iede":6,"mun_hospitais_iede":null,"mun_escolas_iede":null,"mun_bombeiros_iede":null,"mun_servicos_cobertura":"cadastro_IEDE_parcial_nao_inventario","mun_icm_faixa":"A","mun_icm_pontos":11,"mun_icm_prioritario":"não","mun_ubs_iede_status":"published","mun_hospitais_iede_status":"unknown","mun_escolas_iede_status":"unknown","mun_bombeiros_iede_status":"unknown"},"geometry":{"type":"Polygon","coordinates":[[[-51.988959199999954,-28.557213699999977],[-51.99178429999995,-28.55754329999996],[-51.99343979999997,-28.55957259999997],[-51.99496679999998,-28.560875499999952],[-51.997617,-28.560978299999924],[-51.99972379999997,-28.560463799999965],[-52.00266009999995,-28.561357899999955],[-52.00364129999997,-28.560943399999932],[-52.00423989999996,-28.55714639999996],[-52.004735099999955,-28.556154299999942],[-52.00735009999995,-28.554470299999934],[-52.02034969999994,-28.553066099999974],[-52.0232266,-28.553283499999957],[-52.023919199999966,-28.553118099999942],[-52.02510969999998,-28.552084599999937],[-52.02577909999997,-28.551846799999968],[-52.03126709999997,-28.55140929999993],[-52.03834209999997,-28.549913399999973],[-52.06102639999995,-28.54850509999994],[-52.06693689999997,-28.54952679999996],[-52.07014669999995,-28.55040269999995],[-52.08156109999994,-28.550775899999966],[-52.08756409999995,-28.55297589999998],[-52.088845,-28.553164499999976],[-52.092463599999974,-28.552872099999934],[-52.09609619999998,-28.55082229999994],[-52.09851569999996,-28.55027869999997],[-52.098704199999986,-28.548042899999917],[-52.09842659999998,-28.54746839999996],[-52.09649089999994,-28.547423399999946],[-52.09610829999997,-28.547018199999968],[-52.09488879999998,-28.547010199999928],[-52.09482529999996,-28.54602789999996],[-52.094285099999986,-28.54442979999992],[-52.094814499999984,-28.542704399999938],[-52.09561469999994,-28.54131169999994],[-52.09617579999997,-28.540941],[-52.09712109999999,-28.540738499999975],[-52.09354229999997,-28.537925],[-52.09158409999998,-28.535921699999957],[-52.08737579999996,-28.53478109999998],[-52.08578119999998,-28.532605499999924],[-52.08136659999997,-28.535488399999963],[-52.07751569999994,-28.534448],[-52.075373899999924,-28.535739199999963],[-52.0738578,-28.534425099999957],[-52.073461899999984,-28.532874299999946],[-52.072166299999935,-28.53320679999996],[-52.06911049999996,-28.537042099999944],[-52.06738489999998,-28.53769319999997],[-52.06753579999997,-28.546217599999967],[-52.035152299999936,-28.545929799999954],[-52.03491759999997,-28.537158899999948],[-52.019804299999976,-28.53701529999995],[-52.01978289999994,-28.528052699999932],[-51.960412899999945,-28.526097599999964],[-51.960500499999974,-28.520641899999934],[-51.955677399999956,-28.5206118],[-51.95662829999998,-28.521528299999922],[-51.956656,-28.52229809999994],[-51.95524069999993,-28.528196],[-51.956660899999974,-28.531749599999962],[-51.95623029999996,-28.53391639999996],[-51.956199099999935,-28.53633469999993],[-51.954937399999956,-28.54030339999997],[-51.955876099999955,-28.54393049999992],[-51.955856299999944,-28.54536449999995],[-51.955028899999945,-28.547923499999964],[-51.95524029999996,-28.54856779999994],[-51.956058,-28.549077899999926],[-51.957099899999946,-28.549377499999924],[-51.95865029999994,-28.550453899999972],[-51.962571,-28.551980099999977],[-51.962593,-28.551334199999925],[-51.97824819999994,-28.551834899999957],[-51.97847319999994,-28.542825099999966],[-51.98358359999998,-28.54292039999995],[-51.98351679999997,-28.551972],[-51.98898,-28.552185299999948],[-51.988959199999954,-28.557213699999977]]]}},{"type":"Feature","properties":{"setor":"430490305000020","pop":386,"sigilo_pop":false,"dom":163,"sigilo_dom":0,"mulheres":183,"sigilo_mulheres":0,"c0_4":16,"sigilo_c0_4":0,"c5_9":14,"sigilo_c5_9":0,"i60_69":75,"sigilo_i60_69":0,"i70m":76,"sigilo_i70m":0,"indigenas":0,"sigilo_indigenas":0,"pretos_pardos":null,"sigilo_pretos_pardos":1,"dom_ocupados":145,"sigilo_dom_ocupados":0,"dom_agua":99,"sigilo_dom_agua":0,"dom_esgoto":null,"sigilo_dom_esgoto":1,"renda_resp":7594.83,"sigilo_renda_resp":0,"n_resp":145,"sigilo_n_resp":0,"dens":10.7,"sigilo_dens":false,"na_bacia":1,"area_pct_bacia":100.0,"metodo_recorte_bacia":"ponto_representativo_setor_2022; area_pct_geometrica","pop_n_validos":1,"pop_n_total":1,"pop_completude":1.0,"dom_n_validos":1,"dom_n_total":1,"dom_completude":1.0,"dom_ocupados_n_validos":1,"dom_ocupados_n_total":1,"dom_ocupados_completude":1.0,"mulheres_n_validos":1,"mulheres_n_total":1,"mulheres_completude":1.0,"c0_4_n_validos":1,"c0_4_n_total":1,"c0_4_completude":1.0,"c5_9_n_validos":1,"c5_9_n_total":1,"c5_9_completude":1.0,"i60_69_n_validos":1,"i60_69_n_total":1,"i60_69_completude":1.0,"i70m_n_validos":1,"i70m_n_total":1,"i70m_completude":1.0,"indigenas_n_validos":1,"indigenas_n_total":1,"indigenas_completude":1.0,"pretos_pardos_n_validos":0,"pretos_pardos_n_total":1,"pretos_pardos_completude":0.0,"dom_agua_n_validos":1,"dom_agua_n_total":1,"dom_agua_completude":1.0,"dom_esgoto_n_validos":0,"dom_esgoto_n_total":1,"dom_esgoto_completude":0.0,"n_resp_n_validos":1,"n_resp_n_total":1,"n_resp_completude":1.0,"renda_resp_n_validos":1,"renda_resp_n_total":1,"renda_resp_completude":1.0,"dens_n_validos":1,"dens_n_total":1,"dens_completude":1.0,"status_borda_bacia":"total","metodo_area_bacia":"interseção geométrica em EPSG:5880","metodo_na_bacia":"ponto_representativo_setor_2022_within_bacia","municipio":"Casca","cod_mun":"4304903","mun_pct_na_bacia":100.0,"mun_pop_total":9465,"mun_pop_na_bacia":9465.0,"mun_ubs_iede":6,"mun_hospitais_iede":null,"mun_escolas_iede":null,"mun_bombeiros_iede":null,"mun_servicos_cobertura":"cadastro_IEDE_parcial_nao_inventario","mun_icm_faixa":"A","mun_icm_pontos":11,"mun_icm_prioritario":"não","mun_ubs_iede_status":"published","mun_hospitais_iede_status":"unknown","mun_escolas_iede_status":"unknown","mun_bombeiros_iede_status":"unknown"},"geometry":{"type":"Polygon","coordinates":[[[-51.988611799999944,-28.580133799999928],[-51.95699129999997,-28.57862139999997],[-51.95605829999994,-28.57990909999994],[-51.95483379999995,-28.580770199999957],[-51.95067709999995,-28.58135069999997],[-51.94631979999997,-28.583175299999926],[-51.94482409999995,-28.583530899999975],[-51.94628309999997,-28.585889],[-51.94390159999995,-28.590201799999928],[-51.943425599999955,-28.592395299999964],[-52.09375289999998,-28.606805899999976],[-52.09615009999993,-28.578366499999962],[-52.095533799999934,-28.578817899999933],[-52.094883599999946,-28.580344899999943],[-52.093660599999964,-28.580764299999938],[-52.092993,-28.582291099999964],[-52.09114919999996,-28.579502599999955],[-52.089017,-28.580323799999967],[-52.088372899999975,-28.57939549999998],[-52.08768319999995,-28.57906839999998],[-52.08664059999996,-28.579622799999985],[-52.08634569999999,-28.580525699999946],[-52.08457749999997,-28.581539299999978],[-52.084536499999956,-28.580281199999952],[-52.08309239999995,-28.580354],[-52.081981,-28.57953469999995],[-52.081982,-28.578922599999938],[-52.07963829999995,-28.579133599999984],[-52.07796559999996,-28.578800399999977],[-52.07542479999995,-28.57866459999996],[-52.07443079999995,-28.579964],[-52.07355219999994,-28.579965899999934],[-52.07115529999999,-28.57924959999996],[-52.067371099999946,-28.580111199999976],[-52.066222699999976,-28.579970099999965],[-52.064446299999986,-28.578851399999966],[-52.06192639999995,-28.57783539999996],[-52.057168399999966,-28.57766429999998],[-52.054443299999946,-28.579166499999925],[-52.05223369999993,-28.579627],[-52.049620299999965,-28.579367199999975],[-52.04746329999995,-28.579483699999965],[-52.042974699999945,-28.581574299999936],[-52.03627529999995,-28.58070979999997],[-52.03115939999998,-28.578313],[-52.020646099999965,-28.57211989999996],[-52.01967319999994,-28.57093429999997],[-52.01836909999997,-28.570251099999947],[-52.01624229999993,-28.569815899999984],[-52.015430699999975,-28.569246399999926],[-52.014951,-28.568271899999953],[-52.014139,-28.567584099999976],[-52.01316789999998,-28.567392799999944],[-52.011014599999946,-28.569176599999935],[-52.01130939999996,-28.569811599999987],[-52.008123599999976,-28.57122919999995],[-52.00763639999997,-28.57178359999996],[-52.007511,-28.572837599999954],[-52.00701159999995,-28.57350269999994],[-52.005902799999944,-28.573578199999925],[-52.004794199999935,-28.57419869999996],[-52.00269989999998,-28.574232799999947],[-52.00139269999994,-28.573889199999947],[-51.998636,-28.570877699999986],[-51.995166,-28.572234199999976],[-51.99019239999996,-28.572044599999977],[-51.98939839999998,-28.571496499999963],[-51.988854499999945,-28.571736899999962],[-51.988611799999944,-28.580133799999928]]]}},{"type":"Feature","properties":{"setor":"430490310000001","pop":89,"sigilo_pop":false,"dom":40,"sigilo_dom":0,"mulheres":45,"sigilo_mulheres":0,"c0_4":3,"sigilo_c0_4":0,"c5_9":null,"sigilo_c5_9":1,"i60_69":21,"sigilo_i60_69":0,"i70m":14,"sigilo_i70m":0,"indigenas":0,"sigilo_indigenas":0,"pretos_pardos":null,"sigilo_pretos_pardos":1,"dom_ocupados":34,"sigilo_dom_ocupados":0,"dom_agua":32,"sigilo_dom_agua":0,"dom_esgoto":0,"sigilo_dom_esgoto":0,"renda_resp":3238.0,"sigilo_renda_resp":0,"n_resp":34,"sigilo_n_resp":0,"dens":292.3,"sigilo_dens":false,"na_bacia":1,"area_pct_bacia":100.0,"metodo_recorte_bacia":"ponto_representativo_setor_2022; area_pct_geometrica","pop_n_validos":1,"pop_n_total":1,"pop_completude":1.0,"dom_n_validos":1,"dom_n_total":1,"dom_completude":1.0,"dom_ocupados_n_validos":1,"dom_ocupados_n_total":1,"dom_ocupados_completude":1.0,"mulheres_n_validos":1,"mulheres_n_total":1,"mulheres_completude":1.0,"c0_4_n_validos":1,"c0_4_n_total":1,"c0_4_completude":1.0,"c5_9_n_validos":0,"c5_9_n_total":1,"c5_9_completude":0.0,"i60_69_n_validos":1,"i60_69_n_total":1,"i60_69_completude":1.0,"i70m_n_validos":1,"i70m_n_total":1,"i70m_completude":1.0,"indigenas_n_validos":1,"indigenas_n_total":1,"indigenas_completude":1.0,"pretos_pardos_n_validos":0,"pretos_pardos_n_total":1,"pretos_pardos_completude":0.0,"dom_agua_n_validos":1,"dom_agua_n_total":1,"dom_agua_completude":1.0,"dom_esgoto_n_validos":1,"dom_esgoto_n_total":1,"dom_esgoto_completude":1.0,"n_resp_n_validos":1,"n_resp_n_total":1,"n_resp_completude":1.0,"renda_resp_n_validos":1,"renda_resp_n_total":1,"renda_resp_completude":1.0,"dens_n_validos":1,"dens_n_total":1,"dens_completude":1.0,"status_borda_bacia":"total","metodo_area_bacia":"interseção geométrica em EPSG:5880","metodo_na_bacia":"ponto_representativo_setor_2022_within_bacia","municipio":"Casca","cod_mun":"4304903","mun_pct_na_bacia":100.0,"mun_pop_total":9465,"mun_pop_na_bacia":9465.0,"mun_ubs_iede":6,"mun_hospitais_iede":null,"mun_escolas_iede":null,"mun_bombeiros_iede":null,"mun_servicos_cobertura":"cadastro_IEDE_parcial_nao_inventario","mun_icm_faixa":"A","mun_icm_pontos":11,"mun_icm_prioritario":"não","mun_ubs_iede_status":"published","mun_hospitais_iede_status":"unknown","mun_escolas_iede_status":"unknown","mun_bombeiros_iede_status":"unknown"},"geometry":{"type":"Polygon","coordinates":[[[-51.94376409999995,-28.633193799999955],[-51.93483529999998,-28.638535699999977],[-51.93750369999998,-28.641329099999954],[-51.93902109999994,-28.641128099999946],[-51.938557899999985,-28.64054019999998],[-51.93890349999998,-28.639019599999983],[-51.940009499999974,-28.637948199999986],[-51.944686099999956,-28.636278],[-51.94376409999995,-28.633193799999955]]]}},{"type":"Feature","properties":{"setor":"430490310000002","pop":489,"sigilo_pop":false,"dom":218,"sigilo_dom":0,"mulheres":244,"sigilo_mulheres":0,"c0_4":14,"sigilo_c0_4":0,"c5_9":15,"sigilo_c5_9":0,"i60_69":76,"sigilo_i60_69":0,"i70m":90,"sigilo_i70m":0,"indigenas":0,"sigilo_indigenas":0,"pretos_pardos":39,"sigilo_pretos_pardos":0,"dom_ocupados":176,"sigilo_dom_ocupados":0,"dom_agua":149,"sigilo_dom_agua":0,"dom_esgoto":0,"sigilo_dom_esgoto":0,"renda_resp":4559.62,"sigilo_renda_resp":0,"n_resp":176,"sigilo_n_resp":0,"dens":15.5,"sigilo_dens":false,"na_bacia":1,"area_pct_bacia":100.0,"metodo_recorte_bacia":"ponto_representativo_setor_2022; area_pct_geometrica","pop_n_validos":1,"pop_n_total":1,"pop_completude":1.0,"dom_n_validos":1,"dom_n_total":1,"dom_completude":1.0,"dom_ocupados_n_validos":1,"dom_ocupados_n_total":1,"dom_ocupados_completude":1.0,"mulheres_n_validos":1,"mulheres_n_total":1,"mulheres_completude":1.0,"c0_4_n_validos":1,"c0_4_n_total":1,"c0_4_completude":1.0,"c5_9_n_validos":1,"c5_9_n_total":1,"c5_9_completude":1.0,"i60_69_n_validos":1,"i60_69_n_total":1,"i60_69_completude":1.0,"i70m_n_validos":1,"i70m_n_total":1,"i70m_completude":1.0,"indigenas_n_validos":1,"indigenas_n_total":1,"indigenas_completude":1.0,"pretos_pardos_n_validos":1,"pretos_pardos_n_total":1,"pretos_pardos_completude":1.0,"dom_agua_n_validos":1,"dom_agua_n_total":1,"dom_agua_completude":1.0,"dom_esgoto_n_validos":1,"dom_esgoto_n_total":1,"dom_esgoto_completude":1.0,"n_resp_n_validos":1,"n_resp_n_total":1,"n_resp_completude":1.0,"renda_resp_n_validos":1,"renda_resp_n_total":1,"renda_resp_completude":1.0,"dens_n_validos":1,"dens_n_total":1,"dens_completude":1.0,"status_borda_bacia":"total","metodo_area_bacia":"interseção geométrica em EPSG:5880","metodo_na_bacia":"ponto_representativo_setor_2022_within_bacia","municipio":"Casca","cod_mun":"4304903","mun_pct_na_bacia":100.0,"mun_pop_total":9465,"mun_pop_na_bacia":9465.0,"mun_ubs_iede":6,"mun_hospitais_iede":null,"mun_escolas_iede":null,"mun_bombeiros_iede":null,"mun_servicos_cobertura":"cadastro_IEDE_parcial_nao_inventario","mun_icm_faixa":"A","mun_icm_pontos":11,"mun_icm_prioritario":"não","mun_ubs_iede_status":"published","mun_hospitais_iede_status":"unknown","mun_escolas_iede_status":"unknown","mun_bombeiros_iede_status":"unknown"},"geometry":{"type":"Polygon","coordinates":[[[-51.856761099999964,-28.621821299999976],[-51.85743289999994,-28.622963099999932],[-51.85810739999994,-28.62486029999996],[-51.85773289999998,-28.626417],[-51.856434,-28.62833539999997],[-51.85658059999997,-28.62933219999996],[-51.85697259999995,-28.630041799999965],[-51.858777099999934,-28.631582699999957],[-51.85946039999993,-28.63267539999999],[-51.86187389999998,-28.6337425],[-51.86311239999998,-28.635099199999967],[-51.86288779999996,-28.635754],[-51.85836589999997,-28.636565899999933],[-51.85857919999996,-28.63720029999996],[-51.87680649999999,-28.638098],[-51.87784139999996,-28.638454299999985],[-51.877582899999936,-28.644929099999967],[-51.87824679999994,-28.646330299999928],[-51.87971709999994,-28.64649219999995],[-51.87897569999995,-28.648477499999952],[-51.87963249999996,-28.648338199999955],[-51.880220699999946,-28.647492399999965],[-51.880993,-28.64771609999997],[-51.88116339999994,-28.64796289999999],[-51.88085029999996,-28.648309499999982],[-51.88101759999995,-28.648501],[-51.88487079999993,-28.648731699999914],[-51.885726799999986,-28.648389699999942],[-51.88782219999996,-28.646942299999974],[-51.89240149999995,-28.646209099999965],[-51.89352369999995,-28.645133299999923],[-51.89402149999995,-28.644127299999973],[-51.89606679999997,-28.643546599999972],[-51.89901639999994,-28.641522399999918],[-51.900534499999935,-28.641212199999988],[-51.90225219999997,-28.641301],[-51.90363129999997,-28.640623299999962],[-51.90791349999996,-28.639427599999966],[-51.91064349999994,-28.639073799999945],[-51.91289809999995,-28.638189399999934],[-51.91397829999994,-28.639017799999984],[-51.91614759999993,-28.637065099999976],[-51.91989179999996,-28.63704049999996],[-51.92159459999994,-28.63529149999994],[-51.92270289999993,-28.634849399999947],[-51.924793299999976,-28.633098299999972],[-51.92514669999997,-28.63323],[-51.926697,-28.636526899999968],[-51.92754259999998,-28.637321799999935],[-51.92977879999995,-28.638408599999927],[-51.93271119999998,-28.63925519999997],[-51.93483529999998,-28.638535699999977],[-51.94055039999995,-28.63505789999994],[-51.940282799999984,-28.633113099999942],[-51.940383,-28.632189],[-51.93899729999998,-28.63231029999997],[-51.9384745,-28.631913099999966],[-51.93800869999996,-28.628327499999948],[-51.93746849999996,-28.627185099999963],[-51.93818269999997,-28.62655569999997],[-51.940721199999984,-28.625336499999943],[-51.94260439999994,-28.624855099999934],[-51.94319159999998,-28.624195699999973],[-51.94273749999996,-28.62268779999994],[-51.943062899999966,-28.62173259999996],[-51.94181439999994,-28.621088199999985],[-51.94164909999995,-28.620617499999977],[-51.94176049999999,-28.619854699999966],[-51.94248529999994,-28.61859179999992],[-51.943213499999956,-28.618041699999928],[-51.94325749999996,-28.61713429999997],[-51.94390989999994,-28.616596199999933],[-51.943758,-28.613222],[-51.94157,-28.60999979999997],[-51.94053229999997,-28.608944699999935],[-51.940375199999956,-28.607538599999945],[-51.939832499999966,-28.606442799999968],[-51.939394499999935,-28.604155299999956],[-51.93823369999996,-28.602669799999934],[-51.93804069999994,-28.600938599999953],[-51.938788,-28.600536599999938],[-51.940562,-28.60071909999994],[-51.94435079999994,-28.600631799999967],[-51.94546889999999,-28.600777699999988],[-51.947835699999985,-28.60158939999996],[-51.949891399999956,-28.601405199999924],[-51.95121069999993,-28.601975899999953],[-51.95226059999994,-28.599442899999925],[-51.95493659999994,-28.597241899999975],[-51.95503079999998,-28.593548499999933],[-51.9357103,-28.59168509999995],[-51.934367399999985,-28.595839],[-51.93311029999995,-28.59886439999997],[-51.931464299999966,-28.598490399999946],[-51.92888519999997,-28.59864709999994],[-51.92768139999998,-28.599572],[-51.92696239999999,-28.599165299999985],[-51.92592679999996,-28.599628099999947],[-51.925780599999946,-28.599226299999934],[-51.92489469999998,-28.59908569999993],[-51.924711599999966,-28.598477499999944],[-51.92501719999995,-28.59807969999997],[-51.92446229999996,-28.597693099999947],[-51.92515389999995,-28.59642729999996],[-51.92516359999996,-28.595812],[-51.924187899999936,-28.59567],[-51.92387039999994,-28.596007799999942],[-51.92326449999996,-28.59613719999992],[-51.92321179999993,-28.595576499999936],[-51.922202199999965,-28.594032899999945],[-51.92119839999998,-28.59374239999994],[-51.918842899999966,-28.593532099999944],[-51.917889299999956,-28.593665799999943],[-51.916429499999936,-28.594336199999923],[-51.91478559999996,-28.596727399999974],[-51.91340069999996,-28.597476799999978],[-51.91111429999995,-28.599363299999926],[-51.91020319999996,-28.599324899999942],[-51.90874759999997,-28.600537299999917],[-51.907722099999944,-28.600720499999955],[-51.90715389999997,-28.601293199999926],[-51.90570429999997,-28.60117609999997],[-51.90540809999993,-28.60046849999997],[-51.90386169999994,-28.60093819999997],[-51.90307319999994,-28.60084039999998],[-51.901633,-28.600097399999978],[-51.900757099999964,-28.598817],[-51.89967,-28.598676599999976],[-51.899342299999944,-28.599027799999934],[-51.899255799999935,-28.599666199999945],[-51.89961549999998,-28.600575899999964],[-51.899428,-28.601103],[-51.899718,-28.602741099999943],[-51.89818919999994,-28.603832699999945],[-51.89768589999995,-28.603162099999953],[-51.897436599999935,-28.603224],[-51.89550819999993,-28.60549319999996],[-51.894791299999945,-28.607099099999974],[-51.89466919999996,-28.607947399999944],[-51.89344829999994,-28.608433],[-51.89234689999995,-28.608326399999953],[-51.891439,-28.607831199999968],[-51.88984969999996,-28.607563799999976],[-51.88927179999996,-28.60698959999996],[-51.888373,-28.606929499999982],[-51.886919099999936,-28.60793519999993],[-51.88472969999998,-28.608996099999956],[-51.88406569999995,-28.60884589999995],[-51.883504199999955,-28.609384],[-51.88333279999995,-28.610072699999936],[-51.883880199999965,-28.611776799999976],[-51.88448409999995,-28.612253599999985],[-51.884645299999924,-28.612883299999954],[-51.88349909999994,-28.616197099999955],[-51.88315459999995,-28.616352599999967],[-51.882741599999974,-28.61595269999997],[-51.882237799999984,-28.616368],[-51.88115409999995,-28.61597479999995],[-51.879444699999965,-28.616245],[-51.879181699999954,-28.616361799999936],[-51.87882889999998,-28.617503],[-51.877572499999985,-28.618365199999968],[-51.87664519999998,-28.617040899999942],[-51.876243,-28.61706169999995],[-51.87609849999996,-28.617375399999954],[-51.874919,-28.61793869999997],[-51.874216,-28.617889399999967],[-51.8733898,-28.616866599999977],[-51.87295579999994,-28.616706399999934],[-51.87223119999993,-28.616692],[-51.86982709999995,-28.6172481],[-51.868860799999936,-28.618086699999917],[-51.86890219999998,-28.61836739999995],[-51.86980759999995,-28.619172],[-51.869512,-28.620652],[-51.86896669999994,-28.62130179999997],[-51.86776359999993,-28.624961599999942],[-51.86688029999994,-28.62592839999996],[-51.86645679999998,-28.626121],[-51.865341,-28.626034],[-51.864959099999965,-28.625926299999946],[-51.86487649999999,-28.625535099999983],[-51.863878299999946,-28.625622499999963],[-51.86354209999996,-28.625189399999943],[-51.863489299999976,-28.623685399999943],[-51.864256099999984,-28.622871599999932],[-51.86452839999998,-28.622179399999936],[-51.864039599999955,-28.62216719999998],[-51.863562399999985,-28.622708499999927],[-51.862968199999955,-28.622489499999975],[-51.86096629999998,-28.622559199999955],[-51.860322,-28.622335899999932],[-51.86044609999993,-28.62188129999998],[-51.859911,-28.621927099999933],[-51.858833599999976,-28.62146549999994],[-51.857678299999975,-28.621452199999958],[-51.856761099999964,-28.621821299999976]]]}},{"type":"Feature","properties":{"setor":"430490310000003","pop":403,"sigilo_pop":false,"dom":180,"sigilo_dom":0,"mulheres":191,"sigilo_mulheres":0,"c0_4":13,"sigilo_c0_4":0,"c5_9":17,"sigilo_c5_9":0,"i60_69":82,"sigilo_i60_69":0,"i70m":66,"sigilo_i70m":0,"indigenas":0,"sigilo_indigenas":0,"pretos_pardos":25,"sigilo_pretos_pardos":0,"dom_ocupados":135,"sigilo_dom_ocupados":0,"dom_agua":104,"sigilo_dom_agua":0,"dom_esgoto":0,"sigilo_dom_esgoto":0,"renda_resp":6004.65,"sigilo_renda_resp":0,"n_resp":135,"sigilo_n_resp":0,"dens":9.4,"sigilo_dens":false,"na_bacia":1,"area_pct_bacia":100.0,"metodo_recorte_bacia":"ponto_representativo_setor_2022; area_pct_geometrica","pop_n_validos":1,"pop_n_total":1,"pop_completude":1.0,"dom_n_validos":1,"dom_n_total":1,"dom_completude":1.0,"dom_ocupados_n_validos":1,"dom_ocupados_n_total":1,"dom_ocupados_completude":1.0,"mulheres_n_validos":1,"mulheres_n_total":1,"mulheres_completude":1.0,"c0_4_n_validos":1,"c0_4_n_total":1,"c0_4_completude":1.0,"c5_9_n_validos":1,"c5_9_n_total":1,"c5_9_completude":1.0,"i60_69_n_validos":1,"i60_69_n_total":1,"i60_69_completude":1.0,"i70m_n_validos":1,"i70m_n_total":1,"i70m_completude":1.0,"indigenas_n_validos":1,"indigenas_n_total":1,"indigenas_completude":1.0,"pretos_pardos_n_validos":1,"pretos_pardos_n_total":1,"pretos_pardos_completude":1.0,"dom_agua_n_validos":1,"dom_agua_n_total":1,"dom_agua_completude":1.0,"dom_esgoto_n_validos":1,"dom_esgoto_n_total":1,"dom_esgoto_completude":1.0,"n_resp_n_validos":1,"n_resp_n_total":1,"n_resp_completude":1.0,"renda_resp_n_validos":1,"renda_resp_n_total":1,"renda_resp_completude":1.0,"dens_n_validos":1,"dens_n_total":1,"dens_completude":1.0,"status_borda_bacia":"total","metodo_area_bacia":"interseção geométrica em EPSG:5880","metodo_na_bacia":"ponto_representativo_setor_2022_within_bacia","municipio":"Casca","cod_mun":"4304903","mun_pct_na_bacia":100.0,"mun_pop_total":9465,"mun_pop_na_bacia":9465.0,"mun_ubs_iede":6,"mun_hospitais_iede":null,"mun_escolas_iede":null,"mun_bombeiros_iede":null,"mun_servicos_cobertura":"cadastro_IEDE_parcial_nao_inventario","mun_icm_faixa":"A","mun_icm_pontos":11,"mun_icm_prioritario":"não","mun_ubs_iede_status":"published","mun_hospitais_iede_status":"unknown","mun_escolas_iede_status":"unknown","mun_bombeiros_iede_status":"unknown"},"geometry":{"type":"Polygon","coordinates":[[[-51.85836589999997,-28.636565899999933],[-51.85669419999994,-28.637097499999975],[-51.85313849999995,-28.637620599999938],[-51.85254229999998,-28.637871699999955],[-51.852043299999934,-28.638417299999947],[-51.85198819999994,-28.63886989999998],[-51.85324179999998,-28.642288],[-51.85321279999994,-28.642939799999958],[-51.85282009999998,-28.643610799999962],[-51.84958089999998,-28.644454399999965],[-51.84296709999995,-28.646672199999948],[-51.84090839999993,-28.647582599999964],[-51.839979899999946,-28.648542499999962],[-51.838645,-28.6508],[-51.83870459999997,-28.651109],[-51.83985829999995,-28.652168],[-51.84230459999998,-28.652673299999943],[-51.84583909999998,-28.64957449999997],[-51.849316399999964,-28.648923499999967],[-51.85371539999995,-28.654542899999964],[-51.86007019999993,-28.657138199999963],[-51.86047439999999,-28.658090699999942],[-51.85680949999995,-28.661967],[-51.85050049999995,-28.661833699999935],[-51.84815369999996,-28.663472199999937],[-51.994367899999986,-28.67250119999992],[-51.99480139999997,-28.661664],[-51.99273409999995,-28.661535099999973],[-51.992488399999964,-28.65767819999996],[-51.99301279999998,-28.65625449999992],[-51.997248499999955,-28.65295909999997],[-51.99410879999994,-28.64866249999995],[-51.99519339999995,-28.64837729999993],[-51.995532,-28.638322499999955],[-51.995231899999965,-28.638054099999987],[-51.99386349999997,-28.63874049999998],[-51.99140909999994,-28.63953769999995],[-51.98974889999994,-28.640659299999975],[-51.988553399999944,-28.641174299999932],[-51.98655929999995,-28.64175279999996],[-51.981380099999974,-28.641970199999946],[-51.98017389999995,-28.642375299999966],[-51.97933729999994,-28.643428],[-51.97577729999995,-28.64303969999996],[-51.97412209999994,-28.643080699999924],[-51.973815,-28.642421399999925],[-51.97293969999998,-28.642104699999944],[-51.972918,-28.641414099999956],[-51.971906699999984,-28.640998899999943],[-51.97159929999998,-28.641124499999922],[-51.97106789999998,-28.642187699999965],[-51.97023779999995,-28.642629099999965],[-51.964722,-28.64224439999997],[-51.963344699999936,-28.642837],[-51.961830099999986,-28.641873499999974],[-51.9586513,-28.64224959999996],[-51.95725029999994,-28.64286069999996],[-51.95529559999994,-28.64253989999997],[-51.951674299999986,-28.641230599999965],[-51.94869709999995,-28.63978209999993],[-51.946720899999946,-28.637256499999967],[-51.94517649999994,-28.636832599999938],[-51.944543899999985,-28.63580219999995],[-51.944686099999956,-28.636278],[-51.940009499999974,-28.637948199999986],[-51.93890349999998,-28.639019599999983],[-51.938557899999985,-28.64054019999998],[-51.93902109999994,-28.641128099999946],[-51.93750369999998,-28.641329099999954],[-51.93483529999998,-28.638535699999977],[-51.93271119999998,-28.63925519999997],[-51.92977879999995,-28.638408599999927],[-51.92754259999998,-28.637321799999935],[-51.926697,-28.636526899999968],[-51.92514669999997,-28.63323],[-51.924793299999976,-28.633098299999972],[-51.92270289999993,-28.634849399999947],[-51.92159459999994,-28.63529149999994],[-51.91989179999996,-28.63704049999996],[-51.91614759999993,-28.637065099999976],[-51.91397829999994,-28.639017799999984],[-51.91289809999995,-28.638189399999934],[-51.91064349999994,-28.639073799999945],[-51.90791349999996,-28.639427599999966],[-51.90363129999997,-28.640623299999962],[-51.90225219999997,-28.641301],[-51.900534499999935,-28.641212199999988],[-51.89901639999994,-28.641522399999918],[-51.89606679999997,-28.643546599999972],[-51.89402149999995,-28.644127299999973],[-51.89352369999995,-28.645133299999923],[-51.89240149999995,-28.646209099999965],[-51.88782219999996,-28.646942299999974],[-51.885726799999986,-28.648389699999942],[-51.88487079999993,-28.648731699999914],[-51.88101759999995,-28.648501],[-51.88085029999996,-28.648309499999982],[-51.88116339999994,-28.64796289999999],[-51.880993,-28.64771609999997],[-51.880220699999946,-28.647492399999965],[-51.87963249999996,-28.648338199999955],[-51.87897569999995,-28.648477499999952],[-51.87971709999994,-28.64649219999995],[-51.87824679999994,-28.646330299999928],[-51.877582899999936,-28.644929099999967],[-51.877901,-28.639123399999953],[-51.87784139999996,-28.638454299999985],[-51.877359199999944,-28.63820939999994],[-51.85857919999996,-28.63720029999996],[-51.85836589999997,-28.636565899999933]]]}},{"type":"Feature","properties":{"setor":"430490310000004","pop":321,"sigilo_pop":false,"dom":118,"sigilo_dom":0,"mulheres":152,"sigilo_mulheres":0,"c0_4":16,"sigilo_c0_4":0,"c5_9":10,"sigilo_c5_9":0,"i60_69":70,"sigilo_i60_69":0,"i70m":62,"sigilo_i70m":0,"indigenas":0,"sigilo_indigenas":0,"pretos_pardos":null,"sigilo_pretos_pardos":1,"dom_ocupados":101,"sigilo_dom_ocupados":0,"dom_agua":56,"sigilo_dom_agua":0,"dom_esgoto":null,"sigilo_dom_esgoto":1,"renda_resp":10486.62,"sigilo_renda_resp":0,"n_resp":101,"sigilo_n_resp":0,"dens":8.4,"sigilo_dens":false,"na_bacia":1,"area_pct_bacia":100.0,"metodo_recorte_bacia":"ponto_representativo_setor_2022; area_pct_geometrica","pop_n_validos":1,"pop_n_total":1,"pop_completude":1.0,"dom_n_validos":1,"dom_n_total":1,"dom_completude":1.0,"dom_ocupados_n_validos":1,"dom_ocupados_n_total":1,"dom_ocupados_completude":1.0,"mulheres_n_validos":1,"mulheres_n_total":1,"mulheres_completude":1.0,"c0_4_n_validos":1,"c0_4_n_total":1,"c0_4_completude":1.0,"c5_9_n_validos":1,"c5_9_n_total":1,"c5_9_completude":1.0,"i60_69_n_validos":1,"i60_69_n_total":1,"i60_69_completude":1.0,"i70m_n_validos":1,"i70m_n_total":1,"i70m_completude":1.0,"indigenas_n_validos":1,"indigenas_n_total":1,"indigenas_completude":1.0,"pretos_pardos_n_validos":0,"pretos_pardos_n_total":1,"pretos_pardos_completude":0.0,"dom_agua_n_validos":1,"dom_agua_n_total":1,"dom_agua_completude":1.0,"dom_esgoto_n_validos":0,"dom_esgoto_n_total":1,"dom_esgoto_completude":0.0,"n_resp_n_validos":1,"n_resp_n_total":1,"n_resp_completude":1.0,"renda_resp_n_validos":1,"renda_resp_n_total":1,"renda_resp_completude":1.0,"dens_n_validos":1,"dens_n_total":1,"dens_completude":1.0,"status_borda_bacia":"total","metodo_area_bacia":"interseção geométrica em EPSG:5880","metodo_na_bacia":"ponto_representativo_setor_2022_within_bacia","municipio":"Casca","cod_mun":"4304903","mun_pct_na_bacia":100.0,"mun_pop_total":9465,"mun_pop_na_bacia":9465.0,"mun_ubs_iede":6,"mun_hospitais_iede":null,"mun_escolas_iede":null,"mun_bombeiros_iede":null,"mun_servicos_cobertura":"cadastro_IEDE_parcial_nao_inventario","mun_icm_faixa":"A","mun_icm_pontos":11,"mun_icm_prioritario":"não","mun_ubs_iede_status":"published","mun_hospitais_iede_status":"unknown","mun_escolas_iede_status":"unknown","mun_bombeiros_iede_status":"unknown"},"geometry":{"type":"Polygon","coordinates":[[[-51.94055039999995,-28.63505789999994],[-51.94376409999995,-28.633193799999955],[-51.944543899999985,-28.63580219999995],[-51.94517649999994,-28.636832599999938],[-51.946720899999946,-28.637256499999967],[-51.94869709999995,-28.63978209999993],[-51.951674299999986,-28.641230599999965],[-51.95529559999994,-28.64253989999997],[-51.95725029999994,-28.64286069999996],[-51.9586513,-28.64224959999996],[-51.961830099999986,-28.641873499999974],[-51.963344699999936,-28.642837],[-51.964722,-28.64224439999997],[-51.97023779999995,-28.642629099999965],[-51.97106789999998,-28.642187699999965],[-51.97159929999998,-28.641124499999922],[-51.971906699999984,-28.640998899999943],[-51.972918,-28.641414099999956],[-51.97293969999998,-28.642104699999944],[-51.973815,-28.642421399999925],[-51.97412209999994,-28.643080699999924],[-51.97577729999995,-28.64303969999996],[-51.97933729999994,-28.643428],[-51.980085,-28.642448599999966],[-51.98065019999996,-28.642161],[-51.98154209999995,-28.641953],[-51.98655929999995,-28.64175279999996],[-51.98942759999995,-28.640817],[-51.99140909999994,-28.63953769999995],[-51.99386349999997,-28.63874049999998],[-51.995231899999965,-28.638054099999987],[-51.995532,-28.638322499999955],[-51.99646989999997,-28.610489399999942],[-52.09298389999997,-28.615920799999977],[-52.09375289999998,-28.606805899999976],[-51.95503079999998,-28.593548499999933],[-51.95493659999994,-28.597241899999975],[-51.95226059999994,-28.599442899999925],[-51.95121069999993,-28.601975899999953],[-51.949891399999956,-28.601405199999924],[-51.947835699999985,-28.60158939999996],[-51.94546889999999,-28.600777699999988],[-51.94435079999994,-28.600631799999967],[-51.940562,-28.60071909999994],[-51.938788,-28.600536599999938],[-51.93804069999994,-28.600938599999953],[-51.93823369999996,-28.602669799999934],[-51.939394499999935,-28.604155299999956],[-51.939832499999966,-28.606442799999968],[-51.940375199999956,-28.607538599999945],[-51.94053229999997,-28.608944699999935],[-51.94157,-28.60999979999997],[-51.94354569999996,-28.612708],[-51.94388,-28.614080399999985],[-51.94390989999994,-28.616596199999933],[-51.94325749999996,-28.61713429999997],[-51.943213499999956,-28.618041699999928],[-51.94248529999994,-28.61859179999992],[-51.94176049999999,-28.619854699999966],[-51.94164909999995,-28.620617499999977],[-51.94181439999994,-28.621088199999985],[-51.943062899999966,-28.62173259999996],[-51.94273749999996,-28.62268779999994],[-51.943150499999945,-28.624304],[-51.94215779999996,-28.625063],[-51.940721199999984,-28.625336499999943],[-51.93818269999997,-28.62655569999997],[-51.93744929999997,-28.627278799999935],[-51.93800869999996,-28.628327499999948],[-51.9384745,-28.631913099999966],[-51.93899729999998,-28.63231029999997],[-51.940383,-28.632189],[-51.940282799999984,-28.633113099999942],[-51.94055039999995,-28.63505789999994]]]}}]}
