{"type":"FeatureCollection","name":"4304614","crs":{"type":"name","properties":{"name":"urn:ogc:def:crs:OGC:1.3:CRS84"}},"features":[{"type":"Feature","properties":{"setor":"430461405000001","pop":434,"sigilo_pop":false,"dom":206,"sigilo_dom":false,"mulheres":220,"sigilo_mulheres":false,"c0_4":19,"sigilo_c0_4":false,"c5_9":21,"sigilo_c5_9":false,"i60_69":58,"sigilo_i60_69":false,"i70m":68,"sigilo_i70m":false,"indigenas":0,"sigilo_indigenas":false,"pretos_pardos":28,"sigilo_pretos_pardos":false,"dom_ocupados":176,"sigilo_dom_ocupados":false,"dom_agua":169,"sigilo_dom_agua":false,"dom_esgoto":null,"sigilo_dom_esgoto":true,"renda_resp":2421.87,"sigilo_renda_resp":false,"n_resp":176,"sigilo_n_resp":false,"dens":249.6,"sigilo_dens":false,"na_bacia":1,"area_pct_bacia":100.0,"metodo_recorte_bacia":"ponto_representativo_setor_2022; area_pct_geometrica"},"geometry":{"type":"Polygon","coordinates":[[[-52.212628,-29.326413699999932],[-52.21700349999998,-29.330719799999933],[-52.21916759999994,-29.329848599999927],[-52.221191499999975,-29.328184599999926],[-52.22457289999994,-29.327795899999952],[-52.227880899999946,-29.326832399999933],[-52.22947909999994,-29.32610539999996],[-52.23140329999996,-29.32476479999996],[-52.23232349999995,-29.324787],[-52.233515599999976,-29.32714269999998],[-52.2353217,-29.329392399999954],[-52.23712849999998,-29.32810879999993],[-52.238368699999974,-29.32892439999995],[-52.24107909999997,-29.327610299999947],[-52.24086809999994,-29.322800399999952],[-52.24018119999993,-29.320784099999965],[-52.24166839999999,-29.320127399999937],[-52.243586799999946,-29.318253799999965],[-52.24383229999995,-29.3175161],[-52.243714899999986,-29.316827],[-52.24354059999996,-29.316523099999987],[-52.241024,-29.315878799999947],[-52.240797,-29.317546399999966],[-52.238387099999954,-29.320001299999948],[-52.23694429999995,-29.320708],[-52.232071099999985,-29.320724],[-52.227028,-29.32232829999997],[-52.22224129999996,-29.324497699999938],[-52.22051919999995,-29.32394179999994],[-52.21917939999997,-29.32404979999996],[-52.21658919999992,-29.32482349999998],[-52.21378179999993,-29.326314599999936],[-52.212628,-29.326413699999932]]]}},{"type":"Feature","properties":{"setor":"430461405000002","pop":322,"sigilo_pop":false,"dom":157,"sigilo_dom":false,"mulheres":156,"sigilo_mulheres":false,"c0_4":18,"sigilo_c0_4":false,"c5_9":8,"sigilo_c5_9":false,"i60_69":61,"sigilo_i60_69":false,"i70m":50,"sigilo_i70m":false,"indigenas":0,"sigilo_indigenas":false,"pretos_pardos":null,"sigilo_pretos_pardos":true,"dom_ocupados":123,"sigilo_dom_ocupados":false,"dom_agua":52,"sigilo_dom_agua":false,"dom_esgoto":null,"sigilo_dom_esgoto":true,"renda_resp":3439.27,"sigilo_renda_resp":false,"n_resp":123,"sigilo_n_resp":false,"dens":14.2,"sigilo_dens":false,"na_bacia":1,"area_pct_bacia":100.0,"metodo_recorte_bacia":"ponto_representativo_setor_2022; area_pct_geometrica"},"geometry":{"type":"Polygon","coordinates":[[[-52.16332249999994,-29.32929249999995],[-52.16309589999997,-29.33047489999995],[-52.163517199999944,-29.330949299999936],[-52.16349459999998,-29.3314142],[-52.162747199999956,-29.33251669999992],[-52.16194709999997,-29.33269369999994],[-52.161311599999976,-29.33333089999995],[-52.161741,-29.334005099999953],[-52.16134439999996,-29.335486],[-52.162029399999945,-29.336571099999965],[-52.16219049999995,-29.33735869999999],[-52.16143559999995,-29.338746499999957],[-52.16166569999996,-29.339097],[-52.16300739999998,-29.339884599999937],[-52.16448189999995,-29.340185599999987],[-52.165359799999976,-29.34012889999996],[-52.16625529999993,-29.337204699999972],[-52.167470899999955,-29.33535359999996],[-52.17051759999998,-29.333931699999937],[-52.171779299999976,-29.3342],[-52.17344109999994,-29.335139],[-52.174287399999976,-29.337003499999984],[-52.17504139999995,-29.337741299999948],[-52.17624159999997,-29.33807659999996],[-52.178165,-29.33780829999996],[-52.178642,-29.337084],[-52.178180399999974,-29.334428],[-52.17868819999996,-29.33377069999995],[-52.181719499999986,-29.332778],[-52.185751,-29.333153599999957],[-52.18712039999997,-29.33276459999995],[-52.18784359999996,-29.332],[-52.188259099999975,-29.330135399999953],[-52.18898229999997,-29.329008499999937],[-52.190244099999965,-29.327962099999983],[-52.19152119999996,-29.327385299999953],[-52.19407549999994,-29.32680839999994],[-52.19486019999994,-29.326996199999943],[-52.195506499999965,-29.32747919999997],[-52.19682979999993,-29.329558499999948],[-52.197999299999935,-29.330189],[-52.199266,-29.32986669999997],[-52.200322699999965,-29.327814599999957],[-52.20263079999995,-29.32593639999994],[-52.2032617,-29.32623159999997],[-52.20400029999996,-29.328082899999973],[-52.20404649999995,-29.328753599999963],[-52.204585,-29.32925],[-52.20650839999997,-29.328793899999937],[-52.20786249999998,-29.328002399999956],[-52.20886269999995,-29.327720699999926],[-52.21215559999997,-29.32814989999996],[-52.214346199999966,-29.32806809999995],[-52.212628,-29.326413699999932],[-52.21378179999993,-29.326314599999936],[-52.21658919999992,-29.32482349999998],[-52.21917939999997,-29.32404979999996],[-52.22051919999995,-29.32394179999994],[-52.22224129999996,-29.324497699999938],[-52.227028,-29.32232829999997],[-52.232071099999985,-29.320724],[-52.23694429999995,-29.320708],[-52.238387099999954,-29.320001299999948],[-52.240797,-29.317546399999966],[-52.241024,-29.315878799999947],[-52.24354059999996,-29.316523099999987],[-52.242776299999946,-29.315203599999947],[-52.242565899999924,-29.313485699999937],[-52.24121329999996,-29.312453099999967],[-52.239869,-29.3108],[-52.23861519999997,-29.31034269999998],[-52.23751749999997,-29.309632699999938],[-52.235901,-29.307849699999963],[-52.23423589999994,-29.306618199999946],[-52.23320589999997,-29.30532329999995],[-52.232485299999944,-29.303720499999944],[-52.230501,-29.30249989999993],[-52.23056739999998,-29.301757],[-52.22962,-29.30178969999997],[-52.228809299999966,-29.30227689999997],[-52.22736849999995,-29.302196],[-52.22694439999999,-29.30257209999996],[-52.22613669999998,-29.302719499999967],[-52.22507619999993,-29.302420699999956],[-52.22319429999993,-29.302430399999935],[-52.22063259999993,-29.303482699999954],[-52.219572099999944,-29.30320749999993],[-52.21866469999998,-29.302519299999968],[-52.218205499999954,-29.30243849999993],[-52.216769,-29.303250899999966],[-52.21682619999996,-29.304339499999962],[-52.21634829999994,-29.30449689999995],[-52.21396839999994,-29.302937099999955],[-52.212032599999986,-29.303282],[-52.211227399999984,-29.302879499999964],[-52.210352599999965,-29.303058199999953],[-52.20934119999998,-29.30240969999994],[-52.208653199999965,-29.301121799999972],[-52.20732989999994,-29.301077899999942],[-52.20662139999996,-29.300544399999975],[-52.20593709999998,-29.30085909999997],[-52.20523449999996,-29.30071949999997],[-52.20493259999995,-29.300398],[-52.20400889999996,-29.30030279999994],[-52.20421819999996,-29.299423699999977],[-52.203994799999975,-29.299198499999918],[-52.203119099999974,-29.299227099999936],[-52.20255759999998,-29.29971059999997],[-52.201509,-29.299572499999954],[-52.199018799999976,-29.298554899999935],[-52.19728739999994,-29.296323399999938],[-52.195815,-29.295158099999977],[-52.19589339999993,-29.293686399999963],[-52.195353,-29.29241409999996],[-52.19501809999997,-29.29212369999994],[-52.194868,-29.291357799999957],[-52.19423789999996,-29.290755499999925],[-52.1914154,-29.28871839999994],[-52.19072649999998,-29.288744599999966],[-52.18956819999993,-29.289348199999946],[-52.188698099999954,-29.289541099999948],[-52.18874939999994,-29.288302899999962],[-52.18782479999992,-29.28654849999998],[-52.18614059999993,-29.286805399999945],[-52.18588379999995,-29.28777259999998],[-52.185362,-29.288230099999968],[-52.18406449999998,-29.288765799999965],[-52.182200499999965,-29.290346499999938],[-52.18037109999995,-29.293890299999934],[-52.17977549999995,-29.294567699999956],[-52.179810799999984,-29.29570959999995],[-52.18041939999995,-29.29714459999997],[-52.18080309999994,-29.297437299999952],[-52.181208,-29.298658799999934],[-52.18166549999996,-29.298967799999954],[-52.1817731,-29.29974469999995],[-52.18124059999997,-29.300709399999956],[-52.17850639999995,-29.300707199999984],[-52.17766239999997,-29.301295399999955],[-52.17431349999998,-29.301637099999933],[-52.17301639999994,-29.302026599999966],[-52.17208769999996,-29.301806599999964],[-52.17151379999996,-29.302202399999942],[-52.17224069999998,-29.30407319999994],[-52.171235399999944,-29.305567],[-52.170695199999955,-29.30712279999994],[-52.16799779999996,-29.309403],[-52.16772039999995,-29.310088],[-52.16675009999994,-29.311152799999952],[-52.165615299999956,-29.311950199999956],[-52.165134199999954,-29.313575699999937],[-52.16613129999996,-29.31390749999997],[-52.16550689999997,-29.31467579999997],[-52.16547429999997,-29.315420399999923],[-52.16579949999994,-29.315669],[-52.165865499999946,-29.31628679999995],[-52.16520479999997,-29.31737809999994],[-52.166921799999955,-29.317358199999937],[-52.16732769999993,-29.31800329999993],[-52.16690529999994,-29.318950499999968],[-52.16567769999995,-29.319650499999973],[-52.16559159999997,-29.31998849999997],[-52.1666211,-29.321810599999925],[-52.166824899999945,-29.32261419999998],[-52.16652309999994,-29.325832799999954],[-52.167074,-29.326345599999957],[-52.16695619999996,-29.327050699999976],[-52.16512159999996,-29.32732229999992],[-52.16487349999994,-29.327746299999937],[-52.163786199999954,-29.32848],[-52.16332249999994,-29.32929249999995]]]}},{"type":"Feature","properties":{"setor":"430461405000003","pop":327,"sigilo_pop":false,"dom":177,"sigilo_dom":false,"mulheres":150,"sigilo_mulheres":false,"c0_4":9,"sigilo_c0_4":false,"c5_9":9,"sigilo_c5_9":false,"i60_69":49,"sigilo_i60_69":false,"i70m":43,"sigilo_i70m":false,"indigenas":0,"sigilo_indigenas":false,"pretos_pardos":17,"sigilo_pretos_pardos":false,"dom_ocupados":131,"sigilo_dom_ocupados":false,"dom_agua":95,"sigilo_dom_agua":false,"dom_esgoto":0,"sigilo_dom_esgoto":false,"renda_resp":2041.64,"sigilo_renda_resp":false,"n_resp":131,"sigilo_n_resp":false,"dens":17.3,"sigilo_dens":false,"na_bacia":1,"area_pct_bacia":100.0,"metodo_recorte_bacia":"ponto_representativo_setor_2022; area_pct_geometrica"},"geometry":{"type":"Polygon","coordinates":[[[-52.165174,-29.34118919999997],[-52.16523059999997,-29.34390449999995],[-52.16368709999995,-29.345182499999964],[-52.16148689999995,-29.346320699999982],[-52.15888129999996,-29.346897699999936],[-52.15955309999998,-29.347979199999937],[-52.159997,-29.348088699999945],[-52.16032569999994,-29.347775699999946],[-52.16104259999997,-29.34832169999993],[-52.16160859999997,-29.348321699999936],[-52.16174709999995,-29.348018599999918],[-52.163115399999974,-29.348574],[-52.163482,-29.349516299999955],[-52.16476179999996,-29.34969689999997],[-52.164882099999936,-29.35100139999998],[-52.166103,-29.35068009999997],[-52.1657747,-29.351322199999963],[-52.16609419999997,-29.35191789999994],[-52.170407,-29.353829599999987],[-52.170939,-29.354499599999926],[-52.171847799999966,-29.355091599999973],[-52.17361039999998,-29.355211699999984],[-52.17466049999996,-29.355868699999974],[-52.17603349999996,-29.355891],[-52.17636369999997,-29.354705699999958],[-52.17755989999995,-29.354898699999975],[-52.17874939999995,-29.354620799999964],[-52.17998309999995,-29.356328899999934],[-52.180469,-29.356252799999933],[-52.180936799999984,-29.35556069999996],[-52.18132509999998,-29.355494599999922],[-52.183894099999975,-29.356275799999928],[-52.184972399999936,-29.35716839999997],[-52.187604199999946,-29.35734849999994],[-52.188321099999946,-29.35882649999997],[-52.18894469999998,-29.35914379999997],[-52.19088589999995,-29.359465499999935],[-52.19157769999998,-29.36048779999993],[-52.19208039999995,-29.360808799999973],[-52.19445689999998,-29.360159299999967],[-52.196214399999974,-29.36116609999993],[-52.19678449999998,-29.359452799999914],[-52.19720969999997,-29.35894809999996],[-52.19851169999998,-29.35906469999998],[-52.19924329999998,-29.358425099999977],[-52.19974479999996,-29.358277599999962],[-52.2002452,-29.358740199999943],[-52.200940199999934,-29.358780699999958],[-52.20292059999997,-29.357922099999936],[-52.20453349999997,-29.357904699999946],[-52.20589289999998,-29.35706919999996],[-52.20659389999998,-29.35728869999998],[-52.207018699999935,-29.358107599999983],[-52.20843709999997,-29.35737839999995],[-52.209931,-29.357291],[-52.211979,-29.356822599999926],[-52.212985,-29.35615819999999],[-52.21390659999998,-29.35653819999993],[-52.21383579999997,-29.357417299999945],[-52.21485359999997,-29.357546],[-52.215968199999956,-29.356927599999942],[-52.21715769999998,-29.35688039999997],[-52.21807809999996,-29.357125799999956],[-52.21931249999995,-29.356566499999914],[-52.22007949999994,-29.356717499999938],[-52.220496099999934,-29.35609679999994],[-52.22120759999996,-29.35580419999997],[-52.222524599999986,-29.356323399999944],[-52.22390759999996,-29.35621959999997],[-52.22505959999995,-29.356523199999955],[-52.226709,-29.356065],[-52.22715389999996,-29.355563399999948],[-52.228334,-29.355056],[-52.22959659999998,-29.355112699999943],[-52.23146109999993,-29.354340899999947],[-52.23246039999998,-29.354378399999973],[-52.23371269999996,-29.353904299999954],[-52.23553469999996,-29.354461299999976],[-52.237951399999986,-29.354234699999953],[-52.23895559999995,-29.35388779999994],[-52.24078829999996,-29.354746899999963],[-52.243002,-29.354553299999964],[-52.24746619999996,-29.355639],[-52.247427899999934,-29.352513],[-52.247003599999964,-29.351407],[-52.24730619999997,-29.350553],[-52.24639849999994,-29.349146299999976],[-52.24587979999995,-29.34919659999997],[-52.244366799999966,-29.35087949999996],[-52.244021,-29.350816699999935],[-52.24209029999997,-29.34932219999996],[-52.24136979999998,-29.34928449999995],[-52.23864659999998,-29.351155799999958],[-52.23709039999994,-29.351607899999973],[-52.236319599999945,-29.35134419999997],[-52.234410399999945,-29.349611],[-52.23190329999994,-29.349573299999985],[-52.231528699999956,-29.34722469999997],[-52.231024399999974,-29.346741199999926],[-52.23046239999997,-29.34669089999994],[-52.229475399999956,-29.34710539999997],[-52.228474,-29.346885599999954],[-52.22825869999997,-29.34715829999994],[-52.22743129999998,-29.34599119999994],[-52.22696829999995,-29.34331859999998],[-52.227768,-29.341930699999985],[-52.22651449999995,-29.340367],[-52.22724929999998,-29.339136],[-52.228358799999974,-29.338897399999944],[-52.229036,-29.3384326],[-52.22918729999998,-29.337553399999933],[-52.22881989999996,-29.336134],[-52.22790489999994,-29.335148],[-52.22777519999994,-29.33387929999997],[-52.22725849999995,-29.332603899999988],[-52.227234899999985,-29.331517799999965],[-52.22822189999994,-29.330092],[-52.229591899999946,-29.329224099999973],[-52.23052009999998,-29.328873499999922],[-52.23102439999997,-29.329112199999933],[-52.23185289999998,-29.328754199999935],[-52.23283269999997,-29.328873499999922],[-52.231334199999935,-29.32813239999996],[-52.23098839999995,-29.32719019999996],[-52.22929529999994,-29.327793199999967],[-52.22746539999998,-29.32788739999996],[-52.229656,-29.325983199999946],[-52.22847049999996,-29.326642699999965],[-52.22491789999998,-29.327717199999945],[-52.221191499999975,-29.328184599999926],[-52.21916759999994,-29.329848599999927],[-52.21700349999998,-29.330719799999933],[-52.214346199999966,-29.32806809999995],[-52.21215559999997,-29.32814989999996],[-52.20886269999995,-29.327720699999926],[-52.20786249999998,-29.328002399999956],[-52.20650839999997,-29.328793899999937],[-52.204585,-29.32925],[-52.20415419999995,-29.32899509999992],[-52.2032617,-29.32623159999997],[-52.20289239999994,-29.32593639999993],[-52.2022,-29.326110799999984],[-52.200322699999965,-29.327814599999957],[-52.199266,-29.32986669999997],[-52.19847629999998,-29.330148799999957],[-52.19724529999996,-29.32993409999996],[-52.195506499999965,-29.32747919999997],[-52.19486019999994,-29.326996199999943],[-52.19407549999994,-29.32680839999994],[-52.19242909999996,-29.32713039999993],[-52.190244099999965,-29.327962099999983],[-52.18898229999997,-29.329008499999937],[-52.188259099999975,-29.330135399999953],[-52.18784359999996,-29.332],[-52.18712039999997,-29.33276459999995],[-52.185751,-29.333153599999957],[-52.181719499999986,-29.332778],[-52.17868819999996,-29.33377069999995],[-52.178180399999974,-29.334428],[-52.17814969999995,-29.334991399999982],[-52.178642,-29.336735199999975],[-52.17858049999995,-29.337365699999967],[-52.177626499999974,-29.338009499999927],[-52.17624159999997,-29.33807659999996],[-52.17504139999995,-29.337741299999948],[-52.174287399999976,-29.337003499999984],[-52.17344109999994,-29.335139],[-52.17127149999993,-29.333998699999924],[-52.17051759999998,-29.333931699999937],[-52.167886299999964,-29.33507189999995],[-52.16705539999998,-29.335876699999957],[-52.165962899999954,-29.337929099999947],[-52.165174,-29.34118919999997]]]}},{"type":"Feature","properties":{"setor":"430461405000004","pop":227,"sigilo_pop":false,"dom":102,"sigilo_dom":false,"mulheres":102,"sigilo_mulheres":false,"c0_4":11,"sigilo_c0_4":false,"c5_9":9,"sigilo_c5_9":false,"i60_69":43,"sigilo_i60_69":false,"i70m":33,"sigilo_i70m":false,"indigenas":0,"sigilo_indigenas":false,"pretos_pardos":null,"sigilo_pretos_pardos":true,"dom_ocupados":83,"sigilo_dom_ocupados":false,"dom_agua":50,"sigilo_dom_agua":false,"dom_esgoto":0,"sigilo_dom_esgoto":false,"renda_resp":2506.1,"sigilo_renda_resp":false,"n_resp":83,"sigilo_n_resp":false,"dens":12.7,"sigilo_dens":false,"na_bacia":1,"area_pct_bacia":100.0,"metodo_recorte_bacia":"ponto_representativo_setor_2022; area_pct_geometrica"},"geometry":{"type":"Polygon","coordinates":[[[-52.23140329999996,-29.32476479999996],[-52.22746539999998,-29.32788739999996],[-52.22929529999994,-29.327793199999967],[-52.23098839999995,-29.32719019999996],[-52.231334199999935,-29.32813239999996],[-52.23282549999993,-29.328923799999988],[-52.23185289999998,-29.328754199999935],[-52.23102439999997,-29.329112199999933],[-52.23052009999998,-29.328873499999922],[-52.229591899999946,-29.329224099999973],[-52.22822189999994,-29.330092],[-52.22731409999995,-29.331354499999968],[-52.22722049999993,-29.332371899999934],[-52.22781119999996,-29.334023799999958],[-52.22784729999995,-29.334965799999974],[-52.22881989999996,-29.336134],[-52.22918729999998,-29.337553399999933],[-52.229036,-29.3384326],[-52.228358799999974,-29.338897399999944],[-52.22724929999998,-29.339136],[-52.22651449999995,-29.34048],[-52.227768,-29.341930699999985],[-52.22696829999995,-29.34331859999998],[-52.22743129999998,-29.34599119999994],[-52.22825869999997,-29.34715829999994],[-52.228474,-29.346885599999954],[-52.229475399999956,-29.34710539999997],[-52.23046239999997,-29.34669089999994],[-52.23119729999996,-29.346860499999934],[-52.23158629999995,-29.34742569999998],[-52.231744799999944,-29.34937239999994],[-52.23211939999993,-29.34968639999994],[-52.234410399999945,-29.349611],[-52.236319599999945,-29.35134419999997],[-52.23709039999994,-29.351607899999973],[-52.23864659999998,-29.351155799999958],[-52.24136979999998,-29.34928449999995],[-52.24209029999997,-29.34932219999996],[-52.244021,-29.350816699999935],[-52.244366799999966,-29.35087949999996],[-52.24587979999995,-29.34919659999997],[-52.24639849999994,-29.349146299999976],[-52.24730619999997,-29.350553],[-52.247003599999964,-29.351407],[-52.247427899999934,-29.352513],[-52.24746619999996,-29.355639],[-52.30041989999995,-29.3554195],[-52.29948989999997,-29.353422],[-52.29817929999996,-29.351405299999957],[-52.29753439999996,-29.35119069999997],[-52.29686239999995,-29.350485399999975],[-52.296768799999946,-29.350051],[-52.296401,-29.350456499999947],[-52.296593299999984,-29.350912399999977],[-52.29606719999998,-29.35060639999995],[-52.29552839999997,-29.349846],[-52.29564449999998,-29.34920559999994],[-52.29642469999993,-29.348631399999935],[-52.296058899999935,-29.34848889999995],[-52.294722,-29.348836],[-52.29192759999996,-29.34627569999997],[-52.29126889999998,-29.343962699999963],[-52.29137629999997,-29.342826299999953],[-52.29019639999995,-29.34088259999994],[-52.29014749999993,-29.34042529999994],[-52.291947499999935,-29.340206799999976],[-52.294311499999935,-29.34064529999995],[-52.29622209999997,-29.33942229999996],[-52.297814099999975,-29.339077],[-52.29950179999997,-29.339091],[-52.30150779999996,-29.338545699999933],[-52.301946,-29.338227299999982],[-52.30261929999995,-29.338328099999952],[-52.3028255,-29.328686499999954],[-52.300966,-29.32831569999996],[-52.300274499999944,-29.328970699999953],[-52.29978939999996,-29.32904619999994],[-52.29913049999994,-29.32784679999997],[-52.297841399999974,-29.327824399999933],[-52.29611689999996,-29.328859],[-52.29548939999995,-29.328717599999948],[-52.294985699999984,-29.329019],[-52.29376909999997,-29.329056299999934],[-52.29303489999995,-29.32961079999995],[-52.292804399999966,-29.330176399999964],[-52.29233489999996,-29.330336399999965],[-52.29161349999998,-29.33015779999994],[-52.28910779999996,-29.33036989999994],[-52.28856989999997,-29.32987129999998],[-52.28764789999996,-29.330384799999926],[-52.28729789999995,-29.330883499999977],[-52.28490749999997,-29.33123329999994],[-52.28425859999999,-29.331717099999942],[-52.281518199999944,-29.33177659999995],[-52.27999429999994,-29.33220459999995],[-52.278257,-29.33231989999996],[-52.277548399999944,-29.332610199999973],[-52.27736049999998,-29.332952599999942],[-52.278393499999936,-29.333797299999965],[-52.27823229999996,-29.33390539999993],[-52.27695529999993,-29.333650699999964],[-52.275986,-29.332520899999967],[-52.276037299999984,-29.332104099999984],[-52.277002,-29.33183619999994],[-52.27720689999995,-29.33120349999995],[-52.276541,-29.33162779999998],[-52.2758836,-29.33151609999993],[-52.27348459999996,-29.33264739999993],[-52.27257159999994,-29.332706199999954],[-52.26958739999998,-29.33190689999998],[-52.26845619999995,-29.330987699999984],[-52.26701339999994,-29.33069],[-52.266398699999975,-29.330191299999974],[-52.265545,-29.330474099999954],[-52.26262529999997,-29.330563399999974],[-52.26197639999998,-29.33014659999998],[-52.26104589999995,-29.330786699999972],[-52.25970979999994,-29.32996429999997],[-52.25833959999994,-29.329506599999945],[-52.25757969999996,-29.330057299999954],[-52.255735699999946,-29.330191299999967],[-52.255103899999945,-29.330704899999933],[-52.25425879999995,-29.330206199999953],[-52.25384039999995,-29.330876],[-52.253405,-29.33101],[-52.25246589999995,-29.3309877],[-52.24947789999994,-29.329700099999958],[-52.248479,-29.329744699999935],[-52.24602889999994,-29.33054859999993],[-52.24416769999993,-29.331534699999956],[-52.241307799999966,-29.330623],[-52.241423,-29.32951769999994],[-52.24107909999997,-29.327610299999947],[-52.238368699999974,-29.32892439999995],[-52.23712849999998,-29.32810879999993],[-52.2353217,-29.329392399999954],[-52.233515599999976,-29.32714269999998],[-52.23232349999995,-29.324787],[-52.23140329999996,-29.32476479999996]]]}},{"type":"Feature","properties":{"setor":"430461405000005","pop":346,"sigilo_pop":false,"dom":162,"sigilo_dom":false,"mulheres":171,"sigilo_mulheres":false,"c0_4":12,"sigilo_c0_4":false,"c5_9":16,"sigilo_c5_9":false,"i60_69":56,"sigilo_i60_69":false,"i70m":38,"sigilo_i70m":false,"indigenas":0,"sigilo_indigenas":false,"pretos_pardos":18,"sigilo_pretos_pardos":false,"dom_ocupados":135,"sigilo_dom_ocupados":false,"dom_agua":83,"sigilo_dom_agua":false,"dom_esgoto":0,"sigilo_dom_esgoto":false,"renda_resp":1909.01,"sigilo_renda_resp":false,"n_resp":135,"sigilo_n_resp":false,"dens":15.9,"sigilo_dens":false,"na_bacia":1,"area_pct_bacia":100.0,"metodo_recorte_bacia":"ponto_representativo_setor_2022; area_pct_geometrica"},"geometry":{"type":"Polygon","coordinates":[[[-52.27681379999996,-29.290578899999954],[-52.276953,-29.291125],[-52.278775499999945,-29.293618699999975],[-52.278663499999944,-29.294057599999977],[-52.278042,-29.29437829999995],[-52.27654979999994,-29.294312799999936],[-52.27514709999998,-29.294988199999963],[-52.27458969999998,-29.296114699999972],[-52.274671,-29.297110599999936],[-52.27419569999996,-29.298044],[-52.27322639999994,-29.298386099999956],[-52.271619699999974,-29.297673499999984],[-52.27042639999996,-29.29757269999993],[-52.26896009999996,-29.29805879999998],[-52.26565729999999,-29.29989289999997],[-52.26267849999994,-29.301040099999966],[-52.261788199999955,-29.301738],[-52.261619,-29.302310799999923],[-52.26188479999996,-29.303071099999954],[-52.262576,-29.30374839999996],[-52.26319369999993,-29.304895399999953],[-52.26345189999996,-29.306660699999956],[-52.263086499999986,-29.30752229999995],[-52.26078369999994,-29.307480599999963],[-52.259561,-29.30666539999991],[-52.25720239999998,-29.30582069999996],[-52.25630209999998,-29.306752599999985],[-52.25633359999995,-29.307653899999934],[-52.255843099999936,-29.309028699999942],[-52.2549092,-29.31005419999997],[-52.25378219999993,-29.30997019999995],[-52.25313109999996,-29.309129199999965],[-52.25240949999995,-29.30887809999995],[-52.250841099999946,-29.308964399999976],[-52.25044639999993,-29.30917069999998],[-52.24929289999994,-29.310461],[-52.24913139999996,-29.311263599999958],[-52.249399399999966,-29.312143799999948],[-52.24889539999999,-29.313455799999918],[-52.24842829999995,-29.31385659999995],[-52.24773179999994,-29.31402239999993],[-52.245683,-29.31391619999993],[-52.24357649999997,-29.313187899999946],[-52.24286619999998,-29.313565399999955],[-52.24256079999998,-29.31421069999993],[-52.242776299999946,-29.315203599999947],[-52.243838,-29.317162399999972],[-52.243586799999946,-29.318253799999965],[-52.24166839999999,-29.320127399999937],[-52.24018119999993,-29.320784099999965],[-52.24086809999994,-29.322800399999952],[-52.24111139999997,-29.32837889999997],[-52.241423,-29.32951769999994],[-52.241307799999966,-29.330623],[-52.24427449999997,-29.331542199999937],[-52.24602889999994,-29.33054859999993],[-52.248154599999964,-29.32982659999993],[-52.249230299999965,-29.32968519999998],[-52.25016939999995,-29.329878699999924],[-52.252670799999976,-29.33101],[-52.25384039999995,-29.330876],[-52.25425879999995,-29.330206199999953],[-52.255103899999945,-29.330704899999933],[-52.255735699999946,-29.330191299999967],[-52.25757969999996,-29.330057299999954],[-52.25833959999994,-29.329506599999945],[-52.25970979999994,-29.32996429999997],[-52.26104589999995,-29.330786699999972],[-52.26197639999998,-29.33014659999998],[-52.26262529999997,-29.330563399999974],[-52.265545,-29.330474099999954],[-52.266313299999986,-29.330176399999978],[-52.26701339999994,-29.33069],[-52.26845619999995,-29.330987699999984],[-52.26958739999998,-29.33190689999998],[-52.27257159999994,-29.332706199999954],[-52.27348459999996,-29.33264739999993],[-52.2758836,-29.33151609999993],[-52.276541,-29.33162779999998],[-52.27720689999995,-29.33120349999995],[-52.277002,-29.33183619999994],[-52.276037299999984,-29.332104099999984],[-52.275986,-29.332520899999967],[-52.27695529999993,-29.333650699999964],[-52.27823229999996,-29.33390539999993],[-52.278393499999936,-29.333797299999965],[-52.27736049999998,-29.332952599999942],[-52.277548399999944,-29.332610199999973],[-52.278257,-29.33231989999996],[-52.27999429999994,-29.33220459999995],[-52.281518199999944,-29.33177659999995],[-52.28425859999999,-29.331717099999942],[-52.28490749999997,-29.33123329999994],[-52.28729789999995,-29.330883499999977],[-52.28764789999996,-29.330384799999926],[-52.28856989999997,-29.32987129999998],[-52.28910779999996,-29.33036989999994],[-52.29161349999998,-29.33015779999994],[-52.29233489999996,-29.330336399999965],[-52.292804399999966,-29.330176399999964],[-52.29303489999995,-29.32961079999995],[-52.29376909999997,-29.329056299999934],[-52.294985699999984,-29.329019],[-52.29548939999995,-29.328717599999948],[-52.29611689999996,-29.328859],[-52.297841399999974,-29.327824399999933],[-52.29913049999994,-29.32784679999997],[-52.29978939999996,-29.32904619999994],[-52.30016779999993,-29.329033899999956],[-52.30115379999995,-29.328308199999984],[-52.30171729999995,-29.32859849999994],[-52.30325309999994,-29.328672199999968],[-52.30502769999998,-29.329273299999958],[-52.30610489999999,-29.328871199999984],[-52.30726029999994,-29.32885359999994],[-52.30926769999997,-29.329801899999946],[-52.310634,-29.329655],[-52.310468399999934,-29.329356499999957],[-52.31056229999996,-29.327687099999945],[-52.310069399999975,-29.32657879999994],[-52.30876259999996,-29.32526139999993],[-52.30808739999997,-29.324905199999925],[-52.305789199999936,-29.324763899999937],[-52.30517579999997,-29.324964299999973],[-52.30463409999993,-29.325582199999925],[-52.30257679999995,-29.32648309999996],[-52.30150249999997,-29.32667839999993],[-52.30021629999994,-29.326715499999985],[-52.29874749999993,-29.32577409999993],[-52.298979,-29.324860699999924],[-52.300060199999955,-29.324051099999956],[-52.300289,-29.323168],[-52.30118249999998,-29.32216439999995],[-52.302538,-29.321411399999935],[-52.30442969999996,-29.32117],[-52.30546749999997,-29.320203699999976],[-52.30627,-29.317062399999934],[-52.30578919999993,-29.316272899999937],[-52.30551909999998,-29.313933399999947],[-52.30322649999994,-29.312973],[-52.30266039999997,-29.311176199999966],[-52.30254869999993,-29.30980119999999],[-52.30322509999996,-29.30666929999996],[-52.30417369999998,-29.30546449999997],[-52.30439759999995,-29.303763299999957],[-52.30600139999996,-29.301391699999954],[-52.307514899999944,-29.30070349999994],[-52.307479,-29.30007969999996],[-52.30674259999995,-29.298949699999973],[-52.30723349999994,-29.29853339999995],[-52.30801329999997,-29.298435899999955],[-52.30816549999997,-29.29813409999997],[-52.307936299999945,-29.297394199999935],[-52.30554019999994,-29.295149799999926],[-52.30532229999995,-29.29385559999997],[-52.30453159999996,-29.293423299999965],[-52.30377739999994,-29.293578799999967],[-52.30321209999994,-29.29272889999992],[-52.30188669999996,-29.292968899999952],[-52.30137929999996,-29.292836099999924],[-52.301121499999965,-29.292225299999977],[-52.300125299999934,-29.292405499999973],[-52.29878649999995,-29.291768899999965],[-52.298177599999974,-29.291060499999947],[-52.296671,-29.29084239999996],[-52.29619119999995,-29.290462599999966],[-52.295456899999984,-29.289005499999963],[-52.29444059999998,-29.28959959999997],[-52.29306989999998,-29.28976219999998],[-52.29183639999997,-29.289313199999974],[-52.290499799999964,-29.288346399999977],[-52.28954659999994,-29.288166799999956],[-52.286258299999986,-29.289936499999964],[-52.28556569999995,-29.290966299999976],[-52.284769599999954,-29.291151199999945],[-52.284054899999944,-29.29078689999993],[-52.28412939999998,-29.289503499999963],[-52.28352549999994,-29.28835549999996],[-52.282805899999964,-29.287849299999944],[-52.282370399999934,-29.28791509999995],[-52.28177719999997,-29.288992799999946],[-52.280510299999946,-29.290033699999984],[-52.27898969999995,-29.29029829999996],[-52.278021699999954,-29.28971649999994],[-52.27681379999996,-29.290578899999954]]]}}]}