{"type":"FeatureCollection","name":"4304952","crs":{"type":"name","properties":{"name":"urn:ogc:def:crs:OGC:1.3:CRS84"}},"features":[{"type":"Feature","properties":{"setor":"430495205000002","pop":595,"sigilo_pop":false,"dom":247,"sigilo_dom":false,"mulheres":307,"sigilo_mulheres":false,"c0_4":41,"sigilo_c0_4":false,"c5_9":29,"sigilo_c5_9":false,"i60_69":57,"sigilo_i60_69":false,"i70m":71,"sigilo_i70m":false,"indigenas":0,"sigilo_indigenas":false,"pretos_pardos":118,"sigilo_pretos_pardos":false,"dom_ocupados":214,"sigilo_dom_ocupados":false,"dom_agua":214,"sigilo_dom_agua":false,"dom_esgoto":154,"sigilo_dom_esgoto":false,"renda_resp":2305.91,"sigilo_renda_resp":false,"n_resp":214,"sigilo_n_resp":false,"dens":1333.7,"sigilo_dens":false,"na_bacia":0,"area_pct_bacia":0.0,"metodo_recorte_bacia":"ponto_representativo_setor_2022; area_pct_geometrica","status_borda_bacia":"total","metodo_area_bacia":"interseção geométrica em EPSG:5880","metodo_na_bacia":"ponto_representativo_setor_2022_within_bacia","pop_n_validos":1,"pop_n_total":1,"pop_completude":1.0,"dom_n_validos":1,"dom_n_total":1,"dom_completude":1.0,"dom_ocupados_n_validos":1,"dom_ocupados_n_total":1,"dom_ocupados_completude":1.0,"mulheres_n_validos":1,"mulheres_n_total":1,"mulheres_completude":1.0,"c0_4_n_validos":1,"c0_4_n_total":1,"c0_4_completude":1.0,"c5_9_n_validos":1,"c5_9_n_total":1,"c5_9_completude":1.0,"i60_69_n_validos":1,"i60_69_n_total":1,"i60_69_completude":1.0,"i70m_n_validos":1,"i70m_n_total":1,"i70m_completude":1.0,"indigenas_n_validos":1,"indigenas_n_total":1,"indigenas_completude":1.0,"pretos_pardos_n_validos":1,"pretos_pardos_n_total":1,"pretos_pardos_completude":1.0,"dom_agua_n_validos":1,"dom_agua_n_total":1,"dom_agua_completude":1.0,"dom_esgoto_n_validos":1,"dom_esgoto_n_total":1,"dom_esgoto_completude":1.0,"n_resp_n_validos":1,"n_resp_n_total":1,"n_resp_completude":1.0,"renda_resp_n_validos":1,"renda_resp_n_total":1,"renda_resp_completude":1.0,"dens_n_validos":1,"dens_n_total":1,"dens_completude":1.0},"geometry":{"type":"Polygon","coordinates":[[[-51.68568,-28.27363789999998],[-51.68528109999994,-28.274368599999946],[-51.686765899999955,-28.27394139999995],[-51.691317199999965,-28.27173869999995],[-51.691808599999945,-28.27127029999997],[-51.69258989999997,-28.270082499999933],[-51.691774099999975,-28.269393599999933],[-51.69220709999996,-28.267918099999967],[-51.69179479999997,-28.26737569999995],[-51.68894189999997,-28.26709279999995],[-51.688453299999935,-28.267617199999968],[-51.68764969999996,-28.267812],[-51.68660509999995,-28.266873699999966],[-51.685810199999935,-28.266603299999925],[-51.685005699999984,-28.2671387],[-51.68482929999993,-28.26770439999996],[-51.683756,-28.268223199999962],[-51.68415759999994,-28.26985319999995],[-51.68458469999996,-28.270343099999938],[-51.68547669999998,-28.270732899999917],[-51.68580539999994,-28.271351899999974],[-51.68582509999993,-28.27320909999996],[-51.685541099999966,-28.273353199999963],[-51.68568,-28.27363789999998]]]}},{"type":"Feature","properties":{"setor":"430495205000003","pop":18,"sigilo_pop":false,"dom":8,"sigilo_dom":false,"mulheres":8,"sigilo_mulheres":false,"c0_4":0,"sigilo_c0_4":false,"c5_9":0,"sigilo_c5_9":false,"i60_69":null,"sigilo_i60_69":true,"i70m":null,"sigilo_i70m":true,"indigenas":0,"sigilo_indigenas":false,"pretos_pardos":4,"sigilo_pretos_pardos":false,"dom_ocupados":8,"sigilo_dom_ocupados":false,"dom_agua":4,"sigilo_dom_agua":false,"dom_esgoto":0,"sigilo_dom_esgoto":false,"renda_resp":3112.5,"sigilo_renda_resp":false,"n_resp":8,"sigilo_n_resp":false,"dens":69.9,"sigilo_dens":false,"na_bacia":0,"area_pct_bacia":0.0,"metodo_recorte_bacia":"ponto_representativo_setor_2022; area_pct_geometrica","status_borda_bacia":"total","metodo_area_bacia":"interseção geométrica em EPSG:5880","metodo_na_bacia":"ponto_representativo_setor_2022_within_bacia","pop_n_validos":1,"pop_n_total":1,"pop_completude":1.0,"dom_n_validos":1,"dom_n_total":1,"dom_completude":1.0,"dom_ocupados_n_validos":1,"dom_ocupados_n_total":1,"dom_ocupados_completude":1.0,"mulheres_n_validos":1,"mulheres_n_total":1,"mulheres_completude":1.0,"c0_4_n_validos":1,"c0_4_n_total":1,"c0_4_completude":1.0,"c5_9_n_validos":1,"c5_9_n_total":1,"c5_9_completude":1.0,"i60_69_n_validos":0,"i60_69_n_total":1,"i60_69_completude":0.0,"i70m_n_validos":0,"i70m_n_total":1,"i70m_completude":0.0,"indigenas_n_validos":1,"indigenas_n_total":1,"indigenas_completude":1.0,"pretos_pardos_n_validos":1,"pretos_pardos_n_total":1,"pretos_pardos_completude":1.0,"dom_agua_n_validos":1,"dom_agua_n_total":1,"dom_agua_completude":1.0,"dom_esgoto_n_validos":1,"dom_esgoto_n_total":1,"dom_esgoto_completude":1.0,"n_resp_n_validos":1,"n_resp_n_total":1,"n_resp_completude":1.0,"renda_resp_n_validos":1,"renda_resp_n_total":1,"renda_resp_completude":1.0,"dens_n_validos":1,"dens_n_total":1,"dens_completude":1.0},"geometry":{"type":"Polygon","coordinates":[[[-51.67377309999995,-28.269786799999977],[-51.67527119999994,-28.27128669999996],[-51.67928959999994,-28.272704199999968],[-51.68284969999996,-28.274418199999957],[-51.68378069999994,-28.274560899999983],[-51.68528109999994,-28.274368599999946],[-51.68568,-28.27363789999998],[-51.683334,-28.27285229999996],[-51.68282319999997,-28.272355099999967],[-51.6816343,-28.273538299999924],[-51.68009859999995,-28.272621599999976],[-51.681868399999985,-28.27150489999998],[-51.68045919999997,-28.27034079999993],[-51.678065199999935,-28.271962899999956],[-51.67551389999995,-28.27112],[-51.676759199999935,-28.27022609999995],[-51.67737229999994,-28.270992599999943],[-51.67993909999996,-28.269485699999965],[-51.677994299999966,-28.267319499999928],[-51.67377309999995,-28.269786799999977]]]}},{"type":"Feature","properties":{"setor":"430495205000004","pop":165,"sigilo_pop":false,"dom":73,"sigilo_dom":false,"mulheres":73,"sigilo_mulheres":false,"c0_4":null,"sigilo_c0_4":true,"c5_9":9,"sigilo_c5_9":false,"i60_69":21,"sigilo_i60_69":false,"i70m":24,"sigilo_i70m":false,"indigenas":0,"sigilo_indigenas":false,"pretos_pardos":null,"sigilo_pretos_pardos":true,"dom_ocupados":64,"sigilo_dom_ocupados":false,"dom_agua":55,"sigilo_dom_agua":false,"dom_esgoto":0,"sigilo_dom_esgoto":false,"renda_resp":5472.97,"sigilo_renda_resp":false,"n_resp":64,"sigilo_n_resp":false,"dens":6.1,"sigilo_dens":false,"na_bacia":0,"area_pct_bacia":0.0,"metodo_recorte_bacia":"ponto_representativo_setor_2022; area_pct_geometrica","status_borda_bacia":"total","metodo_area_bacia":"interseção geométrica em EPSG:5880","metodo_na_bacia":"ponto_representativo_setor_2022_within_bacia","pop_n_validos":1,"pop_n_total":1,"pop_completude":1.0,"dom_n_validos":1,"dom_n_total":1,"dom_completude":1.0,"dom_ocupados_n_validos":1,"dom_ocupados_n_total":1,"dom_ocupados_completude":1.0,"mulheres_n_validos":1,"mulheres_n_total":1,"mulheres_completude":1.0,"c0_4_n_validos":0,"c0_4_n_total":1,"c0_4_completude":0.0,"c5_9_n_validos":1,"c5_9_n_total":1,"c5_9_completude":1.0,"i60_69_n_validos":1,"i60_69_n_total":1,"i60_69_completude":1.0,"i70m_n_validos":1,"i70m_n_total":1,"i70m_completude":1.0,"indigenas_n_validos":1,"indigenas_n_total":1,"indigenas_completude":1.0,"pretos_pardos_n_validos":0,"pretos_pardos_n_total":1,"pretos_pardos_completude":0.0,"dom_agua_n_validos":1,"dom_agua_n_total":1,"dom_agua_completude":1.0,"dom_esgoto_n_validos":1,"dom_esgoto_n_total":1,"dom_esgoto_completude":1.0,"n_resp_n_validos":1,"n_resp_n_total":1,"n_resp_completude":1.0,"renda_resp_n_validos":1,"renda_resp_n_total":1,"renda_resp_completude":1.0,"dens_n_validos":1,"dens_n_total":1,"dens_completude":1.0},"geometry":{"type":"Polygon","coordinates":[[[-51.692402,-28.19045579999994],[-51.69158909999992,-28.19162729999994],[-51.69129569999996,-28.192547599999962],[-51.68990549999995,-28.192864],[-51.689065299999974,-28.193717799999945],[-51.68722559999998,-28.19494059999993],[-51.68533169999995,-28.19553159999998],[-51.68483139999995,-28.19631389999995],[-51.686179599999946,-28.19920379999997],[-51.68919669999996,-28.20356269999997],[-51.68962679999998,-28.20479379999995],[-51.69103439999998,-28.206771],[-51.69272859999996,-28.208415],[-51.69255739999994,-28.21115409999993],[-51.69320419999997,-28.21213509999996],[-51.69338709999994,-28.213189899999975],[-51.690715799999964,-28.216341],[-51.690109699999944,-28.217369099999924],[-51.68949159999995,-28.218751],[-51.68850069999996,-28.22249259999995],[-51.6871235,-28.226199299999962],[-51.68631689999996,-28.227597599999967],[-51.68649279999994,-28.230867899999954],[-51.6870656,-28.234403399999966],[-51.68663069999997,-28.235083099999944],[-51.685209,-28.236257],[-51.68442109999996,-28.237815799999954],[-51.684415799999954,-28.239519299999987],[-51.682050299999965,-28.242236799999937],[-51.681139299999984,-28.244067299999983],[-51.678813899999966,-28.24553659999998],[-51.678389899999964,-28.248112499999923],[-51.678412099999946,-28.24969969999994],[-51.678052099999945,-28.250499699999978],[-51.67813419999993,-28.250888199999963],[-51.67885719999998,-28.251570399999935],[-51.68143329999997,-28.253444099999964],[-51.68159449999996,-28.25554489999995],[-51.682155799999975,-28.256996899999926],[-51.68143159999995,-28.258218],[-51.68321409999999,-28.26019239999994],[-51.683422099999966,-28.261145],[-51.68391219999995,-28.261869399999966],[-51.68621259999997,-28.26367119999997],[-51.68864419999995,-28.266150699999976],[-51.689413599999966,-28.263486299999954],[-51.69128359999997,-28.26384439999998],[-51.689438299999956,-28.26712139999995],[-51.69077159999995,-28.26736479999994],[-51.69179479999997,-28.26737569999995],[-51.692447499999965,-28.266927899999928],[-51.69218549999994,-28.266533899999953],[-51.69303819999994,-28.266662699999983],[-51.693662899999936,-28.266431],[-51.69401269999997,-28.266680799999957],[-51.695869399999935,-28.265771499999968],[-51.69623179999997,-28.266047099999977],[-51.703633,-28.25956],[-51.705174899999975,-28.25879089999996],[-51.70902239999999,-28.2571584],[-51.718632,-28.255452799999947],[-51.72201219999994,-28.253265299999956],[-51.721586899999984,-28.253034],[-51.720731299999954,-28.251360399999946],[-51.71804789999993,-28.248111199999975],[-51.71719789999998,-28.246467399999965],[-51.71684319999997,-28.244811899999952],[-51.717009099999984,-28.24121579999996],[-51.71587949999998,-28.239866599999974],[-51.71566149999995,-28.238786799999964],[-51.71624729999997,-28.237176899999948],[-51.716220599999986,-28.236296],[-51.71556719999995,-28.235804199999965],[-51.71546349999995,-28.23546079999994],[-51.716153099999985,-28.23453389999997],[-51.716353,-28.232712599999953],[-51.71525039999995,-28.23135519999995],[-51.71510139999998,-28.230022899999938],[-51.71452979999998,-28.229084699999927],[-51.714567099999954,-28.226608899999967],[-51.71505779999996,-28.225195],[-51.71561419999995,-28.224426599999962],[-51.718003099999976,-28.223871],[-51.71844829999998,-28.223570099999954],[-51.71857769999997,-28.223140699999938],[-51.717951,-28.221871099999927],[-51.71812649999998,-28.22132409999994],[-51.721530399999956,-28.219485899999935],[-51.72758229999994,-28.21369409999993],[-51.72914919999994,-28.20801559999995],[-51.72912989999998,-28.207755299999977],[-51.728022599999974,-28.207243299999952],[-51.72796609999995,-28.20698419999998],[-51.72905569999994,-28.20599819999995],[-51.73136079999995,-28.203121599999974],[-51.73229509999993,-28.20265219999993],[-51.735765699999945,-28.20274839999997],[-51.736490499999945,-28.20306319999997],[-51.737405,-28.204365099999958],[-51.73771449999998,-28.203282],[-51.737007299999966,-28.199283599999948],[-51.7367948,-28.198659],[-51.73592279999997,-28.19762789999993],[-51.736112799999944,-28.196311599999945],[-51.73596179999998,-28.19591059999993],[-51.735523099999966,-28.195682899999955],[-51.73546679999998,-28.194976699999984],[-51.73507949999998,-28.194739699999957],[-51.734163699999954,-28.190805199999943],[-51.733905499999935,-28.190453699999967],[-51.73235649999999,-28.1903144],[-51.732484,-28.189715299999932],[-51.73169159999997,-28.18914979999993],[-51.73156559999995,-28.186551899999987],[-51.73188429999994,-28.18524649999995],[-51.73169959999996,-28.184370799999957],[-51.730345299999954,-28.184840299999966],[-51.730131299999975,-28.185473099999964],[-51.729345199999955,-28.18567079999996],[-51.728483799999935,-28.18621459999996],[-51.727957499999945,-28.187254399999965],[-51.727459,-28.18770839999996],[-51.72657719999995,-28.18796739999992],[-51.726440299999986,-28.188326099999983],[-51.725765699999954,-28.18860879999994],[-51.725706,-28.188918],[-51.72542239999996,-28.188913399999933],[-51.72514039999999,-28.189320899999924],[-51.72457259999993,-28.189406599999984],[-51.72396039999996,-28.190572199999963],[-51.72392889999998,-28.19115879999998],[-51.72343269999993,-28.191535399999967],[-51.723284299999925,-28.192856699999936],[-51.722547,-28.19335139999998],[-51.72227919999995,-28.194204],[-51.72134189999996,-28.195080599999983],[-51.71919219999995,-28.196009099999962],[-51.710253199999954,-28.197134499999947],[-51.7063184,-28.196177299999928],[-51.70385339999996,-28.195270399999956],[-51.69907669999998,-28.19492889999998],[-51.69778209999998,-28.194101199999974],[-51.69613569999996,-28.192491599999983],[-51.69391989999996,-28.19170129999998],[-51.69293229999994,-28.191083699999968],[-51.692402,-28.19045579999994]]]}},{"type":"Feature","properties":{"setor":"430495205000008","pop":95,"sigilo_pop":false,"dom":51,"sigilo_dom":false,"mulheres":52,"sigilo_mulheres":false,"c0_4":null,"sigilo_c0_4":true,"c5_9":null,"sigilo_c5_9":true,"i60_69":17,"sigilo_i60_69":false,"i70m":12,"sigilo_i70m":false,"indigenas":0,"sigilo_indigenas":false,"pretos_pardos":18,"sigilo_pretos_pardos":false,"dom_ocupados":36,"sigilo_dom_ocupados":false,"dom_agua":23,"sigilo_dom_agua":false,"dom_esgoto":0,"sigilo_dom_esgoto":false,"renda_resp":9795.61,"sigilo_renda_resp":false,"n_resp":36,"sigilo_n_resp":false,"dens":2.2,"sigilo_dens":false,"na_bacia":0,"area_pct_bacia":27.0979,"metodo_recorte_bacia":"ponto_representativo_setor_2022; area_pct_geometrica","status_borda_bacia":"parcial","metodo_area_bacia":"interseção geométrica em EPSG:5880","metodo_na_bacia":"ponto_representativo_setor_2022_within_bacia","pop_n_validos":1,"pop_n_total":1,"pop_completude":1.0,"dom_n_validos":1,"dom_n_total":1,"dom_completude":1.0,"dom_ocupados_n_validos":1,"dom_ocupados_n_total":1,"dom_ocupados_completude":1.0,"mulheres_n_validos":1,"mulheres_n_total":1,"mulheres_completude":1.0,"c0_4_n_validos":0,"c0_4_n_total":1,"c0_4_completude":0.0,"c5_9_n_validos":0,"c5_9_n_total":1,"c5_9_completude":0.0,"i60_69_n_validos":1,"i60_69_n_total":1,"i60_69_completude":1.0,"i70m_n_validos":1,"i70m_n_total":1,"i70m_completude":1.0,"indigenas_n_validos":1,"indigenas_n_total":1,"indigenas_completude":1.0,"pretos_pardos_n_validos":1,"pretos_pardos_n_total":1,"pretos_pardos_completude":1.0,"dom_agua_n_validos":1,"dom_agua_n_total":1,"dom_agua_completude":1.0,"dom_esgoto_n_validos":1,"dom_esgoto_n_total":1,"dom_esgoto_completude":1.0,"n_resp_n_validos":1,"n_resp_n_total":1,"n_resp_completude":1.0,"renda_resp_n_validos":1,"renda_resp_n_total":1,"renda_resp_completude":1.0,"dens_n_validos":1,"dens_n_total":1,"dens_completude":1.0},"geometry":{"type":"Polygon","coordinates":[[[-51.785501,-28.247507399999968],[-51.74267039999995,-28.249668899999964],[-51.738514799999955,-28.248974],[-51.73578209999993,-28.24783689999999],[-51.73429559999994,-28.247765099999977],[-51.73009909999997,-28.249207],[-51.72668029999994,-28.25000859999994],[-51.72201219999994,-28.253265299999956],[-51.725102399999976,-28.254810099999936],[-51.72612049999998,-28.256868799999936],[-51.72910189999994,-28.261095599999976],[-51.73072259999997,-28.26266759999993],[-51.73221849999993,-28.265796299999984],[-51.73588649999994,-28.269888199999965],[-51.73612029999998,-28.27200769999996],[-51.73594169999996,-28.273581399999948],[-51.73671009999998,-28.275138],[-51.736968599999955,-28.27624639999994],[-51.73920259999994,-28.280687],[-51.740096499999936,-28.28373819999996],[-51.73998819999997,-28.286557199999944],[-51.741169099999986,-28.289668299999963],[-51.73902359999994,-28.293074],[-51.738861199999974,-28.294873199999973],[-51.73901579999995,-28.29667019999994],[-51.73559919999997,-28.300362],[-51.73538939999998,-28.30170729999998],[-51.73437089999993,-28.304478699999947],[-51.73454689999994,-28.305342399999972],[-51.736050199999966,-28.306939199999935],[-51.737350299999946,-28.307936],[-51.73930829999995,-28.308911],[-51.74037559999994,-28.309813399999936],[-51.740354899999936,-28.310371299999925],[-51.742487099999956,-28.308251799999944],[-51.74882859999997,-28.30802729999993],[-51.747840199999985,-28.306731099999975],[-51.748256799999986,-28.304138599999934],[-51.746905699999964,-28.295864399999967],[-51.751015799999955,-28.29150269999997],[-51.751614,-28.289481399999943],[-51.75429029999999,-28.28987169999992],[-51.75829869999996,-28.288243699999956],[-51.76429409999998,-28.288075799999948],[-51.7652217,-28.291943199999935],[-51.76942829999996,-28.294054],[-51.77461459999995,-28.29118289999997],[-51.821549499999946,-28.297956199999923],[-51.8214225,-28.292029199999952],[-51.81810139999993,-28.28114719999995],[-51.82008009999998,-28.277896499999933],[-51.818197,-28.274209],[-51.81901469999997,-28.272300799999986],[-51.81569059999998,-28.267297699999972],[-51.81606649999998,-28.265358199999977],[-51.81548689999994,-28.264439699999958],[-51.81615569999997,-28.263284199999934],[-51.81346169999995,-28.26253669999993],[-51.81246089999996,-28.261277799999952],[-51.81188229999998,-28.259767599999982],[-51.812304799999936,-28.257643],[-51.809637899999984,-28.253980799999972],[-51.808343599999944,-28.249892099999943],[-51.81041069999998,-28.242401],[-51.807932499999936,-28.24198829999994],[-51.802823,-28.24166149999996],[-51.79889679999997,-28.242139199999933],[-51.79795859999996,-28.242543199999947],[-51.79621339999994,-28.243986899999967],[-51.79367079999997,-28.245170399999953],[-51.785501,-28.247507399999968]]]}},{"type":"Feature","properties":{"setor":"430495205000009","pop":63,"sigilo_pop":false,"dom":33,"sigilo_dom":false,"mulheres":25,"sigilo_mulheres":false,"c0_4":null,"sigilo_c0_4":true,"c5_9":null,"sigilo_c5_9":true,"i60_69":9,"sigilo_i60_69":false,"i70m":null,"sigilo_i70m":true,"indigenas":0,"sigilo_indigenas":false,"pretos_pardos":13,"sigilo_pretos_pardos":false,"dom_ocupados":27,"sigilo_dom_ocupados":false,"dom_agua":11,"sigilo_dom_agua":false,"dom_esgoto":0,"sigilo_dom_esgoto":false,"renda_resp":4162.17,"sigilo_renda_resp":false,"n_resp":27,"sigilo_n_resp":false,"dens":1.3,"sigilo_dens":false,"na_bacia":0,"area_pct_bacia":0.0,"metodo_recorte_bacia":"ponto_representativo_setor_2022; area_pct_geometrica","status_borda_bacia":"total","metodo_area_bacia":"interseção geométrica em EPSG:5880","metodo_na_bacia":"ponto_representativo_setor_2022_within_bacia","pop_n_validos":1,"pop_n_total":1,"pop_completude":1.0,"dom_n_validos":1,"dom_n_total":1,"dom_completude":1.0,"dom_ocupados_n_validos":1,"dom_ocupados_n_total":1,"dom_ocupados_completude":1.0,"mulheres_n_validos":1,"mulheres_n_total":1,"mulheres_completude":1.0,"c0_4_n_validos":0,"c0_4_n_total":1,"c0_4_completude":0.0,"c5_9_n_validos":0,"c5_9_n_total":1,"c5_9_completude":0.0,"i60_69_n_validos":1,"i60_69_n_total":1,"i60_69_completude":1.0,"i70m_n_validos":0,"i70m_n_total":1,"i70m_completude":0.0,"indigenas_n_validos":1,"indigenas_n_total":1,"indigenas_completude":1.0,"pretos_pardos_n_validos":1,"pretos_pardos_n_total":1,"pretos_pardos_completude":1.0,"dom_agua_n_validos":1,"dom_agua_n_total":1,"dom_agua_completude":1.0,"dom_esgoto_n_validos":1,"dom_esgoto_n_total":1,"dom_esgoto_completude":1.0,"n_resp_n_validos":1,"n_resp_n_total":1,"n_resp_completude":1.0,"renda_resp_n_validos":1,"renda_resp_n_total":1,"renda_resp_completude":1.0,"dens_n_validos":1,"dens_n_total":1,"dens_completude":1.0},"geometry":{"type":"Polygon","coordinates":[[[-51.783002099999976,-28.20341749999995],[-51.769139,-28.218509899999958],[-51.76464629999998,-28.221163399999956],[-51.759925099999975,-28.222653499999975],[-51.75694609999994,-28.224593099999947],[-51.75378709999995,-28.22794289999996],[-51.75137349999994,-28.23182839999998],[-51.75071959999997,-28.235502199999924],[-51.75117919999997,-28.238249199999927],[-51.75008279999997,-28.23976979999997],[-51.749929399999985,-28.24037629999998],[-51.75024639999999,-28.24113459999995],[-51.75248779999998,-28.243661199999956],[-51.75292909999996,-28.244446799999928],[-51.75309,-28.249207],[-51.785501,-28.247507399999968],[-51.79367079999997,-28.245170399999953],[-51.79621339999994,-28.243986899999967],[-51.79795859999996,-28.242543199999947],[-51.79889679999997,-28.242139199999933],[-51.802823,-28.24166149999996],[-51.807932499999936,-28.24198829999994],[-51.81041069999998,-28.242401],[-51.81944819999995,-28.247258199999962],[-51.82438,-28.248002399999955],[-51.82809579999998,-28.25117229999995],[-51.83583239999996,-28.252638899999965],[-51.84100689999997,-28.249807299999915],[-51.844376,-28.249518599999927],[-51.855451399999936,-28.25038369999993],[-51.857546899999925,-28.252314299999966],[-51.86502479999996,-28.25803979999995],[-51.8728493,-28.25733639999993],[-51.881613799999975,-28.260786399999965],[-51.884417499999984,-28.2608],[-51.90302519999994,-28.256225799999978],[-51.90489749999995,-28.252946899999987],[-51.904927499999985,-28.250212399999953],[-51.90628419999996,-28.245928899999967],[-51.912987499999986,-28.24396749999993],[-51.913740399999945,-28.241305499999953],[-51.91256859999998,-28.240093399999978],[-51.91509949999994,-28.237135499999965],[-51.914161899999954,-28.234519799999934],[-51.914865099999986,-28.232106899999962],[-51.91379459999995,-28.23176579999994],[-51.912658,-28.232941799999935],[-51.90882389999995,-28.23223839999998],[-51.908098799999955,-28.230649699999955],[-51.91005559999996,-28.227390899999936],[-51.909716,-28.224843799999967],[-51.90919869999993,-28.223781499999973],[-51.905702599999984,-28.223010899999956],[-51.90441139999996,-28.22187539999993],[-51.904634,-28.221117499999945],[-51.907509,-28.221080299999986],[-51.90763039999997,-28.218878599999982],[-51.90941269999996,-28.21698359999993],[-51.90807719999999,-28.21321089999999],[-51.90467889999996,-28.212349799999963],[-51.903497799999975,-28.210956199999934],[-51.901917099999935,-28.21202789999995],[-51.90196469999995,-28.213554799999937],[-51.89980919999993,-28.215200399999958],[-51.89875519999998,-28.21372019999994],[-51.898939299999945,-28.21264159999998],[-51.89779389999995,-28.21229109999996],[-51.897135099999964,-28.212430799999918],[-51.895916099999965,-28.21328519999997],[-51.89464409999994,-28.213310699999973],[-51.89396709999994,-28.212661699999956],[-51.89326479999994,-28.210137899999946],[-51.89300849999995,-28.20990939999996],[-51.89261439999996,-28.209950199999973],[-51.89230189999996,-28.211182],[-51.89154339999993,-28.21172509999996],[-51.891304899999966,-28.21364809999995],[-51.89086039999995,-28.214544099999966],[-51.890398699999935,-28.21460559999996],[-51.88877609999998,-28.214173699999957],[-51.88778359999998,-28.214488599999985],[-51.88650339999998,-28.216225],[-51.885835199999974,-28.218026799999958],[-51.88509749999998,-28.218185],[-51.884846,-28.218589699999935],[-51.88480289999995,-28.21907159999995],[-51.88643319999994,-28.22320089999993],[-51.88591789999998,-28.223809],[-51.88487939999993,-28.22407609999994],[-51.884501899999975,-28.224567299999936],[-51.884025899999976,-28.225609],[-51.88410549999998,-28.227048],[-51.88260159999999,-28.22776529999992],[-51.88090169999998,-28.227834499999968],[-51.87910679999993,-28.228942399999926],[-51.878041199999984,-28.22995679999996],[-51.876495099999936,-28.229924699999966],[-51.87509769999997,-28.228808899999926],[-51.874525299999966,-28.226534199999943],[-51.873547,-28.225820899999963],[-51.87292249999995,-28.225765099999933],[-51.872316299999966,-28.226015499999953],[-51.871421699999985,-28.22688639999995],[-51.870427499999956,-28.2283629],[-51.86973759999995,-28.22882839999995],[-51.86963789999999,-28.22943389999993],[-51.86808369999994,-28.230422599999933],[-51.866644199999946,-28.230504799999956],[-51.86535569999996,-28.229764],[-51.864903599999934,-28.229796599999922],[-51.864043599999945,-28.23066449999993],[-51.86134709999994,-28.23200869999994],[-51.85969769999997,-28.231889099999936],[-51.858934499999975,-28.232038599999953],[-51.858419399999946,-28.232473399999947],[-51.85835229999998,-28.232820499999953],[-51.85679759999994,-28.23372519999998],[-51.85457459999998,-28.23339089999996],[-51.850436099999975,-28.234526499999962],[-51.847990699999976,-28.236847699999938],[-51.847017899999976,-28.238858199999978],[-51.84637289999995,-28.238904],[-51.846504099999954,-28.24692919999995],[-51.84103009999995,-28.24212909999995],[-51.83830649999993,-28.238370899999943],[-51.83138729999996,-28.23482929999995],[-51.82962569999996,-28.230584699999955],[-51.82463329999997,-28.230300599999964],[-51.823136,-28.228514399999938],[-51.81477289999998,-28.223979399999966],[-51.80862979999995,-28.218840099999962],[-51.79850159999996,-28.212904899999952],[-51.797757899999965,-28.208384899999935],[-51.79848939999994,-28.201182699999947],[-51.797246199999954,-28.196880199999946],[-51.790538699999956,-28.194135199999952],[-51.787476799999986,-28.197342],[-51.783002099999976,-28.20341749999995]]]}},{"type":"Feature","properties":{"setor":"430495205000010","pop":137,"sigilo_pop":false,"dom":64,"sigilo_dom":false,"mulheres":64,"sigilo_mulheres":false,"c0_4":null,"sigilo_c0_4":true,"c5_9":null,"sigilo_c5_9":true,"i60_69":26,"sigilo_i60_69":false,"i70m":24,"sigilo_i70m":false,"indigenas":0,"sigilo_indigenas":false,"pretos_pardos":19,"sigilo_pretos_pardos":false,"dom_ocupados":56,"sigilo_dom_ocupados":false,"dom_agua":40,"sigilo_dom_agua":false,"dom_esgoto":0,"sigilo_dom_esgoto":false,"renda_resp":3209.08,"sigilo_renda_resp":false,"n_resp":56,"sigilo_n_resp":false,"dens":8.1,"sigilo_dens":false,"na_bacia":0,"area_pct_bacia":0.0,"metodo_recorte_bacia":"ponto_representativo_setor_2022; area_pct_geometrica","status_borda_bacia":"total","metodo_area_bacia":"interseção geométrica em EPSG:5880","metodo_na_bacia":"ponto_representativo_setor_2022_within_bacia","pop_n_validos":1,"pop_n_total":1,"pop_completude":1.0,"dom_n_validos":1,"dom_n_total":1,"dom_completude":1.0,"dom_ocupados_n_validos":1,"dom_ocupados_n_total":1,"dom_ocupados_completude":1.0,"mulheres_n_validos":1,"mulheres_n_total":1,"mulheres_completude":1.0,"c0_4_n_validos":0,"c0_4_n_total":1,"c0_4_completude":0.0,"c5_9_n_validos":0,"c5_9_n_total":1,"c5_9_completude":0.0,"i60_69_n_validos":1,"i60_69_n_total":1,"i60_69_completude":1.0,"i70m_n_validos":1,"i70m_n_total":1,"i70m_completude":1.0,"indigenas_n_validos":1,"indigenas_n_total":1,"indigenas_completude":1.0,"pretos_pardos_n_validos":1,"pretos_pardos_n_total":1,"pretos_pardos_completude":1.0,"dom_agua_n_validos":1,"dom_agua_n_total":1,"dom_agua_completude":1.0,"dom_esgoto_n_validos":1,"dom_esgoto_n_total":1,"dom_esgoto_completude":1.0,"n_resp_n_validos":1,"n_resp_n_total":1,"n_resp_completude":1.0,"renda_resp_n_validos":1,"renda_resp_n_total":1,"renda_resp_completude":1.0,"dens_n_validos":1,"dens_n_total":1,"dens_completude":1.0},"geometry":{"type":"Polygon","coordinates":[[[-51.728633,-28.210096499999967],[-51.72758229999994,-28.21369409999993],[-51.721530399999956,-28.219485899999935],[-51.71812649999998,-28.22132409999994],[-51.717951,-28.221871099999927],[-51.71857769999997,-28.223140699999938],[-51.71844829999998,-28.223570099999954],[-51.718003099999976,-28.223871],[-51.71561419999995,-28.224426599999962],[-51.71505779999996,-28.225195],[-51.714567099999954,-28.226608899999967],[-51.71452979999998,-28.229084699999927],[-51.71510139999998,-28.230022899999938],[-51.71525039999995,-28.23135519999995],[-51.716353,-28.232712599999953],[-51.716153099999985,-28.23453389999997],[-51.71546349999995,-28.23546079999994],[-51.71556719999995,-28.235804199999965],[-51.716220599999986,-28.236296],[-51.71624729999997,-28.237176899999948],[-51.71566149999995,-28.238786799999964],[-51.71587949999998,-28.239866599999974],[-51.717009099999984,-28.24121579999996],[-51.71684319999997,-28.244811899999952],[-51.71719789999998,-28.246467399999965],[-51.71804789999993,-28.248111199999975],[-51.720731299999954,-28.251360399999946],[-51.721586899999984,-28.253034],[-51.72201219999994,-28.253265299999956],[-51.72668029999994,-28.25000859999994],[-51.73009909999997,-28.249207],[-51.73429559999994,-28.247765099999977],[-51.73578209999993,-28.24783689999999],[-51.738514799999955,-28.248974],[-51.74267039999995,-28.249668899999964],[-51.75309,-28.249207],[-51.75292909999996,-28.244446799999928],[-51.75248779999998,-28.243661199999956],[-51.75024639999999,-28.24113459999995],[-51.749929399999985,-28.24037629999998],[-51.75008279999997,-28.23976979999997],[-51.75117919999997,-28.238249199999927],[-51.75071959999997,-28.235502199999924],[-51.75137349999994,-28.23182839999998],[-51.75378709999995,-28.22794289999996],[-51.75694609999994,-28.224593099999947],[-51.759925099999975,-28.222653499999975],[-51.76464629999998,-28.221163399999956],[-51.769139,-28.218509899999958],[-51.7809,-28.20559239999995],[-51.778617,-28.20496019999996],[-51.77756359999995,-28.203762199999975],[-51.776948499999946,-28.203506],[-51.77513689999995,-28.204262199999953],[-51.77274709999995,-28.204350699999964],[-51.772074499999974,-28.205337799999946],[-51.76049619999998,-28.210795499999968],[-51.7596066,-28.210944599999944],[-51.75602149999998,-28.214397799999972],[-51.75535339999993,-28.214557899999928],[-51.75460859999998,-28.21449759999997],[-51.752642899999955,-28.213735699999972],[-51.75071039999995,-28.211195],[-51.74936309999998,-28.210087899999955],[-51.74695269999996,-28.211559399999942],[-51.74398989999998,-28.21379889999997],[-51.741405,-28.214338499999936],[-51.738945,-28.21443369999997],[-51.73554169999994,-28.213868399999964],[-51.73385369999994,-28.212399],[-51.733362099999965,-28.21141449999993],[-51.73248159999997,-28.21051089999997],[-51.731488199999944,-28.21076219999998],[-51.729865099999984,-28.210158],[-51.728633,-28.210096499999967]]]}},{"type":"Feature","properties":{"setor":"430495205000016","pop":59,"sigilo_pop":false,"dom":30,"sigilo_dom":false,"mulheres":31,"sigilo_mulheres":false,"c0_4":null,"sigilo_c0_4":true,"c5_9":null,"sigilo_c5_9":true,"i60_69":4,"sigilo_i60_69":false,"i70m":null,"sigilo_i70m":true,"indigenas":0,"sigilo_indigenas":false,"pretos_pardos":11,"sigilo_pretos_pardos":false,"dom_ocupados":20,"sigilo_dom_ocupados":false,"dom_agua":20,"sigilo_dom_agua":false,"dom_esgoto":0,"sigilo_dom_esgoto":false,"renda_resp":2093.75,"sigilo_renda_resp":false,"n_resp":20,"sigilo_n_resp":false,"dens":701.2,"sigilo_dens":false,"na_bacia":0,"area_pct_bacia":0.0,"metodo_recorte_bacia":"ponto_representativo_setor_2022; area_pct_geometrica","status_borda_bacia":"total","metodo_area_bacia":"interseção geométrica em EPSG:5880","metodo_na_bacia":"ponto_representativo_setor_2022_within_bacia","pop_n_validos":1,"pop_n_total":1,"pop_completude":1.0,"dom_n_validos":1,"dom_n_total":1,"dom_completude":1.0,"dom_ocupados_n_validos":1,"dom_ocupados_n_total":1,"dom_ocupados_completude":1.0,"mulheres_n_validos":1,"mulheres_n_total":1,"mulheres_completude":1.0,"c0_4_n_validos":0,"c0_4_n_total":1,"c0_4_completude":0.0,"c5_9_n_validos":0,"c5_9_n_total":1,"c5_9_completude":0.0,"i60_69_n_validos":1,"i60_69_n_total":1,"i60_69_completude":1.0,"i70m_n_validos":0,"i70m_n_total":1,"i70m_completude":0.0,"indigenas_n_validos":1,"indigenas_n_total":1,"indigenas_completude":1.0,"pretos_pardos_n_validos":1,"pretos_pardos_n_total":1,"pretos_pardos_completude":1.0,"dom_agua_n_validos":1,"dom_agua_n_total":1,"dom_agua_completude":1.0,"dom_esgoto_n_validos":1,"dom_esgoto_n_total":1,"dom_esgoto_completude":1.0,"n_resp_n_validos":1,"n_resp_n_total":1,"n_resp_completude":1.0,"renda_resp_n_validos":1,"renda_resp_n_total":1,"renda_resp_completude":1.0,"dens_n_validos":1,"dens_n_total":1,"dens_completude":1.0},"geometry":{"type":"Polygon","coordinates":[[[-51.69179479999997,-28.26737569999995],[-51.69220709999996,-28.267918099999967],[-51.691774099999975,-28.269393599999933],[-51.69268729999993,-28.27013359999995],[-51.69413749999996,-28.268051099999976],[-51.696312,-28.266107299999927],[-51.695869399999935,-28.265771499999968],[-51.69401269999997,-28.266680799999957],[-51.693662899999936,-28.266431],[-51.69303819999994,-28.266662699999983],[-51.69218549999994,-28.266533899999953],[-51.692447499999965,-28.266927899999928],[-51.69179479999997,-28.26737569999995]]]}},{"type":"Feature","properties":{"setor":"430495205000018","pop":398,"sigilo_pop":false,"dom":164,"sigilo_dom":false,"mulheres":182,"sigilo_mulheres":false,"c0_4":30,"sigilo_c0_4":false,"c5_9":19,"sigilo_c5_9":false,"i60_69":48,"sigilo_i60_69":false,"i70m":36,"sigilo_i70m":false,"indigenas":0,"sigilo_indigenas":false,"pretos_pardos":68,"sigilo_pretos_pardos":false,"dom_ocupados":138,"sigilo_dom_ocupados":false,"dom_agua":94,"sigilo_dom_agua":false,"dom_esgoto":0,"sigilo_dom_esgoto":false,"renda_resp":5153.14,"sigilo_renda_resp":false,"n_resp":138,"sigilo_n_resp":false,"dens":12.3,"sigilo_dens":false,"na_bacia":0,"area_pct_bacia":22.6286,"metodo_recorte_bacia":"ponto_representativo_setor_2022; area_pct_geometrica","status_borda_bacia":"parcial","metodo_area_bacia":"interseção geométrica em EPSG:5880","metodo_na_bacia":"ponto_representativo_setor_2022_within_bacia","pop_n_validos":1,"pop_n_total":1,"pop_completude":1.0,"dom_n_validos":1,"dom_n_total":1,"dom_completude":1.0,"dom_ocupados_n_validos":1,"dom_ocupados_n_total":1,"dom_ocupados_completude":1.0,"mulheres_n_validos":1,"mulheres_n_total":1,"mulheres_completude":1.0,"c0_4_n_validos":1,"c0_4_n_total":1,"c0_4_completude":1.0,"c5_9_n_validos":1,"c5_9_n_total":1,"c5_9_completude":1.0,"i60_69_n_validos":1,"i60_69_n_total":1,"i60_69_completude":1.0,"i70m_n_validos":1,"i70m_n_total":1,"i70m_completude":1.0,"indigenas_n_validos":1,"indigenas_n_total":1,"indigenas_completude":1.0,"pretos_pardos_n_validos":1,"pretos_pardos_n_total":1,"pretos_pardos_completude":1.0,"dom_agua_n_validos":1,"dom_agua_n_total":1,"dom_agua_completude":1.0,"dom_esgoto_n_validos":1,"dom_esgoto_n_total":1,"dom_esgoto_completude":1.0,"n_resp_n_validos":1,"n_resp_n_total":1,"n_resp_completude":1.0,"renda_resp_n_validos":1,"renda_resp_n_total":1,"renda_resp_completude":1.0,"dens_n_validos":1,"dens_n_total":1,"dens_completude":1.0},"geometry":{"type":"Polygon","coordinates":[[[-51.63820089999996,-28.235552699999968],[-51.637437,-28.23624739999996],[-51.63724389999992,-28.23918249999997],[-51.63997109999996,-28.245520399999975],[-51.63908159999994,-28.247546099999973],[-51.637180099999966,-28.248177],[-51.636836799999976,-28.250849799999976],[-51.63566939999998,-28.252485499999977],[-51.632360499999955,-28.26186759999996],[-51.634862,-28.26564569999993],[-51.63467039999995,-28.266749899999972],[-51.633427599999955,-28.268234599999968],[-51.63306289999998,-28.27066609999996],[-51.629430799999966,-28.274808799999963],[-51.62944669999996,-28.277682499999973],[-51.627722,-28.27992269999993],[-51.62925509999997,-28.281911799999932],[-51.63132029999997,-28.282062199999935],[-51.633216299999965,-28.284151399999917],[-51.638048699999956,-28.287115599999932],[-51.63848309999997,-28.292930499999947],[-51.64256339999997,-28.297011799999943],[-51.64428769999996,-28.297699899999945],[-51.64582109999998,-28.302620099999956],[-51.64977369999997,-28.30631649999998],[-51.65213429999994,-28.307020899999934],[-51.65512789999997,-28.305273],[-51.66549229999998,-28.323903599999934],[-51.67180929999995,-28.32157539999997],[-51.673190699999964,-28.319587699999932],[-51.67534279999995,-28.31836259999995],[-51.68394269999993,-28.315423199999934],[-51.68885039999998,-28.314802899999957],[-51.68916349999995,-28.313106899999966],[-51.689767699999955,-28.311611199999962],[-51.69163679999997,-28.310367099999958],[-51.692341899999974,-28.30908189999998],[-51.69278059999994,-28.30770679999994],[-51.692656399999976,-28.306107],[-51.693409,-28.30446379999995],[-51.69367159999996,-28.30242929999996],[-51.69444129999994,-28.30106259999997],[-51.69656029999992,-28.300098099999957],[-51.69652959999996,-28.29920939999995],[-51.697384699999986,-28.297763299999936],[-51.697272099999964,-28.2961759],[-51.69807979999995,-28.295415799999933],[-51.698542699999955,-28.294017699999984],[-51.69825579999998,-28.29276479999993],[-51.69703779999997,-28.29128769999993],[-51.696409,-28.28957529999997],[-51.69495629999995,-28.2876199],[-51.69466389999996,-28.286593699999976],[-51.69319829999995,-28.285955899999973],[-51.69245509999996,-28.284915],[-51.691623,-28.284547699999962],[-51.69218749999993,-28.279693199999933],[-51.69173109999998,-28.27896079999994],[-51.690607099999966,-28.278357399999937],[-51.689223399999946,-28.276912899999953],[-51.687452,-28.27690629999996],[-51.68698439999998,-28.276162199999938],[-51.68588319999998,-28.275692799999938],[-51.68528109999994,-28.274368599999946],[-51.68378069999994,-28.274560899999983],[-51.68284969999996,-28.274418199999957],[-51.67928959999994,-28.272704199999968],[-51.67527119999994,-28.27128669999996],[-51.674362499999965,-28.270515],[-51.672390699999944,-28.26797859999992],[-51.67142959999996,-28.267249],[-51.66367669999994,-28.265691799999964],[-51.662403,-28.265119399999943],[-51.66118789999996,-28.264066299999964],[-51.660121199999935,-28.26256259999997],[-51.65768659999998,-28.256485799999957],[-51.65615839999998,-28.255277],[-51.65092449999997,-28.251987499999924],[-51.641109,-28.23868],[-51.63820089999996,-28.235552699999968]]]}},{"type":"Feature","properties":{"setor":"430495205000019","pop":388,"sigilo_pop":false,"dom":185,"sigilo_dom":false,"mulheres":187,"sigilo_mulheres":false,"c0_4":20,"sigilo_c0_4":false,"c5_9":22,"sigilo_c5_9":false,"i60_69":56,"sigilo_i60_69":false,"i70m":43,"sigilo_i70m":false,"indigenas":0,"sigilo_indigenas":false,"pretos_pardos":64,"sigilo_pretos_pardos":false,"dom_ocupados":149,"sigilo_dom_ocupados":false,"dom_agua":112,"sigilo_dom_agua":false,"dom_esgoto":0,"sigilo_dom_esgoto":false,"renda_resp":6068.66,"sigilo_renda_resp":false,"n_resp":149,"sigilo_n_resp":false,"dens":15.9,"sigilo_dens":false,"na_bacia":0,"area_pct_bacia":46.8466,"metodo_recorte_bacia":"ponto_representativo_setor_2022; area_pct_geometrica","status_borda_bacia":"parcial","metodo_area_bacia":"interseção geométrica em EPSG:5880","metodo_na_bacia":"ponto_representativo_setor_2022_within_bacia","pop_n_validos":1,"pop_n_total":1,"pop_completude":1.0,"dom_n_validos":1,"dom_n_total":1,"dom_completude":1.0,"dom_ocupados_n_validos":1,"dom_ocupados_n_total":1,"dom_ocupados_completude":1.0,"mulheres_n_validos":1,"mulheres_n_total":1,"mulheres_completude":1.0,"c0_4_n_validos":1,"c0_4_n_total":1,"c0_4_completude":1.0,"c5_9_n_validos":1,"c5_9_n_total":1,"c5_9_completude":1.0,"i60_69_n_validos":1,"i60_69_n_total":1,"i60_69_completude":1.0,"i70m_n_validos":1,"i70m_n_total":1,"i70m_completude":1.0,"indigenas_n_validos":1,"indigenas_n_total":1,"indigenas_completude":1.0,"pretos_pardos_n_validos":1,"pretos_pardos_n_total":1,"pretos_pardos_completude":1.0,"dom_agua_n_validos":1,"dom_agua_n_total":1,"dom_agua_completude":1.0,"dom_esgoto_n_validos":1,"dom_esgoto_n_total":1,"dom_esgoto_completude":1.0,"n_resp_n_validos":1,"n_resp_n_total":1,"n_resp_completude":1.0,"renda_resp_n_validos":1,"renda_resp_n_total":1,"renda_resp_completude":1.0,"dens_n_validos":1,"dens_n_total":1,"dens_completude":1.0},"geometry":{"type":"Polygon","coordinates":[[[-51.69623179999997,-28.266047099999977],[-51.69319069999995,-28.269258499999975],[-51.69424169999997,-28.26976379999996],[-51.69390489999996,-28.270337799999933],[-51.69430859999995,-28.270673199999987],[-51.69508789999997,-28.270547699999938],[-51.69581789999995,-28.270702399999948],[-51.69613469999996,-28.270987699999974],[-51.6971655,-28.270799],[-51.696987,-28.276910299999948],[-51.689223399999946,-28.276912899999953],[-51.690607099999966,-28.278357399999937],[-51.69156559999993,-28.278824499999928],[-51.692178699999936,-28.27953919999993],[-51.691623,-28.284547699999962],[-51.69245509999996,-28.284915],[-51.69319829999995,-28.285955899999973],[-51.69466389999996,-28.286593699999976],[-51.69495629999995,-28.2876199],[-51.696409,-28.28957529999997],[-51.69703779999997,-28.29128769999993],[-51.69825579999998,-28.29276479999993],[-51.698542699999955,-28.294017699999984],[-51.69807979999995,-28.295415799999933],[-51.697272099999964,-28.2961759],[-51.697384699999986,-28.297763299999936],[-51.69652959999996,-28.29920939999995],[-51.69656029999992,-28.300098099999957],[-51.69444129999994,-28.30106259999997],[-51.69367159999996,-28.30242929999996],[-51.693409,-28.30446379999995],[-51.692656399999976,-28.306107],[-51.69278059999994,-28.30770679999994],[-51.692341899999974,-28.30908189999998],[-51.69163679999997,-28.310367099999958],[-51.689767699999955,-28.311611199999962],[-51.68916349999995,-28.313106899999966],[-51.68885039999998,-28.314802899999957],[-51.70521789999998,-28.312733899999955],[-51.70533429999995,-28.311399199999983],[-51.740354899999936,-28.310371299999925],[-51.74037559999994,-28.309813399999936],[-51.73930829999995,-28.308911],[-51.737350299999946,-28.307936],[-51.736050199999966,-28.306939199999935],[-51.73454689999994,-28.305342399999972],[-51.73436069999997,-28.304369],[-51.73538939999998,-28.30170729999998],[-51.73559919999997,-28.300362],[-51.73901579999995,-28.29667019999994],[-51.738861199999974,-28.294873199999973],[-51.73902359999994,-28.293074],[-51.74113349999993,-28.289821],[-51.740963299999976,-28.288706099999946],[-51.73998819999997,-28.286557199999944],[-51.740035399999954,-28.283506699999972],[-51.73920259999994,-28.280687],[-51.736968599999955,-28.27624639999994],[-51.73671009999998,-28.275138],[-51.73594169999996,-28.273581399999948],[-51.73612029999998,-28.27200769999996],[-51.735841799999946,-28.26979629999994],[-51.73221849999993,-28.265796299999984],[-51.73072259999997,-28.26266759999993],[-51.72910189999994,-28.261095599999976],[-51.72735739999996,-28.25837559999996],[-51.72627209999995,-28.257104799999972],[-51.72492949999997,-28.254626599999938],[-51.72201219999994,-28.253265299999956],[-51.718632,-28.255452799999947],[-51.70997309999996,-28.25693259999997],[-51.70845469999995,-28.25736219999992],[-51.703633,-28.25956],[-51.69623179999997,-28.266047099999977]]]}},{"type":"Feature","properties":{"setor":"430495205000020","pop":222,"sigilo_pop":false,"dom":91,"sigilo_dom":false,"mulheres":111,"sigilo_mulheres":false,"c0_4":16,"sigilo_c0_4":false,"c5_9":20,"sigilo_c5_9":false,"i60_69":16,"sigilo_i60_69":false,"i70m":20,"sigilo_i70m":false,"indigenas":4,"sigilo_indigenas":false,"pretos_pardos":115,"sigilo_pretos_pardos":false,"dom_ocupados":75,"sigilo_dom_ocupados":false,"dom_agua":75,"sigilo_dom_agua":false,"dom_esgoto":0,"sigilo_dom_esgoto":false,"renda_resp":1786.09,"sigilo_renda_resp":false,"n_resp":75,"sigilo_n_resp":false,"dens":4555.0,"sigilo_dens":false,"na_bacia":0,"area_pct_bacia":0.0,"metodo_recorte_bacia":"ponto_representativo_setor_2022; area_pct_geometrica","status_borda_bacia":"total","metodo_area_bacia":"interseção geométrica em EPSG:5880","metodo_na_bacia":"ponto_representativo_setor_2022_within_bacia","pop_n_validos":1,"pop_n_total":1,"pop_completude":1.0,"dom_n_validos":1,"dom_n_total":1,"dom_completude":1.0,"dom_ocupados_n_validos":1,"dom_ocupados_n_total":1,"dom_ocupados_completude":1.0,"mulheres_n_validos":1,"mulheres_n_total":1,"mulheres_completude":1.0,"c0_4_n_validos":1,"c0_4_n_total":1,"c0_4_completude":1.0,"c5_9_n_validos":1,"c5_9_n_total":1,"c5_9_completude":1.0,"i60_69_n_validos":1,"i60_69_n_total":1,"i60_69_completude":1.0,"i70m_n_validos":1,"i70m_n_total":1,"i70m_completude":1.0,"indigenas_n_validos":1,"indigenas_n_total":1,"indigenas_completude":1.0,"pretos_pardos_n_validos":1,"pretos_pardos_n_total":1,"pretos_pardos_completude":1.0,"dom_agua_n_validos":1,"dom_agua_n_total":1,"dom_agua_completude":1.0,"dom_esgoto_n_validos":1,"dom_esgoto_n_total":1,"dom_esgoto_completude":1.0,"n_resp_n_validos":1,"n_resp_n_total":1,"n_resp_completude":1.0,"renda_resp_n_validos":1,"renda_resp_n_total":1,"renda_resp_completude":1.0,"dens_n_validos":1,"dens_n_total":1,"dens_completude":1.0},"geometry":{"type":"Polygon","coordinates":[[[-51.68864419999995,-28.266150699999976],[-51.689438299999956,-28.26712139999995],[-51.69128359999997,-28.26384439999998],[-51.689413599999966,-28.263486299999954],[-51.68864419999995,-28.266150699999976]]]}},{"type":"Feature","properties":{"setor":"430495205000021","pop":170,"sigilo_pop":false,"dom":83,"sigilo_dom":false,"mulheres":84,"sigilo_mulheres":false,"c0_4":14,"sigilo_c0_4":false,"c5_9":null,"sigilo_c5_9":true,"i60_69":24,"sigilo_i60_69":false,"i70m":22,"sigilo_i70m":false,"indigenas":0,"sigilo_indigenas":false,"pretos_pardos":null,"sigilo_pretos_pardos":true,"dom_ocupados":65,"sigilo_dom_ocupados":false,"dom_agua":39,"sigilo_dom_agua":false,"dom_esgoto":0,"sigilo_dom_esgoto":false,"renda_resp":5743.02,"sigilo_renda_resp":false,"n_resp":65,"sigilo_n_resp":false,"dens":4.2,"sigilo_dens":false,"na_bacia":0,"area_pct_bacia":0.0,"metodo_recorte_bacia":"ponto_representativo_setor_2022; area_pct_geometrica","status_borda_bacia":"total","metodo_area_bacia":"interseção geométrica em EPSG:5880","metodo_na_bacia":"ponto_representativo_setor_2022_within_bacia","pop_n_validos":1,"pop_n_total":1,"pop_completude":1.0,"dom_n_validos":1,"dom_n_total":1,"dom_completude":1.0,"dom_ocupados_n_validos":1,"dom_ocupados_n_total":1,"dom_ocupados_completude":1.0,"mulheres_n_validos":1,"mulheres_n_total":1,"mulheres_completude":1.0,"c0_4_n_validos":1,"c0_4_n_total":1,"c0_4_completude":1.0,"c5_9_n_validos":0,"c5_9_n_total":1,"c5_9_completude":0.0,"i60_69_n_validos":1,"i60_69_n_total":1,"i60_69_completude":1.0,"i70m_n_validos":1,"i70m_n_total":1,"i70m_completude":1.0,"indigenas_n_validos":1,"indigenas_n_total":1,"indigenas_completude":1.0,"pretos_pardos_n_validos":0,"pretos_pardos_n_total":1,"pretos_pardos_completude":0.0,"dom_agua_n_validos":1,"dom_agua_n_total":1,"dom_agua_completude":1.0,"dom_esgoto_n_validos":1,"dom_esgoto_n_total":1,"dom_esgoto_completude":1.0,"n_resp_n_validos":1,"n_resp_n_total":1,"n_resp_completude":1.0,"renda_resp_n_validos":1,"renda_resp_n_total":1,"renda_resp_completude":1.0,"dens_n_validos":1,"dens_n_total":1,"dens_completude":1.0},"geometry":{"type":"Polygon","coordinates":[[[-51.63820089999996,-28.235552699999968],[-51.641109,-28.23868],[-51.65092449999997,-28.251987499999924],[-51.65615839999998,-28.255277],[-51.65768659999998,-28.256485799999957],[-51.660121199999935,-28.26256259999997],[-51.66118789999996,-28.264066299999964],[-51.662403,-28.265119399999943],[-51.66367669999994,-28.265691799999964],[-51.67142959999996,-28.267249],[-51.672390699999944,-28.26797859999992],[-51.67377309999995,-28.269786799999977],[-51.677994299999966,-28.267319499999928],[-51.67993909999996,-28.269485699999965],[-51.67737229999994,-28.270992599999943],[-51.676759199999935,-28.27022609999995],[-51.67551389999995,-28.27112],[-51.678065199999935,-28.271962899999956],[-51.68045919999997,-28.27034079999993],[-51.681868399999985,-28.27150489999998],[-51.68009859999995,-28.272621599999976],[-51.6816343,-28.273538299999924],[-51.68282319999997,-28.272355099999967],[-51.683334,-28.27285229999996],[-51.68568,-28.27363789999998],[-51.685541099999966,-28.273353199999963],[-51.68582509999993,-28.27320909999996],[-51.68580539999994,-28.271351899999974],[-51.68547669999998,-28.270732899999917],[-51.68458469999996,-28.270343099999938],[-51.68415759999994,-28.26985319999995],[-51.68371859999996,-28.268286899999968],[-51.68482929999993,-28.26770439999996],[-51.685005699999984,-28.2671387],[-51.685810199999935,-28.266603299999925],[-51.68660509999995,-28.266873699999966],[-51.68764969999996,-28.267812],[-51.688453299999935,-28.267617199999968],[-51.68894189999997,-28.26709279999995],[-51.68939539999997,-28.267101399999945],[-51.689356499999974,-28.266856499999953],[-51.68621259999997,-28.26367119999997],[-51.68372469999998,-28.261664599999968],[-51.68321409999999,-28.26019239999994],[-51.68143159999995,-28.258218],[-51.682155799999975,-28.256996899999926],[-51.68159449999996,-28.25554489999995],[-51.68143329999997,-28.253444099999964],[-51.67885719999998,-28.251570399999935],[-51.67813419999993,-28.250888199999963],[-51.678052099999945,-28.250499699999978],[-51.678412099999946,-28.24969969999994],[-51.678389899999964,-28.248112499999923],[-51.678813899999966,-28.24553659999998],[-51.681139299999984,-28.244067299999983],[-51.682050299999965,-28.242236799999937],[-51.684415799999954,-28.239519299999987],[-51.68442109999996,-28.237815799999954],[-51.685209,-28.236257],[-51.68663069999997,-28.235083099999944],[-51.6870656,-28.234403399999966],[-51.68649279999994,-28.230867899999954],[-51.68631689999996,-28.227597599999967],[-51.6871235,-28.226199299999962],[-51.68850069999996,-28.22249259999995],[-51.68949159999995,-28.218751],[-51.690109699999944,-28.217369099999924],[-51.690715799999964,-28.216341],[-51.693215599999974,-28.213472599999932],[-51.69341109999993,-28.21284759999997],[-51.69255739999994,-28.21115409999993],[-51.69272859999996,-28.208415],[-51.69103439999998,-28.206771],[-51.68962679999998,-28.20479379999995],[-51.68919669999996,-28.20356269999997],[-51.686179599999946,-28.19920379999997],[-51.68483139999995,-28.19631389999995],[-51.68533169999995,-28.19553159999998],[-51.68722559999998,-28.19494059999993],[-51.689065299999974,-28.193717799999945],[-51.68990549999995,-28.192864],[-51.69129569999996,-28.192547599999962],[-51.69158909999992,-28.19162729999994],[-51.69267159999998,-28.190066499999947],[-51.69360939999996,-28.189356],[-51.693921,-28.18629629999998],[-51.69338989999995,-28.18529009999998],[-51.691308099999965,-28.183242899999986],[-51.691287,-28.182762699999948],[-51.69167459999995,-28.18157839999998],[-51.69184219999995,-28.179469599999944],[-51.69319879999995,-28.175938199999973],[-51.694736499999976,-28.173584499999947],[-51.69889909999995,-28.170729599999948],[-51.70461089999998,-28.161428],[-51.704524799999945,-28.15860969999993],[-51.704148799999984,-28.156959499999974],[-51.70381389999995,-28.156498199999927],[-51.70319779999994,-28.15601439999994],[-51.700090399999965,-28.15498029999998],[-51.69374849999996,-28.149965699999935],[-51.68594059999998,-28.157211199999956],[-51.67212649999993,-28.16628609999998],[-51.66734229999997,-28.16927669999996],[-51.660341499999966,-28.17161869999996],[-51.65766749999995,-28.173376],[-51.65154469999993,-28.180913099999934],[-51.652129,-28.182467299999928],[-51.65009679999997,-28.186711099999957],[-51.65316789999998,-28.187130899999936],[-51.65721739999998,-28.189205199999947],[-51.65923679999998,-28.187968],[-51.660061299999946,-28.185702899999956],[-51.660923299999986,-28.185457899999953],[-51.66233509999995,-28.186487599999968],[-51.664241699999934,-28.190899899999984],[-51.66286179999997,-28.189995199999952],[-51.662750899999935,-28.195839499999977],[-51.66843839999996,-28.19860079999995],[-51.66848239999996,-28.20093389999994],[-51.666787499999934,-28.202001799999948],[-51.66928079999997,-28.204467699999952],[-51.669529099999984,-28.20612429999993],[-51.66821659999994,-28.20632289999998],[-51.66689819999994,-28.20544],[-51.66221309999998,-28.205848899999978],[-51.65237309999997,-28.212437699999942],[-51.649334599999975,-28.218777499999923],[-51.649105,-28.22116539999997],[-51.64670549999994,-28.223527799999943],[-51.646072799999956,-28.227331099999958],[-51.64684159999996,-28.231347],[-51.64073249999996,-28.233250399999978],[-51.63820089999996,-28.235552699999968]]]}},{"type":"Feature","properties":{"setor":"430495205000022","pop":690,"sigilo_pop":false,"dom":296,"sigilo_dom":false,"mulheres":352,"sigilo_mulheres":false,"c0_4":40,"sigilo_c0_4":false,"c5_9":48,"sigilo_c5_9":false,"i60_69":66,"sigilo_i60_69":false,"i70m":72,"sigilo_i70m":false,"indigenas":0,"sigilo_indigenas":false,"pretos_pardos":150,"sigilo_pretos_pardos":false,"dom_ocupados":258,"sigilo_dom_ocupados":false,"dom_agua":256,"sigilo_dom_agua":false,"dom_esgoto":180,"sigilo_dom_esgoto":false,"renda_resp":2217.04,"sigilo_renda_resp":false,"n_resp":258,"sigilo_n_resp":false,"dens":1111.5,"sigilo_dens":false,"na_bacia":0,"area_pct_bacia":0.0,"metodo_recorte_bacia":"ponto_representativo_setor_2022; area_pct_geometrica","status_borda_bacia":"total","metodo_area_bacia":"interseção geométrica em EPSG:5880","metodo_na_bacia":"ponto_representativo_setor_2022_within_bacia","pop_n_validos":1,"pop_n_total":1,"pop_completude":1.0,"dom_n_validos":1,"dom_n_total":1,"dom_completude":1.0,"dom_ocupados_n_validos":1,"dom_ocupados_n_total":1,"dom_ocupados_completude":1.0,"mulheres_n_validos":1,"mulheres_n_total":1,"mulheres_completude":1.0,"c0_4_n_validos":1,"c0_4_n_total":1,"c0_4_completude":1.0,"c5_9_n_validos":1,"c5_9_n_total":1,"c5_9_completude":1.0,"i60_69_n_validos":1,"i60_69_n_total":1,"i60_69_completude":1.0,"i70m_n_validos":1,"i70m_n_total":1,"i70m_completude":1.0,"indigenas_n_validos":1,"indigenas_n_total":1,"indigenas_completude":1.0,"pretos_pardos_n_validos":1,"pretos_pardos_n_total":1,"pretos_pardos_completude":1.0,"dom_agua_n_validos":1,"dom_agua_n_total":1,"dom_agua_completude":1.0,"dom_esgoto_n_validos":1,"dom_esgoto_n_total":1,"dom_esgoto_completude":1.0,"n_resp_n_validos":1,"n_resp_n_total":1,"n_resp_completude":1.0,"renda_resp_n_validos":1,"renda_resp_n_total":1,"renda_resp_completude":1.0,"dens_n_validos":1,"dens_n_total":1,"dens_completude":1.0},"geometry":{"type":"Polygon","coordinates":[[[-51.69319069999995,-28.269258499999975],[-51.691317199999965,-28.27173869999995],[-51.686765899999955,-28.27394139999995],[-51.68528109999994,-28.274368599999946],[-51.68588319999998,-28.275692799999938],[-51.68698439999998,-28.276162199999938],[-51.687452,-28.27690629999996],[-51.696987,-28.276910299999948],[-51.6971655,-28.270799],[-51.69613469999996,-28.270987699999974],[-51.69581789999995,-28.270702399999948],[-51.69508789999997,-28.270547699999938],[-51.69430859999995,-28.270673199999987],[-51.69390489999996,-28.270337799999933],[-51.69424169999997,-28.26976379999996],[-51.69319069999995,-28.269258499999975]]]}}]}
