{"type":"FeatureCollection","name":"4304697","crs":{"type":"name","properties":{"name":"urn:ogc:def:crs:OGC:1.3:CRS84"}},"features":[{"type":"Feature","properties":{"setor":"430469705000001","pop":831,"sigilo_pop":false,"dom":311,"sigilo_dom":false,"mulheres":436,"sigilo_mulheres":false,"c0_4":43,"sigilo_c0_4":false,"c5_9":70,"sigilo_c5_9":false,"i60_69":79,"sigilo_i60_69":false,"i70m":69,"sigilo_i70m":false,"indigenas":0,"sigilo_indigenas":false,"pretos_pardos":63,"sigilo_pretos_pardos":false,"dom_ocupados":293,"sigilo_dom_ocupados":false,"dom_agua":291,"sigilo_dom_agua":false,"dom_esgoto":null,"sigilo_dom_esgoto":true,"renda_resp":2084.43,"sigilo_renda_resp":false,"n_resp":293,"sigilo_n_resp":false,"dens":970.8,"sigilo_dens":false,"na_bacia":1,"area_pct_bacia":100.0,"metodo_recorte_bacia":"ponto_representativo_setor_2022; area_pct_geometrica"},"geometry":{"type":"Polygon","coordinates":[[[-51.98423269999996,-29.26478149999997],[-51.981678099999954,-29.2648],[-51.98319679999997,-29.267406799999954],[-51.983078699999965,-29.2738452],[-51.97999129999994,-29.27489029999998],[-51.97795969999998,-29.274516],[-51.97651929999996,-29.27491109999993],[-51.97472179999995,-29.274977199999952],[-51.97473269999995,-29.275709699999943],[-51.97666,-29.275630099999947],[-51.97802759999996,-29.27523549999996],[-51.98024859999998,-29.275779899999968],[-51.981222199999934,-29.27533149999994],[-51.98258229999993,-29.275355699999967],[-51.984530199999945,-29.274735799999977],[-51.98586179999996,-29.27321579999994],[-51.98707249999995,-29.272246199999987],[-51.98736759999998,-29.271820399999978],[-51.98749289999995,-29.270414199999944],[-51.98947639999995,-29.26895569999993],[-51.990931699999976,-29.266697299999972],[-51.991699899999965,-29.266268299999986],[-51.99301159999994,-29.26598949999993],[-51.99317869999994,-29.265542899999954],[-51.99201149999993,-29.26548319999996],[-51.99204759999998,-29.26355889999997],[-51.991029599999926,-29.263567],[-51.98971239999997,-29.262129599999977],[-51.988388,-29.26201969999994],[-51.987992599999984,-29.26237929999997],[-51.98629619999997,-29.263020399999967],[-51.985891399999964,-29.263422],[-51.9842824,-29.263507899999972],[-51.98423269999996,-29.26478149999997]]]}},{"type":"Feature","properties":{"setor":"430469705000002","pop":440,"sigilo_pop":false,"dom":198,"sigilo_dom":false,"mulheres":202,"sigilo_mulheres":false,"c0_4":24,"sigilo_c0_4":false,"c5_9":22,"sigilo_c5_9":false,"i60_69":76,"sigilo_i60_69":false,"i70m":53,"sigilo_i70m":false,"indigenas":0,"sigilo_indigenas":false,"pretos_pardos":31,"sigilo_pretos_pardos":false,"dom_ocupados":166,"sigilo_dom_ocupados":false,"dom_agua":118,"sigilo_dom_agua":false,"dom_esgoto":0,"sigilo_dom_esgoto":false,"renda_resp":2657.77,"sigilo_renda_resp":false,"n_resp":166,"sigilo_n_resp":false,"dens":18.4,"sigilo_dens":false,"na_bacia":1,"area_pct_bacia":100.0,"metodo_recorte_bacia":"ponto_representativo_setor_2022; area_pct_geometrica"},"geometry":{"type":"Polygon","coordinates":[[[-51.981082799999974,-29.27887909999998],[-51.9807,-29.279818199999962],[-51.97961829999998,-29.28027879999996],[-51.97996059999998,-29.281487699999968],[-51.978638,-29.282516],[-51.978494299999966,-29.284034399999936],[-51.977784499999984,-29.285221099999948],[-51.97590419999995,-29.285888099999962],[-51.97316609999996,-29.291091699999978],[-51.973221,-29.292013],[-51.97399009999998,-29.293689699999955],[-51.97390129999997,-29.29523369999998],[-51.974429499999985,-29.29701359999996],[-51.97426049999996,-29.29779109999998],[-51.97333089999996,-29.298767599999955],[-51.97310269999997,-29.299755199999932],[-51.97386329999994,-29.301675],[-51.97384379999995,-29.303333599999977],[-51.97679229999995,-29.301123299999972],[-51.98379969999996,-29.300752099999958],[-51.987247799999984,-29.300937499999957],[-52.00057919999995,-29.307520499999956],[-52.00427849999994,-29.310201299999957],[-52.007907699999976,-29.31506979999994],[-52.00938119999995,-29.315328099999924],[-52.00863789999995,-29.31675729999994],[-52.010083,-29.31741649999998],[-52.013517499999985,-29.317480299999936],[-52.014134599999984,-29.31868269999994],[-52.01976389999999,-29.317487299999982],[-52.02205909999998,-29.317796399999963],[-52.01810409999996,-29.321324699999934],[-52.017033199999965,-29.326333299999927],[-52.01515239999998,-29.328221],[-52.01518169999997,-29.329210899999957],[-52.03701349999995,-29.328675899999954],[-52.03675149999998,-29.284290299999952],[-52.035812,-29.28330459999996],[-52.035292199999965,-29.282998799999977],[-52.033137299999964,-29.282689199999933],[-52.02707809999998,-29.279372199999948],[-52.0261316,-29.278590799999954],[-52.025286499999936,-29.27719029999998],[-52.02422169999994,-29.277603099999958],[-52.02314839999997,-29.279011],[-52.021897699999954,-29.279335299999964],[-52.02179629999995,-29.279844],[-52.02109489999998,-29.28064],[-52.020385,-29.280043],[-52.01924419999995,-29.28038939999992],[-52.017427199999986,-29.279335299999964],[-52.016979299999946,-29.279357499999946],[-52.01555119999995,-29.28128129999993],[-52.015280699999956,-29.282254299999973],[-52.01546659999997,-29.28351469999995],[-52.013506099999965,-29.28420759999995],[-52.011537,-29.282873399999968],[-52.00919609999993,-29.28248279999997],[-52.00954259999998,-29.28165719999998],[-52.00892569999997,-29.28071369999997],[-52.00909469999993,-29.279519599999947],[-52.008849699999985,-29.27910679999996],[-52.007227099999966,-29.27852449999994],[-52.00584119999996,-29.277293499999914],[-52.00462429999994,-29.276821699999978],[-52.00421859999994,-29.276394199999967],[-52.00262989999993,-29.275576],[-52.001903099999936,-29.274684],[-52.001227,-29.274661899999963],[-52.00028049999997,-29.275148399999978],[-51.999579099999956,-29.274934699999957],[-51.99902979999997,-29.273828899999963],[-51.99751709999999,-29.272472499999935],[-51.99611429999993,-29.272332499999933],[-51.99491429999994,-29.271307799999928],[-51.99281339999993,-29.270157399999967],[-51.99284589999996,-29.27102919999993],[-51.99041329999994,-29.270697],[-51.98948919999998,-29.273936599999963],[-51.98775629999995,-29.278096899999987],[-51.987126099999955,-29.278079099999946],[-51.98719589999996,-29.277688299999973],[-51.98676,-29.276631099999975],[-51.98448609999998,-29.276631099999975],[-51.984373699999935,-29.275739399999967],[-51.98309039999998,-29.27576189999996],[-51.98239989999997,-29.27610749999997],[-51.98228109999997,-29.277923199999975],[-51.98132609999994,-29.279048099999947],[-51.981082799999974,-29.27887909999998]]]}},{"type":"Feature","properties":{"setor":"430469705000003","pop":479,"sigilo_pop":false,"dom":184,"sigilo_dom":false,"mulheres":240,"sigilo_mulheres":false,"c0_4":48,"sigilo_c0_4":false,"c5_9":32,"sigilo_c5_9":false,"i60_69":47,"sigilo_i60_69":false,"i70m":41,"sigilo_i70m":false,"indigenas":0,"sigilo_indigenas":false,"pretos_pardos":53,"sigilo_pretos_pardos":false,"dom_ocupados":161,"sigilo_dom_ocupados":false,"dom_agua":124,"sigilo_dom_agua":false,"dom_esgoto":0,"sigilo_dom_esgoto":false,"renda_resp":4016.94,"sigilo_renda_resp":false,"n_resp":161,"sigilo_n_resp":false,"dens":27.2,"sigilo_dens":false,"na_bacia":1,"area_pct_bacia":100.0,"metodo_recorte_bacia":"ponto_representativo_setor_2022; area_pct_geometrica"},"geometry":{"type":"Polygon","coordinates":[[[-51.96458049999995,-29.238005],[-51.964764299999956,-29.246862699999962],[-51.96302319999995,-29.24687319999998],[-51.966887199999974,-29.247619599999954],[-51.96771109999998,-29.250001199999936],[-51.96919,-29.25129889999994],[-51.972071699999965,-29.252058299999923],[-51.973483,-29.252803],[-51.97431119999993,-29.25421859999994],[-51.975215399999975,-29.257189899999947],[-51.97558729999997,-29.257529099999946],[-51.97741259999998,-29.25778709999997],[-51.97922109999996,-29.259151],[-51.979609899999964,-29.26003579999996],[-51.9795,-29.26115639999996],[-51.98024369999996,-29.262660399999962],[-51.98206029999995,-29.26479719999997],[-51.98423269999996,-29.26478149999997],[-51.9842824,-29.263507899999972],[-51.985891399999964,-29.263422],[-51.98629619999997,-29.263020399999967],[-51.987992599999984,-29.26237929999997],[-51.98834939999994,-29.26202139999998],[-51.98971239999997,-29.262129599999977],[-51.991029599999926,-29.263567],[-51.99204759999998,-29.26355889999997],[-51.99201149999993,-29.26548319999996],[-51.99317869999994,-29.265542899999954],[-51.992814799999955,-29.26653809999992],[-51.99281339999993,-29.270157399999967],[-51.99491429999994,-29.271307799999928],[-51.99611429999993,-29.272332499999933],[-51.99751709999999,-29.272472499999935],[-51.99902979999997,-29.273828899999963],[-51.999579099999956,-29.274934699999957],[-52.00028049999997,-29.275148399999978],[-52.001227,-29.274661899999963],[-52.001903099999936,-29.274684],[-52.00262989999993,-29.275576],[-52.00421859999994,-29.276394199999967],[-52.00462429999994,-29.276821699999978],[-52.00584119999996,-29.277293499999914],[-52.007227099999966,-29.27852449999994],[-52.008849699999985,-29.27910679999996],[-52.00909469999993,-29.279519599999947],[-52.00892569999997,-29.28071369999997],[-52.00954259999998,-29.28165719999998],[-52.00919609999993,-29.28248279999997],[-52.011537,-29.282873399999968],[-52.013506099999965,-29.28420759999995],[-52.01546659999997,-29.28351469999995],[-52.015280699999956,-29.282254299999973],[-52.01555119999995,-29.28128129999993],[-52.016979299999946,-29.279357499999946],[-52.017427199999986,-29.279335299999964],[-52.01924419999995,-29.28038939999992],[-52.020385,-29.280043],[-52.02109489999998,-29.28064],[-52.02179629999995,-29.279844],[-52.021897699999954,-29.279335299999964],[-52.02314839999997,-29.279011],[-52.02422169999994,-29.277603099999958],[-52.025286499999936,-29.27719029999998],[-52.0261316,-29.278590799999954],[-52.02707809999998,-29.279372199999948],[-52.033137299999964,-29.282689199999933],[-52.035292199999965,-29.282998799999977],[-52.035812,-29.28330459999996],[-52.03675149999998,-29.284290299999952],[-52.03675729999998,-29.285053599999973],[-52.03665409999997,-29.267627],[-52.036176599999976,-29.26714289999995],[-52.035421,-29.26683149999997],[-52.03258669999997,-29.266631099999977],[-52.030723199999954,-29.267051],[-52.029833,-29.26699909999996],[-52.02637589999995,-29.265092899999956],[-52.02475459999994,-29.263778299999956],[-52.02227179999994,-29.26092849999997],[-52.020894899999966,-29.260882],[-52.01630929999993,-29.259883199999926],[-52.013507199999935,-29.257117],[-52.01339679999996,-29.255854399999972],[-52.01423889999995,-29.254986699999954],[-52.01276879999995,-29.255073099999944],[-52.012173399999945,-29.25542769999993],[-52.01166029999997,-29.25535689999999],[-52.01091279999997,-29.254636],[-52.009171199999976,-29.254348599999947],[-52.00529559999996,-29.25124869999997],[-52.00403249999994,-29.24931959999998],[-52.002238599999934,-29.248339499999936],[-51.9998882,-29.248357499999937],[-51.99900169999995,-29.247914099999942],[-51.99830629999996,-29.24685289999997],[-51.998534,-29.244510499999937],[-51.99812739999994,-29.24325339999997],[-51.997577399999955,-29.242754599999955],[-51.99678229999996,-29.242583],[-51.995324899999964,-29.24298419999997],[-51.994862799999964,-29.242833899999937],[-51.99461169999996,-29.24236019999995],[-51.994173799999935,-29.240334299999972],[-51.99557679999999,-29.239663499999942],[-51.99574809999996,-29.239271],[-51.99494279999993,-29.236566799999927],[-51.99471429999994,-29.236252199999967],[-51.99374869999997,-29.235968],[-51.99361369999997,-29.23566659999995],[-51.99408389999997,-29.234605799999937],[-51.99358779999994,-29.23382719999995],[-51.97656859999996,-29.234161699999962],[-51.97635309999998,-29.235131599999935],[-51.96737519999994,-29.235641199999975],[-51.967404699999975,-29.23633169999993],[-51.96600929999994,-29.238016899999927],[-51.96458049999995,-29.238005]]]}},{"type":"Feature","properties":{"setor":"430469705000004","pop":445,"sigilo_pop":false,"dom":211,"sigilo_dom":false,"mulheres":220,"sigilo_mulheres":false,"c0_4":32,"sigilo_c0_4":false,"c5_9":27,"sigilo_c5_9":false,"i60_69":65,"sigilo_i60_69":false,"i70m":72,"sigilo_i70m":false,"indigenas":0,"sigilo_indigenas":false,"pretos_pardos":42,"sigilo_pretos_pardos":false,"dom_ocupados":168,"sigilo_dom_ocupados":false,"dom_agua":122,"sigilo_dom_agua":false,"dom_esgoto":0,"sigilo_dom_esgoto":false,"renda_resp":2006.48,"sigilo_renda_resp":false,"n_resp":168,"sigilo_n_resp":false,"dens":25.0,"sigilo_dens":false,"na_bacia":1,"area_pct_bacia":100.0,"metodo_recorte_bacia":"ponto_representativo_setor_2022; area_pct_geometrica"},"geometry":{"type":"Polygon","coordinates":[[[-51.96302319999995,-29.24687319999998],[-51.946915899999965,-29.246972399999947],[-51.94647279999998,-29.256583399999954],[-51.946544699999954,-29.271726399999977],[-51.944987399999945,-29.27348919999998],[-51.93685969999996,-29.277758],[-51.93007949999998,-29.283006799999946],[-51.92707329999997,-29.287631099999928],[-51.92008849999996,-29.29057],[-51.91937089999993,-29.29159239999995],[-51.91943039999995,-29.292316699999954],[-51.919401799999946,-29.29195109999995],[-51.923657,-29.29163709999995],[-51.92683449999998,-29.29099589999994],[-51.9278571,-29.29114329999993],[-51.928592299999934,-29.291533899999934],[-51.928862699999975,-29.292241499999935],[-51.929344399999934,-29.292661599999967],[-51.93269939999993,-29.293958699999973],[-51.934102199999984,-29.294953699999944],[-51.938015,-29.295609599999974],[-51.93968819999998,-29.296398199999935],[-51.941615,-29.296980399999935],[-51.944741799999974,-29.296214],[-51.948130599999956,-29.293980799999915],[-51.94917,-29.292425699999953],[-51.95066579999997,-29.29219719999998],[-51.95787439999997,-29.292145699999935],[-51.95882089999998,-29.29244049999994],[-51.96104339999994,-29.29038419999994],[-51.96575079999997,-29.287728799999964],[-51.96662939999993,-29.286875799999965],[-51.96919,-29.28584389999998],[-51.97068579999995,-29.285976599999977],[-51.97117589999993,-29.28507],[-51.97186889999995,-29.284590899999948],[-51.97380409999994,-29.28416339999995],[-51.97471679999995,-29.2845172],[-51.97610279999998,-29.284436099999933],[-51.97781629999997,-29.285133399999943],[-51.978494299999966,-29.284034399999936],[-51.978638,-29.282516],[-51.97996059999998,-29.281487699999968],[-51.97961829999998,-29.28027879999996],[-51.9807,-29.279818199999962],[-51.981082799999974,-29.27887909999998],[-51.97900169999997,-29.277257499999955],[-51.97805029999996,-29.277006899999954],[-51.97716139999995,-29.276264499999954],[-51.976818699999974,-29.276275299999952],[-51.97679809999995,-29.277256],[-51.975087299999984,-29.277272299999936],[-51.97507259999997,-29.27822819999994],[-51.97621239999995,-29.278245899999956],[-51.97620879999994,-29.278859099999977],[-51.974720899999966,-29.27884619999998],[-51.97472179999995,-29.274977199999952],[-51.97651929999996,-29.27491109999993],[-51.97795969999998,-29.274516],[-51.97999129999994,-29.27489029999998],[-51.983078699999965,-29.2738452],[-51.98319679999997,-29.267406799999954],[-51.981678099999954,-29.2648],[-51.98206029999995,-29.26479719999997],[-51.98024369999996,-29.262660399999962],[-51.9795,-29.26115639999996],[-51.979609899999964,-29.26003579999996],[-51.97937319999994,-29.259357499999965],[-51.97741259999998,-29.25778709999997],[-51.975376,-29.25741109999995],[-51.97452249999998,-29.255346699999958],[-51.97431119999993,-29.25421859999994],[-51.97366889999995,-29.25298],[-51.972071699999965,-29.252058299999923],[-51.970178699999956,-29.25146849999994],[-51.96945489999997,-29.251446],[-51.96901249999997,-29.251158799999924],[-51.96771109999998,-29.250001199999936],[-51.966887199999974,-29.247619599999954],[-51.96302319999995,-29.24687319999998]]]}},{"type":"Feature","properties":{"setor":"430469705000005","pop":245,"sigilo_pop":false,"dom":121,"sigilo_dom":false,"mulheres":116,"sigilo_mulheres":false,"c0_4":null,"sigilo_c0_4":true,"c5_9":14,"sigilo_c5_9":false,"i60_69":40,"sigilo_i60_69":false,"i70m":30,"sigilo_i70m":false,"indigenas":0,"sigilo_indigenas":false,"pretos_pardos":29,"sigilo_pretos_pardos":false,"dom_ocupados":96,"sigilo_dom_ocupados":false,"dom_agua":65,"sigilo_dom_agua":false,"dom_esgoto":0,"sigilo_dom_esgoto":false,"renda_resp":2230.33,"sigilo_renda_resp":false,"n_resp":96,"sigilo_n_resp":false,"dens":18.6,"sigilo_dens":false,"na_bacia":1,"area_pct_bacia":100.0,"metodo_recorte_bacia":"ponto_representativo_setor_2022; area_pct_geometrica"},"geometry":{"type":"Polygon","coordinates":[[[-51.919401799999946,-29.29195109999995],[-51.92037009999995,-29.30384649999997],[-51.93970959999995,-29.30400459999992],[-51.93972519999994,-29.305382],[-51.94392179999994,-29.305411399999965],[-51.94412569999998,-29.313523499999967],[-51.94673719999998,-29.315759699999948],[-51.948676199999966,-29.31970729999995],[-51.94729109999998,-29.321209299999953],[-51.95142709999994,-29.32414629999994],[-51.95508,-29.328911899999976],[-51.96251319999994,-29.32846189999998],[-51.964977499999975,-29.329748599999952],[-51.96590359999994,-29.32563109999995],[-51.96562519999998,-29.323419899999973],[-51.96910849999995,-29.320671599999965],[-51.96822279999998,-29.317355399999943],[-51.971220399999936,-29.314055],[-51.97446609999997,-29.308088599999948],[-51.97384379999995,-29.303333599999977],[-51.97386329999994,-29.301675],[-51.97310269999997,-29.299755199999932],[-51.97333089999996,-29.298767599999955],[-51.97432389999995,-29.297651099999932],[-51.97441259999994,-29.296777799999976],[-51.97390129999997,-29.29523369999998],[-51.97399009999998,-29.293689699999955],[-51.973276,-29.292182499999956],[-51.97312809999994,-29.291287],[-51.97590419999995,-29.285888099999962],[-51.97781629999997,-29.285133399999943],[-51.97610279999998,-29.284436099999933],[-51.97471679999995,-29.2845172],[-51.97380409999994,-29.28416339999995],[-51.97186889999995,-29.284590899999948],[-51.97117589999993,-29.28507],[-51.97068579999995,-29.285976599999977],[-51.96919,-29.28584389999998],[-51.96662939999993,-29.286875799999965],[-51.96575079999997,-29.287728799999964],[-51.96104339999994,-29.29038419999994],[-51.95882089999998,-29.29244049999994],[-51.95787439999997,-29.292145699999935],[-51.95066579999997,-29.29219719999998],[-51.94917,-29.292425699999953],[-51.948130599999956,-29.293980799999915],[-51.944741799999974,-29.296214],[-51.941615,-29.296980399999935],[-51.93968819999998,-29.296398199999935],[-51.938015,-29.295609599999974],[-51.934102199999984,-29.294953699999944],[-51.93269939999993,-29.293958699999973],[-51.929344399999934,-29.292661599999967],[-51.928862699999975,-29.292241499999935],[-51.928592299999934,-29.291533899999934],[-51.9278571,-29.29114329999993],[-51.92683449999998,-29.29099589999994],[-51.923657,-29.29163709999995],[-51.919401799999946,-29.29195109999995]]]}},{"type":"Feature","properties":{"setor":"430469705000006","pop":481,"sigilo_pop":false,"dom":188,"sigilo_dom":false,"mulheres":229,"sigilo_mulheres":false,"c0_4":24,"sigilo_c0_4":false,"c5_9":27,"sigilo_c5_9":false,"i60_69":73,"sigilo_i60_69":false,"i70m":49,"sigilo_i70m":false,"indigenas":0,"sigilo_indigenas":false,"pretos_pardos":55,"sigilo_pretos_pardos":false,"dom_ocupados":170,"sigilo_dom_ocupados":false,"dom_agua":168,"sigilo_dom_agua":false,"dom_esgoto":4,"sigilo_dom_esgoto":false,"renda_resp":2495.47,"sigilo_renda_resp":false,"n_resp":170,"sigilo_n_resp":false,"dens":782.5,"sigilo_dens":false,"na_bacia":1,"area_pct_bacia":100.0,"metodo_recorte_bacia":"ponto_representativo_setor_2022; area_pct_geometrica"},"geometry":{"type":"Polygon","coordinates":[[[-51.97473269999995,-29.275709699999943],[-51.974720899999966,-29.27884619999998],[-51.97620879999994,-29.278859099999977],[-51.97621239999995,-29.278245899999956],[-51.97507259999997,-29.27822819999994],[-51.975087299999984,-29.277272299999936],[-51.97679809999995,-29.277256],[-51.976818699999974,-29.276275299999952],[-51.97716139999995,-29.276264499999954],[-51.97805029999996,-29.277006899999954],[-51.97900169999997,-29.277257499999955],[-51.98132609999994,-29.279048099999947],[-51.982348799999954,-29.277797],[-51.98239989999997,-29.27610749999997],[-51.98309039999998,-29.27576189999996],[-51.984373699999935,-29.275739399999967],[-51.98448609999998,-29.276631099999975],[-51.98676,-29.276631099999975],[-51.98719589999996,-29.277688299999973],[-51.987126099999955,-29.278079099999946],[-51.98775629999995,-29.278096899999987],[-51.98948919999998,-29.273936599999963],[-51.99041329999994,-29.270697],[-51.99284589999996,-29.27102919999993],[-51.992814799999955,-29.26653809999992],[-51.99301159999994,-29.26598949999993],[-51.991699899999965,-29.266268299999986],[-51.990931699999976,-29.266697299999972],[-51.98947639999995,-29.26895569999993],[-51.98749289999995,-29.270414199999944],[-51.98736759999998,-29.271820399999978],[-51.98707249999995,-29.272246199999987],[-51.98586179999996,-29.27321579999994],[-51.984530199999945,-29.274735799999977],[-51.98258229999993,-29.275355699999967],[-51.981222199999934,-29.27533149999994],[-51.98024859999998,-29.275779899999968],[-51.97802759999996,-29.27523549999996],[-51.97666,-29.275630099999947],[-51.97473269999995,-29.275709699999943]]]}}]}