{"type":"FeatureCollection","name":"4305934","crs":{"type":"name","properties":{"name":"urn:ogc:def:crs:OGC:1.3:CRS84"}},"features":[{"type":"Feature","properties":{"setor":"430593405000001","pop":197,"sigilo_pop":false,"dom":95,"sigilo_dom":0,"mulheres":104,"sigilo_mulheres":0,"c0_4":null,"sigilo_c0_4":1,"c5_9":null,"sigilo_c5_9":1,"i60_69":25,"sigilo_i60_69":0,"i70m":37,"sigilo_i70m":0,"indigenas":0,"sigilo_indigenas":0,"pretos_pardos":null,"sigilo_pretos_pardos":1,"dom_ocupados":81,"sigilo_dom_ocupados":0,"dom_agua":75,"sigilo_dom_agua":0,"dom_esgoto":3,"sigilo_dom_esgoto":0,"renda_resp":3940.75,"sigilo_renda_resp":0,"n_resp":81,"sigilo_n_resp":0,"dens":430.9,"sigilo_dens":false,"na_bacia":1,"area_pct_bacia":100.0,"metodo_recorte_bacia":"ponto_representativo_setor_2022; area_pct_geometrica","pop_n_validos":1,"pop_n_total":1,"pop_completude":1.0,"dom_n_validos":1,"dom_n_total":1,"dom_completude":1.0,"dom_ocupados_n_validos":1,"dom_ocupados_n_total":1,"dom_ocupados_completude":1.0,"mulheres_n_validos":1,"mulheres_n_total":1,"mulheres_completude":1.0,"c0_4_n_validos":0,"c0_4_n_total":1,"c0_4_completude":0.0,"c5_9_n_validos":0,"c5_9_n_total":1,"c5_9_completude":0.0,"i60_69_n_validos":1,"i60_69_n_total":1,"i60_69_completude":1.0,"i70m_n_validos":1,"i70m_n_total":1,"i70m_completude":1.0,"indigenas_n_validos":1,"indigenas_n_total":1,"indigenas_completude":1.0,"pretos_pardos_n_validos":0,"pretos_pardos_n_total":1,"pretos_pardos_completude":0.0,"dom_agua_n_validos":1,"dom_agua_n_total":1,"dom_agua_completude":1.0,"dom_esgoto_n_validos":1,"dom_esgoto_n_total":1,"dom_esgoto_completude":1.0,"n_resp_n_validos":1,"n_resp_n_total":1,"n_resp_completude":1.0,"renda_resp_n_validos":1,"renda_resp_n_total":1,"renda_resp_completude":1.0,"dens_n_validos":1,"dens_n_total":1,"dens_completude":1.0,"status_borda_bacia":"total","metodo_area_bacia":"interse??o geom?trica em EPSG:5880","metodo_na_bacia":"ponto_representativo_setor_2022_within_bacia","municipio":"Coronel Pilar","cod_mun":"4305934","mun_pct_na_bacia":100.0,"mun_pop_total":1607,"mun_pop_na_bacia":1607.0,"mun_ubs_iede":1,"mun_hospitais_iede":null,"mun_escolas_iede":3,"mun_bombeiros_iede":null,"mun_servicos_cobertura":"cadastro_IEDE_parcial_nao_inventario","mun_icm_faixa":"B","mun_icm_pontos":7,"mun_icm_prioritario":"não","mun_ubs_iede_status":"published","mun_hospitais_iede_status":"unknown","mun_escolas_iede_status":"published","mun_bombeiros_iede_status":"unknown"},"geometry":{"type":"Polygon","coordinates":[[[-51.680550699999976,-29.273504099999972],[-51.68137439999998,-29.274841899999956],[-51.689310199999966,-29.274977299999925],[-51.69057969999995,-29.275281199999935],[-51.69110529999994,-29.274799099999946],[-51.69110459999995,-29.273395399999966],[-51.691862399999934,-29.27045249999998],[-51.68444829999998,-29.270443699999923],[-51.68177689999994,-29.272648699999937],[-51.680992799999956,-29.273018],[-51.680571199999974,-29.272995],[-51.680550699999976,-29.273504099999972]]]}},{"type":"Feature","properties":{"setor":"430593405000003","pop":306,"sigilo_pop":false,"dom":153,"sigilo_dom":0,"mulheres":147,"sigilo_mulheres":0,"c0_4":12,"sigilo_c0_4":0,"c5_9":null,"sigilo_c5_9":1,"i60_69":62,"sigilo_i60_69":0,"i70m":48,"sigilo_i70m":0,"indigenas":0,"sigilo_indigenas":0,"pretos_pardos":14,"sigilo_pretos_pardos":0,"dom_ocupados":104,"sigilo_dom_ocupados":0,"dom_agua":92,"sigilo_dom_agua":0,"dom_esgoto":0,"sigilo_dom_esgoto":0,"renda_resp":3530.23,"sigilo_renda_resp":0,"n_resp":104,"sigilo_n_resp":0,"dens":13.4,"sigilo_dens":false,"na_bacia":1,"area_pct_bacia":100.0,"metodo_recorte_bacia":"ponto_representativo_setor_2022; area_pct_geometrica","pop_n_validos":1,"pop_n_total":1,"pop_completude":1.0,"dom_n_validos":1,"dom_n_total":1,"dom_completude":1.0,"dom_ocupados_n_validos":1,"dom_ocupados_n_total":1,"dom_ocupados_completude":1.0,"mulheres_n_validos":1,"mulheres_n_total":1,"mulheres_completude":1.0,"c0_4_n_validos":1,"c0_4_n_total":1,"c0_4_completude":1.0,"c5_9_n_validos":0,"c5_9_n_total":1,"c5_9_completude":0.0,"i60_69_n_validos":1,"i60_69_n_total":1,"i60_69_completude":1.0,"i70m_n_validos":1,"i70m_n_total":1,"i70m_completude":1.0,"indigenas_n_validos":1,"indigenas_n_total":1,"indigenas_completude":1.0,"pretos_pardos_n_validos":1,"pretos_pardos_n_total":1,"pretos_pardos_completude":1.0,"dom_agua_n_validos":1,"dom_agua_n_total":1,"dom_agua_completude":1.0,"dom_esgoto_n_validos":1,"dom_esgoto_n_total":1,"dom_esgoto_completude":1.0,"n_resp_n_validos":1,"n_resp_n_total":1,"n_resp_completude":1.0,"renda_resp_n_validos":1,"renda_resp_n_total":1,"renda_resp_completude":1.0,"dens_n_validos":1,"dens_n_total":1,"dens_completude":1.0,"status_borda_bacia":"total","metodo_area_bacia":"interse??o geom?trica em EPSG:5880","metodo_na_bacia":"ponto_representativo_setor_2022_within_bacia","municipio":"Coronel Pilar","cod_mun":"4305934","mun_pct_na_bacia":100.0,"mun_pop_total":1607,"mun_pop_na_bacia":1607.0,"mun_ubs_iede":1,"mun_hospitais_iede":null,"mun_escolas_iede":3,"mun_bombeiros_iede":null,"mun_servicos_cobertura":"cadastro_IEDE_parcial_nao_inventario","mun_icm_faixa":"B","mun_icm_pontos":7,"mun_icm_prioritario":"não","mun_ubs_iede_status":"published","mun_hospitais_iede_status":"unknown","mun_escolas_iede_status":"published","mun_bombeiros_iede_status":"unknown"},"geometry":{"type":"Polygon","coordinates":[[[-51.698788099999945,-29.24579089999999],[-51.697054599999944,-29.245969],[-51.695221,-29.246816499999955],[-51.69360379999995,-29.24667789999996],[-51.693016299999954,-29.247056199999978],[-51.69257959999993,-29.247926],[-51.69270719999997,-29.250622399999944],[-51.691679699999945,-29.25297809999996],[-51.690864,-29.25414729999994],[-51.69096539999998,-29.256961699999984],[-51.68981209999998,-29.258232],[-51.68957179999995,-29.261950499999944],[-51.68764379999993,-29.26325979999996],[-51.68481069999996,-29.263911],[-51.68451459999994,-29.264942699999953],[-51.68520079999996,-29.266855],[-51.68461809999997,-29.26789559999997],[-51.68444829999998,-29.270443699999923],[-51.691862399999934,-29.27045249999998],[-51.69110459999995,-29.273395399999966],[-51.69115819999997,-29.274553399999952],[-51.69085559999997,-29.275199199999967],[-51.691938,-29.275014299999953],[-51.69266429999993,-29.274673],[-51.69310319999994,-29.274166],[-51.693542499999985,-29.27411989999995],[-51.69531539999998,-29.27577149999995],[-51.69527089999997,-29.276416699999967],[-51.69551059999998,-29.27689349999997],[-51.69712159999994,-29.27796579999995],[-51.69710469999996,-29.278755899999968],[-51.69929669999993,-29.278795899999984],[-51.700433799999985,-29.27832109999997],[-51.7016091,-29.27717619999993],[-51.70328519999998,-29.276314899999928],[-51.70483139999993,-29.275870599999973],[-51.70692389999993,-29.275901799999932],[-51.709067699999935,-29.273703399999945],[-51.71039959999995,-29.27279779999997],[-51.710815,-29.272946599999955],[-51.71211629999993,-29.274694899999925],[-51.71253169999994,-29.276836799999955],[-51.71332589999997,-29.27663429999996],[-51.71464849999995,-29.27513219999997],[-51.716527799999945,-29.273969299999973],[-51.717013,-29.273890099999957],[-51.71799829999998,-29.274368799999937],[-51.72047219999997,-29.274828599999974],[-51.72253239999998,-29.273614],[-51.72352519999998,-29.272645499999957],[-51.72404729999994,-29.272492399999976],[-51.725910899999974,-29.272952],[-51.73198039999995,-29.276570399999965],[-51.73418719999995,-29.277009399999937],[-51.73512479999993,-29.276526399999963],[-51.73568429999994,-29.275682399999933],[-51.73712559999996,-29.275906],[-51.74121779999996,-29.274174899999938],[-51.74173379999996,-29.273514199999966],[-51.742777599999954,-29.273640699999923],[-51.743927,-29.273290399999947],[-51.746910199999945,-29.270151099999964],[-51.750784599999974,-29.26842689999995],[-51.75195709999996,-29.267673],[-51.752724299999954,-29.26683149999997],[-51.753193,-29.266758499999987],[-51.75473429999993,-29.26712979999996],[-51.755359,-29.26692609999997],[-51.759284699999974,-29.264388199999942],[-51.76062909999996,-29.263942099999966],[-51.762556,-29.26239239999995],[-51.764035499999984,-29.26163429999998],[-51.76501209999998,-29.26081439999995],[-51.765197399999984,-29.260388],[-51.754784699999966,-29.260561799999948],[-51.75444139999996,-29.236286299999954],[-51.7544276,-29.23650789999992],[-51.751845,-29.237277199999934],[-51.75080429999997,-29.23733069999997],[-51.74953519999997,-29.236990599999956],[-51.747928299999955,-29.237606099999933],[-51.74680859999995,-29.238522],[-51.74504949999993,-29.23890189999998],[-51.74416279999997,-29.238805],[-51.743172699999946,-29.238991899999974],[-51.74201629999993,-29.240172199999964],[-51.741984,-29.24072359999997],[-51.74250619999998,-29.242021799999986],[-51.74240089999995,-29.242412399999974],[-51.74059209999996,-29.242749599999968],[-51.736931899999945,-29.241861299999975],[-51.73555919999996,-29.24297559999997],[-51.73489949999998,-29.244284299999943],[-51.734450699999975,-29.244588099999927],[-51.73404959999993,-29.24462679999995],[-51.73236079999998,-29.243999199999962],[-51.730424599999935,-29.243869],[-51.729110299999945,-29.242964399999945],[-51.72492349999993,-29.24288609999996],[-51.72123269999997,-29.241391],[-51.72012489999997,-29.241313099999953],[-51.718721899999935,-29.24058769999992],[-51.716132699999946,-29.240799099999933],[-51.71407739999996,-29.240376199999957],[-51.711265699999956,-29.241526299999986],[-51.710667,-29.24326589999998],[-51.70997589999996,-29.243939399999924],[-51.70899769999994,-29.244127299999928],[-51.706681199999935,-29.243386499999932],[-51.704339699999935,-29.24336979999998],[-51.70190279999998,-29.244019699999974],[-51.7008795,-29.244619899999968],[-51.700306299999966,-29.24527709999995],[-51.69963249999995,-29.245346899999962],[-51.698788099999945,-29.24579089999999]]]}},{"type":"Feature","properties":{"setor":"430593405000004","pop":118,"sigilo_pop":false,"dom":58,"sigilo_dom":0,"mulheres":57,"sigilo_mulheres":0,"c0_4":null,"sigilo_c0_4":1,"c5_9":6,"sigilo_c5_9":0,"i60_69":17,"sigilo_i60_69":0,"i70m":26,"sigilo_i70m":0,"indigenas":0,"sigilo_indigenas":0,"pretos_pardos":4,"sigilo_pretos_pardos":0,"dom_ocupados":39,"sigilo_dom_ocupados":0,"dom_agua":29,"sigilo_dom_agua":0,"dom_esgoto":0,"sigilo_dom_esgoto":0,"renda_resp":3764.15,"sigilo_renda_resp":0,"n_resp":39,"sigilo_n_resp":0,"dens":21.0,"sigilo_dens":false,"na_bacia":1,"area_pct_bacia":100.0,"metodo_recorte_bacia":"ponto_representativo_setor_2022; area_pct_geometrica","pop_n_validos":1,"pop_n_total":1,"pop_completude":1.0,"dom_n_validos":1,"dom_n_total":1,"dom_completude":1.0,"dom_ocupados_n_validos":1,"dom_ocupados_n_total":1,"dom_ocupados_completude":1.0,"mulheres_n_validos":1,"mulheres_n_total":1,"mulheres_completude":1.0,"c0_4_n_validos":0,"c0_4_n_total":1,"c0_4_completude":0.0,"c5_9_n_validos":1,"c5_9_n_total":1,"c5_9_completude":1.0,"i60_69_n_validos":1,"i60_69_n_total":1,"i60_69_completude":1.0,"i70m_n_validos":1,"i70m_n_total":1,"i70m_completude":1.0,"indigenas_n_validos":1,"indigenas_n_total":1,"indigenas_completude":1.0,"pretos_pardos_n_validos":1,"pretos_pardos_n_total":1,"pretos_pardos_completude":1.0,"dom_agua_n_validos":1,"dom_agua_n_total":1,"dom_agua_completude":1.0,"dom_esgoto_n_validos":1,"dom_esgoto_n_total":1,"dom_esgoto_completude":1.0,"n_resp_n_validos":1,"n_resp_n_total":1,"n_resp_completude":1.0,"renda_resp_n_validos":1,"renda_resp_n_total":1,"renda_resp_completude":1.0,"dens_n_validos":1,"dens_n_total":1,"dens_completude":1.0,"status_borda_bacia":"total","metodo_area_bacia":"interse??o geom?trica em EPSG:5880","metodo_na_bacia":"ponto_representativo_setor_2022_within_bacia","municipio":"Coronel Pilar","cod_mun":"4305934","mun_pct_na_bacia":100.0,"mun_pop_total":1607,"mun_pop_na_bacia":1607.0,"mun_ubs_iede":1,"mun_hospitais_iede":null,"mun_escolas_iede":3,"mun_bombeiros_iede":null,"mun_servicos_cobertura":"cadastro_IEDE_parcial_nao_inventario","mun_icm_faixa":"B","mun_icm_pontos":7,"mun_icm_prioritario":"não","mun_ubs_iede_status":"published","mun_hospitais_iede_status":"unknown","mun_escolas_iede_status":"published","mun_bombeiros_iede_status":"unknown"},"geometry":{"type":"Polygon","coordinates":[[[-51.675963,-29.249384399999947],[-51.67668729999997,-29.24691449999995],[-51.65226269999994,-29.247072599999967],[-51.65203749999995,-29.25383179999994],[-51.646432599999976,-29.25379419999996],[-51.646033,-29.273664],[-51.65063719999995,-29.273579199999972],[-51.6499965,-29.293922499999955],[-51.65615239999994,-29.293838399999967],[-51.65534939999998,-29.26116619999993],[-51.65633779999996,-29.260013299999976],[-51.65711029999994,-29.259681799999957],[-51.658335799999975,-29.259376899999943],[-51.66214809999997,-29.259255299999946],[-51.66310239999996,-29.258999899999935],[-51.66377049999994,-29.25867079999994],[-51.664216299999964,-29.257958099999932],[-51.66541779999994,-29.256885399999927],[-51.66653839999998,-29.256653099999937],[-51.669114099999945,-29.256688199999914],[-51.669739799999945,-29.25628139999998],[-51.67054469999994,-29.25612889999997],[-51.67078169999997,-29.254988499999975],[-51.672374299999944,-29.25417289999995],[-51.67286649999994,-29.25327069999997],[-51.67325859999995,-29.25140279999993],[-51.67411829999998,-29.250578199999953],[-51.675963,-29.249384399999947]]]}},{"type":"Feature","properties":{"setor":"430593405000006","pop":137,"sigilo_pop":false,"dom":78,"sigilo_dom":0,"mulheres":64,"sigilo_mulheres":0,"c0_4":null,"sigilo_c0_4":1,"c5_9":null,"sigilo_c5_9":1,"i60_69":29,"sigilo_i60_69":0,"i70m":14,"sigilo_i70m":0,"indigenas":0,"sigilo_indigenas":0,"pretos_pardos":null,"sigilo_pretos_pardos":1,"dom_ocupados":54,"sigilo_dom_ocupados":0,"dom_agua":40,"sigilo_dom_agua":0,"dom_esgoto":0,"sigilo_dom_esgoto":0,"renda_resp":4359.4,"sigilo_renda_resp":0,"n_resp":54,"sigilo_n_resp":0,"dens":11.5,"sigilo_dens":false,"na_bacia":1,"area_pct_bacia":100.0,"metodo_recorte_bacia":"ponto_representativo_setor_2022; area_pct_geometrica","pop_n_validos":1,"pop_n_total":1,"pop_completude":1.0,"dom_n_validos":1,"dom_n_total":1,"dom_completude":1.0,"dom_ocupados_n_validos":1,"dom_ocupados_n_total":1,"dom_ocupados_completude":1.0,"mulheres_n_validos":1,"mulheres_n_total":1,"mulheres_completude":1.0,"c0_4_n_validos":0,"c0_4_n_total":1,"c0_4_completude":0.0,"c5_9_n_validos":0,"c5_9_n_total":1,"c5_9_completude":0.0,"i60_69_n_validos":1,"i60_69_n_total":1,"i60_69_completude":1.0,"i70m_n_validos":1,"i70m_n_total":1,"i70m_completude":1.0,"indigenas_n_validos":1,"indigenas_n_total":1,"indigenas_completude":1.0,"pretos_pardos_n_validos":0,"pretos_pardos_n_total":1,"pretos_pardos_completude":0.0,"dom_agua_n_validos":1,"dom_agua_n_total":1,"dom_agua_completude":1.0,"dom_esgoto_n_validos":1,"dom_esgoto_n_total":1,"dom_esgoto_completude":1.0,"n_resp_n_validos":1,"n_resp_n_total":1,"n_resp_completude":1.0,"renda_resp_n_validos":1,"renda_resp_n_total":1,"renda_resp_completude":1.0,"dens_n_validos":1,"dens_n_total":1,"dens_completude":1.0,"status_borda_bacia":"total","metodo_area_bacia":"interse??o geom?trica em EPSG:5880","metodo_na_bacia":"ponto_representativo_setor_2022_within_bacia","municipio":"Coronel Pilar","cod_mun":"4305934","mun_pct_na_bacia":100.0,"mun_pop_total":1607,"mun_pop_na_bacia":1607.0,"mun_ubs_iede":1,"mun_hospitais_iede":null,"mun_escolas_iede":3,"mun_bombeiros_iede":null,"mun_servicos_cobertura":"cadastro_IEDE_parcial_nao_inventario","mun_icm_faixa":"B","mun_icm_pontos":7,"mun_icm_prioritario":"não","mun_ubs_iede_status":"published","mun_hospitais_iede_status":"unknown","mun_escolas_iede_status":"published","mun_bombeiros_iede_status":"unknown"},"geometry":{"type":"Polygon","coordinates":[[[-51.788542799999966,-29.25999309999997],[-51.789,-29.260078199999946],[-51.78731439999995,-29.261092299999973],[-51.78647539999998,-29.262386],[-51.78471079999997,-29.263869],[-51.77818549999994,-29.26611849999995],[-51.777385599999945,-29.266102599999947],[-51.775788899999945,-29.266648],[-51.77475069999996,-29.265882899999948],[-51.772088499999946,-29.264888399999947],[-51.770428,-29.26448719999996],[-51.769117799999954,-29.264697499999954],[-51.76790129999995,-29.265395199999947],[-51.76544469999993,-29.26914059999995],[-51.765018199999986,-29.270606],[-51.76382819999998,-29.2728868],[-51.764097799999945,-29.276755],[-51.76381279999998,-29.277754299999966],[-51.763701699999956,-29.283265599999943],[-51.762426299999966,-29.284791099999964],[-51.76237089999995,-29.285324499999952],[-51.76394029999995,-29.28551169999998],[-51.76858549999997,-29.28786579999996],[-51.76910049999998,-29.287306],[-51.76912769999995,-29.28643309999995],[-51.77014759999997,-29.284505599999925],[-51.77147819999993,-29.2837833],[-51.772539,-29.283656499999953],[-51.77262239999994,-29.285215299999944],[-51.773936799999944,-29.28565589999994],[-51.774623,-29.28644579999997],[-51.775598399999986,-29.28695919999996],[-51.77661979999994,-29.288680799999952],[-51.77668449999993,-29.290323899999958],[-51.77612959999993,-29.291235],[-51.77622549999995,-29.291700699999982],[-51.77585939999995,-29.292381099999943],[-51.77626629999998,-29.29358159999999],[-51.776739,-29.294155099999948],[-51.77661979999994,-29.294587599999936],[-51.77456059999998,-29.295847499999983],[-51.77304269999996,-29.296213799999972],[-51.77010279999996,-29.29553879999997],[-51.76968879999998,-29.29614049999998],[-51.76894179999994,-29.296585299999947],[-51.76925659999995,-29.2972195],[-51.776929199999984,-29.29914719999993],[-51.78002549999996,-29.298923599999956],[-51.797001799999975,-29.29941469999993],[-51.801483799999964,-29.259773799999945],[-51.788542799999966,-29.25999309999997]]]}},{"type":"Feature","properties":{"setor":"430593405000007","pop":240,"sigilo_pop":false,"dom":122,"sigilo_dom":0,"mulheres":117,"sigilo_mulheres":0,"c0_4":14,"sigilo_c0_4":0,"c5_9":9,"sigilo_c5_9":0,"i60_69":46,"sigilo_i60_69":0,"i70m":42,"sigilo_i70m":0,"indigenas":0,"sigilo_indigenas":0,"pretos_pardos":14,"sigilo_pretos_pardos":0,"dom_ocupados":83,"sigilo_dom_ocupados":0,"dom_agua":44,"sigilo_dom_agua":0,"dom_esgoto":0,"sigilo_dom_esgoto":0,"renda_resp":4003.93,"sigilo_renda_resp":0,"n_resp":83,"sigilo_n_resp":0,"dens":14.0,"sigilo_dens":false,"na_bacia":1,"area_pct_bacia":100.0,"metodo_recorte_bacia":"ponto_representativo_setor_2022; area_pct_geometrica","pop_n_validos":1,"pop_n_total":1,"pop_completude":1.0,"dom_n_validos":1,"dom_n_total":1,"dom_completude":1.0,"dom_ocupados_n_validos":1,"dom_ocupados_n_total":1,"dom_ocupados_completude":1.0,"mulheres_n_validos":1,"mulheres_n_total":1,"mulheres_completude":1.0,"c0_4_n_validos":1,"c0_4_n_total":1,"c0_4_completude":1.0,"c5_9_n_validos":1,"c5_9_n_total":1,"c5_9_completude":1.0,"i60_69_n_validos":1,"i60_69_n_total":1,"i60_69_completude":1.0,"i70m_n_validos":1,"i70m_n_total":1,"i70m_completude":1.0,"indigenas_n_validos":1,"indigenas_n_total":1,"indigenas_completude":1.0,"pretos_pardos_n_validos":1,"pretos_pardos_n_total":1,"pretos_pardos_completude":1.0,"dom_agua_n_validos":1,"dom_agua_n_total":1,"dom_agua_completude":1.0,"dom_esgoto_n_validos":1,"dom_esgoto_n_total":1,"dom_esgoto_completude":1.0,"n_resp_n_validos":1,"n_resp_n_total":1,"n_resp_completude":1.0,"renda_resp_n_validos":1,"renda_resp_n_total":1,"renda_resp_completude":1.0,"dens_n_validos":1,"dens_n_total":1,"dens_completude":1.0,"status_borda_bacia":"total","metodo_area_bacia":"interse??o geom?trica em EPSG:5880","metodo_na_bacia":"ponto_representativo_setor_2022_within_bacia","municipio":"Coronel Pilar","cod_mun":"4305934","mun_pct_na_bacia":100.0,"mun_pop_total":1607,"mun_pop_na_bacia":1607.0,"mun_ubs_iede":1,"mun_hospitais_iede":null,"mun_escolas_iede":3,"mun_bombeiros_iede":null,"mun_servicos_cobertura":"cadastro_IEDE_parcial_nao_inventario","mun_icm_faixa":"B","mun_icm_pontos":7,"mun_icm_prioritario":"não","mun_ubs_iede_status":"published","mun_hospitais_iede_status":"unknown","mun_escolas_iede_status":"published","mun_bombeiros_iede_status":"unknown"},"geometry":{"type":"Polygon","coordinates":[[[-51.691938,-29.275014299999953],[-51.690021799999954,-29.275281199999935],[-51.689310199999966,-29.274977299999925],[-51.68137439999998,-29.274841899999956],[-51.680550699999976,-29.273504099999972],[-51.667015699999986,-29.273422899999947],[-51.66608009999994,-29.27394569999997],[-51.664739199999985,-29.27410189999995],[-51.663972,-29.274425299999958],[-51.66409459999994,-29.27633359999992],[-51.66500469999994,-29.277793499999962],[-51.66511159999993,-29.2794062],[-51.66376029999998,-29.279866699999943],[-51.66230779999995,-29.27920409999995],[-51.66101029999999,-29.27911319999998],[-51.65894449999996,-29.279829299999957],[-51.65710219999994,-29.280150899999974],[-51.65583859999998,-29.28076129999994],[-51.65615239999994,-29.293838399999967],[-51.65834149999994,-29.29383279999997],[-51.65809639999998,-29.294300699999944],[-51.65830179999995,-29.294494699999966],[-51.678659699999976,-29.29476909999993],[-51.683899699999984,-29.29703789999997],[-51.68631609999994,-29.296068799999933],[-51.69051469999994,-29.296542799999933],[-51.69306249999993,-29.29553969999995],[-51.694903599999975,-29.29959539999992],[-51.69936479999996,-29.301864599999924],[-51.6989124,-29.30349269999993],[-51.700926,-29.30432539999999],[-51.70614039999999,-29.304373599999973],[-51.70975759999993,-29.301631],[-51.71155129999993,-29.304197599999952],[-51.71323249999995,-29.30378359999998],[-51.715306399999974,-29.296967099999954],[-51.71321389999998,-29.294548699999964],[-51.72537009999997,-29.29464789999997],[-51.725098799999955,-29.29908389999997],[-51.72654389999996,-29.30155779999995],[-51.729784,-29.30084269999998],[-51.73425629999996,-29.297194099999963],[-51.73494929999998,-29.297373599999954],[-51.738602399999934,-29.29991189999997],[-51.73660539999998,-29.304943599999937],[-51.73705429999995,-29.307276099999953],[-51.73801069999996,-29.30778829999996],[-51.74115389999997,-29.30685309999994],[-51.743472,-29.309211799999943],[-51.749242,-29.30563049999995],[-51.75277089999997,-29.306722499999967],[-51.752254499999935,-29.303275099999944],[-51.750765,-29.300873799999977],[-51.75057019999997,-29.300895199999957],[-51.75042119999994,-29.299931],[-51.74983759999998,-29.299274399999934],[-51.747357499999964,-29.298934],[-51.746353299999946,-29.298324599999948],[-51.74433049999993,-29.297956],[-51.74340089999998,-29.297217],[-51.742325799999946,-29.297008099999964],[-51.74150949999995,-29.29624189999998],[-51.740032,-29.295523699999926],[-51.73683409999995,-29.294986],[-51.73580579999998,-29.29439509999997],[-51.73452809999998,-29.29436109999995],[-51.73366329999993,-29.293716299999964],[-51.73168609999993,-29.294292099999936],[-51.72886529999994,-29.294272299999918],[-51.72602509999996,-29.29293329999996],[-51.72565539999994,-29.292988],[-51.72516689999998,-29.293834299999954],[-51.724526499999975,-29.29367309999997],[-51.7226022,-29.290068899999934],[-51.7216911,-29.289372199999946],[-51.721229,-29.288404899999932],[-51.72043189999993,-29.288016199999948],[-51.719024,-29.287823399999983],[-51.71780609999996,-29.287034],[-51.717954599999985,-29.28637239999995],[-51.7190035,-29.285908099999972],[-51.71919419999994,-29.285604599999935],[-51.71823129999996,-29.285306699999985],[-51.71685519999994,-29.28422589999995],[-51.716165,-29.28220729999998],[-51.71482409999993,-29.281186699999978],[-51.71487639999998,-29.28066179999997],[-51.71649229999996,-29.27873139999996],[-51.71730059999993,-29.27706859999995],[-51.7174,-29.274317499999935],[-51.717151299999955,-29.27392029999994],[-51.716527799999945,-29.273969299999973],[-51.71464849999995,-29.27513219999997],[-51.71332589999997,-29.27663429999996],[-51.71253169999994,-29.276836799999955],[-51.71211629999993,-29.274694899999925],[-51.710815,-29.272946599999955],[-51.71039959999995,-29.27279779999997],[-51.709067699999935,-29.273703399999945],[-51.70713679999994,-29.275803],[-51.70652629999995,-29.27596819999996],[-51.70483139999993,-29.275870599999973],[-51.70328519999998,-29.276314899999928],[-51.7016091,-29.27717619999993],[-51.700433799999985,-29.27832109999997],[-51.69929669999993,-29.278795899999984],[-51.69864289999998,-29.278843299999945],[-51.69696319999998,-29.27869089999995],[-51.69712159999994,-29.27796579999995],[-51.69551059999998,-29.27689349999997],[-51.69527089999997,-29.276416699999967],[-51.69531539999998,-29.27577149999995],[-51.693542499999985,-29.27411989999995],[-51.69310319999994,-29.274166],[-51.69266429999993,-29.274673],[-51.691938,-29.275014299999953]]]}},{"type":"Feature","properties":{"setor":"430593405000008","pop":167,"sigilo_pop":false,"dom":81,"sigilo_dom":0,"mulheres":80,"sigilo_mulheres":0,"c0_4":null,"sigilo_c0_4":1,"c5_9":null,"sigilo_c5_9":1,"i60_69":45,"sigilo_i60_69":0,"i70m":28,"sigilo_i70m":0,"indigenas":0,"sigilo_indigenas":0,"pretos_pardos":null,"sigilo_pretos_pardos":1,"dom_ocupados":56,"sigilo_dom_ocupados":0,"dom_agua":29,"sigilo_dom_agua":0,"dom_esgoto":0,"sigilo_dom_esgoto":0,"renda_resp":5157.18,"sigilo_renda_resp":0,"n_resp":56,"sigilo_n_resp":0,"dens":8.0,"sigilo_dens":false,"na_bacia":1,"area_pct_bacia":100.0,"metodo_recorte_bacia":"ponto_representativo_setor_2022; area_pct_geometrica","pop_n_validos":1,"pop_n_total":1,"pop_completude":1.0,"dom_n_validos":1,"dom_n_total":1,"dom_completude":1.0,"dom_ocupados_n_validos":1,"dom_ocupados_n_total":1,"dom_ocupados_completude":1.0,"mulheres_n_validos":1,"mulheres_n_total":1,"mulheres_completude":1.0,"c0_4_n_validos":0,"c0_4_n_total":1,"c0_4_completude":0.0,"c5_9_n_validos":0,"c5_9_n_total":1,"c5_9_completude":0.0,"i60_69_n_validos":1,"i60_69_n_total":1,"i60_69_completude":1.0,"i70m_n_validos":1,"i70m_n_total":1,"i70m_completude":1.0,"indigenas_n_validos":1,"indigenas_n_total":1,"indigenas_completude":1.0,"pretos_pardos_n_validos":0,"pretos_pardos_n_total":1,"pretos_pardos_completude":0.0,"dom_agua_n_validos":1,"dom_agua_n_total":1,"dom_agua_completude":1.0,"dom_esgoto_n_validos":1,"dom_esgoto_n_total":1,"dom_esgoto_completude":1.0,"n_resp_n_validos":1,"n_resp_n_total":1,"n_resp_completude":1.0,"renda_resp_n_validos":1,"renda_resp_n_total":1,"renda_resp_completude":1.0,"dens_n_validos":1,"dens_n_total":1,"dens_completude":1.0,"status_borda_bacia":"total","metodo_area_bacia":"interse??o geom?trica em EPSG:5880","metodo_na_bacia":"ponto_representativo_setor_2022_within_bacia","municipio":"Coronel Pilar","cod_mun":"4305934","mun_pct_na_bacia":100.0,"mun_pop_total":1607,"mun_pop_na_bacia":1607.0,"mun_ubs_iede":1,"mun_hospitais_iede":null,"mun_escolas_iede":3,"mun_bombeiros_iede":null,"mun_servicos_cobertura":"cadastro_IEDE_parcial_nao_inventario","mun_icm_faixa":"B","mun_icm_pontos":7,"mun_icm_prioritario":"não","mun_ubs_iede_status":"published","mun_hospitais_iede_status":"unknown","mun_escolas_iede_status":"published","mun_bombeiros_iede_status":"unknown"},"geometry":{"type":"Polygon","coordinates":[[[-51.68225529999995,-29.213991699999955],[-51.68262229999994,-29.215921699999964],[-51.683196,-29.21741519999994],[-51.68299259999998,-29.217878099999954],[-51.682082,-29.218536899999943],[-51.682847899999956,-29.220493399999953],[-51.68226579999998,-29.221303099999936],[-51.679776,-29.22238089999996],[-51.679426399999954,-29.223188599999954],[-51.680372,-29.22430819999994],[-51.683710499999954,-29.22459779999997],[-51.68527569999997,-29.22529059999994],[-51.69185729999998,-29.22988359999994],[-51.69272179999996,-29.231083199999947],[-51.694574399999965,-29.232336299999933],[-51.69571589999999,-29.235687799999944],[-51.696698599999934,-29.236279199999952],[-51.69673139999998,-29.23694749999993],[-51.69770589999996,-29.237867],[-51.69845129999994,-29.239508099999963],[-51.698194299999955,-29.24337319999995],[-51.698450599999944,-29.24365239999996],[-51.69918779999995,-29.24358659999996],[-51.698150599999956,-29.245788499999957],[-51.698788099999945,-29.24579089999999],[-51.69963249999995,-29.245346899999962],[-51.700306299999966,-29.24527709999995],[-51.7008795,-29.244619899999968],[-51.70190279999998,-29.244019699999974],[-51.704339699999935,-29.24336979999998],[-51.706681199999935,-29.243386499999932],[-51.70899769999994,-29.244127299999928],[-51.70997589999996,-29.243939399999924],[-51.710667,-29.24326589999998],[-51.711265699999956,-29.241526299999986],[-51.71407739999996,-29.240376199999957],[-51.716132699999946,-29.240799099999933],[-51.718721899999935,-29.24058769999992],[-51.72012489999997,-29.241313099999953],[-51.72123269999997,-29.241391],[-51.72492349999993,-29.24288609999996],[-51.729110299999945,-29.242964399999945],[-51.730424599999935,-29.243869],[-51.73236079999998,-29.243999199999962],[-51.73404959999993,-29.24462679999995],[-51.734450699999975,-29.244588099999927],[-51.73489949999998,-29.244284299999943],[-51.73555919999996,-29.24297559999997],[-51.736931899999945,-29.241861299999975],[-51.74059209999996,-29.242749599999968],[-51.74240089999995,-29.242412399999974],[-51.74250619999998,-29.242021799999986],[-51.741984,-29.24072359999997],[-51.74201629999993,-29.240172199999964],[-51.743172699999946,-29.238991899999974],[-51.74416279999997,-29.238805],[-51.74504949999993,-29.23890189999998],[-51.74680859999995,-29.238522],[-51.747928299999955,-29.237606099999933],[-51.74953519999997,-29.236990599999956],[-51.75117369999998,-29.237358699999966],[-51.7544276,-29.23650789999992],[-51.75427519999994,-29.22448419999995],[-51.75279649999994,-29.224596499999965],[-51.75195,-29.221672],[-51.75597819999996,-29.221771199999964],[-51.75551879999995,-29.218688199999963],[-51.75036979999994,-29.217728799999975],[-51.74751089999995,-29.218915299999942],[-51.74685489999996,-29.21551969999996],[-51.749955,-29.21166959999994],[-51.748945799999944,-29.210546],[-51.75000329999995,-29.208096399999928],[-51.745014399999945,-29.207082699999944],[-51.73056469999995,-29.212350499999953],[-51.684831599999946,-29.212638699999953],[-51.68234239999999,-29.213252199999932],[-51.68225529999995,-29.213991699999955]]]}},{"type":"Feature","properties":{"setor":"430593405000009","pop":240,"sigilo_pop":false,"dom":99,"sigilo_dom":0,"mulheres":113,"sigilo_mulheres":0,"c0_4":7,"sigilo_c0_4":0,"c5_9":9,"sigilo_c5_9":0,"i60_69":35,"sigilo_i60_69":0,"i70m":38,"sigilo_i70m":0,"indigenas":0,"sigilo_indigenas":0,"pretos_pardos":null,"sigilo_pretos_pardos":1,"dom_ocupados":76,"sigilo_dom_ocupados":0,"dom_agua":51,"sigilo_dom_agua":0,"dom_esgoto":0,"sigilo_dom_esgoto":0,"renda_resp":4181.58,"sigilo_renda_resp":0,"n_resp":76,"sigilo_n_resp":0,"dens":20.8,"sigilo_dens":false,"na_bacia":1,"area_pct_bacia":100.0,"metodo_recorte_bacia":"ponto_representativo_setor_2022; area_pct_geometrica","pop_n_validos":1,"pop_n_total":1,"pop_completude":1.0,"dom_n_validos":1,"dom_n_total":1,"dom_completude":1.0,"dom_ocupados_n_validos":1,"dom_ocupados_n_total":1,"dom_ocupados_completude":1.0,"mulheres_n_validos":1,"mulheres_n_total":1,"mulheres_completude":1.0,"c0_4_n_validos":1,"c0_4_n_total":1,"c0_4_completude":1.0,"c5_9_n_validos":1,"c5_9_n_total":1,"c5_9_completude":1.0,"i60_69_n_validos":1,"i60_69_n_total":1,"i60_69_completude":1.0,"i70m_n_validos":1,"i70m_n_total":1,"i70m_completude":1.0,"indigenas_n_validos":1,"indigenas_n_total":1,"indigenas_completude":1.0,"pretos_pardos_n_validos":0,"pretos_pardos_n_total":1,"pretos_pardos_completude":0.0,"dom_agua_n_validos":1,"dom_agua_n_total":1,"dom_agua_completude":1.0,"dom_esgoto_n_validos":1,"dom_esgoto_n_total":1,"dom_esgoto_completude":1.0,"n_resp_n_validos":1,"n_resp_n_total":1,"n_resp_completude":1.0,"renda_resp_n_validos":1,"renda_resp_n_total":1,"renda_resp_completude":1.0,"dens_n_validos":1,"dens_n_total":1,"dens_completude":1.0,"status_borda_bacia":"total","metodo_area_bacia":"interse??o geom?trica em EPSG:5880","metodo_na_bacia":"ponto_representativo_setor_2022_within_bacia","municipio":"Coronel Pilar","cod_mun":"4305934","mun_pct_na_bacia":100.0,"mun_pop_total":1607,"mun_pop_na_bacia":1607.0,"mun_ubs_iede":1,"mun_hospitais_iede":null,"mun_escolas_iede":3,"mun_bombeiros_iede":null,"mun_servicos_cobertura":"cadastro_IEDE_parcial_nao_inventario","mun_icm_faixa":"B","mun_icm_pontos":7,"mun_icm_prioritario":"não","mun_ubs_iede_status":"published","mun_hospitais_iede_status":"unknown","mun_escolas_iede_status":"published","mun_bombeiros_iede_status":"unknown"},"geometry":{"type":"Polygon","coordinates":[[[-51.68006839999999,-29.224104899999936],[-51.680987399999935,-29.226639299999924],[-51.680819,-29.228650099999985],[-51.68115869999996,-29.23070269999993],[-51.68050839999995,-29.231958699999936],[-51.67902539999995,-29.232975299999957],[-51.678755199999955,-29.233735599999935],[-51.67915209999995,-29.23444019999993],[-51.67993519999993,-29.23474829999998],[-51.67939719999998,-29.236169699999945],[-51.67941669999994,-29.236832599999968],[-51.680664399999955,-29.23806359999997],[-51.68086489999996,-29.238542599999953],[-51.6804054,-29.239600899999964],[-51.67958939999995,-29.24015789999992],[-51.67887079999997,-29.241196799999948],[-51.676536899999974,-29.24342759999995],[-51.67569949999994,-29.24501129999993],[-51.67580909999998,-29.24539669999996],[-51.676782,-29.24567789999998],[-51.67716079999997,-29.246159699999975],[-51.67639769999994,-29.24736009999998],[-51.675963,-29.249384399999947],[-51.67411829999998,-29.250578199999953],[-51.67325859999995,-29.25140279999993],[-51.67286649999994,-29.25327069999997],[-51.672374299999944,-29.25417289999995],[-51.67078169999997,-29.254988499999975],[-51.67054469999994,-29.25612889999997],[-51.669739799999945,-29.25628139999998],[-51.669114099999945,-29.256688199999914],[-51.66653839999998,-29.256653099999937],[-51.66541779999994,-29.256885399999927],[-51.664216299999964,-29.257958099999932],[-51.66377049999994,-29.25867079999994],[-51.66310239999996,-29.258999899999935],[-51.66214809999997,-29.259255299999946],[-51.658335799999975,-29.259376899999943],[-51.65711029999994,-29.259681799999957],[-51.65633779999996,-29.260013299999976],[-51.65534939999998,-29.26116619999993],[-51.65583859999998,-29.28076129999994],[-51.65710219999994,-29.280150899999974],[-51.65894449999996,-29.279829299999957],[-51.66101029999999,-29.27911319999998],[-51.66230779999995,-29.27920409999995],[-51.66376029999998,-29.279866699999943],[-51.66511159999993,-29.2794062],[-51.66500469999994,-29.277793499999962],[-51.66402739999995,-29.275916299999942],[-51.663972,-29.274425299999958],[-51.664739199999985,-29.27410189999995],[-51.66608009999994,-29.27394569999997],[-51.667015699999986,-29.273422899999947],[-51.680550699999976,-29.273504099999972],[-51.680571199999974,-29.272995],[-51.680992799999956,-29.273018],[-51.68177689999994,-29.272648699999937],[-51.684136699999954,-29.27084859999996],[-51.68444829999998,-29.270443699999923],[-51.68461809999997,-29.26789559999997],[-51.68520079999996,-29.266855],[-51.68452949999995,-29.265279799999977],[-51.684755,-29.26396989999995],[-51.68764379999993,-29.26325979999996],[-51.68957179999995,-29.261950499999944],[-51.68981209999998,-29.258232],[-51.69099819999997,-29.256837499999964],[-51.690864,-29.25414729999994],[-51.691679699999945,-29.25297809999996],[-51.69270719999997,-29.250622399999944],[-51.692632499999945,-29.247634099999967],[-51.69335739999996,-29.246736],[-51.695221,-29.246816499999955],[-51.697054599999944,-29.245969],[-51.698150599999956,-29.245788499999957],[-51.69917039999996,-29.24369109999999],[-51.699179099999974,-29.24351779999994],[-51.698450599999944,-29.24365239999996],[-51.698194299999955,-29.24337319999995],[-51.69842849999998,-29.23943169999995],[-51.69770589999996,-29.237867],[-51.69673139999998,-29.23694749999993],[-51.696698599999934,-29.236279199999952],[-51.69571589999999,-29.235687799999944],[-51.694574399999965,-29.232336299999933],[-51.69272179999996,-29.231083199999947],[-51.69185729999998,-29.22988359999994],[-51.68527569999997,-29.22529059999994],[-51.683710499999954,-29.22459779999997],[-51.681999,-29.224335099999966],[-51.68057529999999,-29.224375],[-51.68006839999999,-29.224104899999936]]]}},{"type":"Feature","properties":{"setor":"430593405000010","pop":202,"sigilo_pop":false,"dom":112,"sigilo_dom":0,"mulheres":96,"sigilo_mulheres":0,"c0_4":7,"sigilo_c0_4":0,"c5_9":null,"sigilo_c5_9":1,"i60_69":32,"sigilo_i60_69":0,"i70m":35,"sigilo_i70m":0,"indigenas":0,"sigilo_indigenas":0,"pretos_pardos":null,"sigilo_pretos_pardos":1,"dom_ocupados":72,"sigilo_dom_ocupados":0,"dom_agua":53,"sigilo_dom_agua":0,"dom_esgoto":0,"sigilo_dom_esgoto":0,"renda_resp":3323.07,"sigilo_renda_resp":0,"n_resp":72,"sigilo_n_resp":0,"dens":13.2,"sigilo_dens":false,"na_bacia":1,"area_pct_bacia":100.0,"metodo_recorte_bacia":"ponto_representativo_setor_2022; area_pct_geometrica","pop_n_validos":1,"pop_n_total":1,"pop_completude":1.0,"dom_n_validos":1,"dom_n_total":1,"dom_completude":1.0,"dom_ocupados_n_validos":1,"dom_ocupados_n_total":1,"dom_ocupados_completude":1.0,"mulheres_n_validos":1,"mulheres_n_total":1,"mulheres_completude":1.0,"c0_4_n_validos":1,"c0_4_n_total":1,"c0_4_completude":1.0,"c5_9_n_validos":0,"c5_9_n_total":1,"c5_9_completude":0.0,"i60_69_n_validos":1,"i60_69_n_total":1,"i60_69_completude":1.0,"i70m_n_validos":1,"i70m_n_total":1,"i70m_completude":1.0,"indigenas_n_validos":1,"indigenas_n_total":1,"indigenas_completude":1.0,"pretos_pardos_n_validos":0,"pretos_pardos_n_total":1,"pretos_pardos_completude":0.0,"dom_agua_n_validos":1,"dom_agua_n_total":1,"dom_agua_completude":1.0,"dom_esgoto_n_validos":1,"dom_esgoto_n_total":1,"dom_esgoto_completude":1.0,"n_resp_n_validos":1,"n_resp_n_total":1,"n_resp_completude":1.0,"renda_resp_n_validos":1,"renda_resp_n_total":1,"renda_resp_completude":1.0,"dens_n_validos":1,"dens_n_total":1,"dens_completude":1.0,"status_borda_bacia":"total","metodo_area_bacia":"interse??o geom?trica em EPSG:5880","metodo_na_bacia":"ponto_representativo_setor_2022_within_bacia","municipio":"Coronel Pilar","cod_mun":"4305934","mun_pct_na_bacia":100.0,"mun_pop_total":1607,"mun_pop_na_bacia":1607.0,"mun_ubs_iede":1,"mun_hospitais_iede":null,"mun_escolas_iede":3,"mun_bombeiros_iede":null,"mun_servicos_cobertura":"cadastro_IEDE_parcial_nao_inventario","mun_icm_faixa":"B","mun_icm_pontos":7,"mun_icm_prioritario":"não","mun_ubs_iede_status":"published","mun_hospitais_iede_status":"unknown","mun_escolas_iede_status":"published","mun_bombeiros_iede_status":"unknown"},"geometry":{"type":"Polygon","coordinates":[[[-51.76562889999997,-29.259664799999925],[-51.76501209999998,-29.26081439999995],[-51.764035499999984,-29.26163429999998],[-51.762556,-29.26239239999995],[-51.76062909999996,-29.263942099999966],[-51.759284699999974,-29.264388199999942],[-51.755359,-29.26692609999997],[-51.75473429999993,-29.26712979999996],[-51.753193,-29.266758499999987],[-51.752724299999954,-29.26683149999997],[-51.75195709999996,-29.267673],[-51.750784599999974,-29.26842689999995],[-51.746910199999945,-29.270151099999964],[-51.743927,-29.273290399999947],[-51.742777599999954,-29.273640699999923],[-51.74173379999996,-29.273514199999966],[-51.74121779999996,-29.274174899999938],[-51.73712559999996,-29.275906],[-51.73568429999994,-29.275682399999933],[-51.73512479999993,-29.276526399999963],[-51.73418719999995,-29.277009399999937],[-51.73198039999995,-29.276570399999965],[-51.725910899999974,-29.272952],[-51.72415559999995,-29.27249429999994],[-51.72352519999998,-29.272645499999957],[-51.72253239999998,-29.273614],[-51.72047219999997,-29.274828599999974],[-51.71886209999997,-29.27460189999994],[-51.717245799999944,-29.273986099999945],[-51.71730059999993,-29.27706859999995],[-51.71649229999996,-29.27873139999996],[-51.714770199999975,-29.280993699999954],[-51.71497249999993,-29.28138029999997],[-51.716165,-29.28220729999998],[-51.71685519999994,-29.28422589999995],[-51.71823129999996,-29.285306699999985],[-51.71919419999994,-29.285604599999935],[-51.7190035,-29.285908099999972],[-51.717954599999985,-29.28637239999995],[-51.71780609999996,-29.287034],[-51.719024,-29.287823399999983],[-51.72043189999993,-29.288016199999948],[-51.721229,-29.288404899999932],[-51.7216911,-29.289372199999946],[-51.7226022,-29.290068899999934],[-51.724718,-29.293822799999923],[-51.72523289999999,-29.293788299999964],[-51.72585349999997,-29.292933299999948],[-51.72886529999994,-29.294272299999918],[-51.73168609999993,-29.294292099999936],[-51.73366329999993,-29.293716299999964],[-51.73452809999998,-29.29436109999995],[-51.73580579999998,-29.29439509999997],[-51.73683409999995,-29.294986],[-51.740032,-29.295523699999926],[-51.74150949999995,-29.29624189999998],[-51.742325799999946,-29.297008099999964],[-51.74340089999998,-29.297217],[-51.74433049999993,-29.297956],[-51.746353299999946,-29.298324599999948],[-51.74767139999995,-29.299008],[-51.749593699999934,-29.299168],[-51.75027309999996,-29.299649199999983],[-51.75057019999997,-29.300895199999957],[-51.75476749999996,-29.300310699999955],[-51.761584,-29.295291799999966],[-51.76925659999995,-29.2972195],[-51.76894179999994,-29.296585299999947],[-51.77025869999995,-29.295486499999967],[-51.77106089999995,-29.29585859999996],[-51.77304269999996,-29.296213799999972],[-51.775244399999956,-29.295520699999933],[-51.776787,-29.294309],[-51.77626629999998,-29.29358159999999],[-51.77585939999995,-29.292381099999943],[-51.77622549999995,-29.291700699999982],[-51.77612959999993,-29.291235],[-51.77668449999993,-29.290323899999958],[-51.77661979999994,-29.288680799999952],[-51.775598399999986,-29.28695919999996],[-51.774623,-29.28644579999997],[-51.773936799999944,-29.28565589999994],[-51.77262239999994,-29.285215299999944],[-51.772539,-29.283656499999953],[-51.77147819999993,-29.2837833],[-51.77014759999997,-29.284505599999925],[-51.76912769999995,-29.28643309999995],[-51.76910049999998,-29.287306],[-51.76858549999997,-29.28786579999996],[-51.76394029999995,-29.28551169999998],[-51.76237089999995,-29.285324499999952],[-51.762426299999966,-29.284791099999964],[-51.763701699999956,-29.283265599999943],[-51.76381279999998,-29.277754299999966],[-51.764097799999945,-29.276755],[-51.76382819999998,-29.2728868],[-51.765018199999986,-29.270606],[-51.76544469999993,-29.26914059999995],[-51.766702,-29.267164799999925],[-51.76790129999995,-29.265395199999947],[-51.769117799999954,-29.264697499999954],[-51.770428,-29.26448719999996],[-51.772088499999946,-29.264888399999947],[-51.77475069999996,-29.265882899999948],[-51.775788899999945,-29.266648],[-51.777385599999945,-29.266102599999947],[-51.77818549999994,-29.26611849999995],[-51.78471079999997,-29.263869],[-51.78647539999998,-29.262386],[-51.78731439999995,-29.261092299999973],[-51.789,-29.260078199999946],[-51.77560189999997,-29.260212499999962],[-51.77505369999995,-29.252688299999935],[-51.77271559999996,-29.25431779999996],[-51.77157649999998,-29.254741599999928],[-51.768212199999944,-29.25495609999996],[-51.767884199999976,-29.255558499999935],[-51.76837669999997,-29.257616599999956],[-51.76818959999998,-29.258173499999934],[-51.7675895,-29.258706399999937],[-51.76562889999997,-29.259664799999925]]]}}]}
