{"type":"FeatureCollection","name":"4306452","crs":{"type":"name","properties":{"name":"urn:ogc:def:crs:OGC:1.3:CRS84"}},"features":[{"type":"Feature","properties":{"setor":"430645205000002","pop":684,"sigilo_pop":false,"dom":314,"sigilo_dom":false,"mulheres":377,"sigilo_mulheres":false,"c0_4":32,"sigilo_c0_4":false,"c5_9":32,"sigilo_c5_9":false,"i60_69":94,"sigilo_i60_69":false,"i70m":104,"sigilo_i70m":false,"indigenas":0,"sigilo_indigenas":false,"pretos_pardos":null,"sigilo_pretos_pardos":true,"dom_ocupados":269,"sigilo_dom_ocupados":false,"dom_agua":268,"sigilo_dom_agua":false,"dom_esgoto":null,"sigilo_dom_esgoto":true,"renda_resp":3341.02,"sigilo_renda_resp":false,"n_resp":269,"sigilo_n_resp":false,"dens":587.2,"sigilo_dens":false,"na_bacia":1,"area_pct_bacia":100.0,"metodo_recorte_bacia":"ponto_representativo_setor_2022; area_pct_geometrica"},"geometry":{"type":"Polygon","coordinates":[[[-51.843345399999976,-28.979732499999965],[-51.84044329999995,-28.980948699999953],[-51.83682049999994,-28.98476109999996],[-51.83541789999998,-28.984218099999957],[-51.83487539999992,-28.984559899999965],[-51.83358619999996,-28.984701],[-51.83362969999996,-28.98395419999997],[-51.83310529999995,-28.985006199999923],[-51.83068229999998,-28.98529849999994],[-51.83165809999997,-28.987134299999987],[-51.8323913,-28.98775219999993],[-51.83451119999995,-28.988872199999946],[-51.834900699999935,-28.99306],[-51.83727159999995,-28.991000099999965],[-51.83758919999996,-28.992404299999972],[-51.83885849999996,-28.99280139999995],[-51.83960569999993,-28.992499699999946],[-51.84184849999997,-28.99067069999994],[-51.84499049999993,-28.99026939999993],[-51.84606489999993,-28.990912],[-51.84642069999995,-28.990364299999953],[-51.84649509999997,-28.988201899999964],[-51.84535649999999,-28.98818279999994],[-51.843345399999976,-28.979732499999965]]]}},{"type":"Feature","properties":{"setor":"430645205000003","pop":327,"sigilo_pop":false,"dom":158,"sigilo_dom":false,"mulheres":158,"sigilo_mulheres":false,"c0_4":10,"sigilo_c0_4":false,"c5_9":16,"sigilo_c5_9":false,"i60_69":44,"sigilo_i60_69":false,"i70m":69,"sigilo_i70m":false,"indigenas":0,"sigilo_indigenas":false,"pretos_pardos":null,"sigilo_pretos_pardos":true,"dom_ocupados":108,"sigilo_dom_ocupados":false,"dom_agua":86,"sigilo_dom_agua":false,"dom_esgoto":85,"sigilo_dom_esgoto":false,"renda_resp":1653.09,"sigilo_renda_resp":false,"n_resp":108,"sigilo_n_resp":false,"dens":9.4,"sigilo_dens":false,"na_bacia":1,"area_pct_bacia":100.0,"metodo_recorte_bacia":"ponto_representativo_setor_2022; area_pct_geometrica"},"geometry":{"type":"Polygon","coordinates":[[[-51.870076299999944,-28.928808199999928],[-51.85931469999996,-28.929083099999954],[-51.85600979999999,-28.933065699999936],[-51.854241499999944,-28.93211769999994],[-51.85339449999998,-28.932141499999943],[-51.85041609999997,-28.934336399999935],[-51.85037479999994,-28.935143199999956],[-51.848949199999936,-28.936981399999986],[-51.846625,-28.936087099999945],[-51.84511429999998,-28.936010199999945],[-51.84505189999993,-28.93640539999994],[-51.84541439999998,-28.937234],[-51.84528959999994,-28.938244],[-51.84407139999996,-28.941350399999973],[-51.84442629999995,-28.941989899999946],[-51.84504519999996,-28.94212],[-51.845980199999985,-28.942745799999958],[-51.84693189999995,-28.944059799999927],[-51.846564099999966,-28.94543579999992],[-51.84542689999995,-28.947734199999974],[-51.844440599999984,-28.948616899999926],[-51.841208,-28.950576899999923],[-51.84069539999996,-28.95117959999993],[-51.840327099999975,-28.95219879999995],[-51.840585,-28.95374109999994],[-51.84375079999996,-28.959679799999947],[-51.843903,-28.960899],[-51.84341529999995,-28.96174539999998],[-51.84274339999996,-28.96207509999994],[-51.839107499999955,-28.962404899999967],[-51.83741729999997,-28.96329509999997],[-51.83570209999994,-28.966328199999964],[-51.83438769999997,-28.96950049999998],[-51.83656189999994,-28.969663099999934],[-51.83687009999994,-28.97031259999994],[-51.83700979999997,-28.97185239999993],[-51.836704299999944,-28.972339299999934],[-51.83675549999999,-28.972805],[-51.837789,-28.974003799999945],[-51.83817029999995,-28.976628099999978],[-51.84161449999993,-28.978499399999976],[-51.843345399999976,-28.979732499999965],[-51.84645149999994,-28.978584599999976],[-51.848877,-28.97845729999994],[-51.850726,-28.976979499999963],[-51.852813099999935,-28.977111799999925],[-51.854981399999986,-28.97634839999995],[-51.85748209999998,-28.976882],[-51.85941789999998,-28.978033799999945],[-51.86026489999995,-28.978293],[-51.861419299999966,-28.978300199999975],[-51.862549599999966,-28.97800729999996],[-51.86417979999994,-28.97816829999993],[-51.866949699999964,-28.97786059999992],[-51.86780169999998,-28.977193099999965],[-51.86790969999998,-28.97544659999994],[-51.86888479999993,-28.976001399999973],[-51.87017549999996,-28.97609919999995],[-51.87139069999995,-28.976889],[-51.881384,-28.976871399999926],[-51.8830483,-28.978316499999945],[-51.88391169999995,-28.979446599999964],[-51.886895399999965,-28.98056379999998],[-51.899577,-28.980853199999945],[-51.89963069999993,-28.98156049999994],[-51.89940129999997,-28.981867399999935],[-51.89748019999996,-28.983207899999975],[-51.89681749999995,-28.983369399999958],[-51.896999199999975,-28.983700699999932],[-51.89819279999995,-28.98429749999997],[-51.90032189999993,-28.984716899999967],[-51.90270909999998,-28.98558789999993],[-51.90383819999993,-28.98652339999996],[-51.90606409999998,-28.98757179999994],[-51.90611349999995,-28.988063799999967],[-51.90696639999993,-28.98657979999996],[-51.909314799999954,-28.984583399999963],[-51.911649899999986,-28.98341179999994],[-51.922346,-28.981752399999937],[-51.923924,-28.980697799999984],[-51.92484489999999,-28.979593899999934],[-51.925073099999956,-28.978197499999965],[-51.92482559999997,-28.976846899999938],[-51.923825299999976,-28.97571459999994],[-51.923503299999936,-28.974716799999946],[-51.92271039999998,-28.974156],[-51.91905409999998,-28.973839699999928],[-51.91471389999998,-28.974710099999974],[-51.908353499999976,-28.974172899999935],[-51.90721,-28.973799099999948],[-51.90594949999996,-28.97167329999996],[-51.907731199999944,-28.970014599999953],[-51.909581799999955,-28.96885629999997],[-51.91389289999995,-28.966670799999974],[-51.921329699999944,-28.964304499999965],[-51.92430309999998,-28.96225569999995],[-51.92504829999995,-28.959710399999956],[-51.92463019999996,-28.957160299999927],[-51.92361569999998,-28.953858199999956],[-51.922263499999985,-28.952869899999943],[-51.919052599999986,-28.95198129999994],[-51.91626509999998,-28.9519653],[-51.914238299999965,-28.953366799999973],[-51.91310539999995,-28.956642699999964],[-51.912988199999965,-28.959375099999935],[-51.91242159999996,-28.961748399999987],[-51.908900899999935,-28.96576839999994],[-51.907352399999986,-28.96601219999997],[-51.906512,-28.96532],[-51.90750449999996,-28.963539599999926],[-51.90939589999993,-28.96124509999992],[-51.90805249999994,-28.955210699999956],[-51.9083682,-28.95173019999993],[-51.91001669999997,-28.949793899999975],[-51.91363179999996,-28.947892],[-51.91368359999996,-28.946120299999983],[-51.889708,-28.946374399999968],[-51.889620399999956,-28.932479],[-51.86998879999994,-28.932634499999946],[-51.870076299999944,-28.928808199999928]]]}},{"type":"Feature","properties":{"setor":"430645205000004","pop":216,"sigilo_pop":false,"dom":110,"sigilo_dom":false,"mulheres":103,"sigilo_mulheres":false,"c0_4":14,"sigilo_c0_4":false,"c5_9":10,"sigilo_c5_9":false,"i60_69":31,"sigilo_i60_69":false,"i70m":43,"sigilo_i70m":false,"indigenas":0,"sigilo_indigenas":false,"pretos_pardos":10,"sigilo_pretos_pardos":false,"dom_ocupados":68,"sigilo_dom_ocupados":false,"dom_agua":6,"sigilo_dom_agua":false,"dom_esgoto":0,"sigilo_dom_esgoto":false,"renda_resp":1981.25,"sigilo_renda_resp":false,"n_resp":68,"sigilo_n_resp":false,"dens":10.9,"sigilo_dens":false,"na_bacia":1,"area_pct_bacia":100.0,"metodo_recorte_bacia":"ponto_representativo_setor_2022; area_pct_geometrica"},"geometry":{"type":"Polygon","coordinates":[[[-51.78130409999994,-28.936285799999943],[-51.780913199999986,-28.937494199999946],[-51.77913859999996,-28.940565599999957],[-51.773771299999964,-28.94094419999993],[-51.76760869999998,-28.943294399999957],[-51.767551,-28.945744699999974],[-51.76802729999997,-28.947695399999922],[-51.76899149999998,-28.946949399999937],[-51.76973039999995,-28.946716399999964],[-51.77187949999996,-28.94661],[-51.772131899999984,-28.946800699999976],[-51.771923,-28.947816899999964],[-51.77218549999997,-28.948205399999942],[-51.77243389999995,-28.947702499999924],[-51.77270219999997,-28.947605299999964],[-51.772850199999944,-28.94779639999995],[-51.773662599999966,-28.95123859999995],[-51.77443809999994,-28.95278319999994],[-51.77511069999998,-28.95353789999995],[-51.77552009999994,-28.954734599999938],[-51.77574189999996,-28.954593399999958],[-51.775992799999976,-28.953233299999965],[-51.77777859999998,-28.952117499999925],[-51.77791979999995,-28.950873499999936],[-51.780354,-28.951111799999985],[-51.781332299999974,-28.950982],[-51.78213589999995,-28.95036769999996],[-51.78289079999996,-28.94923379999996],[-51.78352119999994,-28.947379899999923],[-51.783870399999955,-28.947053499999985],[-51.784411199999965,-28.94676259999995],[-51.78556869999995,-28.946800099999965],[-51.78616569999998,-28.946502199999937],[-51.78728879999994,-28.946372399999966],[-51.78888309999997,-28.945425099999973],[-51.79022569999996,-28.945766799999937],[-51.79092849999996,-28.947379399999924],[-51.79285369999997,-28.94752719999996],[-51.79450409999998,-28.94830459999997],[-51.79512409999995,-28.948080699999924],[-51.79465349999998,-28.947240199999953],[-51.79471249999994,-28.94573279999997],[-51.799031799999966,-28.945690399999933],[-51.805080799999985,-28.94623359999998],[-51.80571289999994,-28.946021699999964],[-51.80599289999998,-28.947461199999967],[-51.80700329999996,-28.948962899999966],[-51.80712349999994,-28.95134639999997],[-51.80803849999996,-28.952448599999965],[-51.80730219999999,-28.953884199999933],[-51.80741909999995,-28.955099499999946],[-51.80667329999994,-28.956085699999957],[-51.805334199999955,-28.957119599999935],[-51.80527769999997,-28.958557299999953],[-51.80548169999997,-28.959053],[-51.806176,-28.959614399999964],[-51.80768379999996,-28.960193299999947],[-51.808771499999985,-28.959952799999932],[-51.81004909999995,-28.962020599999956],[-51.81110479999996,-28.962444699999935],[-51.812224699999945,-28.962596199999947],[-51.812980599999946,-28.966263499999968],[-51.813827899999986,-28.967900799999942],[-51.81355789999998,-28.968343],[-51.81021689999994,-28.968396799999947],[-51.809114199999954,-28.96877089999999],[-51.80886649999997,-28.96954029999994],[-51.809789,-28.970869399999973],[-51.80997349999996,-28.972094199999955],[-51.81063889999996,-28.972462599999968],[-51.812548099999965,-28.97252],[-51.813973499999975,-28.972132399999964],[-51.81438729999996,-28.972658699999958],[-51.81545969999997,-28.97311789999998],[-51.81771459999993,-28.973663],[-51.82026039999993,-28.974606],[-51.82178769999996,-28.975839799999946],[-51.823174,-28.976313399999977],[-51.824510499999974,-28.977136599999934],[-51.82493449999998,-28.977663499999938],[-51.82816749999995,-28.977700399999932],[-51.82952249999993,-28.977399699999985],[-51.83054869999995,-28.97828859999992],[-51.83198379999993,-28.976177],[-51.832226599999956,-28.975317699999945],[-51.831834799999974,-28.97019789999997],[-51.832082,-28.96847169999995],[-51.832600199999945,-28.968457799999943],[-51.8326608,-28.968099599999956],[-51.8331654,-28.96812879999993],[-51.83316879999995,-28.968476499999955],[-51.83476059999998,-28.96839129999994],[-51.83683079999997,-28.964072499999926],[-51.83779229999993,-28.96298909999996],[-51.839107499999955,-28.962404899999967],[-51.84274339999996,-28.96207509999994],[-51.84341529999995,-28.96174539999998],[-51.843903,-28.960899],[-51.84375079999996,-28.959679799999947],[-51.840585,-28.95374109999994],[-51.840327099999975,-28.95219879999995],[-51.84069539999996,-28.95117959999993],[-51.841208,-28.950576899999923],[-51.844440599999984,-28.948616899999926],[-51.84542689999995,-28.947734199999974],[-51.846564099999966,-28.94543579999992],[-51.84693189999995,-28.944059799999927],[-51.845980199999985,-28.942745799999958],[-51.84504519999996,-28.94212],[-51.84442629999995,-28.941989899999946],[-51.84407139999996,-28.941350399999973],[-51.84528959999994,-28.938244],[-51.84541439999998,-28.937234],[-51.84505189999993,-28.93640539999994],[-51.84511429999998,-28.936010199999945],[-51.846625,-28.936087099999945],[-51.848949199999936,-28.936981399999986],[-51.85037479999994,-28.935143199999956],[-51.85041609999997,-28.934336399999935],[-51.85339449999998,-28.932141499999943],[-51.854241499999944,-28.93211769999994],[-51.85600979999999,-28.933065699999936],[-51.85609189999997,-28.919259699999945],[-51.84278059999997,-28.9194242],[-51.84242969999997,-28.936662099999978],[-51.78130409999994,-28.936285799999943]]]}},{"type":"Feature","properties":{"setor":"430645205000005","pop":233,"sigilo_pop":false,"dom":114,"sigilo_dom":false,"mulheres":106,"sigilo_mulheres":false,"c0_4":null,"sigilo_c0_4":true,"c5_9":10,"sigilo_c5_9":false,"i60_69":37,"sigilo_i60_69":false,"i70m":41,"sigilo_i70m":false,"indigenas":0,"sigilo_indigenas":false,"pretos_pardos":12,"sigilo_pretos_pardos":false,"dom_ocupados":78,"sigilo_dom_ocupados":false,"dom_agua":null,"sigilo_dom_agua":true,"dom_esgoto":0,"sigilo_dom_esgoto":false,"renda_resp":3155.58,"sigilo_renda_resp":false,"n_resp":78,"sigilo_n_resp":false,"dens":8.5,"sigilo_dens":false,"na_bacia":1,"area_pct_bacia":100.0,"metodo_recorte_bacia":"ponto_representativo_setor_2022; area_pct_geometrica"},"geometry":{"type":"Polygon","coordinates":[[[-51.767551,-28.945744699999974],[-51.76751319999994,-28.947364799999942],[-51.769407899999976,-28.95139509999996],[-51.76984589999995,-28.954465099999936],[-51.76936219999994,-28.957022],[-51.76735189999993,-28.959278599999944],[-51.7658,-28.959492699999927],[-51.75705729999998,-28.957093599999954],[-51.755262,-28.957794199999967],[-51.75439309999996,-28.959213599999934],[-51.75407069999994,-28.96083879999997],[-51.755026499999985,-28.962766699999975],[-51.75666639999997,-28.963518299999972],[-51.765701,-28.962812699999972],[-51.770187799999974,-28.961057199999964],[-51.77288919999995,-28.961213699999977],[-51.774778399999946,-28.96206749999993],[-51.778323399999984,-28.9657759],[-51.77883689999993,-28.96729149999993],[-51.77749469999997,-28.970027199999947],[-51.77470969999996,-28.972424399999948],[-51.772369399999945,-28.973026],[-51.768638899999985,-28.97145989999996],[-51.75984129999994,-28.97246539999998],[-51.752997499999935,-28.974275899999956],[-51.75128449999994,-28.97542329999994],[-51.74978749999997,-28.979299799999975],[-51.75056409999996,-28.981305],[-51.759534799999976,-28.991112799999943],[-51.76060039999993,-29.008092799999922],[-51.779876,-29.00808959999996],[-51.779674399999976,-29.000764],[-51.792821699999934,-28.998676099999944],[-51.79480989999996,-29.008873699999985],[-51.80447059999995,-29.011697799999983],[-51.804481599999974,-29.011173299999925],[-51.803847899999944,-29.00976],[-51.80392379999996,-29.009387599999968],[-51.804360299999985,-29.008669899999973],[-51.805411499999934,-29.00827119999996],[-51.80551579999997,-29.006881499999967],[-51.80605289999995,-29.00643139999994],[-51.806777899999986,-29.005096499999983],[-51.80548209999995,-29.002302],[-51.804837099999986,-29.001682799999962],[-51.80381989999995,-28.998878],[-51.80361959999994,-28.99709419999994],[-51.80305619999995,-28.99614419999995],[-51.80284009999997,-28.994905499999955],[-51.80300779999994,-28.994240699999978],[-51.80471679999993,-28.99348489999994],[-51.80335579999996,-28.992820699999974],[-51.80216149999996,-28.991537099999952],[-51.80018269999994,-28.99095209999997],[-51.79755,-28.990575599999936],[-51.79715489999996,-28.99031139999994],[-51.796896799999956,-28.989257599999974],[-51.79710959999994,-28.98783279999997],[-51.798696699999944,-28.9865023],[-51.79896069999995,-28.98466539999998],[-51.80209859999997,-28.98310069999995],[-51.80145429999994,-28.981954899999938],[-51.802071799999965,-28.97861569999997],[-51.80220079999998,-28.975640799999955],[-51.80510419999996,-28.97492969999997],[-51.80619809999997,-28.97437729999995],[-51.80788439999998,-28.97429149999994],[-51.81165139999997,-28.97484039999994],[-51.81258339999994,-28.97575529999995],[-51.813440499999956,-28.974886399999946],[-51.81555179999998,-28.97371329999993],[-51.816553899999974,-28.97350569999997],[-51.81438729999996,-28.972658699999958],[-51.813973499999975,-28.972132399999964],[-51.812548099999965,-28.97252],[-51.810229499999934,-28.97234189999996],[-51.80997349999996,-28.972094199999955],[-51.809789,-28.970869399999973],[-51.80886649999997,-28.96954029999994],[-51.809114199999954,-28.96877089999999],[-51.80969029999995,-28.968450199999953],[-51.81287,-28.96846789999994],[-51.81355789999998,-28.968343],[-51.813827899999986,-28.967900799999942],[-51.812980599999946,-28.966263499999968],[-51.812224699999945,-28.962596199999947],[-51.81110479999996,-28.962444699999935],[-51.81004909999995,-28.962020599999956],[-51.808771499999985,-28.959952799999932],[-51.80768379999996,-28.960193299999947],[-51.806176,-28.959614399999964],[-51.80548169999997,-28.959053],[-51.80527769999997,-28.958557299999953],[-51.805334199999955,-28.957119599999935],[-51.80667329999994,-28.956085699999957],[-51.80741909999995,-28.955099499999946],[-51.80730219999999,-28.953884199999933],[-51.80803849999996,-28.952448599999965],[-51.80712349999994,-28.95134639999997],[-51.80700329999996,-28.948962899999966],[-51.80599289999998,-28.947461199999967],[-51.80571289999994,-28.946021699999964],[-51.805080799999985,-28.94623359999998],[-51.799031799999966,-28.945690399999933],[-51.79471249999994,-28.94573279999997],[-51.79465349999998,-28.947240199999953],[-51.79512409999995,-28.948080699999924],[-51.79450409999998,-28.94830459999997],[-51.79285369999997,-28.94752719999996],[-51.79092849999996,-28.947379399999924],[-51.79022569999996,-28.945766799999937],[-51.78888309999997,-28.945425099999973],[-51.78728879999994,-28.946372399999966],[-51.78616569999998,-28.946502199999937],[-51.78556869999995,-28.946800099999965],[-51.784411199999965,-28.94676259999995],[-51.783870399999955,-28.947053499999985],[-51.78352119999994,-28.947379899999923],[-51.78289079999996,-28.94923379999996],[-51.78213589999995,-28.95036769999996],[-51.781332299999974,-28.950982],[-51.780354,-28.951111799999985],[-51.77791979999995,-28.950873499999936],[-51.77777859999998,-28.952117499999925],[-51.775992799999976,-28.953233299999965],[-51.77574189999996,-28.954593399999958],[-51.77552009999994,-28.954734599999938],[-51.77511069999998,-28.95353789999995],[-51.77443809999994,-28.95278319999994],[-51.773662599999966,-28.95123859999995],[-51.772850199999944,-28.94779639999995],[-51.77270219999997,-28.947605299999964],[-51.77243389999995,-28.947702499999924],[-51.77218549999997,-28.948205399999942],[-51.771923,-28.947816899999964],[-51.772131899999984,-28.946800699999976],[-51.77187949999996,-28.94661],[-51.76973039999995,-28.946716399999964],[-51.76899149999998,-28.946949399999937],[-51.76802729999997,-28.947695399999922],[-51.767551,-28.945744699999974]]]}},{"type":"Feature","properties":{"setor":"430645205000006","pop":326,"sigilo_pop":false,"dom":163,"sigilo_dom":false,"mulheres":151,"sigilo_mulheres":false,"c0_4":13,"sigilo_c0_4":false,"c5_9":16,"sigilo_c5_9":false,"i60_69":42,"sigilo_i60_69":false,"i70m":44,"sigilo_i70m":false,"indigenas":0,"sigilo_indigenas":false,"pretos_pardos":20,"sigilo_pretos_pardos":false,"dom_ocupados":115,"sigilo_dom_ocupados":false,"dom_agua":101,"sigilo_dom_agua":false,"dom_esgoto":3,"sigilo_dom_esgoto":false,"renda_resp":8316.09,"sigilo_renda_resp":false,"n_resp":115,"sigilo_n_resp":false,"dens":10.2,"sigilo_dens":false,"na_bacia":1,"area_pct_bacia":100.0,"metodo_recorte_bacia":"ponto_representativo_setor_2022; area_pct_geometrica"},"geometry":{"type":"Polygon","coordinates":[[[-51.843345399999976,-28.979732499999965],[-51.84506789999995,-28.98700279999997],[-51.84548109999997,-28.986745099999943],[-51.846158299999956,-28.986709399999945],[-51.84659169999998,-28.98627349999997],[-51.84693089999997,-28.98651209999997],[-51.847506,-28.986376599999975],[-51.84923859999998,-28.987099],[-51.84921469999995,-28.988244],[-51.84649509999997,-28.988201899999964],[-51.84642069999995,-28.990364299999953],[-51.84606489999993,-28.990912],[-51.846882,-28.99385809999995],[-51.84906929999993,-28.996258299999965],[-51.84958289999998,-28.997385499999943],[-51.84909269999998,-28.998421399999977],[-51.84796669999997,-28.998832299999947],[-51.847180399999964,-28.998636199999975],[-51.84510289999997,-28.997492],[-51.843877,-28.997689099999953],[-51.843280799999945,-28.998241599999975],[-51.8419823,-29.001040899999968],[-51.84193659999995,-29.00254159999998],[-51.845393,-29.007496199999938],[-51.848852299999976,-29.009418399999944],[-51.84958469999999,-29.010027899999955],[-51.84996859999995,-29.010690899999933],[-51.85014769999998,-29.011551899999976],[-51.84979029999994,-29.012825899999932],[-51.845971299999974,-29.016130399999945],[-51.84554749999995,-29.017203199999976],[-51.84771649999993,-29.021761299999973],[-51.847847299999955,-29.024457699999978],[-51.84766349999995,-29.02462219999996],[-51.851604099999975,-29.025808099999942],[-51.84999589999995,-29.018739499999974],[-51.852305,-29.016847299999938],[-51.86864149999997,-29.02024769999997],[-51.868805699999946,-29.017403899999973],[-51.87919619999997,-29.01704779999995],[-51.878777099999986,-29.019216599999936],[-51.918325,-29.02285889999996],[-51.91597649999994,-29.01940789999998],[-51.91508859999993,-29.015878399999973],[-51.922074899999984,-29.01319609999996],[-51.923495399999986,-29.00828449999995],[-51.9226111,-29.00502219999992],[-51.92372389999998,-29.003479],[-51.92845659999995,-29.000924699999928],[-51.93188939999993,-28.99431049999998],[-51.930655299999955,-28.990823699999968],[-51.92933879999998,-28.9901379],[-51.92502019999995,-28.99134049999998],[-51.91837859999998,-28.993597399999942],[-51.91556049999997,-28.993508399999936],[-51.91271219999994,-28.99418349999995],[-51.90852509999996,-28.992141],[-51.906857,-28.990967399999924],[-51.90606409999998,-28.98757179999994],[-51.90383819999993,-28.98652339999996],[-51.90270909999998,-28.98558789999993],[-51.90032189999993,-28.984716899999967],[-51.89819279999995,-28.98429749999997],[-51.896999199999975,-28.983700699999932],[-51.89681749999995,-28.983369399999958],[-51.89748019999996,-28.983207899999975],[-51.89940129999997,-28.981867399999935],[-51.89963069999993,-28.98156049999994],[-51.899577,-28.980853199999945],[-51.886895399999965,-28.98056379999998],[-51.88391169999995,-28.979446599999964],[-51.8830483,-28.978316499999945],[-51.881384,-28.976871399999926],[-51.87139069999995,-28.976889],[-51.87017549999996,-28.97609919999995],[-51.86888479999993,-28.976001399999973],[-51.86790969999998,-28.97544659999994],[-51.86780169999998,-28.977193099999965],[-51.866949699999964,-28.97786059999992],[-51.86417979999994,-28.97816829999993],[-51.862549599999966,-28.97800729999996],[-51.861419299999966,-28.978300199999975],[-51.86026489999995,-28.978293],[-51.85941789999998,-28.978033799999945],[-51.85748209999998,-28.976882],[-51.854981399999986,-28.97634839999995],[-51.852813099999935,-28.977111799999925],[-51.850726,-28.976979499999963],[-51.848877,-28.97845729999994],[-51.84645149999994,-28.978584599999976],[-51.843345399999976,-28.979732499999965]]]}},{"type":"Feature","properties":{"setor":"430645205000007","pop":90,"sigilo_pop":false,"dom":43,"sigilo_dom":false,"mulheres":50,"sigilo_mulheres":false,"c0_4":null,"sigilo_c0_4":true,"c5_9":null,"sigilo_c5_9":true,"i60_69":7,"sigilo_i60_69":false,"i70m":14,"sigilo_i70m":false,"indigenas":0,"sigilo_indigenas":false,"pretos_pardos":15,"sigilo_pretos_pardos":false,"dom_ocupados":39,"sigilo_dom_ocupados":false,"dom_agua":14,"sigilo_dom_agua":false,"dom_esgoto":0,"sigilo_dom_esgoto":false,"renda_resp":1909.83,"sigilo_renda_resp":false,"n_resp":39,"sigilo_n_resp":false,"dens":1311.8,"sigilo_dens":false,"na_bacia":1,"area_pct_bacia":100.0,"metodo_recorte_bacia":"ponto_representativo_setor_2022; area_pct_geometrica"},"geometry":{"type":"Polygon","coordinates":[[[-51.84506789999995,-28.98700279999997],[-51.84535649999999,-28.98818279999994],[-51.84921469999995,-28.988244],[-51.84923859999998,-28.987099],[-51.847506,-28.986376599999975],[-51.84693089999997,-28.98651209999997],[-51.84659169999998,-28.98627349999997],[-51.846158299999956,-28.986709399999945],[-51.84548109999997,-28.986745099999943],[-51.84506789999995,-28.98700279999997]]]}},{"type":"Feature","properties":{"setor":"430645205000008","pop":448,"sigilo_pop":false,"dom":237,"sigilo_dom":false,"mulheres":232,"sigilo_mulheres":false,"c0_4":23,"sigilo_c0_4":false,"c5_9":24,"sigilo_c5_9":false,"i60_69":48,"sigilo_i60_69":false,"i70m":54,"sigilo_i70m":false,"indigenas":0,"sigilo_indigenas":false,"pretos_pardos":50,"sigilo_pretos_pardos":false,"dom_ocupados":193,"sigilo_dom_ocupados":false,"dom_agua":193,"sigilo_dom_agua":false,"dom_esgoto":null,"sigilo_dom_esgoto":true,"renda_resp":3094.14,"sigilo_renda_resp":false,"n_resp":193,"sigilo_n_resp":false,"dens":1003.7,"sigilo_dens":false,"na_bacia":1,"area_pct_bacia":100.0,"metodo_recorte_bacia":"ponto_representativo_setor_2022; area_pct_geometrica"},"geometry":{"type":"Polygon","coordinates":[[[-51.83068229999998,-28.98529849999994],[-51.83310529999995,-28.985006199999923],[-51.83362969999996,-28.98395419999997],[-51.83358619999996,-28.984701],[-51.83487539999992,-28.984559899999965],[-51.83541789999998,-28.984218099999957],[-51.83682049999994,-28.98476109999996],[-51.84044329999995,-28.980948699999953],[-51.84318319999994,-28.979785299999957],[-51.84214179999998,-28.979160199999967],[-51.839034399999946,-28.979150599999976],[-51.839039299999975,-28.979803499999946],[-51.83863619999993,-28.98014609999995],[-51.83610779999998,-28.9808202],[-51.835231599999986,-28.978934899999963],[-51.83319569999998,-28.978819499999936],[-51.83319,-28.979228599999935],[-51.833946,-28.980335],[-51.83313769999995,-28.979616399999934],[-51.83278769999998,-28.97888809999995],[-51.83054869999995,-28.97828859999992],[-51.830717599999964,-28.97948059999993],[-51.832518799999946,-28.981158199999967],[-51.83283,-28.98192119999993],[-51.83264379999997,-28.98252479999996],[-51.83163609999997,-28.983049099999967],[-51.83068229999998,-28.98529849999994]]]}},{"type":"Feature","properties":{"setor":"430645205000012","pop":435,"sigilo_pop":false,"dom":204,"sigilo_dom":false,"mulheres":232,"sigilo_mulheres":false,"c0_4":27,"sigilo_c0_4":false,"c5_9":21,"sigilo_c5_9":false,"i60_69":47,"sigilo_i60_69":false,"i70m":51,"sigilo_i70m":false,"indigenas":0,"sigilo_indigenas":false,"pretos_pardos":38,"sigilo_pretos_pardos":false,"dom_ocupados":167,"sigilo_dom_ocupados":false,"dom_agua":39,"sigilo_dom_agua":false,"dom_esgoto":132,"sigilo_dom_esgoto":false,"renda_resp":2413.57,"sigilo_renda_resp":false,"n_resp":167,"sigilo_n_resp":false,"dens":589.9,"sigilo_dens":false,"na_bacia":1,"area_pct_bacia":100.0,"metodo_recorte_bacia":"ponto_representativo_setor_2022; area_pct_geometrica"},"geometry":{"type":"Polygon","coordinates":[[[-51.83054869999995,-28.97828859999992],[-51.83278769999998,-28.97888809999995],[-51.83313769999995,-28.979616399999934],[-51.833946,-28.980335],[-51.83319,-28.979228599999935],[-51.83319569999998,-28.978819499999936],[-51.835231599999986,-28.978934899999963],[-51.83610779999998,-28.9808202],[-51.83863619999993,-28.98014609999995],[-51.839039299999975,-28.979803499999946],[-51.839034399999946,-28.979150599999976],[-51.84214179999998,-28.979160199999967],[-51.843345399999976,-28.979732499999965],[-51.84161449999993,-28.978499399999976],[-51.83817029999995,-28.976628099999978],[-51.837789,-28.974003799999945],[-51.83675549999999,-28.972805],[-51.836704299999944,-28.972339299999934],[-51.83700979999997,-28.97185239999993],[-51.83687009999994,-28.97031259999994],[-51.83656189999994,-28.969663099999934],[-51.83438769999997,-28.96950049999998],[-51.83476059999998,-28.96839129999994],[-51.83316879999995,-28.968476499999955],[-51.8331654,-28.96812879999993],[-51.8326608,-28.968099599999956],[-51.832600199999945,-28.968457799999943],[-51.832082,-28.96847169999995],[-51.831834799999974,-28.97019789999997],[-51.832226599999956,-28.975317699999945],[-51.83198379999993,-28.976177],[-51.83054869999995,-28.97828859999992]]]}},{"type":"Feature","properties":{"setor":"430645205000013","pop":338,"sigilo_pop":false,"dom":146,"sigilo_dom":false,"mulheres":153,"sigilo_mulheres":false,"c0_4":15,"sigilo_c0_4":false,"c5_9":14,"sigilo_c5_9":false,"i60_69":60,"sigilo_i60_69":false,"i70m":56,"sigilo_i70m":false,"indigenas":0,"sigilo_indigenas":false,"pretos_pardos":11,"sigilo_pretos_pardos":false,"dom_ocupados":124,"sigilo_dom_ocupados":false,"dom_agua":0,"sigilo_dom_agua":false,"dom_esgoto":0,"sigilo_dom_esgoto":false,"renda_resp":1663.67,"sigilo_renda_resp":false,"n_resp":124,"sigilo_n_resp":false,"dens":19.3,"sigilo_dens":false,"na_bacia":1,"area_pct_bacia":100.0,"metodo_recorte_bacia":"ponto_representativo_setor_2022; area_pct_geometrica"},"geometry":{"type":"Polygon","coordinates":[[[-51.80447059999995,-29.011697799999983],[-51.84766349999995,-29.02462219999996],[-51.847847299999955,-29.024457699999978],[-51.84771649999993,-29.021761299999973],[-51.84554749999995,-29.017203199999976],[-51.845971299999974,-29.016130399999945],[-51.84979029999994,-29.012825899999932],[-51.850095599999975,-29.011089399999936],[-51.84958469999999,-29.010027899999955],[-51.848852299999976,-29.009418399999944],[-51.845393,-29.007496199999938],[-51.84229469999997,-29.00329529999994],[-51.84181909999995,-29.001816],[-51.843280799999945,-28.998241599999975],[-51.843877,-28.997689099999953],[-51.84510289999997,-28.997492],[-51.847180399999964,-28.998636199999975],[-51.84830749999998,-28.998806299999956],[-51.84909269999998,-28.998421399999977],[-51.84944959999996,-28.99794679999997],[-51.849480799999974,-28.996831699999976],[-51.846882,-28.99385809999995],[-51.84606489999993,-28.990912],[-51.84499049999993,-28.99026939999993],[-51.84161059999997,-28.99076579999996],[-51.83960569999993,-28.992499699999946],[-51.83885849999996,-28.99280139999995],[-51.83758919999996,-28.992404299999972],[-51.83727159999995,-28.991000099999965],[-51.834900699999935,-28.99306],[-51.83451119999995,-28.988872199999946],[-51.8323913,-28.98775219999993],[-51.83165809999997,-28.987134299999987],[-51.83068229999998,-28.98529849999994],[-51.83163609999997,-28.983049099999967],[-51.83264379999997,-28.98252479999996],[-51.83280589999998,-28.981690199999946],[-51.83214819999995,-28.98076339999995],[-51.83085989999995,-28.979679],[-51.83053929999994,-28.979048699999964],[-51.83054869999995,-28.97828859999992],[-51.82952249999993,-28.977399699999985],[-51.82816749999995,-28.977700399999932],[-51.82493449999998,-28.977663499999938],[-51.824510499999974,-28.977136599999934],[-51.823174,-28.976313399999977],[-51.82178769999996,-28.975839799999946],[-51.82026039999993,-28.974606],[-51.81771459999993,-28.973663],[-51.816553899999974,-28.97350569999997],[-51.81555179999998,-28.97371329999993],[-51.813440499999956,-28.974886399999946],[-51.81258339999994,-28.97575529999995],[-51.81165139999997,-28.97484039999994],[-51.80788439999998,-28.97429149999994],[-51.80619809999997,-28.97437729999995],[-51.80510419999996,-28.97492969999997],[-51.802449099999926,-28.975476399999938],[-51.80220079999998,-28.975640799999955],[-51.802071799999965,-28.97861569999997],[-51.80145429999994,-28.981954899999938],[-51.80209859999997,-28.98310069999995],[-51.79896069999995,-28.98466539999998],[-51.798696699999944,-28.9865023],[-51.79710959999994,-28.98783279999997],[-51.796896799999956,-28.989257599999974],[-51.79715489999996,-28.99031139999994],[-51.79755,-28.990575599999936],[-51.80018269999994,-28.99095209999997],[-51.80216149999996,-28.991537099999952],[-51.80335579999996,-28.992820699999974],[-51.80471679999993,-28.99348489999994],[-51.80300779999994,-28.994240699999978],[-51.80284009999997,-28.994905499999955],[-51.80305619999995,-28.99614419999995],[-51.80361959999994,-28.99709419999994],[-51.80381989999995,-28.998878],[-51.804837099999986,-29.001682799999962],[-51.80548209999995,-29.002302],[-51.806777899999986,-29.005096499999983],[-51.80605289999995,-29.00643139999994],[-51.80551579999997,-29.006881499999967],[-51.805411499999934,-29.00827119999996],[-51.804360299999985,-29.008669899999973],[-51.80392379999996,-29.009387599999968],[-51.803847899999944,-29.00976],[-51.804481599999974,-29.011173299999925],[-51.80447059999995,-29.011697799999983]]]}}]}