{"type":"FeatureCollection","name":"4306304","crs":{"type":"name","properties":{"name":"urn:ogc:def:crs:OGC:1.3:CRS84"}},"features":[{"type":"Feature","properties":{"setor":"430630405000001","pop":1034,"sigilo_pop":false,"dom":463,"sigilo_dom":0,"mulheres":562,"sigilo_mulheres":0,"c0_4":54,"sigilo_c0_4":0,"c5_9":49,"sigilo_c5_9":0,"i60_69":126,"sigilo_i60_69":0,"i70m":135,"sigilo_i70m":0,"indigenas":9,"sigilo_indigenas":0,"pretos_pardos":67,"sigilo_pretos_pardos":0,"dom_ocupados":428,"sigilo_dom_ocupados":0,"dom_agua":399,"sigilo_dom_agua":0,"dom_esgoto":64,"sigilo_dom_esgoto":0,"renda_resp":2626.18,"sigilo_renda_resp":0,"n_resp":428,"sigilo_n_resp":0,"dens":933.0,"sigilo_dens":false,"na_bacia":1,"area_pct_bacia":100.0,"metodo_recorte_bacia":"ponto_representativo_setor_2022; area_pct_geometrica","pop_n_validos":1,"pop_n_total":1,"pop_completude":1.0,"dom_n_validos":1,"dom_n_total":1,"dom_completude":1.0,"dom_ocupados_n_validos":1,"dom_ocupados_n_total":1,"dom_ocupados_completude":1.0,"mulheres_n_validos":1,"mulheres_n_total":1,"mulheres_completude":1.0,"c0_4_n_validos":1,"c0_4_n_total":1,"c0_4_completude":1.0,"c5_9_n_validos":1,"c5_9_n_total":1,"c5_9_completude":1.0,"i60_69_n_validos":1,"i60_69_n_total":1,"i60_69_completude":1.0,"i70m_n_validos":1,"i70m_n_total":1,"i70m_completude":1.0,"indigenas_n_validos":1,"indigenas_n_total":1,"indigenas_completude":1.0,"pretos_pardos_n_validos":1,"pretos_pardos_n_total":1,"pretos_pardos_completude":1.0,"dom_agua_n_validos":1,"dom_agua_n_total":1,"dom_agua_completude":1.0,"dom_esgoto_n_validos":1,"dom_esgoto_n_total":1,"dom_esgoto_completude":1.0,"n_resp_n_validos":1,"n_resp_n_total":1,"n_resp_completude":1.0,"renda_resp_n_validos":1,"renda_resp_n_total":1,"renda_resp_completude":1.0,"dens_n_validos":1,"dens_n_total":1,"dens_completude":1.0,"status_borda_bacia":"total","metodo_area_bacia":"interse??o geom?trica em EPSG:5880","metodo_na_bacia":"ponto_representativo_setor_2022_within_bacia","municipio":"David Canabarro","cod_mun":"4306304","mun_pct_na_bacia":100.0,"mun_pop_total":4321,"mun_pop_na_bacia":4321.0,"mun_ubs_iede":4,"mun_hospitais_iede":null,"mun_escolas_iede":null,"mun_bombeiros_iede":null,"mun_servicos_cobertura":"cadastro_IEDE_parcial_nao_inventario","mun_icm_faixa":"A","mun_icm_pontos":11,"mun_icm_prioritario":"não","mun_ubs_iede_status":"published","mun_hospitais_iede_status":"unknown","mun_escolas_iede_status":"unknown","mun_bombeiros_iede_status":"unknown"},"geometry":{"type":"Polygon","coordinates":[[[-51.84591479999994,-28.38602189999994],[-51.847111,-28.388811099999938],[-51.84681219999993,-28.38890549999996],[-51.84894029999999,-28.39401369999997],[-51.85367709999997,-28.392372199999958],[-51.85209569999996,-28.38928989999994],[-51.85558139999995,-28.382851099999975],[-51.860487199999966,-28.38157619999998],[-51.86386159999995,-28.378364799999925],[-51.86553139999995,-28.377439199999962],[-51.86414809999996,-28.37502889999995],[-51.864072399999934,-28.375207299999943],[-51.863691399999944,-28.374994],[-51.86311379999996,-28.375068099999964],[-51.862530799999945,-28.375510799999972],[-51.861166,-28.37555919999993],[-51.86027319999994,-28.376363199999957],[-51.85969149999995,-28.376377399999967],[-51.85744939999995,-28.379282099999966],[-51.85332519999997,-28.38078919999998],[-51.85298479999995,-28.38141419999994],[-51.85275489999999,-28.381385599999934],[-51.852052399999934,-28.382222599999974],[-51.85194039999994,-28.38284259999994],[-51.851306699999945,-28.382628099999977],[-51.85075,-28.38374009999995],[-51.85113889999997,-28.38382209999998],[-51.851284899999946,-28.384164399999975],[-51.85088069999995,-28.384440199999972],[-51.84591479999994,-28.38602189999994]]]}},{"type":"Feature","properties":{"setor":"430630405000002","pop":468,"sigilo_pop":false,"dom":217,"sigilo_dom":0,"mulheres":233,"sigilo_mulheres":0,"c0_4":23,"sigilo_c0_4":0,"c5_9":21,"sigilo_c5_9":0,"i60_69":73,"sigilo_i60_69":0,"i70m":46,"sigilo_i70m":0,"indigenas":0,"sigilo_indigenas":0,"pretos_pardos":44,"sigilo_pretos_pardos":0,"dom_ocupados":171,"sigilo_dom_ocupados":0,"dom_agua":29,"sigilo_dom_agua":0,"dom_esgoto":null,"sigilo_dom_esgoto":1,"renda_resp":2701.99,"sigilo_renda_resp":0,"n_resp":171,"sigilo_n_resp":0,"dens":11.7,"sigilo_dens":false,"na_bacia":1,"area_pct_bacia":100.0,"metodo_recorte_bacia":"ponto_representativo_setor_2022; area_pct_geometrica","pop_n_validos":1,"pop_n_total":1,"pop_completude":1.0,"dom_n_validos":1,"dom_n_total":1,"dom_completude":1.0,"dom_ocupados_n_validos":1,"dom_ocupados_n_total":1,"dom_ocupados_completude":1.0,"mulheres_n_validos":1,"mulheres_n_total":1,"mulheres_completude":1.0,"c0_4_n_validos":1,"c0_4_n_total":1,"c0_4_completude":1.0,"c5_9_n_validos":1,"c5_9_n_total":1,"c5_9_completude":1.0,"i60_69_n_validos":1,"i60_69_n_total":1,"i60_69_completude":1.0,"i70m_n_validos":1,"i70m_n_total":1,"i70m_completude":1.0,"indigenas_n_validos":1,"indigenas_n_total":1,"indigenas_completude":1.0,"pretos_pardos_n_validos":1,"pretos_pardos_n_total":1,"pretos_pardos_completude":1.0,"dom_agua_n_validos":1,"dom_agua_n_total":1,"dom_agua_completude":1.0,"dom_esgoto_n_validos":0,"dom_esgoto_n_total":1,"dom_esgoto_completude":0.0,"n_resp_n_validos":1,"n_resp_n_total":1,"n_resp_completude":1.0,"renda_resp_n_validos":1,"renda_resp_n_total":1,"renda_resp_completude":1.0,"dens_n_validos":1,"dens_n_total":1,"dens_completude":1.0,"status_borda_bacia":"total","metodo_area_bacia":"interse??o geom?trica em EPSG:5880","metodo_na_bacia":"ponto_representativo_setor_2022_within_bacia","municipio":"David Canabarro","cod_mun":"4306304","mun_pct_na_bacia":100.0,"mun_pop_total":4321,"mun_pop_na_bacia":4321.0,"mun_ubs_iede":4,"mun_hospitais_iede":null,"mun_escolas_iede":null,"mun_bombeiros_iede":null,"mun_servicos_cobertura":"cadastro_IEDE_parcial_nao_inventario","mun_icm_faixa":"A","mun_icm_pontos":11,"mun_icm_prioritario":"não","mun_ubs_iede_status":"published","mun_hospitais_iede_status":"unknown","mun_escolas_iede_status":"unknown","mun_bombeiros_iede_status":"unknown"},"geometry":{"type":"Polygon","coordinates":[[[-51.83344349999994,-28.35688059999995],[-51.832331299999964,-28.356537399999976],[-51.83160009999994,-28.357526899999986],[-51.826597499999934,-28.359556099999956],[-51.82692179999998,-28.360664399999955],[-51.82300869999995,-28.362937199999966],[-51.82117379999994,-28.3661044],[-51.81696939999995,-28.366941799999953],[-51.8085028,-28.372706699999974],[-51.79587189999995,-28.376156],[-51.79419,-28.37858849999998],[-51.785676199999955,-28.3819013],[-51.75601679999994,-28.374053],[-51.75498749999998,-28.374574599999963],[-51.750884,-28.378083099999966],[-51.74817939999997,-28.38081189999997],[-51.74784619999997,-28.381752599999974],[-51.74809589999995,-28.383072599999938],[-51.74785319999995,-28.386392199999936],[-51.74752529999995,-28.386651099999934],[-51.74577519999997,-28.386696099999938],[-51.74529849999993,-28.38694529999998],[-51.74400879999996,-28.388714299999947],[-51.74318609999995,-28.389013599999945],[-51.742659,-28.389809399999937],[-51.74137579999996,-28.389970399999985],[-51.740794,-28.390648],[-51.74127919999996,-28.392070299999936],[-51.741224399999965,-28.393595399999978],[-51.74003429999994,-28.397400799999957],[-51.740036,-28.397753499999965],[-51.74071289999995,-28.398606199999954],[-51.73984859999996,-28.40052289999994],[-51.739800499999944,-28.40115519999994],[-51.73986859999996,-28.402128599999966],[-51.74041559999995,-28.402949399999944],[-51.740224499999954,-28.404402],[-51.74047629999996,-28.405044699999966],[-51.740354199999956,-28.405360199999965],[-51.73932049999997,-28.405544199999955],[-51.73851759999997,-28.40605579999994],[-51.738397099999986,-28.406345099999953],[-51.73879009999996,-28.406679],[-51.73862629999997,-28.40737259999998],[-51.739122399999985,-28.408252799999964],[-51.737310599999944,-28.408663299999947],[-51.73592329999997,-28.410704399999936],[-51.73763329999998,-28.410196899999956],[-51.73904389999995,-28.410380899999968],[-51.73990409999994,-28.410872399999963],[-51.74025809999994,-28.41184189999994],[-51.7425487,-28.412776599999976],[-51.74304609999996,-28.413358399999943],[-51.745054799999934,-28.414767899999962],[-51.745862,-28.41497889999994],[-51.74737079999995,-28.414957499999954],[-51.747784399999944,-28.41588849999994],[-51.74908629999993,-28.41592059999994],[-51.74982849999997,-28.41444379999996],[-51.75179959999996,-28.413555599999942],[-51.75207939999996,-28.413598399999955],[-51.75257819999996,-28.414401],[-51.75306489999997,-28.41380179999992],[-51.75374629999993,-28.413416499999983],[-51.75374629999993,-28.41302059999997],[-51.75409909999997,-28.41279579999996],[-51.75580249999996,-28.412613899999943],[-51.756788,-28.411939699999948],[-51.757007,-28.411929],[-51.75712869999996,-28.412228699999957],[-51.757253,-28.413256599999954],[-51.758857199999966,-28.412456599999924],[-51.760014799999965,-28.41216569999995],[-51.760511,-28.411598399999942],[-51.76009749999997,-28.410871099999948],[-51.76111389999994,-28.411242199999936],[-51.76187259999994,-28.411034599999937],[-51.76260209999998,-28.410485099999953],[-51.76307509999998,-28.4097],[-51.765339,-28.40741939999998],[-51.76631029999999,-28.407526299999976],[-51.767986199999946,-28.407289599999956],[-51.76732469999997,-28.408025599999974],[-51.767042599999975,-28.408888599999965],[-51.76683769999994,-28.41251309999996],[-51.767682699999966,-28.414116199999963],[-51.767722799999945,-28.41570039999993],[-51.76854149999997,-28.417982099999957],[-51.769667899999945,-28.418883099999963],[-51.77044579999994,-28.420092799999956],[-51.76980239999994,-28.42200409999997],[-51.77038879999998,-28.424172799999944],[-51.76917059999994,-28.42586269999998],[-51.773010599999964,-28.42521949999997],[-51.774747699999985,-28.42391439999995],[-51.775621899999976,-28.42180909999996],[-51.77776239999998,-28.42048059999996],[-51.78081469999995,-28.417119699999944],[-51.782166,-28.41682],[-51.78448949999995,-28.417353599999952],[-51.78640619999994,-28.41728219999993],[-51.78858219999995,-28.41585359999994],[-51.79177389999995,-28.413296399999986],[-51.79456419999997,-28.409059899999924],[-51.7952,-28.40572949999995],[-51.796388899999954,-28.40446639999993],[-51.79670429999993,-28.40429809999995],[-51.79858459999997,-28.40468729999997],[-51.80012149999993,-28.40405609999993],[-51.80062839999994,-28.4035656],[-51.800762299999974,-28.40253049999995],[-51.801083,-28.402151799999956],[-51.80242129999994,-28.401674199999942],[-51.80479379999997,-28.40020309999995],[-51.80647079999994,-28.399601099999987],[-51.80852259999995,-28.39833379999994],[-51.81252149999995,-28.39646939999994],[-51.81747969999998,-28.395000299999932],[-51.820207,-28.394830799999962],[-51.82078739999997,-28.39382239999997],[-51.821765699999965,-28.393302799999958],[-51.829820799999936,-28.392353399999926],[-51.82952739999996,-28.391592199999927],[-51.836670899999945,-28.38972029999996],[-51.83750669999995,-28.387996599999955],[-51.839254,-28.38862229999995],[-51.840584299999925,-28.388541399999955],[-51.841214599999944,-28.388922899999955],[-51.84317509999994,-28.387043899999977],[-51.85088069999995,-28.384440199999972],[-51.851284899999946,-28.384164399999975],[-51.85113889999997,-28.38382209999998],[-51.85075,-28.38374009999995],[-51.851306699999945,-28.382628099999977],[-51.85194039999994,-28.38284259999994],[-51.852052399999934,-28.382222599999974],[-51.85275489999999,-28.381385599999934],[-51.85298479999995,-28.38141419999994],[-51.85332519999997,-28.38078919999998],[-51.85744939999995,-28.379282099999966],[-51.85969149999995,-28.376377399999967],[-51.86027319999994,-28.376363199999957],[-51.861166,-28.37555919999993],[-51.862530799999945,-28.375510799999972],[-51.863425799999966,-28.375004],[-51.864072399999934,-28.375207299999943],[-51.86374179999996,-28.374321799999958],[-51.860339299999964,-28.372926399999972],[-51.86083,-28.370490599999986],[-51.85939339999993,-28.368205899999957],[-51.85426079999996,-28.371725],[-51.84951979999994,-28.370942299999957],[-51.84674079999997,-28.369055799999952],[-51.84872049999996,-28.36711889999998],[-51.84715429999995,-28.363885],[-51.85002319999995,-28.36317979999995],[-51.851003799999944,-28.362012799999942],[-51.85072409999997,-28.35968939999998],[-51.84836749999994,-28.35675059999993],[-51.84626869999994,-28.356762599999954],[-51.84333109999994,-28.358854799999957],[-51.842189899999944,-28.357168099999978],[-51.842034499999954,-28.354714099999963],[-51.83774879999998,-28.35430979999996],[-51.83648559999995,-28.354876],[-51.83643749999993,-28.35603969999995],[-51.834739799999966,-28.35800069999993],[-51.83406229999998,-28.358308299999972],[-51.83344349999994,-28.35688059999995]]]}},{"type":"Feature","properties":{"setor":"430630405000003","pop":375,"sigilo_pop":false,"dom":188,"sigilo_dom":0,"mulheres":176,"sigilo_mulheres":0,"c0_4":20,"sigilo_c0_4":0,"c5_9":20,"sigilo_c5_9":0,"i60_69":53,"sigilo_i60_69":0,"i70m":39,"sigilo_i70m":0,"indigenas":0,"sigilo_indigenas":0,"pretos_pardos":null,"sigilo_pretos_pardos":1,"dom_ocupados":136,"sigilo_dom_ocupados":0,"dom_agua":0,"sigilo_dom_agua":0,"dom_esgoto":0,"sigilo_dom_esgoto":0,"renda_resp":2025.47,"sigilo_renda_resp":0,"n_resp":136,"sigilo_n_resp":0,"dens":12.2,"sigilo_dens":false,"na_bacia":1,"area_pct_bacia":100.0,"metodo_recorte_bacia":"ponto_representativo_setor_2022; area_pct_geometrica","pop_n_validos":1,"pop_n_total":1,"pop_completude":1.0,"dom_n_validos":1,"dom_n_total":1,"dom_completude":1.0,"dom_ocupados_n_validos":1,"dom_ocupados_n_total":1,"dom_ocupados_completude":1.0,"mulheres_n_validos":1,"mulheres_n_total":1,"mulheres_completude":1.0,"c0_4_n_validos":1,"c0_4_n_total":1,"c0_4_completude":1.0,"c5_9_n_validos":1,"c5_9_n_total":1,"c5_9_completude":1.0,"i60_69_n_validos":1,"i60_69_n_total":1,"i60_69_completude":1.0,"i70m_n_validos":1,"i70m_n_total":1,"i70m_completude":1.0,"indigenas_n_validos":1,"indigenas_n_total":1,"indigenas_completude":1.0,"pretos_pardos_n_validos":0,"pretos_pardos_n_total":1,"pretos_pardos_completude":0.0,"dom_agua_n_validos":1,"dom_agua_n_total":1,"dom_agua_completude":1.0,"dom_esgoto_n_validos":1,"dom_esgoto_n_total":1,"dom_esgoto_completude":1.0,"n_resp_n_validos":1,"n_resp_n_total":1,"n_resp_completude":1.0,"renda_resp_n_validos":1,"renda_resp_n_total":1,"renda_resp_completude":1.0,"dens_n_validos":1,"dens_n_total":1,"dens_completude":1.0,"status_borda_bacia":"total","metodo_area_bacia":"interse??o geom?trica em EPSG:5880","metodo_na_bacia":"ponto_representativo_setor_2022_within_bacia","municipio":"David Canabarro","cod_mun":"4306304","mun_pct_na_bacia":100.0,"mun_pop_total":4321,"mun_pop_na_bacia":4321.0,"mun_ubs_iede":4,"mun_hospitais_iede":null,"mun_escolas_iede":null,"mun_bombeiros_iede":null,"mun_servicos_cobertura":"cadastro_IEDE_parcial_nao_inventario","mun_icm_faixa":"A","mun_icm_pontos":11,"mun_icm_prioritario":"não","mun_ubs_iede_status":"published","mun_hospitais_iede_status":"unknown","mun_escolas_iede_status":"unknown","mun_bombeiros_iede_status":"unknown"},"geometry":{"type":"Polygon","coordinates":[[[-51.71660629999997,-28.36969289999996],[-51.713623799999944,-28.370552099999948],[-51.71269419999992,-28.371935399999973],[-51.714444399999934,-28.375439799999977],[-51.71392349999996,-28.37655669999998],[-51.71022789999995,-28.376451399999947],[-51.704428499999956,-28.37940689999992],[-51.70458819999993,-28.382367],[-51.706570599999964,-28.384799499999932],[-51.70517049999995,-28.388209499999963],[-51.707737899999984,-28.390450699999963],[-51.70267179999996,-28.394286899999937],[-51.70491689999995,-28.3962873],[-51.711359799999975,-28.393487899999972],[-51.718293,-28.39332359999998],[-51.71883049999997,-28.395291499999924],[-51.71718109999995,-28.39568149999997],[-51.71368129999997,-28.39859109999996],[-51.707728,-28.39934969999996],[-51.70910369999996,-28.401439099999948],[-51.71261649999997,-28.40193019999998],[-51.712738299999955,-28.405522699999956],[-51.715403099999946,-28.407388399999938],[-51.71498619999995,-28.40987879999994],[-51.71676,-28.412505199999938],[-51.713615799999964,-28.41361139999998],[-51.714167499999974,-28.414823],[-51.713206699999944,-28.41721129999995],[-51.71713449999998,-28.41826839999993],[-51.720389099999984,-28.42058849999995],[-51.721416799999986,-28.417932399999977],[-51.72407309999994,-28.41854409999996],[-51.725999,-28.420281799999945],[-51.72820419999993,-28.42017789999995],[-51.729099899999945,-28.420634799999963],[-51.72882009999995,-28.424173799999952],[-51.72594109999994,-28.42657089999994],[-51.72501809999994,-28.431921],[-51.723212699999976,-28.433606299999944],[-51.72204569999997,-28.43637549999993],[-51.72372629999995,-28.43703759999994],[-51.72662659999998,-28.436766799999937],[-51.729021,-28.437807],[-51.73381929999993,-28.436627799999943],[-51.735153699999955,-28.436963899999956],[-51.73958069999998,-28.440562099999955],[-51.74059319999998,-28.443508399999928],[-51.743978399999946,-28.44478569999995],[-51.743002599999954,-28.446885499999944],[-51.74522509999997,-28.449119399999976],[-51.748184399999964,-28.44877419999995],[-51.75268309999996,-28.443810399999954],[-51.755576299999966,-28.443880599999947],[-51.75961239999998,-28.447127499999965],[-51.75943769999998,-28.448169099999983],[-51.76026049999996,-28.449328299999934],[-51.76249539999997,-28.449185399999973],[-51.763670099999956,-28.449780699999966],[-51.76407239999998,-28.450629],[-51.764121699999976,-28.452775599999935],[-51.76388469999995,-28.453239899999968],[-51.762285899999945,-28.45470949999998],[-51.76199239999994,-28.45575639999992],[-51.76200709999995,-28.456958299999943],[-51.761502499999956,-28.457539699999987],[-51.76198079999995,-28.45807329999996],[-51.762351,-28.45783279999995],[-51.76255489999994,-28.45660439999994],[-51.76334,-28.454956299999925],[-51.76478549999997,-28.45290629999994],[-51.76526739999996,-28.450984099999967],[-51.76604629999998,-28.450152199999927],[-51.767556199999945,-28.447606099999962],[-51.767327799999975,-28.44567239999997],[-51.76508879999995,-28.442954699999973],[-51.76483539999999,-28.44219969999995],[-51.76503059999993,-28.440234899999943],[-51.76660909999998,-28.43881729999998],[-51.76756869999997,-28.435421399999935],[-51.76738179999995,-28.434815],[-51.76550419999995,-28.432512599999935],[-51.76529649999998,-28.431537499999926],[-51.76656759999997,-28.42891529999997],[-51.77038879999998,-28.424172799999944],[-51.76980239999994,-28.42200409999997],[-51.77044579999994,-28.420092799999956],[-51.769667899999945,-28.418883099999963],[-51.76854149999997,-28.417982099999957],[-51.767722799999945,-28.41570039999993],[-51.767682699999966,-28.414116199999963],[-51.76678549999997,-28.4122139],[-51.767166499999966,-28.408348199999974],[-51.767986199999946,-28.407289599999956],[-51.76631029999999,-28.407526299999976],[-51.765339,-28.40741939999998],[-51.76307509999998,-28.4097],[-51.76260209999998,-28.410485099999953],[-51.76187259999994,-28.411034599999937],[-51.76111389999994,-28.411242199999936],[-51.76009749999997,-28.410871099999948],[-51.760511,-28.411598399999942],[-51.760014799999965,-28.41216569999995],[-51.758857199999966,-28.412456599999924],[-51.757253,-28.413256599999954],[-51.75712869999996,-28.412228699999957],[-51.757007,-28.411929],[-51.756788,-28.411939699999948],[-51.75580249999996,-28.412613899999943],[-51.75409909999997,-28.41279579999996],[-51.75374629999993,-28.41302059999997],[-51.75374629999993,-28.413416499999983],[-51.75306489999997,-28.41380179999992],[-51.75257819999996,-28.414401],[-51.75207939999996,-28.413598399999955],[-51.75179959999996,-28.413555599999942],[-51.74982849999997,-28.41444379999996],[-51.74908629999993,-28.41592059999994],[-51.747784399999944,-28.41588849999994],[-51.74737079999995,-28.414957499999954],[-51.745862,-28.41497889999994],[-51.745054799999934,-28.414767899999962],[-51.74304609999996,-28.413358399999943],[-51.7425487,-28.412776599999976],[-51.74025809999994,-28.41184189999994],[-51.73990409999994,-28.410872399999963],[-51.73904389999995,-28.410380899999968],[-51.73763329999998,-28.410196899999956],[-51.73592329999997,-28.410704399999936],[-51.737310599999944,-28.408663299999947],[-51.739122399999985,-28.408252799999964],[-51.73862629999997,-28.40737259999998],[-51.73879009999996,-28.406679],[-51.738397099999986,-28.406345099999953],[-51.73851759999997,-28.40605579999994],[-51.73932049999997,-28.405544199999955],[-51.740354199999956,-28.405360199999965],[-51.74047629999996,-28.405044699999966],[-51.740224499999954,-28.404402],[-51.74041559999995,-28.402949399999944],[-51.73986859999996,-28.402128599999966],[-51.739800499999944,-28.40115519999994],[-51.73984859999996,-28.40052289999994],[-51.74071289999995,-28.398606199999954],[-51.740036,-28.397753499999965],[-51.74003429999994,-28.397400799999957],[-51.741224399999965,-28.393595399999978],[-51.74127919999996,-28.392070299999936],[-51.740794,-28.390648],[-51.74137579999996,-28.389970399999985],[-51.742659,-28.389809399999937],[-51.74318609999995,-28.389013599999945],[-51.74400879999996,-28.388714299999947],[-51.74529849999993,-28.38694529999998],[-51.74577519999997,-28.386696099999938],[-51.74752529999995,-28.386651099999934],[-51.74785319999995,-28.386392199999936],[-51.74809589999995,-28.383072599999938],[-51.74784619999997,-28.381752599999974],[-51.74817939999997,-28.38081189999997],[-51.750884,-28.378083099999966],[-51.75498749999998,-28.374574599999963],[-51.75601679999994,-28.374053],[-51.75052119999998,-28.372597899999953],[-51.74068919999996,-28.36922],[-51.738770699999975,-28.37029129999997],[-51.736064899999974,-28.37018679999993],[-51.73384349999998,-28.37177609999997],[-51.73106469999994,-28.371362899999955],[-51.72310229999994,-28.367757699999967],[-51.72210909999996,-28.369641499999947],[-51.7196168,-28.368379599999976],[-51.71660629999997,-28.36969289999996]]]}},{"type":"Feature","properties":{"setor":"430630405000004","pop":343,"sigilo_pop":false,"dom":162,"sigilo_dom":0,"mulheres":159,"sigilo_mulheres":0,"c0_4":9,"sigilo_c0_4":0,"c5_9":12,"sigilo_c5_9":0,"i60_69":51,"sigilo_i60_69":0,"i70m":52,"sigilo_i70m":0,"indigenas":0,"sigilo_indigenas":0,"pretos_pardos":null,"sigilo_pretos_pardos":1,"dom_ocupados":122,"sigilo_dom_ocupados":0,"dom_agua":0,"sigilo_dom_agua":0,"dom_esgoto":0,"sigilo_dom_esgoto":0,"renda_resp":2635.93,"sigilo_renda_resp":0,"n_resp":122,"sigilo_n_resp":0,"dens":8.7,"sigilo_dens":false,"na_bacia":1,"area_pct_bacia":100.0,"metodo_recorte_bacia":"ponto_representativo_setor_2022; area_pct_geometrica","pop_n_validos":1,"pop_n_total":1,"pop_completude":1.0,"dom_n_validos":1,"dom_n_total":1,"dom_completude":1.0,"dom_ocupados_n_validos":1,"dom_ocupados_n_total":1,"dom_ocupados_completude":1.0,"mulheres_n_validos":1,"mulheres_n_total":1,"mulheres_completude":1.0,"c0_4_n_validos":1,"c0_4_n_total":1,"c0_4_completude":1.0,"c5_9_n_validos":1,"c5_9_n_total":1,"c5_9_completude":1.0,"i60_69_n_validos":1,"i60_69_n_total":1,"i60_69_completude":1.0,"i70m_n_validos":1,"i70m_n_total":1,"i70m_completude":1.0,"indigenas_n_validos":1,"indigenas_n_total":1,"indigenas_completude":1.0,"pretos_pardos_n_validos":0,"pretos_pardos_n_total":1,"pretos_pardos_completude":0.0,"dom_agua_n_validos":1,"dom_agua_n_total":1,"dom_agua_completude":1.0,"dom_esgoto_n_validos":1,"dom_esgoto_n_total":1,"dom_esgoto_completude":1.0,"n_resp_n_validos":1,"n_resp_n_total":1,"n_resp_completude":1.0,"renda_resp_n_validos":1,"renda_resp_n_total":1,"renda_resp_completude":1.0,"dens_n_validos":1,"dens_n_total":1,"dens_completude":1.0,"status_borda_bacia":"total","metodo_area_bacia":"interse??o geom?trica em EPSG:5880","metodo_na_bacia":"ponto_representativo_setor_2022_within_bacia","municipio":"David Canabarro","cod_mun":"4306304","mun_pct_na_bacia":100.0,"mun_pop_total":4321,"mun_pop_na_bacia":4321.0,"mun_ubs_iede":4,"mun_hospitais_iede":null,"mun_escolas_iede":null,"mun_bombeiros_iede":null,"mun_servicos_cobertura":"cadastro_IEDE_parcial_nao_inventario","mun_icm_faixa":"A","mun_icm_pontos":11,"mun_icm_prioritario":"não","mun_ubs_iede_status":"published","mun_hospitais_iede_status":"unknown","mun_escolas_iede_status":"unknown","mun_bombeiros_iede_status":"unknown"},"geometry":{"type":"Polygon","coordinates":[[[-51.76917059999994,-28.42586269999998],[-51.76656759999997,-28.42891529999997],[-51.76529649999998,-28.431537499999926],[-51.76550419999995,-28.432512599999935],[-51.76738179999995,-28.434815],[-51.76756869999997,-28.435421399999935],[-51.76660909999998,-28.43881729999998],[-51.76503059999993,-28.440234899999943],[-51.76483539999999,-28.44219969999995],[-51.76508879999995,-28.442954699999973],[-51.767327799999975,-28.44567239999997],[-51.767556199999945,-28.447606099999962],[-51.76604629999998,-28.450152199999927],[-51.76526739999996,-28.450984099999967],[-51.76478549999997,-28.45290629999994],[-51.76281239999997,-28.456015599999944],[-51.762351,-28.45783279999995],[-51.76300469999996,-28.45776809999994],[-51.764402,-28.458630899999953],[-51.76628219999998,-28.457853199999924],[-51.76804309999994,-28.45765039999998],[-51.76941759999995,-28.457773699999954],[-51.77110719999995,-28.45904159999997],[-51.772722,-28.46076],[-51.773923699999955,-28.461223599999975],[-51.77538229999993,-28.460984899999982],[-51.77623009999997,-28.461127599999944],[-51.77643709999995,-28.46168839999996],[-51.775122599999975,-28.463276499999953],[-51.77220359999996,-28.46454819999996],[-51.77067529999994,-28.467306499999946],[-51.768134,-28.46826179999994],[-51.76585769999998,-28.468727799999957],[-51.76417989999993,-28.46866659999995],[-51.76333859999995,-28.468928499999937],[-51.762078199999955,-28.470062699999975],[-51.76089429999996,-28.47259209999993],[-51.761255,-28.47346019999997],[-51.761651399999955,-28.473722799999955],[-51.76232829999998,-28.473958399999958],[-51.76338259999994,-28.473853099999936],[-51.76553649999994,-28.474073599999937],[-51.77132859999995,-28.475054499999946],[-51.77163879999995,-28.47456139999997],[-51.771787899999936,-28.471432399999962],[-51.77141859999995,-28.46925559999994],[-51.77309019999996,-28.46799029999993],[-51.77482809999998,-28.46747029999995],[-51.77735249999994,-28.467966799999946],[-51.77918959999994,-28.469215899999934],[-51.780406,-28.469720899999963],[-51.78186459999995,-28.471399899999934],[-51.7826032,-28.471690799999973],[-51.78538789999994,-28.467626099999958],[-51.794012699999946,-28.46511179999993],[-51.79647869999997,-28.466208799999947],[-51.802377599999936,-28.465559199999984],[-51.80752339999999,-28.467600299999962],[-51.81284519999997,-28.467697699999963],[-51.81598889999998,-28.46992089999997],[-51.81679679999996,-28.471408599999958],[-51.82371949999999,-28.470394699999925],[-51.826453699999945,-28.468437899999966],[-51.82954809999995,-28.46824289999995],[-51.83167949999996,-28.463889799999947],[-51.834873,-28.461879599999975],[-51.83573129999996,-28.460602599999966],[-51.840021199999974,-28.461165],[-51.84283229999995,-28.459968499999942],[-51.84429889999996,-28.460109899999956],[-51.845431699999956,-28.462362],[-51.847972399999946,-28.461962],[-51.850561,-28.462878699999973],[-51.85294609999994,-28.458504899999973],[-51.853177,-28.45844989999995],[-51.85316529999995,-28.457818299999932],[-51.85376349999996,-28.45729889999995],[-51.85360109999994,-28.456997199999932],[-51.850837599999984,-28.455587699999956],[-51.84752869999994,-28.455221599999966],[-51.84639419999997,-28.45469129999997],[-51.84470349999998,-28.453107],[-51.8446206,-28.452711099999938],[-51.846023,-28.45208569999994],[-51.84672859999995,-28.451263699999963],[-51.84666349999998,-28.449412699999986],[-51.84701089999999,-28.448406199999965],[-51.84648119999997,-28.44714129999995],[-51.84630509999994,-28.445210199999966],[-51.84441319999996,-28.443645099999966],[-51.84394549999996,-28.44274719999994],[-51.84398179999994,-28.439005699999935],[-51.84362969999995,-28.437975099999957],[-51.84227159999995,-28.436939299999942],[-51.83818159999998,-28.435762],[-51.840029299999976,-28.435045399999968],[-51.84093169999994,-28.434110699999962],[-51.84159469999997,-28.43271429999992],[-51.84170089999998,-28.43111549999997],[-51.84105789999995,-28.428450699999917],[-51.842156399999965,-28.425029799999947],[-51.84002689999994,-28.4201935],[-51.839972899999964,-28.41901579999996],[-51.840317599999935,-28.41828529999998],[-51.83980869999994,-28.417932499999946],[-51.83699489999998,-28.418773799999936],[-51.83465279999996,-28.421217799999962],[-51.833775,-28.421667399999937],[-51.83275439999994,-28.42260459999995],[-51.830935,-28.423519099999947],[-51.827177,-28.423633299999956],[-51.82573659999997,-28.423437099999937],[-51.82304949999997,-28.42439539999998],[-51.82094909999995,-28.424421299999953],[-51.819694199999965,-28.42348939999994],[-51.81889479999995,-28.423344],[-51.817221899999936,-28.42387549999996],[-51.81605049999996,-28.42375029999994],[-51.81315189999999,-28.422881199999956],[-51.81094109999998,-28.423410299999947],[-51.807789499999956,-28.423325399999957],[-51.80631889999995,-28.422211199999936],[-51.804837599999985,-28.420437599999943],[-51.80439419999993,-28.420205],[-51.802869199999975,-28.42005589999997],[-51.8016267,-28.42050939999995],[-51.80125819999995,-28.420406],[-51.80019079999994,-28.41895739999995],[-51.79773289999997,-28.417862399999922],[-51.796217499999955,-28.416710499999958],[-51.79524689999994,-28.416602799999957],[-51.79177389999995,-28.413296399999986],[-51.78858219999995,-28.41585359999994],[-51.78640619999994,-28.41728219999993],[-51.78448949999995,-28.417353599999952],[-51.782166,-28.41682],[-51.78081469999995,-28.417119699999944],[-51.77776239999998,-28.42048059999996],[-51.775621899999976,-28.42180909999996],[-51.774747699999985,-28.42391439999995],[-51.77346019999994,-28.425051199999917],[-51.76917059999994,-28.42586269999998]]]}},{"type":"Feature","properties":{"setor":"430630405000005","pop":412,"sigilo_pop":false,"dom":177,"sigilo_dom":0,"mulheres":183,"sigilo_mulheres":0,"c0_4":13,"sigilo_c0_4":0,"c5_9":21,"sigilo_c5_9":0,"i60_69":67,"sigilo_i60_69":0,"i70m":40,"sigilo_i70m":0,"indigenas":0,"sigilo_indigenas":0,"pretos_pardos":51,"sigilo_pretos_pardos":0,"dom_ocupados":141,"sigilo_dom_ocupados":0,"dom_agua":0,"sigilo_dom_agua":0,"dom_esgoto":0,"sigilo_dom_esgoto":0,"renda_resp":4010.48,"sigilo_renda_resp":0,"n_resp":141,"sigilo_n_resp":0,"dens":14.7,"sigilo_dens":false,"na_bacia":1,"area_pct_bacia":100.0,"metodo_recorte_bacia":"ponto_representativo_setor_2022; area_pct_geometrica","pop_n_validos":1,"pop_n_total":1,"pop_completude":1.0,"dom_n_validos":1,"dom_n_total":1,"dom_completude":1.0,"dom_ocupados_n_validos":1,"dom_ocupados_n_total":1,"dom_ocupados_completude":1.0,"mulheres_n_validos":1,"mulheres_n_total":1,"mulheres_completude":1.0,"c0_4_n_validos":1,"c0_4_n_total":1,"c0_4_completude":1.0,"c5_9_n_validos":1,"c5_9_n_total":1,"c5_9_completude":1.0,"i60_69_n_validos":1,"i60_69_n_total":1,"i60_69_completude":1.0,"i70m_n_validos":1,"i70m_n_total":1,"i70m_completude":1.0,"indigenas_n_validos":1,"indigenas_n_total":1,"indigenas_completude":1.0,"pretos_pardos_n_validos":1,"pretos_pardos_n_total":1,"pretos_pardos_completude":1.0,"dom_agua_n_validos":1,"dom_agua_n_total":1,"dom_agua_completude":1.0,"dom_esgoto_n_validos":1,"dom_esgoto_n_total":1,"dom_esgoto_completude":1.0,"n_resp_n_validos":1,"n_resp_n_total":1,"n_resp_completude":1.0,"renda_resp_n_validos":1,"renda_resp_n_total":1,"renda_resp_completude":1.0,"dens_n_validos":1,"dens_n_total":1,"dens_completude":1.0,"status_borda_bacia":"total","metodo_area_bacia":"interse??o geom?trica em EPSG:5880","metodo_na_bacia":"ponto_representativo_setor_2022_within_bacia","municipio":"David Canabarro","cod_mun":"4306304","mun_pct_na_bacia":100.0,"mun_pop_total":4321,"mun_pop_na_bacia":4321.0,"mun_ubs_iede":4,"mun_hospitais_iede":null,"mun_escolas_iede":null,"mun_bombeiros_iede":null,"mun_servicos_cobertura":"cadastro_IEDE_parcial_nao_inventario","mun_icm_faixa":"A","mun_icm_pontos":11,"mun_icm_prioritario":"não","mun_ubs_iede_status":"published","mun_hospitais_iede_status":"unknown","mun_escolas_iede_status":"unknown","mun_bombeiros_iede_status":"unknown"},"geometry":{"type":"Polygon","coordinates":[[[-51.840317599999935,-28.41828529999998],[-51.839912499999976,-28.419845199999934],[-51.842156399999965,-28.425029799999947],[-51.84105789999995,-28.428450699999917],[-51.84170089999998,-28.43111549999997],[-51.84159469999997,-28.43271429999992],[-51.84093169999994,-28.434110699999962],[-51.840029299999976,-28.435045399999968],[-51.83818159999998,-28.435762],[-51.84227159999995,-28.436939299999942],[-51.84362969999995,-28.437975099999957],[-51.84398179999994,-28.439005699999935],[-51.84394549999996,-28.44274719999994],[-51.84441319999996,-28.443645099999966],[-51.84630509999994,-28.445210199999966],[-51.84648119999997,-28.44714129999995],[-51.84701089999999,-28.448406199999965],[-51.84666349999998,-28.449412699999986],[-51.84672859999995,-28.451263699999963],[-51.846023,-28.45208569999994],[-51.8446206,-28.452711099999938],[-51.844975799999986,-28.45344279999994],[-51.84639419999997,-28.45469129999997],[-51.84752869999994,-28.455221599999966],[-51.850837599999984,-28.455587699999956],[-51.85360109999994,-28.456997199999932],[-51.85376349999996,-28.45729889999995],[-51.85316529999995,-28.457818299999932],[-51.853177,-28.45844989999995],[-51.85591459999995,-28.457799399999942],[-51.859247,-28.45910019999996],[-51.860293399999925,-28.457289299999957],[-51.864358599999946,-28.458661],[-51.866096,-28.458491599999935],[-51.867043,-28.463404099999927],[-51.87066869999995,-28.46277629999998],[-51.871691899999966,-28.46170719999998],[-51.873849899999975,-28.461290899999934],[-51.875793,-28.45930889999993],[-51.87727369999993,-28.459460099999937],[-51.87850139999995,-28.45848079999997],[-51.88439739999996,-28.458130599999937],[-51.88566979999996,-28.459925399999975],[-51.88799679999994,-28.460862599999917],[-51.88808569999998,-28.46332639999997],[-51.89134169999994,-28.46016849999995],[-51.894703499999935,-28.461557299999974],[-51.89347139999995,-28.466320499999934],[-51.89726559999997,-28.465787499999966],[-51.90008979999994,-28.464160599999957],[-51.90198429999999,-28.46430979999996],[-51.90433179999997,-28.465877499999973],[-51.905771899999934,-28.46457469999996],[-51.90692809999995,-28.465654099999934],[-51.905988599999944,-28.467362399999963],[-51.90943759999994,-28.46765719999995],[-51.909923799999945,-28.46687539999992],[-51.908975199999986,-28.46562609999995],[-51.90982979999996,-28.463972299999973],[-51.90956309999996,-28.462376199999937],[-51.90770629999997,-28.460676399999954],[-51.90352459999996,-28.460569599999925],[-51.901894599999935,-28.458667499999926],[-51.91145359999996,-28.452700899999968],[-51.91167649999995,-28.450039],[-51.91446019999995,-28.447162799999944],[-51.913918,-28.445917],[-51.911272,-28.445991],[-51.90855159999995,-28.444454599999975],[-51.90967519999998,-28.43726419999995],[-51.90907809999993,-28.43320959999994],[-51.90973279999997,-28.431585299999934],[-51.91153319999995,-28.43025719999998],[-51.91187529999996,-28.427182199999947],[-51.910648,-28.425896099999928],[-51.90676389999994,-28.42650479999997],[-51.906414799999936,-28.4255199],[-51.90843539999997,-28.42145059999995],[-51.90533029999995,-28.420095],[-51.90402689999996,-28.418378299999965],[-51.90334219999994,-28.41980369999994],[-51.901769,-28.42055559999994],[-51.90075269999994,-28.420680699999934],[-51.898288699999966,-28.420294099999982],[-51.89699509999996,-28.420960299999937],[-51.895286699999986,-28.421475799999943],[-51.89096289999998,-28.42229329999998],[-51.889961899999946,-28.422133199999962],[-51.88534389999995,-28.425265499999966],[-51.88180989999995,-28.426458199999953],[-51.881000399999955,-28.427346399999976],[-51.879514099999945,-28.427345299999946],[-51.87905109999997,-28.427905299999956],[-51.878673799999945,-28.428948899999963],[-51.87816629999998,-28.429388799999966],[-51.87806449999994,-28.429923299999913],[-51.87702929999995,-28.429854199999962],[-51.87521009999994,-28.429243299999932],[-51.87332469999995,-28.427759899999952],[-51.872861599999965,-28.426916299999952],[-51.87229929999995,-28.42645089999997],[-51.868892399999936,-28.425200099999984],[-51.86758589999994,-28.42370929999992],[-51.86106979999994,-28.419520299999927],[-51.855083,-28.416669399999915],[-51.85385919999993,-28.415505799999952],[-51.85253609999996,-28.415040299999927],[-51.85117169999995,-28.415462199999986],[-51.848691,-28.415200299999974],[-51.84621019999997,-28.41435669999993],[-51.84508559999995,-28.413571199999968],[-51.844854099999964,-28.41316389999997],[-51.84356979999995,-28.414511499999932],[-51.842583,-28.415051499999937],[-51.840317599999935,-28.41828529999998]]]}},{"type":"Feature","properties":{"setor":"430630405000006","pop":307,"sigilo_pop":false,"dom":148,"sigilo_dom":0,"mulheres":135,"sigilo_mulheres":0,"c0_4":12,"sigilo_c0_4":0,"c5_9":10,"sigilo_c5_9":0,"i60_69":51,"sigilo_i60_69":0,"i70m":40,"sigilo_i70m":0,"indigenas":0,"sigilo_indigenas":0,"pretos_pardos":75,"sigilo_pretos_pardos":0,"dom_ocupados":110,"sigilo_dom_ocupados":0,"dom_agua":12,"sigilo_dom_agua":0,"dom_esgoto":0,"sigilo_dom_esgoto":0,"renda_resp":2115.66,"sigilo_renda_resp":0,"n_resp":110,"sigilo_n_resp":0,"dens":8.9,"sigilo_dens":false,"na_bacia":1,"area_pct_bacia":100.0,"metodo_recorte_bacia":"ponto_representativo_setor_2022; area_pct_geometrica","pop_n_validos":1,"pop_n_total":1,"pop_completude":1.0,"dom_n_validos":1,"dom_n_total":1,"dom_completude":1.0,"dom_ocupados_n_validos":1,"dom_ocupados_n_total":1,"dom_ocupados_completude":1.0,"mulheres_n_validos":1,"mulheres_n_total":1,"mulheres_completude":1.0,"c0_4_n_validos":1,"c0_4_n_total":1,"c0_4_completude":1.0,"c5_9_n_validos":1,"c5_9_n_total":1,"c5_9_completude":1.0,"i60_69_n_validos":1,"i60_69_n_total":1,"i60_69_completude":1.0,"i70m_n_validos":1,"i70m_n_total":1,"i70m_completude":1.0,"indigenas_n_validos":1,"indigenas_n_total":1,"indigenas_completude":1.0,"pretos_pardos_n_validos":1,"pretos_pardos_n_total":1,"pretos_pardos_completude":1.0,"dom_agua_n_validos":1,"dom_agua_n_total":1,"dom_agua_completude":1.0,"dom_esgoto_n_validos":1,"dom_esgoto_n_total":1,"dom_esgoto_completude":1.0,"n_resp_n_validos":1,"n_resp_n_total":1,"n_resp_completude":1.0,"renda_resp_n_validos":1,"renda_resp_n_total":1,"renda_resp_completude":1.0,"dens_n_validos":1,"dens_n_total":1,"dens_completude":1.0,"status_borda_bacia":"total","metodo_area_bacia":"interse??o geom?trica em EPSG:5880","metodo_na_bacia":"ponto_representativo_setor_2022_within_bacia","municipio":"David Canabarro","cod_mun":"4306304","mun_pct_na_bacia":100.0,"mun_pop_total":4321,"mun_pop_na_bacia":4321.0,"mun_ubs_iede":4,"mun_hospitais_iede":null,"mun_escolas_iede":null,"mun_bombeiros_iede":null,"mun_servicos_cobertura":"cadastro_IEDE_parcial_nao_inventario","mun_icm_faixa":"A","mun_icm_pontos":11,"mun_icm_prioritario":"não","mun_ubs_iede_status":"published","mun_hospitais_iede_status":"unknown","mun_escolas_iede_status":"unknown","mun_bombeiros_iede_status":"unknown"},"geometry":{"type":"Polygon","coordinates":[[[-51.86553139999995,-28.377439199999962],[-51.86386159999995,-28.378364799999925],[-51.860487199999966,-28.38157619999998],[-51.85558139999995,-28.382851099999975],[-51.85209569999996,-28.38928989999994],[-51.85367709999997,-28.392372199999958],[-51.84894029999999,-28.39401369999997],[-51.84622859999996,-28.39716659999995],[-51.84298889999997,-28.39812509999997],[-51.84005709999997,-28.397019799999956],[-51.83273069999996,-28.392743399999972],[-51.8302159,-28.393378099999953],[-51.829820799999936,-28.392353399999926],[-51.82120839999993,-28.39346379999996],[-51.820207,-28.394830799999962],[-51.81747969999998,-28.395000299999932],[-51.81571739999998,-28.395413499999957],[-51.81252149999995,-28.39646939999994],[-51.80852259999995,-28.39833379999994],[-51.80647079999994,-28.399601099999987],[-51.80479379999997,-28.40020309999995],[-51.80242129999994,-28.401674199999942],[-51.801083,-28.402151799999956],[-51.800762299999974,-28.40253049999995],[-51.80043739999996,-28.403893499999988],[-51.79888709999995,-28.404628],[-51.797761599999944,-28.40462269999994],[-51.79670429999993,-28.40429809999995],[-51.796388899999954,-28.40446639999993],[-51.7952,-28.40572949999995],[-51.79456419999997,-28.409059899999924],[-51.79177389999995,-28.413296399999986],[-51.79524689999994,-28.416602799999957],[-51.796217499999955,-28.416710499999958],[-51.79773289999997,-28.417862399999922],[-51.80019079999994,-28.41895739999995],[-51.80125819999995,-28.420406],[-51.8016267,-28.42050939999995],[-51.802869199999975,-28.42005589999997],[-51.80439419999993,-28.420205],[-51.804837599999985,-28.420437599999943],[-51.80631889999995,-28.422211199999936],[-51.807789499999956,-28.423325399999957],[-51.81094109999998,-28.423410299999947],[-51.81315189999999,-28.422881199999956],[-51.81605049999996,-28.42375029999994],[-51.817221899999936,-28.42387549999996],[-51.81889479999995,-28.423344],[-51.819694199999965,-28.42348939999994],[-51.82094909999995,-28.424421299999953],[-51.82304949999997,-28.42439539999998],[-51.82573659999997,-28.423437099999937],[-51.827177,-28.423633299999956],[-51.830935,-28.423519099999947],[-51.83275439999994,-28.42260459999995],[-51.833775,-28.421667399999937],[-51.83465279999996,-28.421217799999962],[-51.837345199999966,-28.418573099999946],[-51.83955769999994,-28.417955],[-51.840317599999935,-28.41828529999998],[-51.842583,-28.415051499999937],[-51.84356979999995,-28.414511499999932],[-51.844854099999964,-28.41316389999997],[-51.84508559999995,-28.413571199999968],[-51.84621019999997,-28.41435669999993],[-51.848691,-28.415200299999974],[-51.85117169999995,-28.415462199999986],[-51.85253609999996,-28.415040299999927],[-51.85385919999993,-28.415505799999952],[-51.855083,-28.416669399999915],[-51.86106979999994,-28.419520299999927],[-51.86613059999996,-28.42269109999994],[-51.86758589999994,-28.42370929999992],[-51.868892399999936,-28.425200099999984],[-51.87229929999995,-28.42645089999997],[-51.872861599999965,-28.426916299999952],[-51.87332469999995,-28.427759899999952],[-51.87521009999994,-28.429243299999932],[-51.87702929999995,-28.429854199999962],[-51.87806449999994,-28.429923299999913],[-51.87816629999998,-28.429388799999966],[-51.878673799999945,-28.428948899999963],[-51.87905109999997,-28.427905299999956],[-51.879514099999945,-28.427345299999946],[-51.881000399999955,-28.427346399999976],[-51.88180989999995,-28.426458199999953],[-51.88534389999995,-28.425265499999966],[-51.889772599999965,-28.422202699999957],[-51.89113359999993,-28.422272],[-51.895286699999986,-28.421475799999943],[-51.89699509999996,-28.420960299999937],[-51.898288699999966,-28.420294099999982],[-51.90134519999997,-28.42064089999996],[-51.90334219999994,-28.41980369999994],[-51.90402689999996,-28.418378299999965],[-51.90278119999994,-28.416737399999935],[-51.90309169999995,-28.415693199999968],[-51.90560209999995,-28.415519799999966],[-51.906391,-28.41293149999996],[-51.90758859999994,-28.412503399999935],[-51.90733239999997,-28.411619199999965],[-51.90302779999996,-28.40748869999992],[-51.89846229999995,-28.404074699999963],[-51.897418699999946,-28.40219239999994],[-51.894406,-28.39485159999997],[-51.8943824,-28.39072919999996],[-51.89117569999996,-28.39218229999994],[-51.886038,-28.39240669999997],[-51.88547079999995,-28.39111439999993],[-51.88751879999996,-28.389064299999966],[-51.887067,-28.387401299999965],[-51.881192,-28.388330299999957],[-51.87946079999994,-28.389429],[-51.876124,-28.389265199999954],[-51.872788199999945,-28.386081599999955],[-51.87456649999996,-28.384258499999927],[-51.8779,-28.386221699999965],[-51.879115299999974,-28.38586809999998],[-51.876199299999946,-28.383490199999986],[-51.87602939999994,-28.381672699999964],[-51.874601899999966,-28.380645699999953],[-51.87673339999998,-28.378858699999956],[-51.87645409999993,-28.377926199999933],[-51.87393929999996,-28.376056899999977],[-51.87290239999999,-28.376274399999946],[-51.871726699999954,-28.37838019999998],[-51.87200439999998,-28.379599499999976],[-51.868392599999936,-28.379063199999965],[-51.86674709999995,-28.37955519999997],[-51.86553139999995,-28.377439199999962]]]}},{"type":"Feature","properties":{"setor":"430630405000007","pop":1382,"sigilo_pop":false,"dom":611,"sigilo_dom":0,"mulheres":702,"sigilo_mulheres":0,"c0_4":79,"sigilo_c0_4":0,"c5_9":81,"sigilo_c5_9":0,"i60_69":180,"sigilo_i60_69":0,"i70m":158,"sigilo_i70m":0,"indigenas":0,"sigilo_indigenas":0,"pretos_pardos":185,"sigilo_pretos_pardos":0,"dom_ocupados":550,"sigilo_dom_ocupados":0,"dom_agua":533,"sigilo_dom_agua":0,"dom_esgoto":90,"sigilo_dom_esgoto":0,"renda_resp":3374.48,"sigilo_renda_resp":0,"n_resp":550,"sigilo_n_resp":0,"dens":1039.2,"sigilo_dens":false,"na_bacia":1,"area_pct_bacia":100.0,"metodo_recorte_bacia":"ponto_representativo_setor_2022; area_pct_geometrica","pop_n_validos":1,"pop_n_total":1,"pop_completude":1.0,"dom_n_validos":1,"dom_n_total":1,"dom_completude":1.0,"dom_ocupados_n_validos":1,"dom_ocupados_n_total":1,"dom_ocupados_completude":1.0,"mulheres_n_validos":1,"mulheres_n_total":1,"mulheres_completude":1.0,"c0_4_n_validos":1,"c0_4_n_total":1,"c0_4_completude":1.0,"c5_9_n_validos":1,"c5_9_n_total":1,"c5_9_completude":1.0,"i60_69_n_validos":1,"i60_69_n_total":1,"i60_69_completude":1.0,"i70m_n_validos":1,"i70m_n_total":1,"i70m_completude":1.0,"indigenas_n_validos":1,"indigenas_n_total":1,"indigenas_completude":1.0,"pretos_pardos_n_validos":1,"pretos_pardos_n_total":1,"pretos_pardos_completude":1.0,"dom_agua_n_validos":1,"dom_agua_n_total":1,"dom_agua_completude":1.0,"dom_esgoto_n_validos":1,"dom_esgoto_n_total":1,"dom_esgoto_completude":1.0,"n_resp_n_validos":1,"n_resp_n_total":1,"n_resp_completude":1.0,"renda_resp_n_validos":1,"renda_resp_n_total":1,"renda_resp_completude":1.0,"dens_n_validos":1,"dens_n_total":1,"dens_completude":1.0,"status_borda_bacia":"total","metodo_area_bacia":"interse??o geom?trica em EPSG:5880","metodo_na_bacia":"ponto_representativo_setor_2022_within_bacia","municipio":"David Canabarro","cod_mun":"4306304","mun_pct_na_bacia":100.0,"mun_pop_total":4321,"mun_pop_na_bacia":4321.0,"mun_ubs_iede":4,"mun_hospitais_iede":null,"mun_escolas_iede":null,"mun_bombeiros_iede":null,"mun_servicos_cobertura":"cadastro_IEDE_parcial_nao_inventario","mun_icm_faixa":"A","mun_icm_pontos":11,"mun_icm_prioritario":"não","mun_ubs_iede_status":"published","mun_hospitais_iede_status":"unknown","mun_escolas_iede_status":"unknown","mun_bombeiros_iede_status":"unknown"},"geometry":{"type":"Polygon","coordinates":[[[-51.82952739999996,-28.391592199999927],[-51.8302159,-28.393378099999953],[-51.83273069999996,-28.392743399999972],[-51.84005709999997,-28.397019799999956],[-51.84298889999997,-28.39812509999997],[-51.84622859999996,-28.39716659999995],[-51.84894029999999,-28.39401369999997],[-51.84681219999993,-28.38890549999996],[-51.847111,-28.388811099999938],[-51.84591479999994,-28.38602189999994],[-51.84317509999994,-28.387043899999977],[-51.841214599999944,-28.388922899999955],[-51.840584299999925,-28.388541399999955],[-51.839254,-28.38862229999995],[-51.83750669999995,-28.387996599999955],[-51.836670899999945,-28.38972029999996],[-51.82952739999996,-28.391592199999927]]]}}]}
