{"type":"FeatureCollection","name":"4307864","crs":{"type":"name","properties":{"name":"urn:ogc:def:crs:OGC:1.3:CRS84"}},"features":[{"type":"Feature","properties":{"setor":"430786405000001","pop":689,"sigilo_pop":false,"dom":314,"sigilo_dom":0,"mulheres":360,"sigilo_mulheres":0,"c0_4":18,"sigilo_c0_4":0,"c5_9":33,"sigilo_c5_9":0,"i60_69":109,"sigilo_i60_69":0,"i70m":78,"sigilo_i70m":0,"indigenas":0,"sigilo_indigenas":0,"pretos_pardos":77,"sigilo_pretos_pardos":0,"dom_ocupados":274,"sigilo_dom_ocupados":0,"dom_agua":259,"sigilo_dom_agua":0,"dom_esgoto":143,"sigilo_dom_esgoto":0,"renda_resp":2837.37,"sigilo_renda_resp":0,"n_resp":274,"sigilo_n_resp":0,"dens":429.0,"sigilo_dens":false,"na_bacia":1,"area_pct_bacia":100.0,"metodo_recorte_bacia":"ponto_representativo_setor_2022; area_pct_geometrica","pop_n_validos":1,"pop_n_total":1,"pop_completude":1.0,"dom_n_validos":1,"dom_n_total":1,"dom_completude":1.0,"dom_ocupados_n_validos":1,"dom_ocupados_n_total":1,"dom_ocupados_completude":1.0,"mulheres_n_validos":1,"mulheres_n_total":1,"mulheres_completude":1.0,"c0_4_n_validos":1,"c0_4_n_total":1,"c0_4_completude":1.0,"c5_9_n_validos":1,"c5_9_n_total":1,"c5_9_completude":1.0,"i60_69_n_validos":1,"i60_69_n_total":1,"i60_69_completude":1.0,"i70m_n_validos":1,"i70m_n_total":1,"i70m_completude":1.0,"indigenas_n_validos":1,"indigenas_n_total":1,"indigenas_completude":1.0,"pretos_pardos_n_validos":1,"pretos_pardos_n_total":1,"pretos_pardos_completude":1.0,"dom_agua_n_validos":1,"dom_agua_n_total":1,"dom_agua_completude":1.0,"dom_esgoto_n_validos":1,"dom_esgoto_n_total":1,"dom_esgoto_completude":1.0,"n_resp_n_validos":1,"n_resp_n_total":1,"n_resp_completude":1.0,"renda_resp_n_validos":1,"renda_resp_n_total":1,"renda_resp_completude":1.0,"dens_n_validos":1,"dens_n_total":1,"dens_completude":1.0,"status_borda_bacia":"total","metodo_area_bacia":"interseção geométrica em EPSG:5880","metodo_na_bacia":"ponto_representativo_setor_2022_within_bacia","municipio":"Fagundes Varela","cod_mun":"4307864","mun_pct_na_bacia":100.0,"mun_pop_total":2566,"mun_pop_na_bacia":2566.0,"mun_ubs_iede":1,"mun_hospitais_iede":null,"mun_escolas_iede":2,"mun_bombeiros_iede":null,"mun_servicos_cobertura":"cadastro_IEDE_parcial_nao_inventario","mun_icm_faixa":"A","mun_icm_pontos":12,"mun_icm_prioritario":"não","mun_ubs_iede_status":"published","mun_hospitais_iede_status":"unknown","mun_escolas_iede_status":"published","mun_bombeiros_iede_status":"unknown"},"geometry":{"type":"Polygon","coordinates":[[[-51.696513299999935,-28.887139799999932],[-51.706330299999934,-28.887139799999947],[-51.704850799999974,-28.884084099999935],[-51.704868499999975,-28.882240899999942],[-51.701710399999975,-28.88210479999998],[-51.701795199999935,-28.881302199999944],[-51.70063109999996,-28.881169699999923],[-51.70070209999995,-28.880099099999935],[-51.69830889999997,-28.879950599999958],[-51.69832309999999,-28.87922689999994],[-51.69906949999995,-28.87857439999993],[-51.699112,-28.877129299999968],[-51.694979399999966,-28.87712879999998],[-51.69497739999997,-28.878571399999938],[-51.67980509999995,-28.878571399999938],[-51.679844399999986,-28.883123099999963],[-51.68798989999994,-28.883157],[-51.687989899999934,-28.88430459999996],[-51.69650309999997,-28.884304599999943],[-51.696513299999935,-28.887139799999932]]]}},{"type":"Feature","properties":{"setor":"430786405000002","pop":469,"sigilo_pop":false,"dom":199,"sigilo_dom":0,"mulheres":231,"sigilo_mulheres":0,"c0_4":16,"sigilo_c0_4":0,"c5_9":17,"sigilo_c5_9":0,"i60_69":76,"sigilo_i60_69":0,"i70m":85,"sigilo_i70m":0,"indigenas":0,"sigilo_indigenas":0,"pretos_pardos":null,"sigilo_pretos_pardos":1,"dom_ocupados":140,"sigilo_dom_ocupados":0,"dom_agua":12,"sigilo_dom_agua":0,"dom_esgoto":null,"sigilo_dom_esgoto":1,"renda_resp":4662.52,"sigilo_renda_resp":0,"n_resp":140,"sigilo_n_resp":0,"dens":9.2,"sigilo_dens":false,"na_bacia":1,"area_pct_bacia":100.0,"metodo_recorte_bacia":"ponto_representativo_setor_2022; area_pct_geometrica","pop_n_validos":1,"pop_n_total":1,"pop_completude":1.0,"dom_n_validos":1,"dom_n_total":1,"dom_completude":1.0,"dom_ocupados_n_validos":1,"dom_ocupados_n_total":1,"dom_ocupados_completude":1.0,"mulheres_n_validos":1,"mulheres_n_total":1,"mulheres_completude":1.0,"c0_4_n_validos":1,"c0_4_n_total":1,"c0_4_completude":1.0,"c5_9_n_validos":1,"c5_9_n_total":1,"c5_9_completude":1.0,"i60_69_n_validos":1,"i60_69_n_total":1,"i60_69_completude":1.0,"i70m_n_validos":1,"i70m_n_total":1,"i70m_completude":1.0,"indigenas_n_validos":1,"indigenas_n_total":1,"indigenas_completude":1.0,"pretos_pardos_n_validos":0,"pretos_pardos_n_total":1,"pretos_pardos_completude":0.0,"dom_agua_n_validos":1,"dom_agua_n_total":1,"dom_agua_completude":1.0,"dom_esgoto_n_validos":0,"dom_esgoto_n_total":1,"dom_esgoto_completude":0.0,"n_resp_n_validos":1,"n_resp_n_total":1,"n_resp_completude":1.0,"renda_resp_n_validos":1,"renda_resp_n_total":1,"renda_resp_completude":1.0,"dens_n_validos":1,"dens_n_total":1,"dens_completude":1.0,"status_borda_bacia":"total","metodo_area_bacia":"interseção geométrica em EPSG:5880","metodo_na_bacia":"ponto_representativo_setor_2022_within_bacia","municipio":"Fagundes Varela","cod_mun":"4307864","mun_pct_na_bacia":100.0,"mun_pop_total":2566,"mun_pop_na_bacia":2566.0,"mun_ubs_iede":1,"mun_hospitais_iede":null,"mun_escolas_iede":2,"mun_bombeiros_iede":null,"mun_servicos_cobertura":"cadastro_IEDE_parcial_nao_inventario","mun_icm_faixa":"A","mun_icm_pontos":12,"mun_icm_prioritario":"não","mun_ubs_iede_status":"published","mun_hospitais_iede_status":"unknown","mun_escolas_iede_status":"published","mun_bombeiros_iede_status":"unknown"},"geometry":{"type":"Polygon","coordinates":[[[-51.64828849999998,-28.856036],[-51.64656059999999,-28.864802399999984],[-51.648344,-28.86768339999997],[-51.64819189999998,-28.869657599999965],[-51.64972019999994,-28.872630499999968],[-51.620434699999976,-28.87288539999998],[-51.62077789999996,-28.886391],[-51.623145299999976,-28.886396699999974],[-51.62484289999997,-28.88091909999998],[-51.626034,-28.879627899999953],[-51.62903309999995,-28.879848399999954],[-51.63190179999997,-28.879040199999963],[-51.63472079999997,-28.879474799999954],[-51.637567299999944,-28.88109029999997],[-51.64024259999997,-28.883168099999963],[-51.64143569999993,-28.885269499999932],[-51.645389199999954,-28.884147299999945],[-51.64671549999997,-28.885304899999944],[-51.64606549999996,-28.888571799999966],[-51.649393799999984,-28.891127899999947],[-51.645587,-28.89119409999995],[-51.64599039999997,-28.910249799999978],[-51.651464,-28.911436499999983],[-51.65565259999994,-28.91371719999995],[-51.659023899999966,-28.914125699999943],[-51.663978199999974,-28.911818199999978],[-51.66688249999998,-28.912011],[-51.6691441,-28.911134699999934],[-51.67038009999993,-28.912089499999983],[-51.670928799999956,-28.914203],[-51.67597039999998,-28.916889199999968],[-51.67712229999995,-28.919277299999987],[-51.68206389999995,-28.92006949999995],[-51.68396069999995,-28.927252],[-51.686258899999984,-28.928522499999914],[-51.68869289999998,-28.927190699999983],[-51.69130339999999,-28.93070939999995],[-51.69412749999998,-28.93180929999994],[-51.69391739999997,-28.93135839999998],[-51.69295009999996,-28.931072599999947],[-51.69165209999994,-28.930281499999975],[-51.69135629999994,-28.92935919999997],[-51.691539,-28.928424],[-51.69102349999997,-28.927505],[-51.69145959999997,-28.925652],[-51.69061569999997,-28.924036],[-51.69153249999994,-28.92304139999993],[-51.691925099999935,-28.921441099999985],[-51.69265539999998,-28.920899499999965],[-51.69299029999997,-28.91923559999998],[-51.69492179999997,-28.91847],[-51.69657049999996,-28.917095399999937],[-51.700124499999966,-28.91589479999992],[-51.70222989999996,-28.91300219999994],[-51.702723599999956,-28.91105669999995],[-51.703015099999966,-28.90422919999999],[-51.70213639999997,-28.90294429999995],[-51.70189929999998,-28.90205359999992],[-51.70225819999997,-28.900365799999985],[-51.70164049999994,-28.897858],[-51.70166549999994,-28.896457199999926],[-51.69997329999995,-28.89407659999995],[-51.69937079999995,-28.89137249999994],[-51.69854479999998,-28.89047149999994],[-51.69866069999995,-28.887139799999947],[-51.696513299999935,-28.887139799999932],[-51.69650309999997,-28.884304599999943],[-51.687989899999934,-28.88430459999996],[-51.68798989999994,-28.883157],[-51.679844399999986,-28.883123099999963],[-51.67980509999995,-28.878571399999938],[-51.69497739999997,-28.878571399999938],[-51.694979399999966,-28.87712879999998],[-51.699112,-28.877129299999968],[-51.6992001,-28.875514299999963],[-51.698242,-28.873191899999938],[-51.69817239999998,-28.868667799999972],[-51.697902699999986,-28.867634599999967],[-51.69857639999997,-28.863003299999956],[-51.699508,-28.86233479999993],[-51.70183829999996,-28.861747799999925],[-51.70221459999993,-28.861406299999942],[-51.70239069999996,-28.861071899999946],[-51.70213819999997,-28.859750899999938],[-51.70295689999994,-28.859367799999973],[-51.70420459999997,-28.85827809999996],[-51.70569229999995,-28.85499379999995],[-51.706092499999954,-28.852370699999934],[-51.71250229999998,-28.852509899999976],[-51.71717,-28.8513397],[-51.71870559999997,-28.850099899999982],[-51.720620699999984,-28.84774929999998],[-51.72180739999993,-28.8453],[-51.72259669999994,-28.84474969999996],[-51.723918099999935,-28.842793799999985],[-51.72486959999998,-28.842023299999926],[-51.72635189999994,-28.838468799999937],[-51.72658679999995,-28.837285499999947],[-51.72634319999998,-28.83648509999994],[-51.725890799999945,-28.836171899999943],[-51.724734799999965,-28.835967],[-51.72472289999996,-28.835618699999948],[-51.66718219999996,-28.834838499999933],[-51.66620169999994,-28.83702659999995],[-51.66316279999995,-28.83845489999993],[-51.65675889999995,-28.84478039999993],[-51.65398129999994,-28.845875599999943],[-51.6509928,-28.844949799999945],[-51.651432199999924,-28.848291499999963],[-51.64981839999996,-28.850046399999933],[-51.649746,-28.852123],[-51.647964499999944,-28.85385689999998],[-51.64828849999998,-28.856036]]]}},{"type":"Feature","properties":{"setor":"430786405000003","pop":271,"sigilo_pop":false,"dom":110,"sigilo_dom":0,"mulheres":130,"sigilo_mulheres":0,"c0_4":15,"sigilo_c0_4":0,"c5_9":12,"sigilo_c5_9":0,"i60_69":60,"sigilo_i60_69":0,"i70m":56,"sigilo_i70m":0,"indigenas":0,"sigilo_indigenas":0,"pretos_pardos":null,"sigilo_pretos_pardos":1,"dom_ocupados":79,"sigilo_dom_ocupados":0,"dom_agua":0,"sigilo_dom_agua":0,"dom_esgoto":0,"sigilo_dom_esgoto":0,"renda_resp":3131.68,"sigilo_renda_resp":0,"n_resp":79,"sigilo_n_resp":0,"dens":8.6,"sigilo_dens":false,"na_bacia":1,"area_pct_bacia":100.0,"metodo_recorte_bacia":"ponto_representativo_setor_2022; area_pct_geometrica","pop_n_validos":1,"pop_n_total":1,"pop_completude":1.0,"dom_n_validos":1,"dom_n_total":1,"dom_completude":1.0,"dom_ocupados_n_validos":1,"dom_ocupados_n_total":1,"dom_ocupados_completude":1.0,"mulheres_n_validos":1,"mulheres_n_total":1,"mulheres_completude":1.0,"c0_4_n_validos":1,"c0_4_n_total":1,"c0_4_completude":1.0,"c5_9_n_validos":1,"c5_9_n_total":1,"c5_9_completude":1.0,"i60_69_n_validos":1,"i60_69_n_total":1,"i60_69_completude":1.0,"i70m_n_validos":1,"i70m_n_total":1,"i70m_completude":1.0,"indigenas_n_validos":1,"indigenas_n_total":1,"indigenas_completude":1.0,"pretos_pardos_n_validos":0,"pretos_pardos_n_total":1,"pretos_pardos_completude":0.0,"dom_agua_n_validos":1,"dom_agua_n_total":1,"dom_agua_completude":1.0,"dom_esgoto_n_validos":1,"dom_esgoto_n_total":1,"dom_esgoto_completude":1.0,"n_resp_n_validos":1,"n_resp_n_total":1,"n_resp_completude":1.0,"renda_resp_n_validos":1,"renda_resp_n_total":1,"renda_resp_completude":1.0,"dens_n_validos":1,"dens_n_total":1,"dens_completude":1.0,"status_borda_bacia":"total","metodo_area_bacia":"interseção geométrica em EPSG:5880","metodo_na_bacia":"ponto_representativo_setor_2022_within_bacia","municipio":"Fagundes Varela","cod_mun":"4307864","mun_pct_na_bacia":100.0,"mun_pop_total":2566,"mun_pop_na_bacia":2566.0,"mun_ubs_iede":1,"mun_hospitais_iede":null,"mun_escolas_iede":2,"mun_bombeiros_iede":null,"mun_servicos_cobertura":"cadastro_IEDE_parcial_nao_inventario","mun_icm_faixa":"A","mun_icm_pontos":12,"mun_icm_prioritario":"não","mun_ubs_iede_status":"published","mun_hospitais_iede_status":"unknown","mun_escolas_iede_status":"published","mun_bombeiros_iede_status":"unknown"},"geometry":{"type":"Polygon","coordinates":[[[-51.70251209999998,-28.903286099999946],[-51.703015099999966,-28.90422919999999],[-51.702723599999956,-28.91105669999995],[-51.70198359999995,-28.913547299999955],[-51.700124499999966,-28.91589479999992],[-51.69657049999996,-28.917095399999937],[-51.69492179999997,-28.91847],[-51.69299029999997,-28.91923559999998],[-51.69265539999998,-28.920899499999965],[-51.691925099999935,-28.921441099999985],[-51.69153249999994,-28.92304139999993],[-51.69061569999997,-28.924036],[-51.69145959999997,-28.925652],[-51.69102349999997,-28.927505],[-51.691539,-28.928424],[-51.69135629999994,-28.92935919999997],[-51.69165209999994,-28.930281499999975],[-51.69295009999996,-28.931072599999947],[-51.69391739999997,-28.93135839999998],[-51.69412749999998,-28.93180929999994],[-51.780913199999986,-28.937494199999946],[-51.78130409999994,-28.936285799999943],[-51.78269489999997,-28.933696899999973],[-51.79043619999993,-28.932367599999964],[-51.790894599999945,-28.93014829999994],[-51.78982289999993,-28.927960799999944],[-51.78248339999993,-28.92358959999995],[-51.77901849999995,-28.91945419999997],[-51.778719699999954,-28.91580929999998],[-51.77935659999997,-28.914561699999975],[-51.78179939999996,-28.913994],[-51.78668529999994,-28.91656089999998],[-51.791166299999986,-28.916897799999973],[-51.79834349999994,-28.910261],[-51.81322449999994,-28.907819199999942],[-51.816948199999956,-28.904444299999973],[-51.81757229999994,-28.902061699999926],[-51.81756309999997,-28.90103429999994],[-51.81645929999996,-28.900514],[-51.810832699999935,-28.901871199999952],[-51.81001449999997,-28.901228399999976],[-51.809630899999945,-28.899917099999985],[-51.80751929999997,-28.900460899999914],[-51.806501899999944,-28.90095389999994],[-51.80653509999996,-28.90151809999998],[-51.80916529999996,-28.903578399999954],[-51.81015819999993,-28.90400859999994],[-51.810117099999964,-28.904496699999974],[-51.80966849999999,-28.904908799999934],[-51.808561599999955,-28.905222699999975],[-51.806938199999934,-28.90497619999997],[-51.80610049999996,-28.90526289999997],[-51.80474609999993,-28.904569799999933],[-51.80227529999996,-28.90419569999994],[-51.799982799999945,-28.904491499999946],[-51.79913019999998,-28.90441319999996],[-51.797833799999985,-28.903899899999935],[-51.79648419999996,-28.90286019999996],[-51.795061699999955,-28.902834099999954],[-51.794344,-28.90338649999995],[-51.79366539999995,-28.90356059999994],[-51.79201669999998,-28.903343],[-51.79046809999995,-28.902168499999956],[-51.78859719999998,-28.902259299999972],[-51.78534989999997,-28.90318159999998],[-51.78428409999998,-28.902890099999965],[-51.78289429999995,-28.90203309999998],[-51.78252909999998,-28.902004899999937],[-51.78015369999997,-28.903229399999926],[-51.77657029999995,-28.90356],[-51.77586559999998,-28.904290799999945],[-51.77529579999999,-28.904438699999947],[-51.773938499999986,-28.904003699999976],[-51.77285969999997,-28.904638799999926],[-51.772259399999946,-28.905404399999945],[-51.77066079999997,-28.905909099999974],[-51.76922089999994,-28.905713299999952],[-51.76348149999996,-28.90612869999995],[-51.75908409999993,-28.905523],[-51.75613469999996,-28.90568389999992],[-51.75456649999995,-28.90544469999998],[-51.752901,-28.90603849999997],[-51.750925,-28.905542],[-51.74950029999997,-28.905455],[-51.74886679999998,-28.907173],[-51.74794,-28.907602599999954],[-51.74564209999994,-28.905523299999963],[-51.74471109999997,-28.905227499999967],[-51.73487449999993,-28.904646699999947],[-51.733178,-28.90480169999995],[-51.73189089999994,-28.905345399999927],[-51.73020409999998,-28.905524899999925],[-51.72865119999995,-28.90446779999997],[-51.72563,-28.90430689999994],[-51.724592499999964,-28.90452819999995],[-51.714707,-28.903793],[-51.71348889999995,-28.903967],[-51.70873859999995,-28.9037408],[-51.707440099999985,-28.903619],[-51.70599589999995,-28.90314049999996],[-51.70505629999996,-28.903349299999938],[-51.70251209999998,-28.903286099999946]]]}},{"type":"Feature","properties":{"setor":"430786405000004","pop":407,"sigilo_pop":false,"dom":213,"sigilo_dom":0,"mulheres":180,"sigilo_mulheres":0,"c0_4":16,"sigilo_c0_4":0,"c5_9":15,"sigilo_c5_9":0,"i60_69":64,"sigilo_i60_69":0,"i70m":52,"sigilo_i70m":0,"indigenas":0,"sigilo_indigenas":0,"pretos_pardos":74,"sigilo_pretos_pardos":0,"dom_ocupados":136,"sigilo_dom_ocupados":0,"dom_agua":28,"sigilo_dom_agua":0,"dom_esgoto":9,"sigilo_dom_esgoto":0,"renda_resp":4399.81,"sigilo_renda_resp":0,"n_resp":136,"sigilo_n_resp":0,"dens":8.3,"sigilo_dens":false,"na_bacia":1,"area_pct_bacia":100.0,"metodo_recorte_bacia":"ponto_representativo_setor_2022; area_pct_geometrica","pop_n_validos":1,"pop_n_total":1,"pop_completude":1.0,"dom_n_validos":1,"dom_n_total":1,"dom_completude":1.0,"dom_ocupados_n_validos":1,"dom_ocupados_n_total":1,"dom_ocupados_completude":1.0,"mulheres_n_validos":1,"mulheres_n_total":1,"mulheres_completude":1.0,"c0_4_n_validos":1,"c0_4_n_total":1,"c0_4_completude":1.0,"c5_9_n_validos":1,"c5_9_n_total":1,"c5_9_completude":1.0,"i60_69_n_validos":1,"i60_69_n_total":1,"i60_69_completude":1.0,"i70m_n_validos":1,"i70m_n_total":1,"i70m_completude":1.0,"indigenas_n_validos":1,"indigenas_n_total":1,"indigenas_completude":1.0,"pretos_pardos_n_validos":1,"pretos_pardos_n_total":1,"pretos_pardos_completude":1.0,"dom_agua_n_validos":1,"dom_agua_n_total":1,"dom_agua_completude":1.0,"dom_esgoto_n_validos":1,"dom_esgoto_n_total":1,"dom_esgoto_completude":1.0,"n_resp_n_validos":1,"n_resp_n_total":1,"n_resp_completude":1.0,"renda_resp_n_validos":1,"renda_resp_n_total":1,"renda_resp_completude":1.0,"dens_n_validos":1,"dens_n_total":1,"dens_completude":1.0,"status_borda_bacia":"total","metodo_area_bacia":"interseção geométrica em EPSG:5880","metodo_na_bacia":"ponto_representativo_setor_2022_within_bacia","municipio":"Fagundes Varela","cod_mun":"4307864","mun_pct_na_bacia":100.0,"mun_pop_total":2566,"mun_pop_na_bacia":2566.0,"mun_ubs_iede":1,"mun_hospitais_iede":null,"mun_escolas_iede":2,"mun_bombeiros_iede":null,"mun_servicos_cobertura":"cadastro_IEDE_parcial_nao_inventario","mun_icm_faixa":"A","mun_icm_pontos":12,"mun_icm_prioritario":"não","mun_ubs_iede_status":"published","mun_hospitais_iede_status":"unknown","mun_escolas_iede_status":"published","mun_bombeiros_iede_status":"unknown"},"geometry":{"type":"Polygon","coordinates":[[[-51.699112,-28.877129299999968],[-51.70477459999995,-28.87712879999998],[-51.704705,-28.87915789999994],[-51.71619579999998,-28.879180399999935],[-51.716152299999976,-28.88610219999998],[-51.70632049999995,-28.88609789999999],[-51.706330299999934,-28.887139799999947],[-51.69866069999995,-28.887139799999947],[-51.69854479999998,-28.89047149999994],[-51.69937079999995,-28.89137249999994],[-51.69997329999995,-28.89407659999995],[-51.70166549999994,-28.896457199999926],[-51.70164049999994,-28.897858],[-51.70225819999997,-28.900365799999985],[-51.70189929999998,-28.90205359999992],[-51.70213639999997,-28.90294429999995],[-51.70251209999998,-28.903286099999946],[-51.70505629999996,-28.903349299999938],[-51.70599589999995,-28.90314049999996],[-51.707440099999985,-28.903619],[-51.70873859999995,-28.9037408],[-51.71348889999995,-28.903967],[-51.714707,-28.903793],[-51.724592499999964,-28.90452819999995],[-51.72563,-28.90430689999994],[-51.72865119999995,-28.90446779999997],[-51.73020409999998,-28.905524899999925],[-51.73189089999994,-28.905345399999927],[-51.733178,-28.90480169999995],[-51.73487449999993,-28.904646699999947],[-51.74471109999997,-28.905227499999967],[-51.74564209999994,-28.905523299999963],[-51.74794,-28.907602599999954],[-51.74886679999998,-28.907173],[-51.74950029999997,-28.905455],[-51.750925,-28.905542],[-51.752901,-28.90603849999997],[-51.75456649999995,-28.90544469999998],[-51.75613469999996,-28.90568389999992],[-51.75908409999993,-28.905523],[-51.76348149999996,-28.90612869999995],[-51.76922089999994,-28.905713299999952],[-51.77066079999997,-28.905909099999974],[-51.772259399999946,-28.905404399999945],[-51.77285969999997,-28.904638799999926],[-51.773938499999986,-28.904003699999976],[-51.77529579999999,-28.904438699999947],[-51.77586559999998,-28.904290799999945],[-51.77657029999995,-28.90356],[-51.78015369999997,-28.903229399999926],[-51.78252909999998,-28.902004899999937],[-51.78289429999995,-28.90203309999998],[-51.78428409999998,-28.902890099999965],[-51.78534989999997,-28.90318159999998],[-51.78859719999998,-28.902259299999972],[-51.79046809999995,-28.902168499999956],[-51.79201669999998,-28.903343],[-51.79366539999995,-28.90356059999994],[-51.794344,-28.90338649999995],[-51.795061699999955,-28.902834099999954],[-51.79648419999996,-28.90286019999996],[-51.797833799999985,-28.903899899999935],[-51.79913019999998,-28.90441319999996],[-51.799982799999945,-28.904491499999946],[-51.80227529999996,-28.90419569999994],[-51.80474609999993,-28.904569799999933],[-51.80610049999996,-28.90526289999997],[-51.806938199999934,-28.90497619999997],[-51.808561599999955,-28.905222699999975],[-51.80966849999999,-28.904908799999934],[-51.810117099999964,-28.904496699999974],[-51.81015819999993,-28.90400859999994],[-51.80916529999996,-28.903578399999954],[-51.80653509999996,-28.90151809999998],[-51.806501899999944,-28.90095389999994],[-51.80751929999997,-28.900460899999914],[-51.809630899999945,-28.899917099999985],[-51.80822839999996,-28.89511609999995],[-51.79965669999996,-28.894153],[-51.79950349999996,-28.891885799999947],[-51.80117759999996,-28.890007499999964],[-51.80100539999995,-28.887183499999928],[-51.79937409999997,-28.88586809999997],[-51.791067699999985,-28.88393929999995],[-51.78602939999996,-28.880746099999957],[-51.77750879999997,-28.885386799999935],[-51.776421,-28.88408279999993],[-51.77641359999995,-28.88033979999995],[-51.77422679999996,-28.877112],[-51.77054539999995,-28.874554799999935],[-51.76510579999996,-28.872817899999966],[-51.75829169999997,-28.87260739999992],[-51.75808049999994,-28.869740399999955],[-51.75913159999993,-28.867672699999957],[-51.76461849999998,-28.866993599999933],[-51.76557139999994,-28.866489],[-51.765555,-28.864574],[-51.75869319999999,-28.85662369999994],[-51.75692959999998,-28.856359],[-51.75626049999994,-28.858971399999973],[-51.75438,-28.859999],[-51.75214379999994,-28.855826599999943],[-51.75208759999998,-28.854296099999928],[-51.75467229999998,-28.851215899999936],[-51.75518269999998,-28.84821209999995],[-51.75396319999994,-28.843574199999974],[-51.75001,-28.840007199999953],[-51.75399739999995,-28.837594299999964],[-51.754675599999985,-28.83598489999997],[-51.72472289999996,-28.835618699999948],[-51.724734799999965,-28.835967],[-51.725890799999945,-28.836171899999943],[-51.726578099999976,-28.836937499999976],[-51.72635189999994,-28.838468799999937],[-51.72560809999994,-28.84053509999995],[-51.72486959999998,-28.842023299999926],[-51.723918099999935,-28.842793799999985],[-51.72259669999994,-28.84474969999996],[-51.72180739999993,-28.8453],[-51.720620699999984,-28.84774929999998],[-51.71870559999997,-28.850099899999982],[-51.71717,-28.8513397],[-51.71250229999998,-28.852509899999976],[-51.706092499999954,-28.852370699999934],[-51.70569229999995,-28.85499379999995],[-51.70420459999997,-28.85827809999996],[-51.70295689999994,-28.859367799999973],[-51.70213819999997,-28.859750899999938],[-51.70239069999996,-28.861071899999946],[-51.70221459999993,-28.861406299999942],[-51.70183829999996,-28.861747799999925],[-51.699508,-28.86233479999993],[-51.69857639999997,-28.863003299999956],[-51.697902699999986,-28.867634599999967],[-51.69817239999998,-28.868667799999972],[-51.698242,-28.873191899999938],[-51.6992001,-28.875514299999963],[-51.699112,-28.877129299999968]]]}},{"type":"Feature","properties":{"setor":"430786405000005","pop":730,"sigilo_pop":false,"dom":293,"sigilo_dom":0,"mulheres":364,"sigilo_mulheres":0,"c0_4":41,"sigilo_c0_4":0,"c5_9":38,"sigilo_c5_9":0,"i60_69":93,"sigilo_i60_69":0,"i70m":73,"sigilo_i70m":0,"indigenas":0,"sigilo_indigenas":0,"pretos_pardos":105,"sigilo_pretos_pardos":0,"dom_ocupados":254,"sigilo_dom_ocupados":0,"dom_agua":239,"sigilo_dom_agua":0,"dom_esgoto":32,"sigilo_dom_esgoto":0,"renda_resp":3031.16,"sigilo_renda_resp":0,"n_resp":254,"sigilo_n_resp":0,"dens":654.3,"sigilo_dens":false,"na_bacia":1,"area_pct_bacia":100.0,"metodo_recorte_bacia":"ponto_representativo_setor_2022; area_pct_geometrica","pop_n_validos":1,"pop_n_total":1,"pop_completude":1.0,"dom_n_validos":1,"dom_n_total":1,"dom_completude":1.0,"dom_ocupados_n_validos":1,"dom_ocupados_n_total":1,"dom_ocupados_completude":1.0,"mulheres_n_validos":1,"mulheres_n_total":1,"mulheres_completude":1.0,"c0_4_n_validos":1,"c0_4_n_total":1,"c0_4_completude":1.0,"c5_9_n_validos":1,"c5_9_n_total":1,"c5_9_completude":1.0,"i60_69_n_validos":1,"i60_69_n_total":1,"i60_69_completude":1.0,"i70m_n_validos":1,"i70m_n_total":1,"i70m_completude":1.0,"indigenas_n_validos":1,"indigenas_n_total":1,"indigenas_completude":1.0,"pretos_pardos_n_validos":1,"pretos_pardos_n_total":1,"pretos_pardos_completude":1.0,"dom_agua_n_validos":1,"dom_agua_n_total":1,"dom_agua_completude":1.0,"dom_esgoto_n_validos":1,"dom_esgoto_n_total":1,"dom_esgoto_completude":1.0,"n_resp_n_validos":1,"n_resp_n_total":1,"n_resp_completude":1.0,"renda_resp_n_validos":1,"renda_resp_n_total":1,"renda_resp_completude":1.0,"dens_n_validos":1,"dens_n_total":1,"dens_completude":1.0,"status_borda_bacia":"total","metodo_area_bacia":"interseção geométrica em EPSG:5880","metodo_na_bacia":"ponto_representativo_setor_2022_within_bacia","municipio":"Fagundes Varela","cod_mun":"4307864","mun_pct_na_bacia":100.0,"mun_pop_total":2566,"mun_pop_na_bacia":2566.0,"mun_ubs_iede":1,"mun_hospitais_iede":null,"mun_escolas_iede":2,"mun_bombeiros_iede":null,"mun_servicos_cobertura":"cadastro_IEDE_parcial_nao_inventario","mun_icm_faixa":"A","mun_icm_pontos":12,"mun_icm_prioritario":"não","mun_ubs_iede_status":"published","mun_hospitais_iede_status":"unknown","mun_escolas_iede_status":"published","mun_bombeiros_iede_status":"unknown"},"geometry":{"type":"Polygon","coordinates":[[[-51.699112,-28.877129299999968],[-51.69906949999995,-28.87857439999993],[-51.69832309999999,-28.87922689999994],[-51.69830889999997,-28.879950599999958],[-51.70070209999995,-28.880099099999935],[-51.70063109999996,-28.881169699999923],[-51.701795199999935,-28.881302199999944],[-51.701710399999975,-28.88210479999998],[-51.704868499999975,-28.882240899999942],[-51.704850799999974,-28.884084099999935],[-51.706330299999934,-28.887139799999947],[-51.70632049999995,-28.88609789999999],[-51.716152299999976,-28.88610219999998],[-51.71619579999998,-28.879180399999935],[-51.704705,-28.87915789999994],[-51.70477459999995,-28.87712879999998],[-51.699112,-28.877129299999968]]]}}]}
