{"type":"FeatureCollection","name":"4308854","crs":{"type":"name","properties":{"name":"urn:ogc:def:crs:OGC:1.3:CRS84"}},"features":[{"type":"Feature","properties":{"setor":"430885405000001","pop":677,"sigilo_pop":false,"dom":298,"sigilo_dom":0,"mulheres":336,"sigilo_mulheres":0,"c0_4":34,"sigilo_c0_4":0,"c5_9":51,"sigilo_c5_9":0,"i60_69":79,"sigilo_i60_69":0,"i70m":67,"sigilo_i70m":0,"indigenas":0,"sigilo_indigenas":0,"pretos_pardos":153,"sigilo_pretos_pardos":0,"dom_ocupados":262,"sigilo_dom_ocupados":0,"dom_agua":262,"sigilo_dom_agua":0,"dom_esgoto":0,"sigilo_dom_esgoto":0,"renda_resp":31979.72,"sigilo_renda_resp":0,"n_resp":262,"sigilo_n_resp":0,"dens":364.2,"sigilo_dens":false,"na_bacia":1,"area_pct_bacia":100.0,"metodo_recorte_bacia":"ponto_representativo_setor_2022; area_pct_geometrica","pop_n_validos":1,"pop_n_total":1,"pop_completude":1.0,"dom_n_validos":1,"dom_n_total":1,"dom_completude":1.0,"dom_ocupados_n_validos":1,"dom_ocupados_n_total":1,"dom_ocupados_completude":1.0,"mulheres_n_validos":1,"mulheres_n_total":1,"mulheres_completude":1.0,"c0_4_n_validos":1,"c0_4_n_total":1,"c0_4_completude":1.0,"c5_9_n_validos":1,"c5_9_n_total":1,"c5_9_completude":1.0,"i60_69_n_validos":1,"i60_69_n_total":1,"i60_69_completude":1.0,"i70m_n_validos":1,"i70m_n_total":1,"i70m_completude":1.0,"indigenas_n_validos":1,"indigenas_n_total":1,"indigenas_completude":1.0,"pretos_pardos_n_validos":1,"pretos_pardos_n_total":1,"pretos_pardos_completude":1.0,"dom_agua_n_validos":1,"dom_agua_n_total":1,"dom_agua_completude":1.0,"dom_esgoto_n_validos":1,"dom_esgoto_n_total":1,"dom_esgoto_completude":1.0,"n_resp_n_validos":1,"n_resp_n_total":1,"n_resp_completude":1.0,"renda_resp_n_validos":1,"renda_resp_n_total":1,"renda_resp_completude":1.0,"dens_n_validos":1,"dens_n_total":1,"dens_completude":1.0,"status_borda_bacia":"total","metodo_area_bacia":"interse??o geom?trica em EPSG:5880","metodo_na_bacia":"ponto_representativo_setor_2022_within_bacia","municipio":"Gentil","cod_mun":"4308854","mun_pct_na_bacia":98.9,"mun_pop_total":1744,"mun_pop_na_bacia":1744.0,"mun_ubs_iede":2,"mun_hospitais_iede":null,"mun_escolas_iede":null,"mun_bombeiros_iede":null,"mun_servicos_cobertura":"cadastro_IEDE_parcial_nao_inventario","mun_icm_faixa":"D","mun_icm_pontos":8,"mun_icm_prioritario":"sim","mun_ubs_iede_status":"published","mun_hospitais_iede_status":"unknown","mun_escolas_iede_status":"unknown","mun_bombeiros_iede_status":"unknown"},"geometry":{"type":"Polygon","coordinates":[[[-52.028399399999955,-28.441957299999945],[-52.040937499999984,-28.442875699999934],[-52.03811379999996,-28.438025599999946],[-52.03934449999997,-28.43225029999997],[-52.04024279999993,-28.429949699999952],[-52.04030819999998,-28.425468799999965],[-52.032569,-28.423635199999964],[-52.028903699999944,-28.436249899999947],[-52.028399399999955,-28.441957299999945]]]}},{"type":"Feature","properties":{"setor":"430885405000002","pop":336,"sigilo_pop":false,"dom":148,"sigilo_dom":0,"mulheres":167,"sigilo_mulheres":0,"c0_4":20,"sigilo_c0_4":0,"c5_9":21,"sigilo_c5_9":0,"i60_69":41,"sigilo_i60_69":0,"i70m":41,"sigilo_i70m":0,"indigenas":null,"sigilo_indigenas":1,"pretos_pardos":61,"sigilo_pretos_pardos":0,"dom_ocupados":121,"sigilo_dom_ocupados":0,"dom_agua":100,"sigilo_dom_agua":0,"dom_esgoto":0,"sigilo_dom_esgoto":0,"renda_resp":6913.85,"sigilo_renda_resp":0,"n_resp":121,"sigilo_n_resp":0,"dens":5.1,"sigilo_dens":false,"na_bacia":1,"area_pct_bacia":100.0,"metodo_recorte_bacia":"ponto_representativo_setor_2022; area_pct_geometrica","pop_n_validos":1,"pop_n_total":1,"pop_completude":1.0,"dom_n_validos":1,"dom_n_total":1,"dom_completude":1.0,"dom_ocupados_n_validos":1,"dom_ocupados_n_total":1,"dom_ocupados_completude":1.0,"mulheres_n_validos":1,"mulheres_n_total":1,"mulheres_completude":1.0,"c0_4_n_validos":1,"c0_4_n_total":1,"c0_4_completude":1.0,"c5_9_n_validos":1,"c5_9_n_total":1,"c5_9_completude":1.0,"i60_69_n_validos":1,"i60_69_n_total":1,"i60_69_completude":1.0,"i70m_n_validos":1,"i70m_n_total":1,"i70m_completude":1.0,"indigenas_n_validos":0,"indigenas_n_total":1,"indigenas_completude":0.0,"pretos_pardos_n_validos":1,"pretos_pardos_n_total":1,"pretos_pardos_completude":1.0,"dom_agua_n_validos":1,"dom_agua_n_total":1,"dom_agua_completude":1.0,"dom_esgoto_n_validos":1,"dom_esgoto_n_total":1,"dom_esgoto_completude":1.0,"n_resp_n_validos":1,"n_resp_n_total":1,"n_resp_completude":1.0,"renda_resp_n_validos":1,"renda_resp_n_total":1,"renda_resp_completude":1.0,"dens_n_validos":1,"dens_n_total":1,"dens_completude":1.0,"status_borda_bacia":"total","metodo_area_bacia":"interse??o geom?trica em EPSG:5880","metodo_na_bacia":"ponto_representativo_setor_2022_within_bacia","municipio":"Gentil","cod_mun":"4308854","mun_pct_na_bacia":98.9,"mun_pop_total":1744,"mun_pop_na_bacia":1744.0,"mun_ubs_iede":2,"mun_hospitais_iede":null,"mun_escolas_iede":null,"mun_bombeiros_iede":null,"mun_servicos_cobertura":"cadastro_IEDE_parcial_nao_inventario","mun_icm_faixa":"D","mun_icm_pontos":8,"mun_icm_prioritario":"sim","mun_ubs_iede_status":"published","mun_hospitais_iede_status":"unknown","mun_escolas_iede_status":"unknown","mun_bombeiros_iede_status":"unknown"},"geometry":{"type":"Polygon","coordinates":[[[-51.987441199999985,-28.43245929999994],[-51.98490729999997,-28.43440329999993],[-51.98520159999999,-28.43756639999998],[-51.98612469999995,-28.438261099999966],[-51.99064449999998,-28.438582199999935],[-51.991050099999946,-28.439433399999935],[-51.99402049999998,-28.43800239999997],[-51.99822439999997,-28.43775489999996],[-52.00477,-28.44110989999997],[-52.00750569999997,-28.441466599999963],[-52.009212,-28.44434369999994],[-52.01254909999994,-28.445794199999956],[-52.01443279999995,-28.44853039999998],[-52.016166899999966,-28.448508799999946],[-52.017852,-28.451228499999946],[-52.022144799999985,-28.44968269999998],[-52.02719229999996,-28.449988599999976],[-52.03171969999994,-28.453627899999955],[-52.04273859999995,-28.45749319999993],[-52.044257699999946,-28.457400499999935],[-52.04461949999995,-28.460991199999974],[-52.04774,-28.461997599999954],[-52.04952309999993,-28.464386399999963],[-52.05128569999994,-28.46393989999996],[-52.05348649999996,-28.465435399999933],[-52.056391099999985,-28.463018899999955],[-52.05683129999994,-28.464301599999942],[-52.058414599999935,-28.464893299999975],[-52.058092399999964,-28.46843909999994],[-52.06224449999996,-28.47063429999997],[-52.061731,-28.472523],[-52.06245209999997,-28.474087499999943],[-52.06453279999994,-28.472947199999968],[-52.069640399999976,-28.47254339999995],[-52.076377599999944,-28.466015299999984],[-52.07657149999994,-28.467372899999923],[-52.07524049999994,-28.469647899999977],[-52.07589559999997,-28.47193209999994],[-52.075074,-28.474660799999977],[-52.075954799999984,-28.476270799999945],[-52.07871979999993,-28.475518799999982],[-52.08124739999994,-28.47620659999995],[-52.08330269999994,-28.475274899999928],[-52.08437439999994,-28.476332699999947],[-52.08747369999998,-28.473689199999964],[-52.087463599999985,-28.469262799999967],[-52.090079199999934,-28.463456199999932],[-52.08930669999995,-28.462631699999974],[-52.08956609999996,-28.461609699999933],[-52.08611659999997,-28.458831699999962],[-52.090646899999975,-28.44999859999995],[-52.09222,-28.44768349999998],[-52.095520599999986,-28.445768699999967],[-52.10133069999995,-28.438823899999935],[-52.10552169999994,-28.438080299999967],[-52.10956249999998,-28.436073499999953],[-52.10624779999995,-28.42946959999994],[-52.105031699999984,-28.428168199999956],[-52.104314,-28.427721499999965],[-52.10217309999996,-28.42758679999997],[-52.10163819999997,-28.427788399999944],[-52.100754199999976,-28.427293399999947],[-52.10001909999994,-28.42743129999996],[-52.099487,-28.427110099999936],[-52.09891279999994,-28.427301499999945],[-52.098600399999945,-28.427069899999935],[-52.09780139999998,-28.427183399999937],[-52.09765449999998,-28.426896299999957],[-52.098092799999954,-28.426295799999934],[-52.09785439999996,-28.425956899999953],[-52.09718979999997,-28.42570019999995],[-52.09689529999997,-28.424901],[-52.09634079999996,-28.42487119999993],[-52.09614659999994,-28.424555799999954],[-52.095516799999984,-28.42428],[-52.09518809999997,-28.424450799999928],[-52.093539,-28.424229899999936],[-52.09273629999996,-28.423878099999968],[-52.092972299999985,-28.423142899999952],[-52.09242909999995,-28.423347199999967],[-52.091034099999945,-28.423338799999947],[-52.09005639999998,-28.42299439999994],[-52.08964359999994,-28.423761],[-52.08930509999993,-28.423137399999966],[-52.08892709999998,-28.42298379999993],[-52.087825399999986,-28.423501499999933],[-52.088018499999976,-28.422893199999965],[-52.08784289999994,-28.42087859999998],[-52.087172099999975,-28.421188399999956],[-52.086485399999965,-28.420531099999938],[-52.08631219999995,-28.420622099999942],[-52.08558479999993,-28.42151879999995],[-52.08538919999996,-28.422415399999977],[-52.08494969999999,-28.422866899999974],[-52.084379,-28.42293879999993],[-52.08384939999996,-28.42252039999994],[-52.08311409999993,-28.423404],[-52.08162679999998,-28.42302429999994],[-52.08067119999998,-28.423506199999967],[-52.08020249999998,-28.423138099999953],[-52.08043379999998,-28.422303199999927],[-52.080305899999985,-28.421748299999923],[-52.079838799999955,-28.421536699999944],[-52.07869059999996,-28.421883399999953],[-52.07849009999995,-28.421542499999926],[-52.07867319999997,-28.421183799999945],[-52.07686609999996,-28.41889119999995],[-52.07601669999996,-28.419357099999953],[-52.07541979999996,-28.418889799999942],[-52.07351419999997,-28.420468699999955],[-52.07307239999995,-28.42057009999996],[-52.07233049999997,-28.420376099999945],[-52.072055,-28.420669899999957],[-52.071257899999985,-28.42082639999995],[-52.07123749999994,-28.42136909999993],[-52.071534299999946,-28.42180929999995],[-52.071031699999935,-28.422274699999942],[-52.070626699999934,-28.42208479999994],[-52.070248,-28.419528099999976],[-52.069465599999944,-28.420186299999944],[-52.069112,-28.421374],[-52.06884689999998,-28.421546399999954],[-52.06816279999998,-28.421198099999966],[-52.06829989999995,-28.42028509999994],[-52.06766829999998,-28.42004329999997],[-52.06631249999998,-28.42006049999997],[-52.06594739999997,-28.41906719999998],[-52.06605219999995,-28.418374],[-52.06680269999998,-28.417304399999978],[-52.0673556,-28.417285],[-52.06749939999998,-28.417089799999935],[-52.06708279999998,-28.41665419999999],[-52.067311899999936,-28.416332899999926],[-52.067155,-28.41547669999994],[-52.06644869999997,-28.415128099999944],[-52.06519849999995,-28.415366399999982],[-52.064266499999974,-28.41526969999996],[-52.06346829999996,-28.41454229999994],[-52.06270909999995,-28.414501899999955],[-52.0613125,-28.412394499999948],[-52.061737,-28.411460799999933],[-52.061346299999975,-28.40995559999993],[-52.06155659999996,-28.409166],[-52.062343699999985,-28.408181199999937],[-52.06353429999996,-28.40770219999995],[-52.063972699999965,-28.407268199999972],[-52.06324859999996,-28.40621049999993],[-52.06319979999996,-28.405238599999958],[-52.064076,-28.404140599999945],[-52.06348749999995,-28.40253519999992],[-52.063742099999956,-28.401906899999968],[-52.062770599999965,-28.40193319999997],[-52.06283429999996,-28.400471199999966],[-52.06188029999998,-28.400473399999957],[-52.06141619999994,-28.401065399999933],[-52.06070509999995,-28.401335499999963],[-52.06024649999995,-28.40076539999996],[-52.05943989999997,-28.400636799999965],[-52.059491499999986,-28.399635299999947],[-52.058709499999964,-28.398902499999966],[-52.05993839999997,-28.397836],[-52.06053789999998,-28.39579569999995],[-52.059605799999986,-28.39430479999992],[-52.058829699999926,-28.393650399999956],[-52.058796299999976,-28.393162],[-52.05921249999994,-28.392977599999938],[-52.058651,-28.392366699999968],[-52.05900759999997,-28.391815699999942],[-52.05878579999995,-28.391474599999977],[-52.059205499999955,-28.39091269999994],[-52.058848499999954,-28.390621899999925],[-52.05836409999995,-28.390880099999944],[-52.05703289999997,-28.390557699999924],[-52.056110599999954,-28.389057699999963],[-52.05562759999997,-28.387221599999968],[-52.05500279999995,-28.386717499999975],[-52.05378969999998,-28.387138],[-52.05312339999995,-28.38690819999993],[-52.05107119999997,-28.38753079999998],[-52.050235199999975,-28.386287599999932],[-52.049370099999976,-28.385609599999952],[-52.04832769999996,-28.38535829999995],[-52.04466069999995,-28.385112699999972],[-52.04281769999995,-28.383814],[-52.043727599999954,-28.380523899999957],[-52.04393849999997,-28.375557699999938],[-52.04369839999998,-28.371921399999955],[-52.043068699999935,-28.368519499999937],[-52.04303849999996,-28.36603039999995],[-52.04455759999996,-28.362669299999933],[-52.044547,-28.36100829999998],[-52.04413769999996,-28.3601609],[-52.04315719999994,-28.360745599999976],[-52.04251719999996,-28.360556099999936],[-52.04157189999995,-28.360703899999965],[-52.040164299999965,-28.3616555],[-52.03857359999996,-28.361998099999933],[-52.03725639999993,-28.362715699999963],[-52.034493,-28.36240769999994],[-52.03245829999997,-28.363777899999956],[-52.032259099999976,-28.363702399999973],[-52.030652799999984,-28.364629699999977],[-52.02840039999995,-28.365304799999944],[-52.02474639999997,-28.36457389999999],[-52.02375759999995,-28.363222199999942],[-52.02307389999998,-28.362829899999962],[-52.022168,-28.362845799999945],[-52.021868,-28.363057399999942],[-52.02115439999994,-28.36288519999993],[-52.02038019999998,-28.363297799999934],[-52.0201833,-28.363704599999938],[-52.018929199999945,-28.3633053],[-52.01890289999995,-28.363821499999972],[-52.01818909999998,-28.36419409999996],[-52.018166099999966,-28.364905299999958],[-52.017790299999945,-28.365147],[-52.015728499999966,-28.364820199999944],[-52.01552259999994,-28.36572379999995],[-52.01423789999996,-28.366970199999976],[-52.01416249999994,-28.367538],[-52.015042899999976,-28.367860899999986],[-52.01497169999993,-28.36850279999993],[-52.015961699999934,-28.36983289999994],[-52.01633609999993,-28.36984059999998],[-52.017186599999945,-28.369334799999933],[-52.017483099999936,-28.37014159999995],[-52.01830129999997,-28.370333599999984],[-52.01985449999995,-28.369692],[-52.020305,-28.369772399999924],[-52.02043979999996,-28.370190299999926],[-52.019932,-28.370948599999963],[-52.021199699999954,-28.37162519999998],[-52.021618699999976,-28.372525699999986],[-52.021474599999976,-28.373046499999933],[-52.02214219999996,-28.374514299999927],[-52.02278829999995,-28.375171299999984],[-52.02296779999995,-28.37625449999996],[-52.022216399999934,-28.37649019999998],[-52.02167769999995,-28.377417499999975],[-52.02107689999997,-28.37765329999996],[-52.02049179999995,-28.377374099999937],[-52.020257399999934,-28.37679829999997],[-52.019943,-28.376791499999964],[-52.018897099999954,-28.377066],[-52.01762189999994,-28.378017899999964],[-52.01819939999996,-28.379287],[-52.018234,-28.379973499999945],[-52.018582,-28.380232399999954],[-52.019304,-28.380288399999976],[-52.019903399999976,-28.38093119999996],[-52.01943049999994,-28.381247],[-52.01852609999998,-28.38101139999997],[-52.01808349999993,-28.381302199999936],[-52.01734269999997,-28.383157699999966],[-52.01735689999998,-28.384645199999966],[-52.016425099999935,-28.387310799999963],[-52.01612669999998,-28.387405199999936],[-52.015454699999964,-28.386808699999946],[-52.01512919999993,-28.387257399999953],[-52.01465889999997,-28.387354899999938],[-52.01465209999997,-28.387747399999956],[-52.015243199999986,-28.38757839999993],[-52.015999,-28.38889709999994],[-52.01548759999997,-28.389243699999955],[-52.01536909999999,-28.38983849999994],[-52.01459129999995,-28.39064629999996],[-52.014292799999964,-28.39175659999996],[-52.01314029999998,-28.391964199999972],[-52.011387799999966,-28.39360009999995],[-52.01129289999994,-28.39421409999993],[-52.0119069,-28.394975599999956],[-52.012723299999955,-28.395464699999934],[-52.01291239999995,-28.396198699999943],[-52.013495399999954,-28.396657599999966],[-52.013453899999945,-28.397313899999965],[-52.01270319999998,-28.398171799999936],[-52.01218129999996,-28.397653],[-52.01037089999995,-28.39728919999994],[-52.00967519999995,-28.397305099999972],[-52.00902559999998,-28.39768429999997],[-52.00899689999994,-28.399328699999955],[-52.01064769999994,-28.399795399999963],[-52.01079589999995,-28.40035309999995],[-52.008789299999926,-28.40158829999996],[-52.00849169999998,-28.40212559999998],[-52.007951299999945,-28.404377],[-52.00772479999994,-28.40720879999997],[-52.00697619999994,-28.407749499999973],[-52.00553419999994,-28.407720899999962],[-52.00555309999998,-28.40836759999995],[-52.00526619999993,-28.408756599999943],[-52.004075799999946,-28.40948869999993],[-52.00370829999997,-28.41009429999997],[-52.00372749999997,-28.411049599999952],[-52.00594989999996,-28.41419759999996],[-52.00633579999994,-28.415550899999978],[-52.00631769999996,-28.41586429999995],[-52.00508129999997,-28.416136599999955],[-52.004876,-28.416797],[-52.00540569999998,-28.418018],[-52.005756,-28.42071769999996],[-52.00619839999996,-28.422009],[-52.00583259999996,-28.424649699999982],[-52.00492569999995,-28.425968699999945],[-52.00400489999998,-28.426838199999953],[-52.00274459999997,-28.42604759999994],[-52.00195219999994,-28.42615039999998],[-52.00102949999995,-28.425868699999974],[-52.00026959999997,-28.42615829999994],[-52.00030389999995,-28.428863399999955],[-52.001601899999976,-28.42937629999994],[-52.002349299999935,-28.430611899999978],[-52.00064839999993,-28.431133599999946],[-51.99905959999995,-28.43128229999996],[-51.998544599999946,-28.429881099999932],[-51.997415499999924,-28.429029799999952],[-51.99717409999994,-28.429545199999957],[-51.99756069999995,-28.43035669999995],[-51.997501599999964,-28.430919899999928],[-51.99382989999998,-28.431123599999975],[-51.99315029999997,-28.430931899999955],[-51.99280859999994,-28.43058319999994],[-51.99176969999997,-28.430449199999934],[-51.99016819999997,-28.43074359999996],[-51.98760019999998,-28.431980199999945],[-51.987441199999985,-28.43245929999994]],[[-52.028399399999955,-28.441957299999945],[-52.028903699999944,-28.436249899999947],[-52.032569,-28.423635199999964],[-52.04030819999998,-28.425468799999965],[-52.04024279999993,-28.429949699999952],[-52.03934449999997,-28.43225029999997],[-52.03811379999996,-28.438025599999946],[-52.040937499999984,-28.442875699999934],[-52.028399399999955,-28.441957299999945]]]}},{"type":"Feature","properties":{"setor":"430885405000003","pop":264,"sigilo_pop":false,"dom":129,"sigilo_dom":0,"mulheres":130,"sigilo_mulheres":0,"c0_4":11,"sigilo_c0_4":0,"c5_9":15,"sigilo_c5_9":0,"i60_69":51,"sigilo_i60_69":0,"i70m":42,"sigilo_i70m":0,"indigenas":0,"sigilo_indigenas":0,"pretos_pardos":53,"sigilo_pretos_pardos":0,"dom_ocupados":104,"sigilo_dom_ocupados":0,"dom_agua":92,"sigilo_dom_agua":0,"dom_esgoto":0,"sigilo_dom_esgoto":0,"renda_resp":8606.4,"sigilo_renda_resp":0,"n_resp":104,"sigilo_n_resp":0,"dens":6.2,"sigilo_dens":false,"na_bacia":1,"area_pct_bacia":100.0,"metodo_recorte_bacia":"ponto_representativo_setor_2022; area_pct_geometrica","pop_n_validos":1,"pop_n_total":1,"pop_completude":1.0,"dom_n_validos":1,"dom_n_total":1,"dom_completude":1.0,"dom_ocupados_n_validos":1,"dom_ocupados_n_total":1,"dom_ocupados_completude":1.0,"mulheres_n_validos":1,"mulheres_n_total":1,"mulheres_completude":1.0,"c0_4_n_validos":1,"c0_4_n_total":1,"c0_4_completude":1.0,"c5_9_n_validos":1,"c5_9_n_total":1,"c5_9_completude":1.0,"i60_69_n_validos":1,"i60_69_n_total":1,"i60_69_completude":1.0,"i70m_n_validos":1,"i70m_n_total":1,"i70m_completude":1.0,"indigenas_n_validos":1,"indigenas_n_total":1,"indigenas_completude":1.0,"pretos_pardos_n_validos":1,"pretos_pardos_n_total":1,"pretos_pardos_completude":1.0,"dom_agua_n_validos":1,"dom_agua_n_total":1,"dom_agua_completude":1.0,"dom_esgoto_n_validos":1,"dom_esgoto_n_total":1,"dom_esgoto_completude":1.0,"n_resp_n_validos":1,"n_resp_n_total":1,"n_resp_completude":1.0,"renda_resp_n_validos":1,"renda_resp_n_total":1,"renda_resp_completude":1.0,"dens_n_validos":1,"dens_n_total":1,"dens_completude":1.0,"status_borda_bacia":"total","metodo_area_bacia":"interse??o geom?trica em EPSG:5880","metodo_na_bacia":"ponto_representativo_setor_2022_within_bacia","municipio":"Gentil","cod_mun":"4308854","mun_pct_na_bacia":98.9,"mun_pop_total":1744,"mun_pop_na_bacia":1744.0,"mun_ubs_iede":2,"mun_hospitais_iede":null,"mun_escolas_iede":null,"mun_bombeiros_iede":null,"mun_servicos_cobertura":"cadastro_IEDE_parcial_nao_inventario","mun_icm_faixa":"D","mun_icm_pontos":8,"mun_icm_prioritario":"sim","mun_ubs_iede_status":"published","mun_hospitais_iede_status":"unknown","mun_escolas_iede_status":"unknown","mun_bombeiros_iede_status":"unknown"},"geometry":{"type":"Polygon","coordinates":[[[-52.06635059999997,-28.330944499999926],[-52.043503699999974,-28.364740499999975],[-52.04303849999996,-28.36603039999995],[-52.043068699999935,-28.368519499999937],[-52.04369839999998,-28.371921399999955],[-52.04393849999997,-28.375557699999938],[-52.043727599999954,-28.380523899999957],[-52.04281769999995,-28.383814],[-52.04466069999995,-28.385112699999972],[-52.04832769999996,-28.38535829999995],[-52.049370099999976,-28.385609599999952],[-52.050235199999975,-28.386287599999932],[-52.05107119999997,-28.38753079999998],[-52.05312339999995,-28.38690819999993],[-52.05378969999998,-28.387138],[-52.05500279999995,-28.386717499999975],[-52.05562759999997,-28.387221599999968],[-52.056110599999954,-28.389057699999963],[-52.05703289999997,-28.390557699999924],[-52.05836409999995,-28.390880099999944],[-52.058848499999954,-28.390621899999925],[-52.059205499999955,-28.39091269999994],[-52.05878579999995,-28.391474599999977],[-52.05900759999997,-28.391815699999942],[-52.058651,-28.392366699999968],[-52.05921249999994,-28.392977599999938],[-52.058796299999976,-28.393162],[-52.058829699999926,-28.393650399999956],[-52.059605799999986,-28.39430479999992],[-52.06053789999998,-28.39579569999995],[-52.05993839999997,-28.397836],[-52.058709499999964,-28.398902499999966],[-52.059491499999986,-28.399635299999947],[-52.05943989999997,-28.400636799999965],[-52.06024649999995,-28.40076539999996],[-52.06070509999995,-28.401335499999963],[-52.06141619999994,-28.401065399999933],[-52.06188029999998,-28.400473399999957],[-52.06283429999996,-28.400471199999966],[-52.062770599999965,-28.40193319999997],[-52.063742099999956,-28.401906899999968],[-52.06348749999995,-28.40253519999992],[-52.064076,-28.404140599999945],[-52.06319979999996,-28.405238599999958],[-52.06324859999996,-28.40621049999993],[-52.063972699999965,-28.407268199999972],[-52.06353429999996,-28.40770219999995],[-52.062343699999985,-28.408181199999937],[-52.06155659999996,-28.409166],[-52.061346299999975,-28.40995559999993],[-52.061737,-28.411460799999933],[-52.0613125,-28.412394499999948],[-52.06270909999995,-28.414501899999955],[-52.06346829999996,-28.41454229999994],[-52.064266499999974,-28.41526969999996],[-52.06519849999995,-28.415366399999982],[-52.06644869999997,-28.415128099999944],[-52.067155,-28.41547669999994],[-52.067311899999936,-28.416332899999926],[-52.06708279999998,-28.41665419999999],[-52.06749939999998,-28.417089799999935],[-52.0673556,-28.417285],[-52.06680269999998,-28.417304399999978],[-52.06605219999995,-28.418374],[-52.06594739999997,-28.41906719999998],[-52.06631249999998,-28.42006049999997],[-52.06766829999998,-28.42004329999997],[-52.06829989999995,-28.42028509999994],[-52.06816279999998,-28.421198099999966],[-52.06884689999998,-28.421546399999954],[-52.069112,-28.421374],[-52.069465599999944,-28.420186299999944],[-52.070248,-28.419528099999976],[-52.070626699999934,-28.42208479999994],[-52.071031699999935,-28.422274699999942],[-52.071534299999946,-28.42180929999995],[-52.07123749999994,-28.42136909999993],[-52.071257899999985,-28.42082639999995],[-52.072055,-28.420669899999957],[-52.07233049999997,-28.420376099999945],[-52.07307239999995,-28.42057009999996],[-52.07351419999997,-28.420468699999955],[-52.07541979999996,-28.418889799999942],[-52.07601669999996,-28.419357099999953],[-52.07686609999996,-28.41889119999995],[-52.07867319999997,-28.421183799999945],[-52.07849009999995,-28.421542499999926],[-52.07869059999996,-28.421883399999953],[-52.079838799999955,-28.421536699999944],[-52.080305899999985,-28.421748299999923],[-52.08043379999998,-28.422303199999927],[-52.08020249999998,-28.423138099999953],[-52.08067119999998,-28.423506199999967],[-52.08162679999998,-28.42302429999994],[-52.08311409999993,-28.423404],[-52.08384939999996,-28.42252039999994],[-52.084379,-28.42293879999993],[-52.08494969999999,-28.422866899999974],[-52.08538919999996,-28.422415399999977],[-52.08558479999993,-28.42151879999995],[-52.086485399999965,-28.420531099999938],[-52.087172099999975,-28.421188399999956],[-52.08784289999994,-28.42087859999998],[-52.087977499999965,-28.421053699999952],[-52.088018499999976,-28.422893199999965],[-52.087825399999986,-28.423501499999933],[-52.08892709999998,-28.42298379999993],[-52.08930509999993,-28.423137399999966],[-52.08964359999994,-28.423761],[-52.09005639999998,-28.42299439999994],[-52.091034099999945,-28.423338799999947],[-52.09242909999995,-28.423347199999967],[-52.092972299999985,-28.423142899999952],[-52.09273629999996,-28.423878099999968],[-52.093539,-28.424229899999936],[-52.09518809999997,-28.424450799999928],[-52.095516799999984,-28.42428],[-52.09614659999994,-28.424555799999954],[-52.09634079999996,-28.42487119999993],[-52.09689529999997,-28.424901],[-52.09718979999997,-28.42570019999995],[-52.09785439999996,-28.425956899999953],[-52.098092799999954,-28.426295799999934],[-52.09765449999998,-28.426896299999957],[-52.09780139999998,-28.427183399999937],[-52.098600399999945,-28.427069899999935],[-52.09891279999994,-28.427301499999945],[-52.099487,-28.427110099999936],[-52.10001909999994,-28.42743129999996],[-52.100754199999976,-28.427293399999947],[-52.10163819999997,-28.427788399999944],[-52.10217309999996,-28.42758679999997],[-52.104314,-28.427721499999965],[-52.105031699999984,-28.428168199999956],[-52.10440859999994,-28.427502],[-52.10484709999997,-28.426781899999973],[-52.10400689999994,-28.425064499999973],[-52.104299399999945,-28.421369299999984],[-52.10660509999997,-28.419547599999923],[-52.105534,-28.416756299999964],[-52.10920849999997,-28.411592599999942],[-52.1081645,-28.408658199999934],[-52.10975019999995,-28.402702399999953],[-52.109172899999976,-28.40089929999994],[-52.11073229999994,-28.398947199999956],[-52.11354659999995,-28.398970899999938],[-52.1154011,-28.39579069999996],[-52.10896279999997,-28.39566269999996],[-52.1059135,-28.394740899999928],[-52.10813759999996,-28.391789599999985],[-52.10767919999995,-28.388985099999946],[-52.10899959999995,-28.38921989999994],[-52.107946899999945,-28.38833569999997],[-52.108713399999935,-28.387577799999974],[-52.108278,-28.386470399999958],[-52.105911499999934,-28.387164599999945],[-52.10474209999995,-28.388597],[-52.1026351,-28.387259699999966],[-52.102989,-28.38859069999995],[-52.10237429999995,-28.388724599999932],[-52.09892519999994,-28.387064599999977],[-52.099102,-28.385905299999937],[-52.09688819999997,-28.384559199999952],[-52.09781849999996,-28.38229449999994],[-52.09657869999996,-28.381496],[-52.09765639999995,-28.379372299999943],[-52.094578,-28.377826499999966],[-52.09492229999995,-28.374773399999977],[-52.09630979999997,-28.373528099999923],[-52.09440239999997,-28.371835399999956],[-52.096307099999926,-28.37082019999996],[-52.09811929999995,-28.371210799999968],[-52.09595069999995,-28.36838149999994],[-52.09769519999998,-28.367475799999966],[-52.09732109999993,-28.365225399999932],[-52.09570709999997,-28.363909299999925],[-52.09683139999998,-28.362597199999975],[-52.09817409999993,-28.36333759999997],[-52.09901179999998,-28.362242499999986],[-52.10275679999995,-28.361453],[-52.10119149999997,-28.359060599999967],[-52.09910989999997,-28.358338899999968],[-52.09861489999997,-28.356349299999977],[-52.09966259999994,-28.355948],[-52.0998939,-28.354534099999963],[-52.098691599999945,-28.35416649999997],[-52.101151199999954,-28.353186799999943],[-52.10038169999996,-28.352402199999965],[-52.10154479999995,-28.352164],[-52.10169569999994,-28.349128],[-52.09992639999996,-28.34881109999996],[-52.09917019999994,-28.34751509999995],[-52.09878939999999,-28.350566],[-52.09345339999994,-28.351071499999943],[-52.093808699999954,-28.349625099999965],[-52.092208599999935,-28.34994639999996],[-52.090904799999976,-28.34869689999994],[-52.08912559999993,-28.349731],[-52.087242799999956,-28.34920219999997],[-52.087559399999975,-28.348555299999923],[-52.08627769999998,-28.347841],[-52.08774129999995,-28.34711729999997],[-52.08583269999996,-28.345072699999943],[-52.083435899999984,-28.346246],[-52.08208609999996,-28.341718599999982],[-52.080791799999986,-28.34210809999996],[-52.07925859999994,-28.343984399999954],[-52.07753369999995,-28.342571],[-52.07783249999994,-28.34093169999994],[-52.07706559999997,-28.339624699999955],[-52.07429909999996,-28.34003039999992],[-52.073547799999965,-28.34068819999992],[-52.07241229999994,-28.339905399999964],[-52.071620899999964,-28.34029649999995],[-52.07144129999994,-28.339285499999953],[-52.068473,-28.33906489999998],[-52.06850489999994,-28.338146199999983],[-52.07064589999993,-28.336507699999977],[-52.07195969999998,-28.336900599999982],[-52.071254199999935,-28.333890499999935],[-52.06840909999995,-28.33279029999994],[-52.06635059999997,-28.330944499999926]]]}},{"type":"Feature","properties":{"setor":"430885405000004","pop":48,"sigilo_pop":false,"dom":22,"sigilo_dom":0,"mulheres":25,"sigilo_mulheres":0,"c0_4":null,"sigilo_c0_4":1,"c5_9":null,"sigilo_c5_9":1,"i60_69":null,"sigilo_i60_69":1,"i70m":null,"sigilo_i70m":1,"indigenas":0,"sigilo_indigenas":0,"pretos_pardos":14,"sigilo_pretos_pardos":0,"dom_ocupados":15,"sigilo_dom_ocupados":0,"dom_agua":12,"sigilo_dom_agua":0,"dom_esgoto":0,"sigilo_dom_esgoto":0,"renda_resp":5511.47,"sigilo_renda_resp":0,"n_resp":15,"sigilo_n_resp":0,"dens":1.4,"sigilo_dens":false,"na_bacia":1,"area_pct_bacia":96.366,"metodo_recorte_bacia":"ponto_representativo_setor_2022; area_pct_geometrica","pop_n_validos":1,"pop_n_total":1,"pop_completude":1.0,"dom_n_validos":1,"dom_n_total":1,"dom_completude":1.0,"dom_ocupados_n_validos":1,"dom_ocupados_n_total":1,"dom_ocupados_completude":1.0,"mulheres_n_validos":1,"mulheres_n_total":1,"mulheres_completude":1.0,"c0_4_n_validos":0,"c0_4_n_total":1,"c0_4_completude":0.0,"c5_9_n_validos":0,"c5_9_n_total":1,"c5_9_completude":0.0,"i60_69_n_validos":0,"i60_69_n_total":1,"i60_69_completude":0.0,"i70m_n_validos":0,"i70m_n_total":1,"i70m_completude":0.0,"indigenas_n_validos":1,"indigenas_n_total":1,"indigenas_completude":1.0,"pretos_pardos_n_validos":1,"pretos_pardos_n_total":1,"pretos_pardos_completude":1.0,"dom_agua_n_validos":1,"dom_agua_n_total":1,"dom_agua_completude":1.0,"dom_esgoto_n_validos":1,"dom_esgoto_n_total":1,"dom_esgoto_completude":1.0,"n_resp_n_validos":1,"n_resp_n_total":1,"n_resp_completude":1.0,"renda_resp_n_validos":1,"renda_resp_n_total":1,"renda_resp_completude":1.0,"dens_n_validos":1,"dens_n_total":1,"dens_completude":1.0,"status_borda_bacia":"parcial","metodo_area_bacia":"interse??o geom?trica em EPSG:5880","metodo_na_bacia":"ponto_representativo_setor_2022_within_bacia","municipio":"Gentil","cod_mun":"4308854","mun_pct_na_bacia":98.9,"mun_pop_total":1744,"mun_pop_na_bacia":1744.0,"mun_ubs_iede":2,"mun_hospitais_iede":null,"mun_escolas_iede":null,"mun_bombeiros_iede":null,"mun_servicos_cobertura":"cadastro_IEDE_parcial_nao_inventario","mun_icm_faixa":"D","mun_icm_pontos":8,"mun_icm_prioritario":"sim","mun_ubs_iede_status":"published","mun_hospitais_iede_status":"unknown","mun_escolas_iede_status":"unknown","mun_bombeiros_iede_status":"unknown"},"geometry":{"type":"Polygon","coordinates":[[[-51.96379009999998,-28.33121029999996],[-51.969826,-28.335452099999934],[-51.97204119999997,-28.341311099999928],[-51.976132,-28.344193399999945],[-51.97139979999997,-28.356380499999933],[-51.97757589999998,-28.357934099999973],[-51.99145329999993,-28.360569],[-51.992821,-28.36062619999995],[-51.99487739999995,-28.36011489999993],[-51.999141,-28.36131269999993],[-52.00392769999996,-28.36235509999995],[-52.01346479999995,-28.36268869999999],[-52.01593539999993,-28.362241799999936],[-52.018478399999935,-28.362572299999947],[-52.022396,-28.361749499999977],[-52.02468969999995,-28.362361899999932],[-52.02584479999996,-28.363447399999984],[-52.02663109999997,-28.363661099999945],[-52.02731319999998,-28.363329599999926],[-52.028084499999984,-28.362306499999924],[-52.03143559999996,-28.360068399999935],[-52.03405439999995,-28.35865049999995],[-52.03725209999993,-28.357402699999966],[-52.041561299999955,-28.356078199999942],[-52.04031219999996,-28.353348099999952],[-52.039097599999934,-28.349361399999946],[-52.04079039999994,-28.34452069999997],[-52.04063929999995,-28.339804099999977],[-52.040237699999984,-28.338113899999946],[-52.040801699999975,-28.33433989999997],[-52.040039399999955,-28.330456099999935],[-52.04012489999997,-28.329977],[-52.04318639999996,-28.32553749999994],[-52.04322369999994,-28.32291],[-52.04231629999999,-28.322251399999974],[-52.04090849999994,-28.32019549999995],[-52.03874889999997,-28.315258],[-52.04216909999997,-28.31061979999998],[-52.04323219999998,-28.308342899999953],[-52.046177099999966,-28.30585729999995],[-52.047746899999936,-28.30319569999995],[-52.040682,-28.30575929999997],[-52.02971039999995,-28.30694129999996],[-52.02849779999997,-28.306760199999935],[-52.02712669999994,-28.306230799999977],[-52.01990779999994,-28.302646799999934],[-52.01192049999998,-28.306281499999947],[-52.00860119999999,-28.310778399999947],[-52.0078,-28.314483099999954],[-52.005609,-28.31746119999996],[-51.99513479999996,-28.32343429999997],[-51.98868049999999,-28.32557819999994],[-51.980206899999985,-28.325549599999924],[-51.96379009999998,-28.33121029999996]]]}},{"type":"Feature","properties":{"setor":"430885405000005","pop":65,"sigilo_pop":false,"dom":30,"sigilo_dom":0,"mulheres":32,"sigilo_mulheres":0,"c0_4":3,"sigilo_c0_4":0,"c5_9":null,"sigilo_c5_9":1,"i60_69":3,"sigilo_i60_69":0,"i70m":null,"sigilo_i70m":1,"indigenas":0,"sigilo_indigenas":0,"pretos_pardos":35,"sigilo_pretos_pardos":0,"dom_ocupados":24,"sigilo_dom_ocupados":0,"dom_agua":23,"sigilo_dom_agua":0,"dom_esgoto":0,"sigilo_dom_esgoto":0,"renda_resp":4001.24,"sigilo_renda_resp":0,"n_resp":24,"sigilo_n_resp":0,"dens":2.3,"sigilo_dens":false,"na_bacia":1,"area_pct_bacia":100.0,"metodo_recorte_bacia":"ponto_representativo_setor_2022; area_pct_geometrica","pop_n_validos":1,"pop_n_total":1,"pop_completude":1.0,"dom_n_validos":1,"dom_n_total":1,"dom_completude":1.0,"dom_ocupados_n_validos":1,"dom_ocupados_n_total":1,"dom_ocupados_completude":1.0,"mulheres_n_validos":1,"mulheres_n_total":1,"mulheres_completude":1.0,"c0_4_n_validos":1,"c0_4_n_total":1,"c0_4_completude":1.0,"c5_9_n_validos":0,"c5_9_n_total":1,"c5_9_completude":0.0,"i60_69_n_validos":1,"i60_69_n_total":1,"i60_69_completude":1.0,"i70m_n_validos":0,"i70m_n_total":1,"i70m_completude":0.0,"indigenas_n_validos":1,"indigenas_n_total":1,"indigenas_completude":1.0,"pretos_pardos_n_validos":1,"pretos_pardos_n_total":1,"pretos_pardos_completude":1.0,"dom_agua_n_validos":1,"dom_agua_n_total":1,"dom_agua_completude":1.0,"dom_esgoto_n_validos":1,"dom_esgoto_n_total":1,"dom_esgoto_completude":1.0,"n_resp_n_validos":1,"n_resp_n_total":1,"n_resp_completude":1.0,"renda_resp_n_validos":1,"renda_resp_n_total":1,"renda_resp_completude":1.0,"dens_n_validos":1,"dens_n_total":1,"dens_completude":1.0,"status_borda_bacia":"total","metodo_area_bacia":"interse??o geom?trica em EPSG:5880","metodo_na_bacia":"ponto_representativo_setor_2022_within_bacia","municipio":"Gentil","cod_mun":"4308854","mun_pct_na_bacia":98.9,"mun_pop_total":1744,"mun_pop_na_bacia":1744.0,"mun_ubs_iede":2,"mun_hospitais_iede":null,"mun_escolas_iede":null,"mun_bombeiros_iede":null,"mun_servicos_cobertura":"cadastro_IEDE_parcial_nao_inventario","mun_icm_faixa":"D","mun_icm_pontos":8,"mun_icm_prioritario":"sim","mun_ubs_iede_status":"published","mun_hospitais_iede_status":"unknown","mun_escolas_iede_status":"unknown","mun_bombeiros_iede_status":"unknown"},"geometry":{"type":"Polygon","coordinates":[[[-51.97139979999997,-28.356380499999933],[-51.97062959999994,-28.358363399999966],[-51.97022869999996,-28.36286209999997],[-51.968119699999924,-28.366301599999936],[-51.96969949999993,-28.37045449999994],[-51.96912889999994,-28.373309899999978],[-51.97104019999995,-28.378336299999937],[-51.96854449999995,-28.38004],[-51.967698299999945,-28.381983899999955],[-51.971765499999954,-28.383275699999963],[-51.971747799999946,-28.384849399999947],[-51.972996499999965,-28.386746],[-51.97550419999993,-28.38645669999994],[-51.97519579999994,-28.38883069999997],[-51.97275539999998,-28.389706399999977],[-51.97400129999994,-28.394274599999957],[-51.97361,-28.39596179999995],[-51.97636539999996,-28.397309799999952],[-51.97614029999994,-28.399216899999935],[-51.98115889999997,-28.405169699999927],[-51.98058319999995,-28.407114],[-51.97764769999998,-28.40830079999995],[-51.98029359999998,-28.40914369999996],[-51.981096,-28.41026329999993],[-51.982554299999954,-28.41604059999997],[-51.984407,-28.417599599999956],[-51.98498669999998,-28.419598],[-51.98460369999999,-28.423544],[-51.988397,-28.427432699999944],[-51.986188399999946,-28.428699],[-51.986309699999936,-28.430972],[-51.987300799999964,-28.432383899999937],[-51.987002,-28.43263559999996],[-51.987441199999985,-28.43245929999994],[-51.98760019999998,-28.431980199999945],[-51.99016819999997,-28.43074359999996],[-51.99176969999997,-28.430449199999934],[-51.99280859999994,-28.43058319999994],[-51.99315029999997,-28.430931899999955],[-51.99382989999998,-28.431123599999975],[-51.997501599999964,-28.430919899999928],[-51.99756069999995,-28.43035669999995],[-51.99717409999994,-28.429545199999957],[-51.997415499999924,-28.429029799999952],[-51.998544599999946,-28.429881099999932],[-51.99905959999995,-28.43128229999996],[-52.00064839999993,-28.431133599999946],[-52.002011599999946,-28.43073189999996],[-52.002415399999954,-28.43053089999994],[-52.001932599999975,-28.429662399999987],[-52.00030389999995,-28.428863399999955],[-52.00026959999997,-28.42615829999994],[-52.00102949999995,-28.425868699999974],[-52.00195219999994,-28.42615039999998],[-52.00274459999997,-28.42604759999994],[-52.00391129999996,-28.426852699999976],[-52.00415009999995,-28.42679039999996],[-52.00562189999994,-28.42508639999995],[-52.006176499999974,-28.422948],[-52.00619839999996,-28.422009],[-52.005756,-28.42071769999996],[-52.00540569999998,-28.418018],[-52.004876,-28.416797],[-52.00508129999997,-28.416136599999955],[-52.00631769999996,-28.41586429999995],[-52.00633579999994,-28.415550899999978],[-52.00594989999996,-28.41419759999996],[-52.00372749999997,-28.411049599999952],[-52.00370829999997,-28.41009429999997],[-52.004075799999946,-28.40948869999993],[-52.00526619999993,-28.408756599999943],[-52.00555309999998,-28.40836759999995],[-52.00553419999994,-28.407720899999962],[-52.00697619999994,-28.407749499999973],[-52.00772479999994,-28.40720879999997],[-52.007951299999945,-28.404377],[-52.00849169999998,-28.40212559999998],[-52.008789299999926,-28.40158829999996],[-52.01079589999995,-28.40035309999995],[-52.01064769999994,-28.399795399999963],[-52.00899689999994,-28.399328699999955],[-52.00902559999998,-28.39768429999997],[-52.00967519999995,-28.397305099999972],[-52.01037089999995,-28.39728919999994],[-52.01218129999996,-28.397653],[-52.01270319999998,-28.398171799999936],[-52.013453899999945,-28.397313899999965],[-52.013495399999954,-28.396657599999966],[-52.01291239999995,-28.396198699999943],[-52.012723299999955,-28.395464699999934],[-52.0119069,-28.394975599999956],[-52.01129289999994,-28.39421409999993],[-52.011387799999966,-28.39360009999995],[-52.01314029999998,-28.391964199999972],[-52.014292799999964,-28.39175659999996],[-52.01459129999995,-28.39064629999996],[-52.01536909999999,-28.38983849999994],[-52.01548759999997,-28.389243699999955],[-52.015999,-28.38889709999994],[-52.015243199999986,-28.38757839999993],[-52.01465209999997,-28.387747399999956],[-52.01465889999997,-28.387354899999938],[-52.01512919999993,-28.387257399999953],[-52.015454699999964,-28.386808699999946],[-52.01612669999998,-28.387405199999936],[-52.016425099999935,-28.387310799999963],[-52.01735689999998,-28.384645199999966],[-52.01734269999997,-28.383157699999966],[-52.01808349999993,-28.381302199999936],[-52.01852609999998,-28.38101139999997],[-52.01943049999994,-28.381247],[-52.019903399999976,-28.38093119999996],[-52.019304,-28.380288399999976],[-52.018582,-28.380232399999954],[-52.018234,-28.379973499999945],[-52.01819939999996,-28.379287],[-52.01762189999994,-28.378017899999964],[-52.018897099999954,-28.377066],[-52.019943,-28.376791499999964],[-52.020257399999934,-28.37679829999997],[-52.02049179999995,-28.377374099999937],[-52.02107689999997,-28.37765329999996],[-52.02167769999995,-28.377417499999975],[-52.022216399999934,-28.37649019999998],[-52.02296779999995,-28.37625449999996],[-52.02278829999995,-28.375171299999984],[-52.02214219999996,-28.374514299999927],[-52.021474599999976,-28.373046499999933],[-52.021618699999976,-28.372525699999986],[-52.021199699999954,-28.37162519999998],[-52.019932,-28.370948599999963],[-52.02043979999996,-28.370190299999926],[-52.020305,-28.369772399999924],[-52.01985449999995,-28.369692],[-52.01830129999997,-28.370333599999984],[-52.017483099999936,-28.37014159999995],[-52.017186599999945,-28.369334799999933],[-52.01633609999993,-28.36984059999998],[-52.015961699999934,-28.36983289999994],[-52.01497169999993,-28.36850279999993],[-52.015042899999976,-28.367860899999986],[-52.01424189999995,-28.36762279999993],[-52.014074799999946,-28.36721229999994],[-52.01552259999994,-28.36572379999995],[-52.015728499999966,-28.364820199999944],[-52.01799159999996,-28.36508909999998],[-52.01818909999998,-28.36419409999996],[-52.01881719999994,-28.363942399999917],[-52.018929199999945,-28.3633053],[-52.0201833,-28.363704599999938],[-52.02038019999998,-28.363297799999934],[-52.02115439999994,-28.36288519999993],[-52.021868,-28.363057399999942],[-52.022168,-28.362845799999945],[-52.02307389999998,-28.362829899999962],[-52.02375759999995,-28.363222199999942],[-52.02474639999997,-28.36457389999999],[-52.02840039999995,-28.365304799999944],[-52.030652799999984,-28.364629699999977],[-52.032259099999976,-28.363702399999973],[-52.03245829999997,-28.363777899999956],[-52.034493,-28.36240769999994],[-52.03725639999993,-28.362715699999963],[-52.03857359999996,-28.361998099999933],[-52.040164299999965,-28.3616555],[-52.04157189999995,-28.360703899999965],[-52.04251719999996,-28.360556099999936],[-52.04315719999994,-28.360745599999976],[-52.04413769999996,-28.3601609],[-52.04234309999998,-28.357664399999987],[-52.041561299999955,-28.356078199999942],[-52.03725209999993,-28.357402699999966],[-52.03405439999995,-28.35865049999995],[-52.03143559999996,-28.360068399999935],[-52.028084499999984,-28.362306499999924],[-52.02731319999998,-28.363329599999926],[-52.02663109999997,-28.363661099999945],[-52.02584479999996,-28.363447399999984],[-52.02468969999995,-28.362361899999932],[-52.022396,-28.361749499999977],[-52.018478399999935,-28.362572299999947],[-52.01593539999993,-28.362241799999936],[-52.01346479999995,-28.36268869999999],[-52.00392769999996,-28.36235509999995],[-51.999141,-28.36131269999993],[-51.99487739999995,-28.36011489999993],[-51.992821,-28.36062619999995],[-51.99145329999993,-28.360569],[-51.97757589999998,-28.357934099999973],[-51.97139979999997,-28.356380499999933]]]}},{"type":"Feature","properties":{"setor":"430885410000001","pop":282,"sigilo_pop":false,"dom":100,"sigilo_dom":0,"mulheres":135,"sigilo_mulheres":0,"c0_4":31,"sigilo_c0_4":0,"c5_9":30,"sigilo_c5_9":0,"i60_69":13,"sigilo_i60_69":0,"i70m":16,"sigilo_i70m":0,"indigenas":157,"sigilo_indigenas":0,"pretos_pardos":33,"sigilo_pretos_pardos":0,"dom_ocupados":89,"sigilo_dom_ocupados":0,"dom_agua":89,"sigilo_dom_agua":0,"dom_esgoto":0,"sigilo_dom_esgoto":0,"renda_resp":2112.77,"sigilo_renda_resp":0,"n_resp":89,"sigilo_n_resp":0,"dens":578.6,"sigilo_dens":false,"na_bacia":1,"area_pct_bacia":100.0,"metodo_recorte_bacia":"ponto_representativo_setor_2022; area_pct_geometrica","pop_n_validos":1,"pop_n_total":1,"pop_completude":1.0,"dom_n_validos":1,"dom_n_total":1,"dom_completude":1.0,"dom_ocupados_n_validos":1,"dom_ocupados_n_total":1,"dom_ocupados_completude":1.0,"mulheres_n_validos":1,"mulheres_n_total":1,"mulheres_completude":1.0,"c0_4_n_validos":1,"c0_4_n_total":1,"c0_4_completude":1.0,"c5_9_n_validos":1,"c5_9_n_total":1,"c5_9_completude":1.0,"i60_69_n_validos":1,"i60_69_n_total":1,"i60_69_completude":1.0,"i70m_n_validos":1,"i70m_n_total":1,"i70m_completude":1.0,"indigenas_n_validos":1,"indigenas_n_total":1,"indigenas_completude":1.0,"pretos_pardos_n_validos":1,"pretos_pardos_n_total":1,"pretos_pardos_completude":1.0,"dom_agua_n_validos":1,"dom_agua_n_total":1,"dom_agua_completude":1.0,"dom_esgoto_n_validos":1,"dom_esgoto_n_total":1,"dom_esgoto_completude":1.0,"n_resp_n_validos":1,"n_resp_n_total":1,"n_resp_completude":1.0,"renda_resp_n_validos":1,"renda_resp_n_total":1,"renda_resp_completude":1.0,"dens_n_validos":1,"dens_n_total":1,"dens_completude":1.0,"status_borda_bacia":"total","metodo_area_bacia":"interse??o geom?trica em EPSG:5880","metodo_na_bacia":"ponto_representativo_setor_2022_within_bacia","municipio":"Gentil","cod_mun":"4308854","mun_pct_na_bacia":98.9,"mun_pop_total":1744,"mun_pop_na_bacia":1744.0,"mun_ubs_iede":2,"mun_hospitais_iede":null,"mun_escolas_iede":null,"mun_bombeiros_iede":null,"mun_servicos_cobertura":"cadastro_IEDE_parcial_nao_inventario","mun_icm_faixa":"D","mun_icm_pontos":8,"mun_icm_prioritario":"sim","mun_ubs_iede_status":"published","mun_hospitais_iede_status":"unknown","mun_escolas_iede_status":"unknown","mun_bombeiros_iede_status":"unknown"},"geometry":{"type":"Polygon","coordinates":[[[-52.043132699999944,-28.32417929999997],[-52.04325239999997,-28.326678],[-52.0549061,-28.328914699999917],[-52.05491529999994,-28.32607059999997],[-52.054641899999986,-28.324450099999975],[-52.047489299999945,-28.323529399999984],[-52.043132699999944,-28.32417929999997]]]}},{"type":"Feature","properties":{"setor":"430885410000002","pop":72,"sigilo_pop":false,"dom":36,"sigilo_dom":0,"mulheres":34,"sigilo_mulheres":0,"c0_4":null,"sigilo_c0_4":1,"c5_9":null,"sigilo_c5_9":1,"i60_69":11,"sigilo_i60_69":0,"i70m":null,"sigilo_i70m":1,"indigenas":0,"sigilo_indigenas":0,"pretos_pardos":null,"sigilo_pretos_pardos":1,"dom_ocupados":31,"sigilo_dom_ocupados":0,"dom_agua":19,"sigilo_dom_agua":0,"dom_esgoto":0,"sigilo_dom_esgoto":0,"renda_resp":5183.42,"sigilo_renda_resp":0,"n_resp":31,"sigilo_n_resp":0,"dens":6.0,"sigilo_dens":false,"na_bacia":1,"area_pct_bacia":93.8199,"metodo_recorte_bacia":"ponto_representativo_setor_2022; area_pct_geometrica","pop_n_validos":1,"pop_n_total":1,"pop_completude":1.0,"dom_n_validos":1,"dom_n_total":1,"dom_completude":1.0,"dom_ocupados_n_validos":1,"dom_ocupados_n_total":1,"dom_ocupados_completude":1.0,"mulheres_n_validos":1,"mulheres_n_total":1,"mulheres_completude":1.0,"c0_4_n_validos":0,"c0_4_n_total":1,"c0_4_completude":0.0,"c5_9_n_validos":0,"c5_9_n_total":1,"c5_9_completude":0.0,"i60_69_n_validos":1,"i60_69_n_total":1,"i60_69_completude":1.0,"i70m_n_validos":0,"i70m_n_total":1,"i70m_completude":0.0,"indigenas_n_validos":1,"indigenas_n_total":1,"indigenas_completude":1.0,"pretos_pardos_n_validos":0,"pretos_pardos_n_total":1,"pretos_pardos_completude":0.0,"dom_agua_n_validos":1,"dom_agua_n_total":1,"dom_agua_completude":1.0,"dom_esgoto_n_validos":1,"dom_esgoto_n_total":1,"dom_esgoto_completude":1.0,"n_resp_n_validos":1,"n_resp_n_total":1,"n_resp_completude":1.0,"renda_resp_n_validos":1,"renda_resp_n_total":1,"renda_resp_completude":1.0,"dens_n_validos":1,"dens_n_total":1,"dens_completude":1.0,"status_borda_bacia":"parcial","metodo_area_bacia":"interse??o geom?trica em EPSG:5880","metodo_na_bacia":"ponto_representativo_setor_2022_within_bacia","municipio":"Gentil","cod_mun":"4308854","mun_pct_na_bacia":98.9,"mun_pop_total":1744,"mun_pop_na_bacia":1744.0,"mun_ubs_iede":2,"mun_hospitais_iede":null,"mun_escolas_iede":null,"mun_bombeiros_iede":null,"mun_servicos_cobertura":"cadastro_IEDE_parcial_nao_inventario","mun_icm_faixa":"D","mun_icm_pontos":8,"mun_icm_prioritario":"sim","mun_ubs_iede_status":"published","mun_hospitais_iede_status":"unknown","mun_escolas_iede_status":"unknown","mun_bombeiros_iede_status":"unknown"},"geometry":{"type":"Polygon","coordinates":[[[-52.047746899999936,-28.30319569999995],[-52.046177099999966,-28.30585729999995],[-52.04323219999998,-28.308342899999953],[-52.04216909999997,-28.31061979999998],[-52.03874889999997,-28.315258],[-52.04090849999994,-28.32019549999995],[-52.04231629999999,-28.322251399999974],[-52.04322369999994,-28.32291],[-52.043132699999944,-28.32417929999997],[-52.047489299999945,-28.323529399999984],[-52.054641899999986,-28.324450099999975],[-52.05491529999994,-28.32607059999997],[-52.0549061,-28.328914699999917],[-52.04325239999997,-28.326678],[-52.04318639999996,-28.32553749999994],[-52.04012489999997,-28.329977],[-52.040039399999955,-28.330456099999935],[-52.040801699999975,-28.33433989999997],[-52.040237699999984,-28.338113899999946],[-52.04063929999995,-28.339804099999977],[-52.04079039999994,-28.34452069999997],[-52.039097599999934,-28.349361399999946],[-52.04031219999996,-28.353348099999952],[-52.04198539999993,-28.357094799999977],[-52.044547,-28.36100829999998],[-52.04455759999996,-28.362669299999933],[-52.044203899999964,-28.363796399999952],[-52.06635059999997,-28.330944499999926],[-52.0679914,-28.330077399999933],[-52.068552699999934,-28.32954259999996],[-52.068633799999986,-28.329049399999963],[-52.06730189999996,-28.32879189999994],[-52.067150499999975,-28.32857979999994],[-52.06743689999997,-28.328351499999936],[-52.067380399999934,-28.327910799999987],[-52.06686409999997,-28.32795749999997],[-52.066592499999956,-28.327758499999952],[-52.067090099999966,-28.32664209999996],[-52.066443,-28.326542],[-52.06618969999994,-28.326775299999937],[-52.064454199999936,-28.327043399999976],[-52.06347469999997,-28.327439],[-52.06333859999995,-28.32678479999993],[-52.06254079999997,-28.326660699999927],[-52.06350739999993,-28.32539949999996],[-52.06393389999994,-28.325543199999963],[-52.06429259999993,-28.32539109999994],[-52.06434159999997,-28.324658099999965],[-52.06399489999996,-28.32411339999993],[-52.06393569999994,-28.323346],[-52.063329899999985,-28.323286299999943],[-52.06294839999998,-28.322570299999935],[-52.06304419999998,-28.322113899999973],[-52.06224019999996,-28.321523],[-52.06274689999997,-28.320926899999957],[-52.062794199999985,-28.320313899999974],[-52.06332979999996,-28.320301899999944],[-52.06354759999994,-28.319945299999958],[-52.06337639999998,-28.318981399999913],[-52.06372929999997,-28.31875059999993],[-52.06426829999998,-28.31766089999996],[-52.0641495,-28.316768899999936],[-52.064807,-28.316202],[-52.06484149999995,-28.315486],[-52.064522,-28.315205899999974],[-52.06463839999998,-28.31469009999994],[-52.065511699999945,-28.315023599999954],[-52.06614149999996,-28.314972099999977],[-52.066349,-28.314803],[-52.06630709999996,-28.314239499999918],[-52.068187499999965,-28.314041099999937],[-52.069286599999934,-28.31333749999994],[-52.069538799999975,-28.312785799999972],[-52.069218099999944,-28.31167569999996],[-52.06880819999997,-28.311195199999922],[-52.068888799999975,-28.310800299999986],[-52.069682099999966,-28.310656],[-52.07065209999996,-28.311097199999935],[-52.071376499999985,-28.31086459999994],[-52.07198639999996,-28.31011519999993],[-52.07165809999998,-28.308252],[-52.0726188,-28.30780949999995],[-52.0734882,-28.30715229999993],[-52.07360739999995,-28.306803199999933],[-52.073563,-28.305198099999913],[-52.07335429999995,-28.30516559999995],[-52.050581799999975,-28.30289689999996],[-52.047746899999936,-28.30319569999995]]]}}]}
