{"type":"FeatureCollection","name":"4308433","crs":{"type":"name","properties":{"name":"urn:ogc:def:crs:OGC:1.3:CRS84"}},"features":[{"type":"Feature","properties":{"setor":"430843305000003","pop":415,"sigilo_pop":false,"dom":271,"sigilo_dom":0,"mulheres":206,"sigilo_mulheres":0,"c0_4":14,"sigilo_c0_4":0,"c5_9":27,"sigilo_c5_9":0,"i60_69":79,"sigilo_i60_69":0,"i70m":73,"sigilo_i70m":0,"indigenas":0,"sigilo_indigenas":0,"pretos_pardos":3,"sigilo_pretos_pardos":0,"dom_ocupados":167,"sigilo_dom_ocupados":0,"dom_agua":160,"sigilo_dom_agua":0,"dom_esgoto":null,"sigilo_dom_esgoto":1,"renda_resp":1691.48,"sigilo_renda_resp":0,"n_resp":167,"sigilo_n_resp":0,"dens":25.8,"sigilo_dens":false,"na_bacia":1,"area_pct_bacia":100.0,"metodo_recorte_bacia":"ponto_representativo_setor_2022; area_pct_geometrica","pop_n_validos":1,"pop_n_total":1,"pop_completude":1.0,"dom_n_validos":1,"dom_n_total":1,"dom_completude":1.0,"dom_ocupados_n_validos":1,"dom_ocupados_n_total":1,"dom_ocupados_completude":1.0,"mulheres_n_validos":1,"mulheres_n_total":1,"mulheres_completude":1.0,"c0_4_n_validos":1,"c0_4_n_total":1,"c0_4_completude":1.0,"c5_9_n_validos":1,"c5_9_n_total":1,"c5_9_completude":1.0,"i60_69_n_validos":1,"i60_69_n_total":1,"i60_69_completude":1.0,"i70m_n_validos":1,"i70m_n_total":1,"i70m_completude":1.0,"indigenas_n_validos":1,"indigenas_n_total":1,"indigenas_completude":1.0,"pretos_pardos_n_validos":1,"pretos_pardos_n_total":1,"pretos_pardos_completude":1.0,"dom_agua_n_validos":1,"dom_agua_n_total":1,"dom_agua_completude":1.0,"dom_esgoto_n_validos":0,"dom_esgoto_n_total":1,"dom_esgoto_completude":0.0,"n_resp_n_validos":1,"n_resp_n_total":1,"n_resp_completude":1.0,"renda_resp_n_validos":1,"renda_resp_n_total":1,"renda_resp_completude":1.0,"dens_n_validos":1,"dens_n_total":1,"dens_completude":1.0,"status_borda_bacia":"total","metodo_area_bacia":"interse??o geom?trica em EPSG:5880","metodo_na_bacia":"ponto_representativo_setor_2022_within_bacia","municipio":"Forquetinha","cod_mun":"4308433","mun_pct_na_bacia":100.0,"mun_pop_total":2393,"mun_pop_na_bacia":2393.0,"mun_ubs_iede":1,"mun_hospitais_iede":null,"mun_escolas_iede":3,"mun_bombeiros_iede":null,"mun_servicos_cobertura":"cadastro_IEDE_parcial_nao_inventario","mun_icm_faixa":"C","mun_icm_pontos":12,"mun_icm_prioritario":"sim","mun_ubs_iede_status":"published","mun_hospitais_iede_status":"unknown","mun_escolas_iede_status":"published","mun_bombeiros_iede_status":"unknown"},"geometry":{"type":"Polygon","coordinates":[[[-52.112379299999986,-29.361896499999947],[-52.089566799999936,-29.36012079999996],[-52.054799799999955,-29.388920099999936],[-52.04814339999996,-29.399862],[-52.04018509999997,-29.400706399999947],[-52.03922749999998,-29.402025099999953],[-52.03396329999999,-29.406029],[-52.02792909999994,-29.411254299999936],[-52.0288566,-29.411673799999946],[-52.02981769999997,-29.41167549999994],[-52.03044609999995,-29.411256],[-52.032168399999925,-29.409328399999932],[-52.03475709999998,-29.40963549999998],[-52.037369399999925,-29.40865479999997],[-52.03847109999998,-29.408816899999977],[-52.039436,-29.409310899999973],[-52.04183419999998,-29.411892299999977],[-52.04431379999995,-29.412058799999954],[-52.04477649999996,-29.41166819999996],[-52.04528359999995,-29.409668399999923],[-52.04327489999998,-29.409027799999947],[-52.04309559999996,-29.40863719999994],[-52.04429719999997,-29.40762169999994],[-52.044978699999945,-29.407418599999964],[-52.050359199999946,-29.40887159999994],[-52.05308519999994,-29.41074639999993],[-52.05459179999996,-29.411074499999984],[-52.05493249999996,-29.410762],[-52.05516569999997,-29.40923089999996],[-52.054538,-29.408199799999977],[-52.05432269999994,-29.407215499999964],[-52.05496839999996,-29.406074899999968],[-52.05606239999998,-29.405559299999936],[-52.057766199999946,-29.40563739999993],[-52.06013359999997,-29.40399689999999],[-52.063577099999975,-29.402403199999984],[-52.064133099999935,-29.402512499999958],[-52.06481459999997,-29.403684399999968],[-52.066651199999974,-29.404889899999944],[-52.068294,-29.405075],[-52.07035649999994,-29.4047],[-52.07098419999994,-29.403371899999975],[-52.072060299999976,-29.402121899999937],[-52.07401519999996,-29.40134069999994],[-52.074934599999956,-29.400420099999963],[-52.075109199999986,-29.398637599999976],[-52.07584449999996,-29.396778099999953],[-52.07616729999996,-29.394715499999954],[-52.07573689999998,-29.39284039999995],[-52.07583159999996,-29.392284599999975],[-52.07953909999998,-29.390762099999968],[-52.081476,-29.38876189999997],[-52.08242659999996,-29.385558399999983],[-52.08291079999998,-29.38255789999993],[-52.08276729999995,-29.382151599999922],[-52.081476,-29.381651499999975],[-52.08127879999994,-29.38122949999996],[-52.081494,-29.37751],[-52.08170919999998,-29.37710369999997],[-52.082408599999944,-29.37693179999997],[-52.08456079999996,-29.377478799999952],[-52.08674889999997,-29.377525599999956],[-52.08778909999996,-29.377885099999954],[-52.089026599999954,-29.378682099999942],[-52.08958259999997,-29.378775899999944],[-52.09108909999997,-29.378525899999936],[-52.09171679999997,-29.378213299999974],[-52.092775,-29.377088],[-52.09418279999995,-29.376111299999938],[-52.09611979999994,-29.37525169999998],[-52.09924049999995,-29.376548899999936],[-52.09967989999996,-29.37646289999998],[-52.10079179999997,-29.375572099999935],[-52.10127609999995,-29.375478299999948],[-52.103769,-29.375759599999984],[-52.10468369999995,-29.37700989999996],[-52.10714969999998,-29.377517799999964],[-52.10773259999997,-29.37718179999996],[-52.108432,-29.375447],[-52.11024349999997,-29.374353],[-52.11094289999994,-29.37321209999993],[-52.11191139999995,-29.37260249999996],[-52.113686899999955,-29.370867699999952],[-52.11648479999997,-29.37002369999993],[-52.11747119999996,-29.369210899999928],[-52.11842169999994,-29.368773299999923],[-52.11933639999995,-29.367335299999983],[-52.120412499999986,-29.366194299999954],[-52.12222389999993,-29.36527219999994],[-52.125183099999965,-29.36274],[-52.12565489999997,-29.361969199999976],[-52.12529789999997,-29.361780399999937],[-52.12588589999996,-29.361055499999942],[-52.125648299999966,-29.35933629999994],[-52.12601509999996,-29.357737699999966],[-52.12546039999995,-29.355749199999934],[-52.12461049999996,-29.35468869999993],[-52.12406469999996,-29.353121199999972],[-52.12449419999996,-29.350844099999957],[-52.12558119999995,-29.349803],[-52.12875739999998,-29.348808699999942],[-52.12924669999995,-29.34822],[-52.12726059999994,-29.343993],[-52.112379299999986,-29.361896499999947]]]}},{"type":"Feature","properties":{"setor":"430843305000004","pop":222,"sigilo_pop":false,"dom":125,"sigilo_dom":0,"mulheres":108,"sigilo_mulheres":0,"c0_4":9,"sigilo_c0_4":0,"c5_9":9,"sigilo_c5_9":0,"i60_69":40,"sigilo_i60_69":0,"i70m":34,"sigilo_i70m":0,"indigenas":0,"sigilo_indigenas":0,"pretos_pardos":null,"sigilo_pretos_pardos":1,"dom_ocupados":88,"sigilo_dom_ocupados":0,"dom_agua":87,"sigilo_dom_agua":0,"dom_esgoto":null,"sigilo_dom_esgoto":1,"renda_resp":2386.13,"sigilo_renda_resp":0,"n_resp":88,"sigilo_n_resp":0,"dens":19.6,"sigilo_dens":false,"na_bacia":1,"area_pct_bacia":100.0,"metodo_recorte_bacia":"ponto_representativo_setor_2022; area_pct_geometrica","pop_n_validos":1,"pop_n_total":1,"pop_completude":1.0,"dom_n_validos":1,"dom_n_total":1,"dom_completude":1.0,"dom_ocupados_n_validos":1,"dom_ocupados_n_total":1,"dom_ocupados_completude":1.0,"mulheres_n_validos":1,"mulheres_n_total":1,"mulheres_completude":1.0,"c0_4_n_validos":1,"c0_4_n_total":1,"c0_4_completude":1.0,"c5_9_n_validos":1,"c5_9_n_total":1,"c5_9_completude":1.0,"i60_69_n_validos":1,"i60_69_n_total":1,"i60_69_completude":1.0,"i70m_n_validos":1,"i70m_n_total":1,"i70m_completude":1.0,"indigenas_n_validos":1,"indigenas_n_total":1,"indigenas_completude":1.0,"pretos_pardos_n_validos":0,"pretos_pardos_n_total":1,"pretos_pardos_completude":0.0,"dom_agua_n_validos":1,"dom_agua_n_total":1,"dom_agua_completude":1.0,"dom_esgoto_n_validos":0,"dom_esgoto_n_total":1,"dom_esgoto_completude":0.0,"n_resp_n_validos":1,"n_resp_n_total":1,"n_resp_completude":1.0,"renda_resp_n_validos":1,"renda_resp_n_total":1,"renda_resp_completude":1.0,"dens_n_validos":1,"dens_n_total":1,"dens_completude":1.0,"status_borda_bacia":"total","metodo_area_bacia":"interse??o geom?trica em EPSG:5880","metodo_na_bacia":"ponto_representativo_setor_2022_within_bacia","municipio":"Forquetinha","cod_mun":"4308433","mun_pct_na_bacia":100.0,"mun_pop_total":2393,"mun_pop_na_bacia":2393.0,"mun_ubs_iede":1,"mun_hospitais_iede":null,"mun_escolas_iede":3,"mun_bombeiros_iede":null,"mun_servicos_cobertura":"cadastro_IEDE_parcial_nao_inventario","mun_icm_faixa":"C","mun_icm_pontos":12,"mun_icm_prioritario":"sim","mun_ubs_iede_status":"published","mun_hospitais_iede_status":"unknown","mun_escolas_iede_status":"published","mun_bombeiros_iede_status":"unknown"},"geometry":{"type":"Polygon","coordinates":[[[-52.08144679999998,-29.37824639999997],[-52.08127879999994,-29.38122949999996],[-52.081476,-29.381651499999975],[-52.08276729999995,-29.382151599999922],[-52.08291079999998,-29.38255789999993],[-52.08242659999996,-29.385558399999983],[-52.081476,-29.38876189999997],[-52.07953909999998,-29.390762099999968],[-52.07583159999996,-29.392284599999975],[-52.07573689999998,-29.39284039999995],[-52.07616729999996,-29.394715499999954],[-52.07584449999996,-29.396778099999953],[-52.075109199999986,-29.398637599999976],[-52.074934599999956,-29.400420099999963],[-52.07436489999998,-29.401114099999965],[-52.07234719999997,-29.401950099999965],[-52.071468399999965,-29.402746899999958],[-52.07198859999994,-29.402621],[-52.07241559999995,-29.402883899999953],[-52.07262909999997,-29.402595299999973],[-52.073056,-29.403114799999972],[-52.073453599999944,-29.403223799999974],[-52.074447899999946,-29.40301509999996],[-52.073881899999954,-29.403646099999953],[-52.07766219999996,-29.407057699999942],[-52.075715499999944,-29.408655],[-52.07471949999996,-29.409187399999954],[-52.07270489999997,-29.409798699999946],[-52.067906,-29.410488799999932],[-52.06817709999995,-29.412485599999968],[-52.081749,-29.411038],[-52.08150579999995,-29.413072399999972],[-52.081984199999965,-29.41316969999997],[-52.083502,-29.412400599999952],[-52.08382329999994,-29.411926199999982],[-52.08400469999998,-29.41376],[-52.08385689999995,-29.419277399999935],[-52.08257539999994,-29.42108289999993],[-52.08252939999995,-29.42363],[-52.08171429999994,-29.424001699999963],[-52.08078759999996,-29.42391939999993],[-52.08182709999994,-29.424546899999935],[-52.08293519999996,-29.424286699999982],[-52.08387759999994,-29.423492599999975],[-52.08415639999998,-29.422210899999975],[-52.086904499999946,-29.423051699999963],[-52.08750109999995,-29.424063699999973],[-52.08802149999996,-29.424362799999987],[-52.08869059999995,-29.424329199999935],[-52.08986769999996,-29.423656599999962],[-52.09169789999998,-29.423438799999936],[-52.092165199999954,-29.423559199999936],[-52.092793599999936,-29.424423],[-52.093724699999946,-29.425177],[-52.095845199999985,-29.42429559999993],[-52.09690019999994,-29.424207],[-52.097541,-29.42436809999998],[-52.09825789999997,-29.42514959999994],[-52.09904019999994,-29.42533459999992],[-52.09955,-29.42510619999996],[-52.10022619999995,-29.423982199999948],[-52.100738199999974,-29.423654],[-52.10280339999998,-29.42348659999993],[-52.10384159999995,-29.42395569999995],[-52.10513369999995,-29.423056499999976],[-52.10710209999996,-29.42262809999994],[-52.10763129999998,-29.422010399999976],[-52.10829689999998,-29.421805],[-52.10965279999994,-29.42192359999997],[-52.11159809999998,-29.42153069999995],[-52.1160728,-29.422479399999922],[-52.11719859999994,-29.422274099999985],[-52.120140499999934,-29.42229359999993],[-52.120993699999985,-29.422530799999944],[-52.12206629999997,-29.423281299999914],[-52.12624369999998,-29.42380439999994],[-52.12767569999995,-29.42420259999995],[-52.13085479999995,-29.42660639999996],[-52.134026799999965,-29.42781],[-52.13760589999998,-29.431474099999942],[-52.138339599999945,-29.432050299999958],[-52.13924489999994,-29.432274199999917],[-52.13887639999996,-29.428814599999956],[-52.139789,-29.425619599999944],[-52.13783849999999,-29.425043],[-52.13721229999994,-29.42454419999995],[-52.136612799999966,-29.423515599999977],[-52.13610279999995,-29.420998399999977],[-52.135056,-29.41979049999997],[-52.132193,-29.41951769999997],[-52.130904699999974,-29.41904229999994],[-52.128426299999944,-29.41619],[-52.12633279999994,-29.414452],[-52.123550299999984,-29.41364919999994],[-52.12148349999996,-29.414],[-52.11931829999998,-29.413399899999938],[-52.1152206,-29.41144749999995],[-52.1124918,-29.41075779999994],[-52.110683499999936,-29.409498899999956],[-52.110684499999934,-29.408949599999968],[-52.109199299999936,-29.408115599999967],[-52.10844779999997,-29.40846629999993],[-52.108146199999965,-29.40956319999997],[-52.10761569999993,-29.408481899999977],[-52.10758889999994,-29.40615929999995],[-52.107830399999955,-29.40548119999994],[-52.1090741,-29.40385989999992],[-52.1088683,-29.40284669999993],[-52.10781259999993,-29.402472499999934],[-52.10513739999993,-29.40065639999995],[-52.10615739999997,-29.402862199999962],[-52.10612159999994,-29.40323639999998],[-52.10499429999993,-29.40358709999998],[-52.10397429999995,-29.404249699999983],[-52.10302179999997,-29.405654299999973],[-52.10189859999997,-29.402963599999957],[-52.09636669999997,-29.39946359999993],[-52.09438949999998,-29.39877449999995],[-52.09340779999997,-29.398688799999945],[-52.08682519999997,-29.398836899999917],[-52.077881,-29.39422879999995],[-52.07807719999994,-29.39342469999998],[-52.0786394,-29.392695399999972],[-52.08310909999995,-29.38763989999995],[-52.084308599999986,-29.385385499999984],[-52.0847778,-29.38357929999996],[-52.08531569999997,-29.382684699999974],[-52.08571569999998,-29.382252699999977],[-52.086509199999966,-29.38205489999995],[-52.08511349999997,-29.38102529999998],[-52.08477019999998,-29.38051409999996],[-52.083335899999945,-29.37985419999995],[-52.08232069999997,-29.378241499999948],[-52.081990099999985,-29.37808339999998],[-52.08144679999998,-29.37824639999997]]]}},{"type":"Feature","properties":{"setor":"430843305000006","pop":262,"sigilo_pop":false,"dom":156,"sigilo_dom":0,"mulheres":128,"sigilo_mulheres":0,"c0_4":null,"sigilo_c0_4":1,"c5_9":11,"sigilo_c5_9":0,"i60_69":56,"sigilo_i60_69":0,"i70m":49,"sigilo_i70m":0,"indigenas":0,"sigilo_indigenas":0,"pretos_pardos":null,"sigilo_pretos_pardos":1,"dom_ocupados":105,"sigilo_dom_ocupados":0,"dom_agua":77,"sigilo_dom_agua":0,"dom_esgoto":null,"sigilo_dom_esgoto":1,"renda_resp":2047.14,"sigilo_renda_resp":0,"n_resp":105,"sigilo_n_resp":0,"dens":15.5,"sigilo_dens":false,"na_bacia":1,"area_pct_bacia":100.0,"metodo_recorte_bacia":"ponto_representativo_setor_2022; area_pct_geometrica","pop_n_validos":1,"pop_n_total":1,"pop_completude":1.0,"dom_n_validos":1,"dom_n_total":1,"dom_completude":1.0,"dom_ocupados_n_validos":1,"dom_ocupados_n_total":1,"dom_ocupados_completude":1.0,"mulheres_n_validos":1,"mulheres_n_total":1,"mulheres_completude":1.0,"c0_4_n_validos":0,"c0_4_n_total":1,"c0_4_completude":0.0,"c5_9_n_validos":1,"c5_9_n_total":1,"c5_9_completude":1.0,"i60_69_n_validos":1,"i60_69_n_total":1,"i60_69_completude":1.0,"i70m_n_validos":1,"i70m_n_total":1,"i70m_completude":1.0,"indigenas_n_validos":1,"indigenas_n_total":1,"indigenas_completude":1.0,"pretos_pardos_n_validos":0,"pretos_pardos_n_total":1,"pretos_pardos_completude":0.0,"dom_agua_n_validos":1,"dom_agua_n_total":1,"dom_agua_completude":1.0,"dom_esgoto_n_validos":0,"dom_esgoto_n_total":1,"dom_esgoto_completude":0.0,"n_resp_n_validos":1,"n_resp_n_total":1,"n_resp_completude":1.0,"renda_resp_n_validos":1,"renda_resp_n_total":1,"renda_resp_completude":1.0,"dens_n_validos":1,"dens_n_total":1,"dens_completude":1.0,"status_borda_bacia":"total","metodo_area_bacia":"interse??o geom?trica em EPSG:5880","metodo_na_bacia":"ponto_representativo_setor_2022_within_bacia","municipio":"Forquetinha","cod_mun":"4308433","mun_pct_na_bacia":100.0,"mun_pop_total":2393,"mun_pop_na_bacia":2393.0,"mun_ubs_iede":1,"mun_hospitais_iede":null,"mun_escolas_iede":3,"mun_bombeiros_iede":null,"mun_servicos_cobertura":"cadastro_IEDE_parcial_nao_inventario","mun_icm_faixa":"C","mun_icm_pontos":12,"mun_icm_prioritario":"sim","mun_ubs_iede_status":"published","mun_hospitais_iede_status":"unknown","mun_escolas_iede_status":"published","mun_bombeiros_iede_status":"unknown"},"geometry":{"type":"Polygon","coordinates":[[[-52.182027499999954,-29.383514199999976],[-52.18380229999996,-29.382152399999942],[-52.18506729999995,-29.381822],[-52.185770599999955,-29.380953499999965],[-52.18915029999994,-29.38035049999996],[-52.18864879999995,-29.379863099999962],[-52.18876679999994,-29.37963419999994],[-52.18810119999995,-29.379535099999945],[-52.188268799999946,-29.377033299999944],[-52.187716499999965,-29.37700269999994],[-52.185162899999966,-29.37816849999995],[-52.18348489999994,-29.378378599999966],[-52.182909,-29.378052899999947],[-52.18191069999995,-29.376042099999943],[-52.18063179999996,-29.37613609999994],[-52.179333499999984,-29.375739199999934],[-52.17924629999993,-29.377571399999965],[-52.17852929999999,-29.37867739999996],[-52.17787049999998,-29.378913799999957],[-52.17569529999997,-29.37789639999994],[-52.174707,-29.37795129999995],[-52.17364609999998,-29.376879],[-52.17283229999998,-29.37677769999993],[-52.173098699999976,-29.3753129],[-52.173563799999954,-29.374274299999964],[-52.17264329999995,-29.37362419999994],[-52.17231389999995,-29.371884899999934],[-52.17204259999994,-29.371648499999928],[-52.16912139999994,-29.372100199999977],[-52.167808599999944,-29.371817299999968],[-52.165420299999944,-29.37281789999998],[-52.16233439999996,-29.373358299999957],[-52.161336399999975,-29.37325689999994],[-52.16074539999994,-29.37290229999996],[-52.16035789999995,-29.371889099999986],[-52.1594568,-29.371779299999947],[-52.15846849999997,-29.372100199999984],[-52.15803249999993,-29.371509199999945],[-52.15935019999994,-29.36951649999997],[-52.16062909999994,-29.368722799999933],[-52.160600099999954,-29.368503299999936],[-52.159776499999964,-29.36845259999995],[-52.158953,-29.36869749999994],[-52.157538399999964,-29.36980359999995],[-52.15488359999995,-29.369997799999943],[-52.14770079999993,-29.366001],[-52.14535949999998,-29.362795199999923],[-52.14360579999993,-29.36268539999998],[-52.142055599999935,-29.36307379999994],[-52.141677699999946,-29.363724],[-52.141218899999956,-29.36355649999995],[-52.1401178,-29.362288499999984],[-52.13998609999993,-29.361614599999925],[-52.13934939999996,-29.361348899999946],[-52.13980229999998,-29.359379299999944],[-52.136571699999934,-29.358222599999966],[-52.13522659999996,-29.358253899999973],[-52.13424019999997,-29.358519599999976],[-52.132931,-29.35916049999998],[-52.130994,-29.36086429999995],[-52.128590799999984,-29.361473899999964],[-52.12740709999997,-29.36216169999996],[-52.12672549999997,-29.362099099999956],[-52.1263848,-29.361739599999968],[-52.12575709999993,-29.361849],[-52.125183099999965,-29.36274],[-52.123551099999986,-29.36419369999993],[-52.12182929999995,-29.36555349999996],[-52.120412499999986,-29.366194299999954],[-52.11933639999995,-29.367335299999983],[-52.11842169999994,-29.368773299999923],[-52.11747119999996,-29.369210899999928],[-52.11648479999997,-29.37002369999993],[-52.113686899999955,-29.370867699999952],[-52.11191139999995,-29.37260249999996],[-52.11094289999994,-29.37321209999993],[-52.11024349999997,-29.374353],[-52.108432,-29.375447],[-52.10782909999995,-29.376855899999942],[-52.11032869999997,-29.37781269999994],[-52.10769289999996,-29.380511199999933],[-52.10942369999999,-29.380608],[-52.109990399999965,-29.380963],[-52.1108847,-29.380924399999966],[-52.11125659999993,-29.381217599999943],[-52.111478,-29.382050899999967],[-52.110698799999966,-29.384705099999962],[-52.110698799999966,-29.38576989999998],[-52.111734799999965,-29.385885599999934],[-52.11281509999998,-29.385507499999967],[-52.11639249999997,-29.385229799999934],[-52.120943799999964,-29.386217399999953],[-52.12110319999993,-29.38660309999995],[-52.120943799999964,-29.387205],[-52.119899,-29.38967389999993],[-52.11929679999998,-29.39043],[-52.11970419999995,-29.391625799999925],[-52.12016459999995,-29.391803299999946],[-52.12146629999995,-29.391378899999943],[-52.12329039999998,-29.390599699999935],[-52.12460979999997,-29.38961209999997],[-52.12588489999996,-29.389450099999976],[-52.12638959999998,-29.389581299999982],[-52.12742559999999,-29.39038369999997],[-52.127647,-29.391186],[-52.12748759999994,-29.391957599999962],[-52.12612389999998,-29.39433379999997],[-52.12650469999994,-29.394457199999962],[-52.12747869999998,-29.3941718],[-52.129382499999956,-29.39434919999997],[-52.12973669999997,-29.394650099999968],[-52.12975439999997,-29.394989499999937],[-52.12932049999995,-29.395213299999956],[-52.12867409999995,-29.395197799999952],[-52.128541299999945,-29.395521899999945],[-52.129028299999966,-29.395923],[-52.129683599999964,-29.396092799999966],[-52.13051589999998,-29.396007899999972],[-52.13284479999999,-29.394079199999965],[-52.133721399999956,-29.394225799999955],[-52.13436779999996,-29.394881499999943],[-52.134013599999946,-29.395691599999964],[-52.13412869999996,-29.39599249999997],[-52.135457,-29.396409099999975],[-52.13589969999998,-29.39676389999994],[-52.136670099999954,-29.397928899999954],[-52.13661689999998,-29.399356],[-52.13714819999996,-29.39969549999995],[-52.138644699999986,-29.39957979999997],[-52.139069699999936,-29.398492],[-52.13989319999995,-29.398114],[-52.140734399999985,-29.398152599999946],[-52.142307,-29.39903549999996],[-52.14306019999999,-29.39907459999995],[-52.14348169999993,-29.397527699999948],[-52.144584699999946,-29.396848],[-52.145885,-29.397519899999963],[-52.14719419999994,-29.397433899999953],[-52.147526,-29.396418299999937],[-52.14799229999994,-29.395894799999947],[-52.148386899999934,-29.395715099999954],[-52.14924769999994,-29.39582449999995],[-52.14932839999994,-29.394683799999935],[-52.15021619999993,-29.39476969999998],[-52.150879799999984,-29.394113499999953],[-52.15188409999996,-29.39458219999994],[-52.152359399999966,-29.394379099999977],[-52.152736,-29.393558699999968],[-52.15242219999993,-29.392738399999924],[-52.153229299999964,-29.391472599999922],[-52.1541529,-29.39233209999998],[-52.154655099999964,-29.392136699999973],[-52.15497789999994,-29.389206799999943],[-52.155785,-29.38920679999995],[-52.158295799999955,-29.388284799999944],[-52.15855589999995,-29.387886299999927],[-52.15786539999994,-29.387472199999934],[-52.15791019999995,-29.38730809999994],[-52.158600699999965,-29.387253399999967],[-52.160582499999975,-29.386284499999917],[-52.160959199999986,-29.385229699999964],[-52.16147929999994,-29.384651499999954],[-52.16287819999997,-29.385081199999952],[-52.16342519999995,-29.385042199999923],[-52.164187399999946,-29.384049799999943],[-52.16574769999994,-29.383604499999933],[-52.16691349999997,-29.38259649999998],[-52.169119499999965,-29.382393299999926],[-52.170366,-29.381486899999963],[-52.17131649999993,-29.382080799999986],[-52.17243739999997,-29.382096399999963],[-52.17469719999997,-29.382877799999957],[-52.175827099999935,-29.383604499999926],[-52.17718119999995,-29.383604499999933],[-52.178167599999945,-29.38335439999998],[-52.180885199999985,-29.38380679999995],[-52.182027499999954,-29.383514199999976]]]}},{"type":"Feature","properties":{"setor":"430843305000007","pop":108,"sigilo_pop":false,"dom":88,"sigilo_dom":0,"mulheres":48,"sigilo_mulheres":0,"c0_4":9,"sigilo_c0_4":0,"c5_9":null,"sigilo_c5_9":1,"i60_69":24,"sigilo_i60_69":0,"i70m":null,"sigilo_i70m":1,"indigenas":0,"sigilo_indigenas":0,"pretos_pardos":7,"sigilo_pretos_pardos":0,"dom_ocupados":39,"sigilo_dom_ocupados":0,"dom_agua":28,"sigilo_dom_agua":0,"dom_esgoto":0,"sigilo_dom_esgoto":0,"renda_resp":1852.11,"sigilo_renda_resp":0,"n_resp":39,"sigilo_n_resp":0,"dens":12.1,"sigilo_dens":false,"na_bacia":1,"area_pct_bacia":100.0,"metodo_recorte_bacia":"ponto_representativo_setor_2022; area_pct_geometrica","pop_n_validos":1,"pop_n_total":1,"pop_completude":1.0,"dom_n_validos":1,"dom_n_total":1,"dom_completude":1.0,"dom_ocupados_n_validos":1,"dom_ocupados_n_total":1,"dom_ocupados_completude":1.0,"mulheres_n_validos":1,"mulheres_n_total":1,"mulheres_completude":1.0,"c0_4_n_validos":1,"c0_4_n_total":1,"c0_4_completude":1.0,"c5_9_n_validos":0,"c5_9_n_total":1,"c5_9_completude":0.0,"i60_69_n_validos":1,"i60_69_n_total":1,"i60_69_completude":1.0,"i70m_n_validos":0,"i70m_n_total":1,"i70m_completude":0.0,"indigenas_n_validos":1,"indigenas_n_total":1,"indigenas_completude":1.0,"pretos_pardos_n_validos":1,"pretos_pardos_n_total":1,"pretos_pardos_completude":1.0,"dom_agua_n_validos":1,"dom_agua_n_total":1,"dom_agua_completude":1.0,"dom_esgoto_n_validos":1,"dom_esgoto_n_total":1,"dom_esgoto_completude":1.0,"n_resp_n_validos":1,"n_resp_n_total":1,"n_resp_completude":1.0,"renda_resp_n_validos":1,"renda_resp_n_total":1,"renda_resp_completude":1.0,"dens_n_validos":1,"dens_n_total":1,"dens_completude":1.0,"status_borda_bacia":"total","metodo_area_bacia":"interse??o geom?trica em EPSG:5880","metodo_na_bacia":"ponto_representativo_setor_2022_within_bacia","municipio":"Forquetinha","cod_mun":"4308433","mun_pct_na_bacia":100.0,"mun_pop_total":2393,"mun_pop_na_bacia":2393.0,"mun_ubs_iede":1,"mun_hospitais_iede":null,"mun_escolas_iede":3,"mun_bombeiros_iede":null,"mun_servicos_cobertura":"cadastro_IEDE_parcial_nao_inventario","mun_icm_faixa":"C","mun_icm_pontos":12,"mun_icm_prioritario":"sim","mun_ubs_iede_status":"published","mun_hospitais_iede_status":"unknown","mun_escolas_iede_status":"published","mun_bombeiros_iede_status":"unknown"},"geometry":{"type":"Polygon","coordinates":[[[-52.15633129999998,-29.41069849999996],[-52.15665109999998,-29.410545099999986],[-52.15633049999997,-29.410045299999975],[-52.156419,-29.40963689999995],[-52.15767419999998,-29.408762],[-52.15869379999999,-29.406762099999984],[-52.15894149999997,-29.406621399999946],[-52.16000829999996,-29.4067606],[-52.16047679999997,-29.405876599999935],[-52.16160609999997,-29.40616],[-52.16253009999998,-29.406017199999948],[-52.163620399999964,-29.406604899999927],[-52.164833,-29.40669989999998],[-52.165353899999964,-29.407243899999965],[-52.166109799999965,-29.407170099999973],[-52.16753109999996,-29.407947799999935],[-52.167731799999956,-29.40856849999994],[-52.16839969999995,-29.408242799999982],[-52.169601,-29.408205],[-52.17114269999997,-29.407674599999957],[-52.17229759999998,-29.4067525],[-52.176375599999965,-29.40651049999998],[-52.17760789999995,-29.405878],[-52.17886869999995,-29.406301899999963],[-52.179747599999985,-29.40516289999995],[-52.18076679999996,-29.404705],[-52.181451599999946,-29.40404419999992],[-52.18249479999997,-29.403628799999975],[-52.18279689999998,-29.40241809999997],[-52.182601,-29.400506399999987],[-52.183117899999964,-29.399021899999987],[-52.18625919999994,-29.39674909999996],[-52.18670819999994,-29.396778],[-52.186709399999984,-29.396462899999964],[-52.18620079999993,-29.396021599999983],[-52.18642229999995,-29.39566869999992],[-52.188329,-29.395624499999936],[-52.18979109999999,-29.394527],[-52.18617589999997,-29.393743599999933],[-52.18527059999997,-29.39308789999995],[-52.184334499999984,-29.391706699999922],[-52.18406309999994,-29.38951419999996],[-52.18456579999997,-29.388584299999927],[-52.18437229999994,-29.387482099999943],[-52.184825,-29.38625559999998],[-52.183510399999925,-29.385941199999937],[-52.18347429999994,-29.385112599999964],[-52.182218699999964,-29.384724299999956],[-52.181834,-29.38362279999995],[-52.180413199999975,-29.383797399999928],[-52.178167599999945,-29.38335439999998],[-52.176123,-29.383667],[-52.17469719999997,-29.382877799999957],[-52.17243739999997,-29.382096399999963],[-52.17131649999993,-29.382080799999986],[-52.170366,-29.381486899999963],[-52.169119499999965,-29.382393299999926],[-52.16691349999997,-29.38259649999998],[-52.16574769999994,-29.383604499999933],[-52.164187399999946,-29.384049799999943],[-52.16342519999995,-29.385042199999923],[-52.16287819999997,-29.385081199999952],[-52.16147929999994,-29.384651499999954],[-52.160959199999986,-29.385229699999964],[-52.160582499999975,-29.386284499999917],[-52.158600699999965,-29.387253399999967],[-52.15791019999995,-29.38730809999994],[-52.15786539999994,-29.387472199999934],[-52.15855589999995,-29.387886299999927],[-52.158295799999955,-29.388284799999944],[-52.155785,-29.38920679999995],[-52.15497789999994,-29.389206799999943],[-52.15473579999997,-29.391988299999976],[-52.1541529,-29.39233209999998],[-52.15339069999994,-29.39150389999996],[-52.15309469999995,-29.391597599999965],[-52.15242219999993,-29.392738399999924],[-52.15271809999995,-29.39383219999995],[-52.15218009999995,-29.394519699999933],[-52.15162409999994,-29.394527499999974],[-52.150879799999984,-29.394113499999953],[-52.15021619999993,-29.39476969999998],[-52.14932839999994,-29.394683799999935],[-52.14924769999994,-29.39582449999995],[-52.148386899999934,-29.395715099999954],[-52.14799229999994,-29.395894799999947],[-52.147526,-29.396418299999937],[-52.14719419999994,-29.397433899999953],[-52.145885,-29.397519899999963],[-52.144728199999975,-29.396832299999975],[-52.14424389999994,-29.39721519999995],[-52.143732799999945,-29.397254199999956],[-52.14336509999998,-29.397746399999956],[-52.14306019999999,-29.39907459999995],[-52.142307,-29.39903549999996],[-52.141496,-29.398530599999965],[-52.14147829999996,-29.39932519999997],[-52.14260279999997,-29.40019689999997],[-52.14355909999995,-29.402141],[-52.14520609999994,-29.402711799999967],[-52.14481649999993,-29.403776399999963],[-52.14339979999994,-29.405211199999936],[-52.14324039999997,-29.406013499999965],[-52.143665399999975,-29.40622949999994],[-52.14525929999997,-29.40636829999994],[-52.14642809999998,-29.40717059999997],[-52.14669379999999,-29.407741399999956],[-52.146499,-29.408111699999942],[-52.145515899999964,-29.408661599999963],[-52.146870899999946,-29.410178899999938],[-52.14770319999996,-29.410749799999962],[-52.149244,-29.41132059999995],[-52.153175499999975,-29.41221529999995],[-52.153404499999965,-29.41205059999993],[-52.153334899999955,-29.41173709999997],[-52.15276819999997,-29.411305099999918],[-52.15237859999996,-29.410580099999947],[-52.15267959999994,-29.410178899999956],[-52.15305149999995,-29.410086399999958],[-52.15421759999998,-29.41036269999995],[-52.15541809999997,-29.410241599999942],[-52.15633129999998,-29.41069849999996]]]}},{"type":"Feature","properties":{"setor":"430843305000008","pop":262,"sigilo_pop":false,"dom":156,"sigilo_dom":0,"mulheres":133,"sigilo_mulheres":0,"c0_4":11,"sigilo_c0_4":0,"c5_9":14,"sigilo_c5_9":0,"i60_69":51,"sigilo_i60_69":0,"i70m":52,"sigilo_i70m":0,"indigenas":0,"sigilo_indigenas":0,"pretos_pardos":10,"sigilo_pretos_pardos":0,"dom_ocupados":107,"sigilo_dom_ocupados":0,"dom_agua":87,"sigilo_dom_agua":0,"dom_esgoto":0,"sigilo_dom_esgoto":0,"renda_resp":2442.9,"sigilo_renda_resp":0,"n_resp":107,"sigilo_n_resp":0,"dens":17.3,"sigilo_dens":false,"na_bacia":1,"area_pct_bacia":100.0,"metodo_recorte_bacia":"ponto_representativo_setor_2022; area_pct_geometrica","pop_n_validos":1,"pop_n_total":1,"pop_completude":1.0,"dom_n_validos":1,"dom_n_total":1,"dom_completude":1.0,"dom_ocupados_n_validos":1,"dom_ocupados_n_total":1,"dom_ocupados_completude":1.0,"mulheres_n_validos":1,"mulheres_n_total":1,"mulheres_completude":1.0,"c0_4_n_validos":1,"c0_4_n_total":1,"c0_4_completude":1.0,"c5_9_n_validos":1,"c5_9_n_total":1,"c5_9_completude":1.0,"i60_69_n_validos":1,"i60_69_n_total":1,"i60_69_completude":1.0,"i70m_n_validos":1,"i70m_n_total":1,"i70m_completude":1.0,"indigenas_n_validos":1,"indigenas_n_total":1,"indigenas_completude":1.0,"pretos_pardos_n_validos":1,"pretos_pardos_n_total":1,"pretos_pardos_completude":1.0,"dom_agua_n_validos":1,"dom_agua_n_total":1,"dom_agua_completude":1.0,"dom_esgoto_n_validos":1,"dom_esgoto_n_total":1,"dom_esgoto_completude":1.0,"n_resp_n_validos":1,"n_resp_n_total":1,"n_resp_completude":1.0,"renda_resp_n_validos":1,"renda_resp_n_total":1,"renda_resp_completude":1.0,"dens_n_validos":1,"dens_n_total":1,"dens_completude":1.0,"status_borda_bacia":"total","metodo_area_bacia":"interse??o geom?trica em EPSG:5880","metodo_na_bacia":"ponto_representativo_setor_2022_within_bacia","municipio":"Forquetinha","cod_mun":"4308433","mun_pct_na_bacia":100.0,"mun_pop_total":2393,"mun_pop_na_bacia":2393.0,"mun_ubs_iede":1,"mun_hospitais_iede":null,"mun_escolas_iede":3,"mun_bombeiros_iede":null,"mun_servicos_cobertura":"cadastro_IEDE_parcial_nao_inventario","mun_icm_faixa":"C","mun_icm_pontos":12,"mun_icm_prioritario":"sim","mun_ubs_iede_status":"published","mun_hospitais_iede_status":"unknown","mun_escolas_iede_status":"published","mun_bombeiros_iede_status":"unknown"},"geometry":{"type":"Polygon","coordinates":[[[-52.14504439999996,-29.34258729999993],[-52.13096889999997,-29.351887599999948],[-52.12924669999995,-29.34822],[-52.12875739999998,-29.348808699999942],[-52.12611359999995,-29.349569],[-52.12476259999994,-29.35041129999996],[-52.12406469999996,-29.353121199999972],[-52.12461049999996,-29.35468869999993],[-52.12546039999995,-29.355749199999934],[-52.12601509999996,-29.357737699999966],[-52.125648299999966,-29.35933629999994],[-52.12588589999996,-29.361055499999942],[-52.12529789999997,-29.361780399999937],[-52.12565489999997,-29.361969199999976],[-52.1263848,-29.361739599999968],[-52.12672549999997,-29.362099099999956],[-52.12740709999997,-29.36216169999996],[-52.128590799999984,-29.361473899999964],[-52.130994,-29.36086429999995],[-52.132931,-29.35916049999998],[-52.13424019999997,-29.358519599999976],[-52.13522659999996,-29.358253899999973],[-52.13709189999997,-29.358285099999932],[-52.13980229999998,-29.359379299999944],[-52.13934939999996,-29.361348899999946],[-52.13998609999993,-29.361614599999925],[-52.1401178,-29.362288499999984],[-52.141218899999956,-29.36355649999995],[-52.141677699999946,-29.363724],[-52.142055599999935,-29.36307379999994],[-52.14360579999993,-29.36268539999998],[-52.14535949999998,-29.362795199999923],[-52.14770079999993,-29.366001],[-52.15488359999995,-29.369997799999943],[-52.157538399999964,-29.36980359999995],[-52.158953,-29.36869749999994],[-52.159776499999964,-29.36845259999995],[-52.160600099999954,-29.368503299999936],[-52.16062909999994,-29.368722799999933],[-52.15935019999994,-29.36951649999997],[-52.15803249999993,-29.371509199999945],[-52.15846849999997,-29.372100199999984],[-52.1594568,-29.371779299999947],[-52.16035789999995,-29.371889099999986],[-52.16074539999994,-29.37290229999996],[-52.161336399999975,-29.37325689999994],[-52.16233439999996,-29.373358299999957],[-52.165420299999944,-29.37281789999998],[-52.167808599999944,-29.371817299999968],[-52.16912139999994,-29.372100199999977],[-52.17204259999994,-29.371648499999928],[-52.17231389999995,-29.371884899999934],[-52.17264329999995,-29.37362419999994],[-52.173563799999954,-29.374274299999964],[-52.173098699999976,-29.3753129],[-52.17283229999998,-29.37677769999993],[-52.17364609999998,-29.376879],[-52.174707,-29.37795129999995],[-52.17569529999997,-29.37789639999994],[-52.17787049999998,-29.378913799999957],[-52.17852929999999,-29.37867739999996],[-52.17924629999993,-29.377571399999965],[-52.179333499999984,-29.375739199999934],[-52.18063179999996,-29.37613609999994],[-52.18191069999995,-29.376042099999943],[-52.182909,-29.378052899999947],[-52.18348489999994,-29.378378599999966],[-52.185162899999966,-29.37816849999995],[-52.187716499999965,-29.37700269999994],[-52.188268799999946,-29.377033299999944],[-52.18844349999995,-29.37649289999997],[-52.187801499999985,-29.37545909999994],[-52.18763629999995,-29.374663799999954],[-52.185606599999964,-29.373143899999945],[-52.18721379999993,-29.371654699999965],[-52.18970379999996,-29.371357299999946],[-52.19096979999995,-29.371004799999984],[-52.19119059999998,-29.3707472],[-52.19064309999993,-29.368367],[-52.19080589999999,-29.367401699999956],[-52.19186329999996,-29.366471899999976],[-52.193006699999955,-29.365062899999945],[-52.193166,-29.364518899999943],[-52.193026799999984,-29.362942299999922],[-52.192399,-29.360771],[-52.19176179999994,-29.360667199999966],[-52.19088589999995,-29.359465499999935],[-52.18851369999993,-29.358969399999978],[-52.187604199999946,-29.35734849999994],[-52.184972399999936,-29.35716839999997],[-52.183894099999975,-29.356275799999928],[-52.18132509999998,-29.355494599999922],[-52.180936799999984,-29.35556069999996],[-52.180469,-29.356252799999933],[-52.17998309999995,-29.356328899999934],[-52.17874939999995,-29.354620799999964],[-52.17755989999995,-29.354898699999975],[-52.17636369999997,-29.354705699999958],[-52.17603349999996,-29.355891],[-52.17466049999996,-29.355868699999974],[-52.17361039999998,-29.355211699999984],[-52.171847799999966,-29.355091599999973],[-52.170939,-29.354499599999926],[-52.170407,-29.353829599999987],[-52.16609419999997,-29.35191789999994],[-52.1657747,-29.351322199999963],[-52.166103,-29.35068009999997],[-52.164882099999936,-29.35100139999998],[-52.16476179999996,-29.34969689999997],[-52.163482,-29.349516299999955],[-52.163115399999974,-29.348574],[-52.16174709999995,-29.348018599999918],[-52.16160859999997,-29.348321699999936],[-52.16104259999997,-29.34832169999993],[-52.16032569999994,-29.347775699999946],[-52.15970969999995,-29.34807749999993],[-52.15889729999998,-29.347115399999957],[-52.15888129999996,-29.346897699999936],[-52.16148689999995,-29.346320699999982],[-52.16368709999995,-29.345182499999964],[-52.16470309999994,-29.344470899999973],[-52.16539169999999,-29.343619499999924],[-52.16514559999996,-29.34167069999995],[-52.165359799999976,-29.34012889999996],[-52.16448189999995,-29.340185599999987],[-52.16300739999998,-29.339884599999937],[-52.16166569999996,-29.339097],[-52.16142049999996,-29.338635899999932],[-52.16219049999995,-29.33735869999999],[-52.162029399999945,-29.336571099999965],[-52.16134439999996,-29.335486],[-52.161741,-29.334005099999953],[-52.161311599999976,-29.33333089999995],[-52.16194709999997,-29.33269369999994],[-52.162747199999956,-29.33251669999992],[-52.16349459999998,-29.3314142],[-52.163517199999944,-29.330949299999936],[-52.16309589999997,-29.33047489999995],[-52.163611,-29.32870479999997],[-52.14504439999996,-29.34258729999993]]]}},{"type":"Feature","properties":{"setor":"430843305000010","pop":186,"sigilo_pop":false,"dom":80,"sigilo_dom":0,"mulheres":97,"sigilo_mulheres":0,"c0_4":6,"sigilo_c0_4":0,"c5_9":null,"sigilo_c5_9":1,"i60_69":32,"sigilo_i60_69":0,"i70m":27,"sigilo_i70m":0,"indigenas":0,"sigilo_indigenas":0,"pretos_pardos":8,"sigilo_pretos_pardos":0,"dom_ocupados":68,"sigilo_dom_ocupados":0,"dom_agua":67,"sigilo_dom_agua":0,"dom_esgoto":0,"sigilo_dom_esgoto":0,"renda_resp":3198.76,"sigilo_renda_resp":0,"n_resp":68,"sigilo_n_resp":0,"dens":77.6,"sigilo_dens":false,"na_bacia":1,"area_pct_bacia":100.0,"metodo_recorte_bacia":"ponto_representativo_setor_2022; area_pct_geometrica","pop_n_validos":1,"pop_n_total":1,"pop_completude":1.0,"dom_n_validos":1,"dom_n_total":1,"dom_completude":1.0,"dom_ocupados_n_validos":1,"dom_ocupados_n_total":1,"dom_ocupados_completude":1.0,"mulheres_n_validos":1,"mulheres_n_total":1,"mulheres_completude":1.0,"c0_4_n_validos":1,"c0_4_n_total":1,"c0_4_completude":1.0,"c5_9_n_validos":0,"c5_9_n_total":1,"c5_9_completude":0.0,"i60_69_n_validos":1,"i60_69_n_total":1,"i60_69_completude":1.0,"i70m_n_validos":1,"i70m_n_total":1,"i70m_completude":1.0,"indigenas_n_validos":1,"indigenas_n_total":1,"indigenas_completude":1.0,"pretos_pardos_n_validos":1,"pretos_pardos_n_total":1,"pretos_pardos_completude":1.0,"dom_agua_n_validos":1,"dom_agua_n_total":1,"dom_agua_completude":1.0,"dom_esgoto_n_validos":1,"dom_esgoto_n_total":1,"dom_esgoto_completude":1.0,"n_resp_n_validos":1,"n_resp_n_total":1,"n_resp_completude":1.0,"renda_resp_n_validos":1,"renda_resp_n_total":1,"renda_resp_completude":1.0,"dens_n_validos":1,"dens_n_total":1,"dens_completude":1.0,"status_borda_bacia":"total","metodo_area_bacia":"interse??o geom?trica em EPSG:5880","metodo_na_bacia":"ponto_representativo_setor_2022_within_bacia","municipio":"Forquetinha","cod_mun":"4308433","mun_pct_na_bacia":100.0,"mun_pop_total":2393,"mun_pop_na_bacia":2393.0,"mun_ubs_iede":1,"mun_hospitais_iede":null,"mun_escolas_iede":3,"mun_bombeiros_iede":null,"mun_servicos_cobertura":"cadastro_IEDE_parcial_nao_inventario","mun_icm_faixa":"C","mun_icm_pontos":12,"mun_icm_prioritario":"sim","mun_ubs_iede_status":"published","mun_hospitais_iede_status":"unknown","mun_escolas_iede_status":"published","mun_bombeiros_iede_status":"unknown"},"geometry":{"type":"Polygon","coordinates":[[[-52.06817709999995,-29.412485599999968],[-52.067906,-29.410488799999932],[-52.07270489999997,-29.409798699999946],[-52.07471949999996,-29.409187399999954],[-52.075715499999944,-29.408655],[-52.07766219999996,-29.407057699999942],[-52.073881899999954,-29.403646099999953],[-52.074447899999946,-29.40301509999996],[-52.073453599999944,-29.403223799999974],[-52.073056,-29.403114799999972],[-52.07262909999997,-29.402595299999973],[-52.07241559999995,-29.402883899999953],[-52.07198859999994,-29.402621],[-52.071468399999965,-29.402746899999958],[-52.07035649999994,-29.4047],[-52.067684199999974,-29.405075],[-52.066195599999965,-29.404684299999918],[-52.06481459999997,-29.403684399999968],[-52.064133099999935,-29.402512499999958],[-52.063577099999975,-29.402403199999984],[-52.06013359999997,-29.40399689999999],[-52.057766199999946,-29.40563739999993],[-52.05606239999998,-29.405559299999936],[-52.05496839999996,-29.406074899999968],[-52.05432269999994,-29.407215499999964],[-52.054538,-29.408199799999977],[-52.05516569999997,-29.40923089999996],[-52.05493249999996,-29.410762],[-52.05459179999996,-29.411074499999984],[-52.05308519999994,-29.41074639999993],[-52.050359199999946,-29.40887159999994],[-52.04539119999998,-29.407465399999978],[-52.04429719999997,-29.40762169999994],[-52.04309559999996,-29.40863719999994],[-52.04327489999998,-29.409027799999947],[-52.04528359999995,-29.409668399999923],[-52.04477649999996,-29.41166819999996],[-52.04431379999995,-29.412058799999954],[-52.044522699999966,-29.41319339999996],[-52.043849499999965,-29.413308499999967],[-52.044407399999955,-29.41456979999998],[-52.044849,-29.414995599999937],[-52.06817709999995,-29.412485599999968]]]}},{"type":"Feature","properties":{"setor":"430843305000011","pop":390,"sigilo_pop":false,"dom":215,"sigilo_dom":0,"mulheres":194,"sigilo_mulheres":0,"c0_4":11,"sigilo_c0_4":0,"c5_9":15,"sigilo_c5_9":0,"i60_69":77,"sigilo_i60_69":0,"i70m":55,"sigilo_i70m":0,"indigenas":0,"sigilo_indigenas":0,"pretos_pardos":5,"sigilo_pretos_pardos":0,"dom_ocupados":166,"sigilo_dom_ocupados":0,"dom_agua":143,"sigilo_dom_agua":0,"dom_esgoto":0,"sigilo_dom_esgoto":0,"renda_resp":1652.9,"sigilo_renda_resp":0,"n_resp":166,"sigilo_n_resp":0,"dens":20.3,"sigilo_dens":false,"na_bacia":1,"area_pct_bacia":100.0,"metodo_recorte_bacia":"ponto_representativo_setor_2022; area_pct_geometrica","pop_n_validos":1,"pop_n_total":1,"pop_completude":1.0,"dom_n_validos":1,"dom_n_total":1,"dom_completude":1.0,"dom_ocupados_n_validos":1,"dom_ocupados_n_total":1,"dom_ocupados_completude":1.0,"mulheres_n_validos":1,"mulheres_n_total":1,"mulheres_completude":1.0,"c0_4_n_validos":1,"c0_4_n_total":1,"c0_4_completude":1.0,"c5_9_n_validos":1,"c5_9_n_total":1,"c5_9_completude":1.0,"i60_69_n_validos":1,"i60_69_n_total":1,"i60_69_completude":1.0,"i70m_n_validos":1,"i70m_n_total":1,"i70m_completude":1.0,"indigenas_n_validos":1,"indigenas_n_total":1,"indigenas_completude":1.0,"pretos_pardos_n_validos":1,"pretos_pardos_n_total":1,"pretos_pardos_completude":1.0,"dom_agua_n_validos":1,"dom_agua_n_total":1,"dom_agua_completude":1.0,"dom_esgoto_n_validos":1,"dom_esgoto_n_total":1,"dom_esgoto_completude":1.0,"n_resp_n_validos":1,"n_resp_n_total":1,"n_resp_completude":1.0,"renda_resp_n_validos":1,"renda_resp_n_total":1,"renda_resp_completude":1.0,"dens_n_validos":1,"dens_n_total":1,"dens_completude":1.0,"status_borda_bacia":"total","metodo_area_bacia":"interse??o geom?trica em EPSG:5880","metodo_na_bacia":"ponto_representativo_setor_2022_within_bacia","municipio":"Forquetinha","cod_mun":"4308433","mun_pct_na_bacia":100.0,"mun_pop_total":2393,"mun_pop_na_bacia":2393.0,"mun_ubs_iede":1,"mun_hospitais_iede":null,"mun_escolas_iede":3,"mun_bombeiros_iede":null,"mun_servicos_cobertura":"cadastro_IEDE_parcial_nao_inventario","mun_icm_faixa":"C","mun_icm_pontos":12,"mun_icm_prioritario":"sim","mun_ubs_iede_status":"published","mun_hospitais_iede_status":"unknown","mun_escolas_iede_status":"published","mun_bombeiros_iede_status":"unknown"},"geometry":{"type":"Polygon","coordinates":[[[-52.201499499999954,-29.425374399999953],[-52.20071009999999,-29.424638499999947],[-52.19827089999996,-29.423569299999947],[-52.196932799999956,-29.423634799999952],[-52.19697819999994,-29.422959799999948],[-52.19625719999994,-29.42186119999996],[-52.196540399999954,-29.420667],[-52.19521759999998,-29.419612],[-52.19489189999996,-29.41819479999997],[-52.194414499999944,-29.41846739999995],[-52.19381979999997,-29.41968989999997],[-52.19355539999999,-29.419774899999936],[-52.19315419999999,-29.419406699999968],[-52.192514599999974,-29.417570499999957],[-52.192160599999966,-29.41742419999997],[-52.191816,-29.417523299999967],[-52.191521399999935,-29.417967499999985],[-52.191362899999945,-29.419984899999964],[-52.190508499999964,-29.420466399999945],[-52.18947949999995,-29.419437399999943],[-52.1891184,-29.418054299999934],[-52.188586,-29.417621099999955],[-52.187009,-29.41831049999997],[-52.185915799999975,-29.419713499999943],[-52.18565259999996,-29.419387799999978],[-52.18490209999993,-29.41933],[-52.18400759999997,-29.41824549999994],[-52.18300929999999,-29.41757519999993],[-52.18207619999998,-29.417496],[-52.180256199999974,-29.41776519999996],[-52.180155499999955,-29.417094699999954],[-52.17992579999998,-29.416932099999936],[-52.17867169999994,-29.41737189999998],[-52.177149799999945,-29.418446899999925],[-52.17653629999995,-29.418528799999923],[-52.17623289999995,-29.418137099999967],[-52.17618509999994,-29.4168],[-52.17423669999994,-29.416160199999986],[-52.172708599999964,-29.41656159999996],[-52.17080169999997,-29.41668549999996],[-52.17045,-29.415960899999963],[-52.169727799999976,-29.415774499999948],[-52.167958899999974,-29.41635269999995],[-52.166430899999966,-29.41718409999993],[-52.16607549999998,-29.416710299999984],[-52.16614159999995,-29.414878799999947],[-52.16560349999998,-29.413963099999926],[-52.164031699999946,-29.4143903],[-52.16256669999996,-29.415375],[-52.16139719999996,-29.41335949999996],[-52.16126509999997,-29.41238239999995],[-52.160908699999936,-29.41212749999994],[-52.15985019999993,-29.41255829999995],[-52.1585391,-29.41347749999995],[-52.157878299999936,-29.414442799999968],[-52.157304799999956,-29.414560799999958],[-52.15717029999996,-29.413187199999975],[-52.15642459999997,-29.412364799999974],[-52.15629469999994,-29.41084839999997],[-52.15567909999998,-29.410305299999944],[-52.15421759999998,-29.41036269999995],[-52.15305149999995,-29.410086399999958],[-52.15246709999996,-29.410333199999968],[-52.152527299999974,-29.411004399999968],[-52.153334899999955,-29.41173709999997],[-52.153404499999965,-29.41205059999993],[-52.153175499999975,-29.41221529999995],[-52.152509799999955,-29.411954],[-52.15069619999997,-29.411768],[-52.14770319999996,-29.410749799999962],[-52.14653439999995,-29.409901199999982],[-52.145515899999964,-29.408661599999963],[-52.146499,-29.408111699999942],[-52.14669379999999,-29.407741399999956],[-52.14642809999998,-29.40717059999997],[-52.14525929999997,-29.40636829999994],[-52.143665399999975,-29.40622949999994],[-52.14324039999997,-29.406013499999965],[-52.14339979999994,-29.405211199999936],[-52.14481649999993,-29.403776399999963],[-52.14520609999994,-29.402711799999967],[-52.14355909999995,-29.402141],[-52.14260279999997,-29.40019689999997],[-52.14147829999996,-29.39932519999997],[-52.141496,-29.398530599999965],[-52.140734399999985,-29.398152599999946],[-52.139663,-29.39814489999998],[-52.139069699999936,-29.398492],[-52.138644699999986,-29.39957979999997],[-52.13714819999996,-29.39969549999995],[-52.13661689999998,-29.399356],[-52.136670099999954,-29.397928899999954],[-52.13589969999998,-29.39676389999994],[-52.135457,-29.396409099999975],[-52.13412869999996,-29.39599249999997],[-52.134013599999946,-29.395691599999964],[-52.13436779999996,-29.394881499999943],[-52.133721399999956,-29.394225799999955],[-52.13284479999999,-29.394079199999965],[-52.13051589999998,-29.396007899999972],[-52.129683599999964,-29.396092799999966],[-52.129028299999966,-29.395923],[-52.128541299999945,-29.395521899999945],[-52.12867409999995,-29.395197799999952],[-52.12932049999995,-29.395213299999956],[-52.12975439999997,-29.394989499999937],[-52.12973669999997,-29.394650099999968],[-52.129382499999956,-29.39434919999997],[-52.12747869999998,-29.3941718],[-52.12620359999994,-29.394403199999935],[-52.12610619999998,-29.394102299999933],[-52.12748759999994,-29.391957599999962],[-52.127647,-29.391186],[-52.12742559999999,-29.39038369999997],[-52.12638959999998,-29.389581299999982],[-52.12588489999996,-29.389450099999976],[-52.12460979999997,-29.38961209999997],[-52.12329039999998,-29.390599699999935],[-52.12146629999995,-29.391378899999943],[-52.12016459999995,-29.391803299999946],[-52.11970419999995,-29.391625799999925],[-52.11929679999998,-29.39043],[-52.119899,-29.38967389999993],[-52.121094399999954,-29.386811499999954],[-52.12103239999993,-29.38627909999998],[-52.120554199999965,-29.386070799999974],[-52.11639249999997,-29.385229799999934],[-52.112620299999946,-29.385538399999987],[-52.11248029999996,-29.387832499999952],[-52.11060679999997,-29.388000299999927],[-52.10349239999994,-29.388104099999953],[-52.10017689999996,-29.387831499999947],[-52.09894939999998,-29.388014399999967],[-52.090957099999976,-29.38800989999992],[-52.08779939999993,-29.38839939999997],[-52.082592,-29.38823709999997],[-52.07807719999994,-29.39342469999998],[-52.077881,-29.39422879999995],[-52.08682519999997,-29.398836899999917],[-52.09340779999997,-29.398688799999945],[-52.09438949999998,-29.39877449999995],[-52.09636669999997,-29.39946359999993],[-52.10189859999997,-29.402963599999957],[-52.10302179999997,-29.405654299999973],[-52.10397429999995,-29.404249699999983],[-52.10499429999993,-29.40358709999998],[-52.10612159999994,-29.40323639999998],[-52.10615739999997,-29.402862199999962],[-52.105164299999956,-29.40077329999997],[-52.105298499999954,-29.400648599999958],[-52.10781259999993,-29.402472499999934],[-52.108957799999985,-29.402932399999933],[-52.1090741,-29.40385989999992],[-52.107830399999955,-29.40548119999994],[-52.10758889999994,-29.40615929999995],[-52.10761569999993,-29.408481899999977],[-52.108146199999965,-29.40956319999997],[-52.10844779999997,-29.40846629999993],[-52.109199299999936,-29.408115599999967],[-52.110684499999934,-29.408949599999968],[-52.110683499999936,-29.409498899999956],[-52.1124918,-29.41075779999994],[-52.1152206,-29.41144749999995],[-52.11931829999998,-29.413399899999938],[-52.12148349999996,-29.414],[-52.123550299999984,-29.41364919999994],[-52.12633279999994,-29.414452],[-52.128426299999944,-29.41619],[-52.130904699999974,-29.41904229999994],[-52.132193,-29.41951769999997],[-52.135056,-29.41979049999997],[-52.13610279999995,-29.420998399999977],[-52.136612799999966,-29.423515599999977],[-52.13721229999994,-29.42454419999995],[-52.13783849999999,-29.425043],[-52.139789,-29.425619599999944],[-52.1389569,-29.428261299999964],[-52.13898829999994,-29.429645599999958],[-52.15457379999998,-29.42991819999997],[-52.16077619999999,-29.425039899999938],[-52.17121349999996,-29.423558299999968],[-52.201499499999954,-29.425374399999953]]]}},{"type":"Feature","properties":{"setor":"430843305000012","pop":548,"sigilo_pop":false,"dom":269,"sigilo_dom":0,"mulheres":276,"sigilo_mulheres":0,"c0_4":30,"sigilo_c0_4":0,"c5_9":29,"sigilo_c5_9":0,"i60_69":64,"sigilo_i60_69":0,"i70m":66,"sigilo_i70m":0,"indigenas":0,"sigilo_indigenas":0,"pretos_pardos":32,"sigilo_pretos_pardos":0,"dom_ocupados":215,"sigilo_dom_ocupados":0,"dom_agua":200,"sigilo_dom_agua":0,"dom_esgoto":0,"sigilo_dom_esgoto":0,"renda_resp":3155.88,"sigilo_renda_resp":0,"n_resp":215,"sigilo_n_resp":0,"dens":169.9,"sigilo_dens":false,"na_bacia":1,"area_pct_bacia":100.0,"metodo_recorte_bacia":"ponto_representativo_setor_2022; area_pct_geometrica","pop_n_validos":1,"pop_n_total":1,"pop_completude":1.0,"dom_n_validos":1,"dom_n_total":1,"dom_completude":1.0,"dom_ocupados_n_validos":1,"dom_ocupados_n_total":1,"dom_ocupados_completude":1.0,"mulheres_n_validos":1,"mulheres_n_total":1,"mulheres_completude":1.0,"c0_4_n_validos":1,"c0_4_n_total":1,"c0_4_completude":1.0,"c5_9_n_validos":1,"c5_9_n_total":1,"c5_9_completude":1.0,"i60_69_n_validos":1,"i60_69_n_total":1,"i60_69_completude":1.0,"i70m_n_validos":1,"i70m_n_total":1,"i70m_completude":1.0,"indigenas_n_validos":1,"indigenas_n_total":1,"indigenas_completude":1.0,"pretos_pardos_n_validos":1,"pretos_pardos_n_total":1,"pretos_pardos_completude":1.0,"dom_agua_n_validos":1,"dom_agua_n_total":1,"dom_agua_completude":1.0,"dom_esgoto_n_validos":1,"dom_esgoto_n_total":1,"dom_esgoto_completude":1.0,"n_resp_n_validos":1,"n_resp_n_total":1,"n_resp_completude":1.0,"renda_resp_n_validos":1,"renda_resp_n_total":1,"renda_resp_completude":1.0,"dens_n_validos":1,"dens_n_total":1,"dens_completude":1.0,"status_borda_bacia":"total","metodo_area_bacia":"interse??o geom?trica em EPSG:5880","metodo_na_bacia":"ponto_representativo_setor_2022_within_bacia","municipio":"Forquetinha","cod_mun":"4308433","mun_pct_na_bacia":100.0,"mun_pop_total":2393,"mun_pop_na_bacia":2393.0,"mun_ubs_iede":1,"mun_hospitais_iede":null,"mun_escolas_iede":3,"mun_bombeiros_iede":null,"mun_servicos_cobertura":"cadastro_IEDE_parcial_nao_inventario","mun_icm_faixa":"C","mun_icm_pontos":12,"mun_icm_prioritario":"sim","mun_ubs_iede_status":"published","mun_hospitais_iede_status":"unknown","mun_escolas_iede_status":"published","mun_bombeiros_iede_status":"unknown"},"geometry":{"type":"Polygon","coordinates":[[[-52.08144679999998,-29.37824639999997],[-52.081990099999985,-29.37808339999998],[-52.08232069999997,-29.378241499999948],[-52.083335899999945,-29.37985419999995],[-52.08477019999998,-29.38051409999996],[-52.08511349999997,-29.38102529999998],[-52.086509199999966,-29.38205489999995],[-52.08571569999998,-29.382252699999977],[-52.08498759999998,-29.383173],[-52.084308599999986,-29.385385499999984],[-52.082592,-29.38823709999997],[-52.08779939999993,-29.38839939999997],[-52.090957099999976,-29.38800989999992],[-52.09894939999998,-29.388014399999967],[-52.10017689999996,-29.387831499999947],[-52.10349239999994,-29.388104099999953],[-52.11248029999996,-29.387832499999952],[-52.11254059999994,-29.385569299999933],[-52.111734799999965,-29.385885599999934],[-52.11081389999999,-29.385854699999975],[-52.11062789999994,-29.385638699999955],[-52.111478,-29.382050899999967],[-52.11125659999993,-29.381217599999943],[-52.1108847,-29.380924399999966],[-52.109990399999965,-29.380963],[-52.10942369999999,-29.380608],[-52.10769289999996,-29.380511199999933],[-52.11032869999997,-29.37781269999994],[-52.10782909999995,-29.376855899999942],[-52.10773259999997,-29.37718179999996],[-52.10714969999998,-29.377517799999964],[-52.105105099999946,-29.37716619999997],[-52.10439669999994,-29.376806699999968],[-52.103769,-29.375759599999984],[-52.101724399999966,-29.375478299999937],[-52.10079179999997,-29.375572099999935],[-52.09967989999996,-29.37646289999998],[-52.09924049999995,-29.376548899999936],[-52.09611979999994,-29.37525169999998],[-52.09418279999995,-29.376111299999938],[-52.092775,-29.377088],[-52.0920038,-29.377994499999936],[-52.09108909999997,-29.378525899999936],[-52.08958259999997,-29.378775899999944],[-52.089026599999954,-29.378682099999942],[-52.08778909999996,-29.377885099999954],[-52.08674889999997,-29.377525599999956],[-52.08456079999996,-29.377478799999952],[-52.082408599999944,-29.37693179999997],[-52.08170919999998,-29.37710369999997],[-52.08144679999998,-29.37824639999997]]]}}]}
