{"type":"FeatureCollection","name":"4309258","crs":{"type":"name","properties":{"name":"urn:ogc:def:crs:OGC:1.3:CRS84"}},"features":[{"type":"Feature","properties":{"setor":"430925805000001","pop":744,"sigilo_pop":false,"dom":326,"sigilo_dom":0,"mulheres":373,"sigilo_mulheres":0,"c0_4":22,"sigilo_c0_4":0,"c5_9":37,"sigilo_c5_9":0,"i60_69":129,"sigilo_i60_69":0,"i70m":116,"sigilo_i70m":0,"indigenas":0,"sigilo_indigenas":0,"pretos_pardos":139,"sigilo_pretos_pardos":0,"dom_ocupados":305,"sigilo_dom_ocupados":0,"dom_agua":303,"sigilo_dom_agua":0,"dom_esgoto":12,"sigilo_dom_esgoto":0,"renda_resp":2438.48,"sigilo_renda_resp":0,"n_resp":305,"sigilo_n_resp":0,"dens":324.7,"sigilo_dens":false,"na_bacia":1,"area_pct_bacia":100.0,"metodo_recorte_bacia":"ponto_representativo_setor_2022; area_pct_geometrica","pop_n_validos":1,"pop_n_total":1,"pop_completude":1.0,"dom_n_validos":1,"dom_n_total":1,"dom_completude":1.0,"dom_ocupados_n_validos":1,"dom_ocupados_n_total":1,"dom_ocupados_completude":1.0,"mulheres_n_validos":1,"mulheres_n_total":1,"mulheres_completude":1.0,"c0_4_n_validos":1,"c0_4_n_total":1,"c0_4_completude":1.0,"c5_9_n_validos":1,"c5_9_n_total":1,"c5_9_completude":1.0,"i60_69_n_validos":1,"i60_69_n_total":1,"i60_69_completude":1.0,"i70m_n_validos":1,"i70m_n_total":1,"i70m_completude":1.0,"indigenas_n_validos":1,"indigenas_n_total":1,"indigenas_completude":1.0,"pretos_pardos_n_validos":1,"pretos_pardos_n_total":1,"pretos_pardos_completude":1.0,"dom_agua_n_validos":1,"dom_agua_n_total":1,"dom_agua_completude":1.0,"dom_esgoto_n_validos":1,"dom_esgoto_n_total":1,"dom_esgoto_completude":1.0,"n_resp_n_validos":1,"n_resp_n_total":1,"n_resp_completude":1.0,"renda_resp_n_validos":1,"renda_resp_n_total":1,"renda_resp_completude":1.0,"dens_n_validos":1,"dens_n_total":1,"dens_completude":1.0,"status_borda_bacia":"total","metodo_area_bacia":"interse??o geom?trica em EPSG:5880","metodo_na_bacia":"ponto_representativo_setor_2022_within_bacia","municipio":"Guabiju","cod_mun":"4309258","mun_pct_na_bacia":100.0,"mun_pop_total":1417,"mun_pop_na_bacia":1417.0,"mun_ubs_iede":2,"mun_hospitais_iede":null,"mun_escolas_iede":null,"mun_bombeiros_iede":null,"mun_servicos_cobertura":"cadastro_IEDE_parcial_nao_inventario","mun_icm_faixa":"B","mun_icm_pontos":5,"mun_icm_prioritario":"não","mun_ubs_iede_status":"published","mun_hospitais_iede_status":"unknown","mun_escolas_iede_status":"unknown","mun_bombeiros_iede_status":"unknown"},"geometry":{"type":"Polygon","coordinates":[[[-51.68993679999995,-28.55113659999995],[-51.70206129999997,-28.54481439999995],[-51.69577119999997,-28.535201],[-51.690491899999984,-28.534827699999934],[-51.688155,-28.535165599999967],[-51.685429,-28.53670859999993],[-51.683110699999986,-28.538793199999937],[-51.68277859999995,-28.538828],[-51.68302429999994,-28.545333699999965],[-51.68906109999995,-28.550932399999954],[-51.68993679999995,-28.55113659999995]]]}},{"type":"Feature","properties":{"setor":"430925805000002","pop":305,"sigilo_pop":false,"dom":155,"sigilo_dom":0,"mulheres":146,"sigilo_mulheres":0,"c0_4":13,"sigilo_c0_4":0,"c5_9":13,"sigilo_c5_9":0,"i60_69":68,"sigilo_i60_69":0,"i70m":48,"sigilo_i70m":0,"indigenas":0,"sigilo_indigenas":0,"pretos_pardos":18,"sigilo_pretos_pardos":0,"dom_ocupados":121,"sigilo_dom_ocupados":0,"dom_agua":24,"sigilo_dom_agua":0,"dom_esgoto":0,"sigilo_dom_esgoto":0,"renda_resp":4199.56,"sigilo_renda_resp":0,"n_resp":121,"sigilo_n_resp":0,"dens":4.1,"sigilo_dens":false,"na_bacia":1,"area_pct_bacia":100.0,"metodo_recorte_bacia":"ponto_representativo_setor_2022; area_pct_geometrica","pop_n_validos":1,"pop_n_total":1,"pop_completude":1.0,"dom_n_validos":1,"dom_n_total":1,"dom_completude":1.0,"dom_ocupados_n_validos":1,"dom_ocupados_n_total":1,"dom_ocupados_completude":1.0,"mulheres_n_validos":1,"mulheres_n_total":1,"mulheres_completude":1.0,"c0_4_n_validos":1,"c0_4_n_total":1,"c0_4_completude":1.0,"c5_9_n_validos":1,"c5_9_n_total":1,"c5_9_completude":1.0,"i60_69_n_validos":1,"i60_69_n_total":1,"i60_69_completude":1.0,"i70m_n_validos":1,"i70m_n_total":1,"i70m_completude":1.0,"indigenas_n_validos":1,"indigenas_n_total":1,"indigenas_completude":1.0,"pretos_pardos_n_validos":1,"pretos_pardos_n_total":1,"pretos_pardos_completude":1.0,"dom_agua_n_validos":1,"dom_agua_n_total":1,"dom_agua_completude":1.0,"dom_esgoto_n_validos":1,"dom_esgoto_n_total":1,"dom_esgoto_completude":1.0,"n_resp_n_validos":1,"n_resp_n_total":1,"n_resp_completude":1.0,"renda_resp_n_validos":1,"renda_resp_n_total":1,"renda_resp_completude":1.0,"dens_n_validos":1,"dens_n_total":1,"dens_completude":1.0,"status_borda_bacia":"total","metodo_area_bacia":"interse??o geom?trica em EPSG:5880","metodo_na_bacia":"ponto_representativo_setor_2022_within_bacia","municipio":"Guabiju","cod_mun":"4309258","mun_pct_na_bacia":100.0,"mun_pop_total":1417,"mun_pop_na_bacia":1417.0,"mun_ubs_iede":2,"mun_hospitais_iede":null,"mun_escolas_iede":null,"mun_bombeiros_iede":null,"mun_servicos_cobertura":"cadastro_IEDE_parcial_nao_inventario","mun_icm_faixa":"B","mun_icm_pontos":5,"mun_icm_prioritario":"não","mun_ubs_iede_status":"published","mun_hospitais_iede_status":"unknown","mun_escolas_iede_status":"unknown","mun_bombeiros_iede_status":"unknown"},"geometry":{"type":"Polygon","coordinates":[[[-51.62350639999994,-28.514374899999936],[-51.62429769999994,-28.51516139999995],[-51.62428679999994,-28.515852799999948],[-51.62299829999994,-28.51687429999998],[-51.62063,-28.51719709999998],[-51.62041239999996,-28.51906029999998],[-51.619685699999934,-28.520171],[-51.61897949999997,-28.520393599999988],[-51.61825129999994,-28.520263],[-51.61651009999997,-28.521057099999958],[-51.615692799999984,-28.522238099999985],[-51.615453,-28.523572199999936],[-51.61491769999998,-28.52395429999996],[-51.612887299999954,-28.52416059999996],[-51.61074069999996,-28.52409239999996],[-51.60977959999996,-28.52450209999994],[-51.609460499999955,-28.524947599999965],[-51.60916949999996,-28.52644629999998],[-51.609558899999975,-28.52750719999995],[-51.61047829999996,-28.527861],[-51.61234319999994,-28.527702099999924],[-51.61318659999995,-28.52796259999996],[-51.614943799999935,-28.531084199999945],[-51.614394899999986,-28.532007499999956],[-51.61317709999997,-28.532684799999966],[-51.61269279999994,-28.533209299999946],[-51.61142509999997,-28.535133699999953],[-51.610115,-28.53567949999995],[-51.60944129999996,-28.536392099999944],[-51.60885739999998,-28.536648799999963],[-51.60828189999996,-28.536668099999925],[-51.60635569999994,-28.53593559999996],[-51.60286729999996,-28.535767],[-51.601627599999965,-28.536525699999974],[-51.601427299999955,-28.536971799999957],[-51.60155019999996,-28.537528699999942],[-51.601018,-28.5379392],[-51.59950629999998,-28.53746809999995],[-51.599134499999934,-28.53653209999993],[-51.59796669999997,-28.537244399999963],[-51.59705839999998,-28.5371737],[-51.59615569999994,-28.537879599999933],[-51.59705169999996,-28.539942199999913],[-51.59706269999998,-28.541062199999942],[-51.59745909999999,-28.54146939999998],[-51.59963439999996,-28.542832499999975],[-51.60185879999995,-28.54359459999996],[-51.604453699999965,-28.543769899999983],[-51.60468559999998,-28.544973],[-51.60447049999994,-28.547220099999954],[-51.604134699999975,-28.547573499999938],[-51.60404059999997,-28.54839959999998],[-51.603461799999934,-28.54843229999995],[-51.603163299999956,-28.549087799999942],[-51.60378759999998,-28.549150099999967],[-51.604906,-28.548639199999958],[-51.60612949999995,-28.54854229999996],[-51.60672329999994,-28.547986],[-51.60703049999996,-28.547239099999953],[-51.607465699999985,-28.547332099999945],[-51.60819939999993,-28.548370599999945],[-51.608019199999944,-28.549376],[-51.60951949999997,-28.549748099999928],[-51.61025629999994,-28.549409799999975],[-51.61094179999998,-28.547788699999945],[-51.611605,-28.54773189999997],[-51.61211079999998,-28.548131399999928],[-51.611641299999974,-28.55003309999995],[-51.612267,-28.55166609999998],[-51.61217759999994,-28.552452599999977],[-51.60963529999998,-28.554766],[-51.608771799999936,-28.555865],[-51.60779849999995,-28.556236599999977],[-51.607372399999974,-28.55693619999994],[-51.607735,-28.557543],[-51.608197,-28.557781499999972],[-51.608466299999975,-28.558588299999947],[-51.60860749999995,-28.560310099999985],[-51.60798669999997,-28.561365499999958],[-51.60832609999994,-28.56262289999995],[-51.60787189999997,-28.562987299999982],[-51.60616619999996,-28.56360779999994],[-51.60542709999998,-28.564392],[-51.604125599999975,-28.566686799999957],[-51.604158499999976,-28.56830359999998],[-51.604456599999935,-28.568610299999936],[-51.60460809999995,-28.569335499999966],[-51.60429339999997,-28.57018049999994],[-51.60388769999997,-28.570583099999965],[-51.60220229999993,-28.571198899999953],[-51.60134889999995,-28.572089699999932],[-51.603854299999966,-28.577135799999947],[-51.603911,-28.577770199999968],[-51.60344649999996,-28.57879569999994],[-51.604011699999944,-28.581006099999957],[-51.603348,-28.581836],[-51.60351069999996,-28.58277629999998],[-51.60225159999994,-28.583541199999956],[-51.60132979999997,-28.583270899999945],[-51.600438199999985,-28.583875599999942],[-51.59898649999996,-28.584163],[-51.598500299999955,-28.584755099999935],[-51.600266,-28.58603889999995],[-51.60099229999997,-28.58587409999996],[-51.601978799999976,-28.586082199999968],[-51.60309449999994,-28.58708069999995],[-51.60311479999996,-28.588385],[-51.60341569999997,-28.588870899999964],[-51.60531039999995,-28.589688799999973],[-51.605317,-28.590564],[-51.60439619999995,-28.591643199999965],[-51.60507129999996,-28.592966],[-51.60629339999997,-28.593112499999965],[-51.60780939999995,-28.594563199999964],[-51.60849659999996,-28.594753199999957],[-51.609062,-28.59463549999999],[-51.610526,-28.59304779999996],[-51.61141039999996,-28.59259959999996],[-51.61203469999998,-28.592605399999965],[-51.61266019999994,-28.59290749999996],[-51.612913,-28.593800799999947],[-51.61454549999997,-28.595543],[-51.61456059999995,-28.596476899999953],[-51.61390849999997,-28.598072099999975],[-51.61239969999997,-28.599207699999965],[-51.61139849999995,-28.601009599999934],[-51.611312199999986,-28.604665499999953],[-51.61103809999997,-28.60518459999997],[-51.609787,-28.605500099999972],[-51.60794809999993,-28.60477749999995],[-51.606405399999964,-28.604637899999947],[-51.60512209999996,-28.60504079999998],[-51.60370409999996,-28.60723759999996],[-51.60196939999997,-28.609230699999955],[-51.60176009999998,-28.610656799999955],[-51.60214189999993,-28.611859],[-51.60297959999997,-28.612453299999967],[-51.60342929999996,-28.61328829999997],[-51.605566299999964,-28.614555899999974],[-51.60663859999994,-28.614860599999933],[-51.60770209999998,-28.616209299999984],[-51.608653699999934,-28.616918299999945],[-51.60958819999996,-28.61864809999997],[-51.60940949999997,-28.62032249999993],[-51.61001859999993,-28.620913599999945],[-51.611329099999985,-28.621606299999943],[-51.612672499999974,-28.622813],[-51.61292419999995,-28.62351109999998],[-51.61217419999998,-28.62467719999994],[-51.61252059999998,-28.626005],[-51.61435739999996,-28.627420499999968],[-51.6152484,-28.62879439999995],[-51.61496729999993,-28.629696099999936],[-51.61443779999997,-28.630136199999974],[-51.612249299999974,-28.629666399999962],[-51.61176939999996,-28.629790399999937],[-51.61162359999997,-28.63039749999995],[-51.61207239999994,-28.63106],[-51.61181419999997,-28.631910099999967],[-51.61578149999996,-28.635532599999976],[-51.615499,-28.638137699999955],[-51.61453209999996,-28.63898329999996],[-51.61224039999996,-28.639175899999948],[-51.609282499999956,-28.636823499999938],[-51.608806,-28.63673319999998],[-51.60802039999999,-28.636892399999955],[-51.60622659999996,-28.637870599999914],[-51.60602239999998,-28.638230599999925],[-51.60615209999998,-28.63868389999994],[-51.60845169999993,-28.639607099999967],[-51.610755,-28.641065699999956],[-51.61102809999995,-28.641316699999937],[-51.61138379999994,-28.64256659999995],[-51.611121399999945,-28.64330709999995],[-51.610124,-28.643900199999955],[-51.60888169999998,-28.643938],[-51.60795889999997,-28.643678499999968],[-51.60709339999994,-28.642900399999974],[-51.60597109999998,-28.642960599999977],[-51.604842399999946,-28.643575499999944],[-51.60528059999995,-28.645716099999955],[-51.606532699999946,-28.64652729999994],[-51.606807599999975,-28.647083899999924],[-51.60662209999998,-28.64799339999996],[-51.60610989999998,-28.64878359999993],[-51.606202499999945,-28.64920779999994],[-51.60782569999998,-28.65099429999998],[-51.60868759999994,-28.65123519999996],[-51.60898579999997,-28.651594099999958],[-51.60850849999998,-28.65192049999996],[-51.60836449999994,-28.65234519999996],[-51.60604879999994,-28.65389329999994],[-51.60416819999994,-28.653754099999954],[-51.60231259999995,-28.654118099999952],[-51.599077699999945,-28.658243899999942],[-51.59895179999996,-28.659159599999963],[-51.59824759999997,-28.65912349999996],[-51.59598889999995,-28.660264299999934],[-51.59344059999995,-28.662033799999953],[-51.59202689999996,-28.662274299999975],[-51.59188649999999,-28.66292709999994],[-51.59265829999998,-28.664168099999983],[-51.593029099999974,-28.66435889999997],[-51.593497499999955,-28.664166299999987],[-51.59482709999998,-28.664786399999976],[-51.59515959999993,-28.66610739999992],[-51.595048,-28.66716479999997],[-51.595321599999984,-28.66738839999993],[-51.595947499999966,-28.669119199999958],[-51.5977276,-28.667703599999985],[-51.597642,-28.66637139999994],[-51.59791379999996,-28.666138899999957],[-51.59843109999997,-28.666266799999956],[-51.59942339999998,-28.66605339999995],[-51.60051939999994,-28.66645859999994],[-51.602770799999966,-28.666561],[-51.60526549999998,-28.667447099999933],[-51.60561489999998,-28.66737989999995],[-51.60581029999997,-28.666957299999975],[-51.60387219999996,-28.664530199999948],[-51.60395459999995,-28.663969599999966],[-51.60464149999996,-28.663467199999957],[-51.605051899999985,-28.663409799999958],[-51.60604869999998,-28.663774699999976],[-51.60957029999998,-28.66342439999994],[-51.61049429999997,-28.664647599999963],[-51.61187909999995,-28.663791499999935],[-51.612730399999975,-28.664258899999947],[-51.61354139999998,-28.664026399999955],[-51.61381209999997,-28.663781799999978],[-51.613779299999976,-28.663261499999976],[-51.612758499999984,-28.662149099999958],[-51.61163239999996,-28.661403899999975],[-51.611699499999986,-28.661040099999973],[-51.61206259999995,-28.660782799999936],[-51.612478899999985,-28.660690499999923],[-51.61306969999998,-28.660981],[-51.61400589999994,-28.66198629999997],[-51.61602039999996,-28.66279749999996],[-51.61633269999999,-28.662715],[-51.61642019999994,-28.661729],[-51.616879199999964,-28.66079269999995],[-51.61743659999996,-28.66019129999995],[-51.61803229999998,-28.65996809999995],[-51.619015599999955,-28.657018499999932],[-51.62039189999996,-28.655076099999977],[-51.62070939999995,-28.653404799999986],[-51.62049369999994,-28.651558299999976],[-51.620715399999945,-28.649917],[-51.62537919999994,-28.645897099999953],[-51.62748179999994,-28.64365979999996],[-51.62821829999996,-28.643230399999926],[-51.62850009999993,-28.641919599999937],[-51.62834889999994,-28.63883079999993],[-51.62647839999994,-28.637416399999953],[-51.625816499999985,-28.637203699999926],[-51.62436829999995,-28.637245699999944],[-51.621293099999946,-28.63616519999992],[-51.62040349999996,-28.634146399999956],[-51.61940159999995,-28.632632399999977],[-51.620411,-28.627954],[-51.62021929999998,-28.62312579999996],[-51.619764,-28.622161299999956],[-51.617789899999934,-28.619680599999988],[-51.61698379999996,-28.6175818],[-51.61713359999993,-28.616791],[-51.61954459999998,-28.61356],[-51.620839199999985,-28.612296399999938],[-51.623055,-28.613146699999955],[-51.62489169999998,-28.613023899999973],[-51.62627549999996,-28.612664499999937],[-51.628935199999944,-28.61362289999994],[-51.631253399999935,-28.613242499999963],[-51.632370599999945,-28.611960599999968],[-51.63371089999998,-28.610982],[-51.63567729999994,-28.610562599999984],[-51.63739049999998,-28.610583599999984],[-51.639924399999984,-28.61212539999998],[-51.64185329999998,-28.611849799999952],[-51.642916499999956,-28.61089879999997],[-51.64560319999999,-28.610551399999956],[-51.64802329999998,-28.609820599999974],[-51.64828529999994,-28.608682399999974],[-51.64895029999997,-28.607795899999925],[-51.64974549999994,-28.607295699999952],[-51.64995209999996,-28.60541769999997],[-51.650910599999975,-28.601473099999964],[-51.65041039999995,-28.599661099999935],[-51.65117409999994,-28.59877819999996],[-51.653988099999935,-28.59761089999995],[-51.656244699999945,-28.594906799999933],[-51.65812439999996,-28.593270899999926],[-51.65781289999995,-28.590585],[-51.658214199999975,-28.588206899999935],[-51.65950809999998,-28.58616939999995],[-51.660379,-28.583884899999916],[-51.66226969999997,-28.582799899999934],[-51.663200399999944,-28.581914099999956],[-51.663911,-28.58048009999993],[-51.665013199999976,-28.579620499999965],[-51.66612749999996,-28.57767979999994],[-51.66687809999997,-28.57481969999998],[-51.666500699999965,-28.574009499999942],[-51.665686,-28.573704],[-51.66562009999996,-28.573503299999974],[-51.66575939999996,-28.572010199999955],[-51.66492519999997,-28.570012799999965],[-51.66522479999998,-28.569455699999935],[-51.665635,-28.569343599999964],[-51.66862839999993,-28.570421699999937],[-51.66967669999997,-28.569469199999958],[-51.671403099999964,-28.5652535],[-51.67225039999994,-28.561931],[-51.672573899999975,-28.561505699999948],[-51.67425719999994,-28.560469399999928],[-51.675377399999945,-28.56008],[-51.67937889999997,-28.559735599999954],[-51.68048929999998,-28.55918219999995],[-51.68334219999998,-28.558634099999946],[-51.68998829999998,-28.555667399999937],[-51.69119489999997,-28.554844799999962],[-51.69227549999994,-28.554791599999934],[-51.69129809999998,-28.553481299999927],[-51.69072919999997,-28.551882499999977],[-51.68993679999995,-28.55113659999995],[-51.68906109999995,-28.550932399999954],[-51.68302429999994,-28.545333699999965],[-51.68277859999995,-28.538828],[-51.683110699999986,-28.538793199999937],[-51.685429,-28.53670859999993],[-51.688155,-28.535165599999967],[-51.690491899999984,-28.534827699999934],[-51.68995879999994,-28.533214199999964],[-51.690378,-28.531455199999982],[-51.694762899999944,-28.525037299999948],[-51.69730929999998,-28.522925799999932],[-51.6986831,-28.520430199999968],[-51.68523449999998,-28.51999429999996],[-51.684307099999955,-28.51944359999992],[-51.68428729999994,-28.51825559999997],[-51.68404429999998,-28.51785859999996],[-51.68308029999997,-28.517687399999936],[-51.68248209999996,-28.518014499999936],[-51.68194219999998,-28.51886079999997],[-51.68093749999997,-28.51951929999995],[-51.67778089999995,-28.520569099999925],[-51.67616009999995,-28.520722599999928],[-51.66451619999999,-28.518068199999952],[-51.664153899999974,-28.518408099999924],[-51.66437839999998,-28.519516099999976],[-51.663939599999935,-28.520077699999938],[-51.66370619999997,-28.521261499999973],[-51.66300549999994,-28.521932499999938],[-51.659524699999956,-28.52181009999999],[-51.65652069999993,-28.52354289999993],[-51.65540489999995,-28.52403549999996],[-51.654307399999944,-28.52414619999995],[-51.65335619999997,-28.523889399999973],[-51.65253629999995,-28.523032899999972],[-51.65261249999998,-28.520570799999962],[-51.652308199999936,-28.519398299999974],[-51.651033799999944,-28.519434599999954],[-51.65005579999996,-28.519166799999926],[-51.648225699999955,-28.5175096],[-51.64581029999994,-28.516388899999974],[-51.644609199999934,-28.51516879999996],[-51.64269919999998,-28.514643199999973],[-51.64075669999995,-28.514656099999975],[-51.640019,-28.514238699999964],[-51.638710099999976,-28.512765599999963],[-51.63826589999996,-28.512553399999955],[-51.63706359999997,-28.512353399999935],[-51.634640499999925,-28.51252489999996],[-51.633923099999954,-28.51274439999997],[-51.633239799999956,-28.513297699999946],[-51.633149599999975,-28.513927899999935],[-51.63217579999996,-28.513396099999976],[-51.63195379999997,-28.512709699999974],[-51.63129849999995,-28.51241359999995],[-51.630829,-28.511835799999975],[-51.62947009999994,-28.51144759999993],[-51.628507599999985,-28.51169339999995],[-51.62776439999993,-28.51111589999994],[-51.62600449999996,-28.51083849999997],[-51.625203399999975,-28.511151],[-51.62449719999996,-28.512447599999966],[-51.62351709999996,-28.513364299999978],[-51.62350639999994,-28.514374899999936]]]}},{"type":"Feature","properties":{"setor":"430925805000003","pop":175,"sigilo_pop":false,"dom":85,"sigilo_dom":0,"mulheres":82,"sigilo_mulheres":0,"c0_4":null,"sigilo_c0_4":1,"c5_9":9,"sigilo_c5_9":0,"i60_69":44,"sigilo_i60_69":0,"i70m":39,"sigilo_i70m":0,"indigenas":0,"sigilo_indigenas":0,"pretos_pardos":null,"sigilo_pretos_pardos":1,"dom_ocupados":65,"sigilo_dom_ocupados":0,"dom_agua":null,"sigilo_dom_agua":1,"dom_esgoto":0,"sigilo_dom_esgoto":0,"renda_resp":3778.71,"sigilo_renda_resp":0,"n_resp":65,"sigilo_n_resp":0,"dens":4.5,"sigilo_dens":false,"na_bacia":1,"area_pct_bacia":100.0,"metodo_recorte_bacia":"ponto_representativo_setor_2022; area_pct_geometrica","pop_n_validos":1,"pop_n_total":1,"pop_completude":1.0,"dom_n_validos":1,"dom_n_total":1,"dom_completude":1.0,"dom_ocupados_n_validos":1,"dom_ocupados_n_total":1,"dom_ocupados_completude":1.0,"mulheres_n_validos":1,"mulheres_n_total":1,"mulheres_completude":1.0,"c0_4_n_validos":0,"c0_4_n_total":1,"c0_4_completude":0.0,"c5_9_n_validos":1,"c5_9_n_total":1,"c5_9_completude":1.0,"i60_69_n_validos":1,"i60_69_n_total":1,"i60_69_completude":1.0,"i70m_n_validos":1,"i70m_n_total":1,"i70m_completude":1.0,"indigenas_n_validos":1,"indigenas_n_total":1,"indigenas_completude":1.0,"pretos_pardos_n_validos":0,"pretos_pardos_n_total":1,"pretos_pardos_completude":0.0,"dom_agua_n_validos":0,"dom_agua_n_total":1,"dom_agua_completude":0.0,"dom_esgoto_n_validos":1,"dom_esgoto_n_total":1,"dom_esgoto_completude":1.0,"n_resp_n_validos":1,"n_resp_n_total":1,"n_resp_completude":1.0,"renda_resp_n_validos":1,"renda_resp_n_total":1,"renda_resp_completude":1.0,"dens_n_validos":1,"dens_n_total":1,"dens_completude":1.0,"status_borda_bacia":"total","metodo_area_bacia":"interse??o geom?trica em EPSG:5880","metodo_na_bacia":"ponto_representativo_setor_2022_within_bacia","municipio":"Guabiju","cod_mun":"4309258","mun_pct_na_bacia":100.0,"mun_pop_total":1417,"mun_pop_na_bacia":1417.0,"mun_ubs_iede":2,"mun_hospitais_iede":null,"mun_escolas_iede":null,"mun_bombeiros_iede":null,"mun_servicos_cobertura":"cadastro_IEDE_parcial_nao_inventario","mun_icm_faixa":"B","mun_icm_pontos":5,"mun_icm_prioritario":"não","mun_ubs_iede_status":"published","mun_hospitais_iede_status":"unknown","mun_escolas_iede_status":"unknown","mun_bombeiros_iede_status":"unknown"},"geometry":{"type":"Polygon","coordinates":[[[-51.61803229999998,-28.65996809999995],[-51.620018699999946,-28.659334199999925],[-51.62334559999993,-28.659634599999944],[-51.62374549999998,-28.6593281],[-51.624464199999984,-28.65805639999996],[-51.62489389999996,-28.657909299999968],[-51.62674959999998,-28.658298799999955],[-51.627660399999975,-28.658239899999938],[-51.62979259999997,-28.656947299999963],[-51.630145699999964,-28.65710479999995],[-51.63066689999993,-28.657884299999964],[-51.631026099999985,-28.65794939999994],[-51.631627299999934,-28.657249099999945],[-51.631508,-28.656559799999958],[-51.632087,-28.65628629999997],[-51.63257409999994,-28.656585299999957],[-51.633373799999966,-28.65667009999993],[-51.63427939999997,-28.655522699999942],[-51.63478259999994,-28.654332399999927],[-51.635243499999945,-28.653990799999963],[-51.63620369999995,-28.653974499999944],[-51.63732769999996,-28.65553009999996],[-51.639484299999936,-28.65426169999995],[-51.64106819999994,-28.654502599999958],[-51.641603399999944,-28.654270099999973],[-51.64243549999998,-28.654286],[-51.64320809999998,-28.652476099999948],[-51.645452,-28.651954199999967],[-51.645654399999955,-28.651718],[-51.64557329999997,-28.650666899999973],[-51.64597789999994,-28.65002569999995],[-51.647957399999946,-28.64929339999997],[-51.64906779999996,-28.645848399999977],[-51.649785,-28.646038599999947],[-51.65035769999997,-28.645732899999928],[-51.6503446,-28.645458399999946],[-51.649547899999966,-28.64467839999998],[-51.649570799999935,-28.64436149999994],[-51.64995579999999,-28.644291499999955],[-51.65108589999994,-28.643124899999975],[-51.652160599999945,-28.642439],[-51.65273239999993,-28.641627199999952],[-51.65340269999996,-28.641873],[-51.65433379999997,-28.64129569999994],[-51.654101,-28.640787299999946],[-51.65462659999997,-28.640811799999938],[-51.65497129999994,-28.639991799999965],[-51.65595069999995,-28.63992769999994],[-51.65623489999996,-28.640229299999927],[-51.656213,-28.640592099999935],[-51.65683549999994,-28.640893799999972],[-51.656825899999944,-28.640052099999927],[-51.656205899999975,-28.63933449999996],[-51.656086399999936,-28.637747199999975],[-51.65632139999996,-28.63762159999994],[-51.65935509999997,-28.637997599999938],[-51.66041219999994,-28.637115899999976],[-51.66121189999996,-28.636910899999968],[-51.661302,-28.63628959999993],[-51.661803099999986,-28.635808599999965],[-51.66194369999994,-28.63521029999998],[-51.661204199999986,-28.63526339999993],[-51.66043829999995,-28.634752599999956],[-51.6603765,-28.634322299999962],[-51.66104649999995,-28.633775399999937],[-51.661700499999945,-28.633591699999954],[-51.66203449999995,-28.634075],[-51.66247929999997,-28.63402709999997],[-51.662816299999974,-28.633733499999938],[-51.662901599999934,-28.632490899999937],[-51.66324039999995,-28.632341799999953],[-51.664288899999974,-28.632498099999975],[-51.664867,-28.632251599999968],[-51.66627619999998,-28.628989899999958],[-51.66668379999993,-28.629455599999964],[-51.667092,-28.629457299999945],[-51.66845859999995,-28.629025699999943],[-51.66950729999997,-28.629111899999934],[-51.67113089999998,-28.628458099999936],[-51.67114889999994,-28.628223399999957],[-51.67053869999995,-28.62785649999995],[-51.67042839999994,-28.627521299999945],[-51.67091859999994,-28.62737329999993],[-51.67095189999998,-28.626870099999962],[-51.67186159999994,-28.625918299999956],[-51.673256799999926,-28.62551729999995],[-51.67354179999995,-28.625216299999963],[-51.67453349999994,-28.622565],[-51.67642269999994,-28.622108199999953],[-51.677307799999944,-28.621189099999967],[-51.677948399999934,-28.621115899999943],[-51.679418,-28.621758099999965],[-51.68019979999997,-28.621757499999955],[-51.681946799999935,-28.620547399999964],[-51.68281159999998,-28.62056849999994],[-51.6843224,-28.62007],[-51.68497689999999,-28.620355799999967],[-51.68631449999998,-28.62043479999995],[-51.68859069999997,-28.619803899999965],[-51.68900879999996,-28.61991649999993],[-51.689473,-28.620407499999946],[-51.690154799999966,-28.620466699999945],[-51.69167319999996,-28.619932799999965],[-51.69238469999994,-28.620009099999937],[-51.69272189999998,-28.61965109999994],[-51.693907699999954,-28.619348799999955],[-51.696455599999986,-28.61945179999997],[-51.69762309999994,-28.618284],[-51.69819949999993,-28.61810609999997],[-51.69820489999996,-28.615493599999972],[-51.697525,-28.61427459999993],[-51.69717749999995,-28.614023],[-51.69313109999996,-28.61295969999998],[-51.69079489999996,-28.610683399999974],[-51.68975259999996,-28.605549699999983],[-51.68922539999995,-28.603932299999947],[-51.68808729999995,-28.602638399999925],[-51.68812319999995,-28.601464299999968],[-51.68682929999994,-28.598454199999924],[-51.687104899999945,-28.59687279999997],[-51.68721419999997,-28.590946899999953],[-51.688544,-28.588215299999952],[-51.68949049999998,-28.58696929999996],[-51.689595699999984,-28.58464109999995],[-51.68995179999996,-28.583638699999938],[-51.69272529999996,-28.577606499999938],[-51.694139,-28.575640899999925],[-51.69521049999998,-28.573039599999955],[-51.69501279999997,-28.57094529999996],[-51.69370769999995,-28.56786549999999],[-51.69511539999996,-28.563271],[-51.693110099999956,-28.558433799999936],[-51.69227549999994,-28.554791599999934],[-51.69119489999997,-28.554844799999962],[-51.68998829999998,-28.555667399999937],[-51.68334219999998,-28.558634099999946],[-51.68048929999998,-28.55918219999995],[-51.67937889999997,-28.559735599999954],[-51.675377399999945,-28.56008],[-51.67425719999994,-28.560469399999928],[-51.672573899999975,-28.561505699999948],[-51.67225039999994,-28.561931],[-51.671403099999964,-28.5652535],[-51.66967669999997,-28.569469199999958],[-51.66862839999993,-28.570421699999937],[-51.665635,-28.569343599999964],[-51.66522479999998,-28.569455699999935],[-51.66492519999997,-28.570012799999965],[-51.66575939999996,-28.572010199999955],[-51.66562009999996,-28.573503299999974],[-51.665686,-28.573704],[-51.666500699999965,-28.574009499999942],[-51.66687809999997,-28.57481969999998],[-51.66612749999996,-28.57767979999994],[-51.665013199999976,-28.579620499999965],[-51.663911,-28.58048009999993],[-51.663200399999944,-28.581914099999956],[-51.66226969999997,-28.582799899999934],[-51.660379,-28.583884899999916],[-51.65950809999998,-28.58616939999995],[-51.658214199999975,-28.588206899999935],[-51.65781289999995,-28.590585],[-51.65812439999996,-28.593270899999926],[-51.656244699999945,-28.594906799999933],[-51.653988099999935,-28.59761089999995],[-51.65117409999994,-28.59877819999996],[-51.65041039999995,-28.599661099999935],[-51.650910599999975,-28.601473099999964],[-51.64995209999996,-28.60541769999997],[-51.64974549999994,-28.607295699999952],[-51.64895029999997,-28.607795899999925],[-51.64828529999994,-28.608682399999974],[-51.64802329999998,-28.609820599999974],[-51.64560319999999,-28.610551399999956],[-51.642916499999956,-28.61089879999997],[-51.64185329999998,-28.611849799999952],[-51.639924399999984,-28.61212539999998],[-51.63739049999998,-28.610583599999984],[-51.63567729999994,-28.610562599999984],[-51.63371089999998,-28.610982],[-51.632370599999945,-28.611960599999968],[-51.631253399999935,-28.613242499999963],[-51.628935199999944,-28.61362289999994],[-51.62627549999996,-28.612664499999937],[-51.62489169999998,-28.613023899999973],[-51.623055,-28.613146699999955],[-51.620839199999985,-28.612296399999938],[-51.61954459999998,-28.61356],[-51.617761,-28.615881299999963],[-51.61713359999993,-28.616791],[-51.61698979999994,-28.617803399999957],[-51.617789899999934,-28.619680599999988],[-51.619764,-28.622161299999956],[-51.62021929999998,-28.62312579999996],[-51.620411,-28.627954],[-51.61940159999995,-28.632632399999977],[-51.62040349999996,-28.634146399999956],[-51.621293099999946,-28.63616519999992],[-51.62436829999995,-28.637245699999944],[-51.625816499999985,-28.637203699999926],[-51.62683549999998,-28.637622599999926],[-51.62834889999994,-28.63883079999993],[-51.62851809999995,-28.640811399999965],[-51.62821829999996,-28.643230399999926],[-51.62748179999994,-28.64365979999996],[-51.62537919999994,-28.645897099999953],[-51.620715399999945,-28.649917],[-51.62052369999998,-28.65071969999997],[-51.62070939999995,-28.653404799999986],[-51.62054759999996,-28.654537],[-51.62011039999993,-28.655663199999942],[-51.619015599999955,-28.657018499999932],[-51.61803229999998,-28.65996809999995]]]}},{"type":"Feature","properties":{"setor":"430925805000004","pop":193,"sigilo_pop":false,"dom":87,"sigilo_dom":0,"mulheres":85,"sigilo_mulheres":0,"c0_4":10,"sigilo_c0_4":0,"c5_9":11,"sigilo_c5_9":0,"i60_69":34,"sigilo_i60_69":0,"i70m":34,"sigilo_i70m":0,"indigenas":0,"sigilo_indigenas":0,"pretos_pardos":29,"sigilo_pretos_pardos":0,"dom_ocupados":71,"sigilo_dom_ocupados":0,"dom_agua":5,"sigilo_dom_agua":0,"dom_esgoto":null,"sigilo_dom_esgoto":1,"renda_resp":3252.2,"sigilo_renda_resp":0,"n_resp":71,"sigilo_n_resp":0,"dens":6.3,"sigilo_dens":false,"na_bacia":1,"area_pct_bacia":100.0,"metodo_recorte_bacia":"ponto_representativo_setor_2022; area_pct_geometrica","pop_n_validos":1,"pop_n_total":1,"pop_completude":1.0,"dom_n_validos":1,"dom_n_total":1,"dom_completude":1.0,"dom_ocupados_n_validos":1,"dom_ocupados_n_total":1,"dom_ocupados_completude":1.0,"mulheres_n_validos":1,"mulheres_n_total":1,"mulheres_completude":1.0,"c0_4_n_validos":1,"c0_4_n_total":1,"c0_4_completude":1.0,"c5_9_n_validos":1,"c5_9_n_total":1,"c5_9_completude":1.0,"i60_69_n_validos":1,"i60_69_n_total":1,"i60_69_completude":1.0,"i70m_n_validos":1,"i70m_n_total":1,"i70m_completude":1.0,"indigenas_n_validos":1,"indigenas_n_total":1,"indigenas_completude":1.0,"pretos_pardos_n_validos":1,"pretos_pardos_n_total":1,"pretos_pardos_completude":1.0,"dom_agua_n_validos":1,"dom_agua_n_total":1,"dom_agua_completude":1.0,"dom_esgoto_n_validos":0,"dom_esgoto_n_total":1,"dom_esgoto_completude":0.0,"n_resp_n_validos":1,"n_resp_n_total":1,"n_resp_completude":1.0,"renda_resp_n_validos":1,"renda_resp_n_total":1,"renda_resp_completude":1.0,"dens_n_validos":1,"dens_n_total":1,"dens_completude":1.0,"status_borda_bacia":"total","metodo_area_bacia":"interse??o geom?trica em EPSG:5880","metodo_na_bacia":"ponto_representativo_setor_2022_within_bacia","municipio":"Guabiju","cod_mun":"4309258","mun_pct_na_bacia":100.0,"mun_pop_total":1417,"mun_pop_na_bacia":1417.0,"mun_ubs_iede":2,"mun_hospitais_iede":null,"mun_escolas_iede":null,"mun_bombeiros_iede":null,"mun_servicos_cobertura":"cadastro_IEDE_parcial_nao_inventario","mun_icm_faixa":"B","mun_icm_pontos":5,"mun_icm_prioritario":"não","mun_ubs_iede_status":"published","mun_hospitais_iede_status":"unknown","mun_escolas_iede_status":"unknown","mun_bombeiros_iede_status":"unknown"},"geometry":{"type":"Polygon","coordinates":[[[-51.690491899999984,-28.534827699999934],[-51.69577119999997,-28.535201],[-51.70206129999997,-28.54481439999995],[-51.68993679999995,-28.55113659999995],[-51.69072919999997,-28.551882499999977],[-51.69129809999998,-28.553481299999927],[-51.69227549999994,-28.554791599999934],[-51.693110099999956,-28.558433799999936],[-51.69511539999996,-28.563271],[-51.69370769999995,-28.56786549999999],[-51.69501279999997,-28.57094529999996],[-51.69521049999998,-28.573039599999955],[-51.694139,-28.575640899999925],[-51.69272529999996,-28.577606499999938],[-51.68995179999996,-28.583638699999938],[-51.689595699999984,-28.58464109999995],[-51.68949049999998,-28.58696929999996],[-51.688544,-28.588215299999952],[-51.68710639999995,-28.59137819999994],[-51.687104899999945,-28.59687279999997],[-51.68682929999994,-28.598454199999924],[-51.68812319999995,-28.601464299999968],[-51.68808729999995,-28.602638399999925],[-51.68922539999995,-28.603932299999947],[-51.68975259999996,-28.605549699999983],[-51.69061519999996,-28.610359899999924],[-51.69313109999996,-28.61295969999998],[-51.69717749999995,-28.614023],[-51.697525,-28.61427459999993],[-51.69820489999996,-28.615493599999972],[-51.69819949999993,-28.61810609999997],[-51.699937,-28.616278],[-51.70038779999992,-28.615200699999942],[-51.701469299999985,-28.61440849999997],[-51.70221009999995,-28.61415069999997],[-51.703575199999925,-28.614351299999957],[-51.70540479999994,-28.613717099999977],[-51.706159199999945,-28.613865199999967],[-51.706449899999946,-28.613564899999968],[-51.70657559999995,-28.61246849999998],[-51.706024,-28.61188849999996],[-51.705953299999976,-28.61088959999995],[-51.706133199999954,-28.61014889999996],[-51.70658989999998,-28.609647799999948],[-51.704713799999986,-28.60934119999997],[-51.70517069999994,-28.607079],[-51.70597949999996,-28.605753499999935],[-51.70694969999994,-28.604302899999933],[-51.708341799999964,-28.603450399999925],[-51.708635,-28.602954],[-51.70892669999994,-28.599414499999963],[-51.70752589999995,-28.596503299999945],[-51.70785189999998,-28.596415499999974],[-51.70809269999995,-28.595843199999944],[-51.70797269999997,-28.59467489999997],[-51.70769249999995,-28.594440599999928],[-51.70803839999996,-28.593634099999985],[-51.707961599999976,-28.592414499999954],[-51.709954,-28.590168199999926],[-51.71084809999996,-28.589587099999953],[-51.71053139999997,-28.589007599999945],[-51.71136359999997,-28.587434399999943],[-51.711283499999986,-28.58667689999994],[-51.71186079999995,-28.585925299999925],[-51.71208569999994,-28.585926599999922],[-51.712365799999986,-28.584948899999976],[-51.71373429999994,-28.584237],[-51.71393489999997,-28.583715699999974],[-51.71450109999995,-28.583380299999934],[-51.71701519999994,-28.583178399999962],[-51.717677,-28.583426699999965],[-51.71811259999998,-28.583297699999957],[-51.71870719999998,-28.582079299999975],[-51.71965169999998,-28.581857],[-51.72028009999996,-28.58037529999995],[-51.72098169999999,-28.580004399999943],[-51.720619099999965,-28.57862739999995],[-51.721231899999964,-28.577977299999922],[-51.72175679999998,-28.577799599999942],[-51.722655299999985,-28.577951399999957],[-51.72366549999999,-28.57645649999996],[-51.725020599999944,-28.57631739999994],[-51.726487,-28.57654589999992],[-51.72718749999996,-28.576023599999928],[-51.72751779999999,-28.57530719999993],[-51.72820209999998,-28.574984299999986],[-51.72832529999994,-28.574384599999984],[-51.728723599999974,-28.57407539999996],[-51.72863849999994,-28.573332399999966],[-51.728945199999934,-28.572832099999978],[-51.72835909999998,-28.57288539999997],[-51.728274699999986,-28.572266199999948],[-51.72853769999995,-28.57222949999993],[-51.7287252,-28.571073],[-51.728308899999945,-28.571212199999938],[-51.728182699999934,-28.570597599999935],[-51.72652089999997,-28.569315],[-51.72639209999994,-28.568300799999967],[-51.727013,-28.567514699999943],[-51.72696,-28.566790799999985],[-51.727261299999945,-28.56631019999997],[-51.72823979999998,-28.565895599999976],[-51.72847169999995,-28.565214799999985],[-51.73020759999997,-28.56461479999995],[-51.73044929999998,-28.564175499999973],[-51.72971039999993,-28.562804299999975],[-51.73020289999994,-28.560698799999958],[-51.73112859999998,-28.558919699999937],[-51.732374,-28.55848],[-51.732371099999966,-28.557070199999945],[-51.73337029999993,-28.556239699999928],[-51.73339359999994,-28.555888799999934],[-51.734031,-28.55547769999998],[-51.73430309999998,-28.554994099999934],[-51.7355285,-28.55479079999997],[-51.73604509999996,-28.554261299999947],[-51.73680339999998,-28.55331139999998],[-51.73674589999996,-28.552740099999948],[-51.73745569999994,-28.55233609999993],[-51.73748189999998,-28.551710499999952],[-51.738811,-28.550828499999962],[-51.739273499999975,-28.549867699999933],[-51.73997589999994,-28.549535599999952],[-51.74043859999995,-28.548585699999933],[-51.74020459999997,-28.54696],[-51.7392622,-28.54479649999996],[-51.73963209999994,-28.544222699999974],[-51.74150789999994,-28.543552099999943],[-51.741307699999936,-28.541851199999943],[-51.74186469999995,-28.540984899999955],[-51.7411987,-28.53888849999993],[-51.74039349999998,-28.537657099999933],[-51.74024019999996,-28.536731799999984],[-51.740556499999975,-28.535774],[-51.73984919999999,-28.53499609999994],[-51.73954489999994,-28.53300709999995],[-51.74008369999996,-28.532486099999968],[-51.741507499999955,-28.53223529999996],[-51.742459099999955,-28.532407399999943],[-51.743124,-28.532192899999984],[-51.74412029999996,-28.53245269999997],[-51.74437109999997,-28.532009699999943],[-51.7434636,-28.53022889999994],[-51.74271049999993,-28.531033899999958],[-51.740629799999965,-28.53079609999998],[-51.739302099999975,-28.53016449999996],[-51.73870279999994,-28.529542699999975],[-51.73700039999994,-28.529314],[-51.73607629999997,-28.528805],[-51.73239069999994,-28.52880089999997],[-51.730563,-28.52906189999993],[-51.72974619999996,-28.528760599999938],[-51.727767599999936,-28.52899109999992],[-51.731218499999954,-28.524801499999967],[-51.728544399999976,-28.525636299999963],[-51.72617449999995,-28.52580109999997],[-51.72334959999995,-28.527110099999955],[-51.720835,-28.527719399999953],[-51.71884239999998,-28.527558399999975],[-51.71570839999998,-28.526479599999952],[-51.71326759999994,-28.526709599999943],[-51.71165129999997,-28.52642069999996],[-51.708102199999985,-28.52948289999995],[-51.707587899999965,-28.529574099999937],[-51.706655799999965,-28.528923399999936],[-51.70437789999994,-28.528546299999952],[-51.70342479999994,-28.52752539999995],[-51.70127889999997,-28.526428699999936],[-51.699989699999946,-28.52408049999996],[-51.69997889999997,-28.523667599999953],[-51.70024989999996,-28.52353589999996],[-51.700172699999946,-28.52210979999995],[-51.69930489999996,-28.521106899999946],[-51.69906059999994,-28.52045919999995],[-51.6986831,-28.520430199999968],[-51.69730929999998,-28.522925799999932],[-51.694762899999944,-28.525037299999948],[-51.690378,-28.531455199999982],[-51.68995879999994,-28.533214199999964],[-51.690491899999984,-28.534827699999934]]]}}]}
