{"type":"FeatureCollection","name":"4309951","crs":{"type":"name","properties":{"name":"urn:ogc:def:crs:OGC:1.3:CRS84"}},"features":[{"type":"Feature","properties":{"setor":"430995105000001","pop":165,"sigilo_pop":false,"dom":83,"sigilo_dom":false,"mulheres":76,"sigilo_mulheres":false,"c0_4":null,"sigilo_c0_4":true,"c5_9":10,"sigilo_c5_9":false,"i60_69":14,"sigilo_i60_69":false,"i70m":21,"sigilo_i70m":false,"indigenas":0,"sigilo_indigenas":false,"pretos_pardos":55,"sigilo_pretos_pardos":false,"dom_ocupados":66,"sigilo_dom_ocupados":false,"dom_agua":66,"sigilo_dom_agua":false,"dom_esgoto":null,"sigilo_dom_esgoto":true,"renda_resp":2065.89,"sigilo_renda_resp":false,"n_resp":66,"sigilo_n_resp":false,"dens":337.3,"sigilo_dens":false,"na_bacia":0,"area_pct_bacia":0.0,"metodo_recorte_bacia":"ponto_representativo_setor_2022; area_pct_geometrica","status_borda_bacia":"total","metodo_area_bacia":"interse??o geom?trica em EPSG:5880","metodo_na_bacia":"ponto_representativo_setor_2022_within_bacia","pop_n_validos":1,"pop_n_total":1,"pop_completude":1.0,"dom_n_validos":1,"dom_n_total":1,"dom_completude":1.0,"dom_ocupados_n_validos":1,"dom_ocupados_n_total":1,"dom_ocupados_completude":1.0,"mulheres_n_validos":1,"mulheres_n_total":1,"mulheres_completude":1.0,"c0_4_n_validos":0,"c0_4_n_total":1,"c0_4_completude":0.0,"c5_9_n_validos":1,"c5_9_n_total":1,"c5_9_completude":1.0,"i60_69_n_validos":1,"i60_69_n_total":1,"i60_69_completude":1.0,"i70m_n_validos":1,"i70m_n_total":1,"i70m_completude":1.0,"indigenas_n_validos":1,"indigenas_n_total":1,"indigenas_completude":1.0,"pretos_pardos_n_validos":1,"pretos_pardos_n_total":1,"pretos_pardos_completude":1.0,"dom_agua_n_validos":1,"dom_agua_n_total":1,"dom_agua_completude":1.0,"dom_esgoto_n_validos":0,"dom_esgoto_n_total":1,"dom_esgoto_completude":0.0,"n_resp_n_validos":1,"n_resp_n_total":1,"n_resp_completude":1.0,"renda_resp_n_validos":1,"renda_resp_n_total":1,"renda_resp_completude":1.0,"dens_n_validos":1,"dens_n_total":1,"dens_completude":1.0},"geometry":{"type":"Polygon","coordinates":[[[-52.51570219999997,-28.611372399999933],[-52.514897,-28.613549599999946],[-52.517923799999956,-28.618037],[-52.51948089999997,-28.619575899999965],[-52.51967419999994,-28.619536899999954],[-52.521389099999965,-28.616737399999973],[-52.523206399999935,-28.61454389999995],[-52.52400259999996,-28.612990199999942],[-52.51695529999996,-28.610311299999985],[-52.51645249999996,-28.611166699999952],[-52.51570219999997,-28.611372399999933]]]}},{"type":"Feature","properties":{"setor":"430995105000002","pop":566,"sigilo_pop":false,"dom":241,"sigilo_dom":false,"mulheres":286,"sigilo_mulheres":false,"c0_4":38,"sigilo_c0_4":false,"c5_9":31,"sigilo_c5_9":false,"i60_69":63,"sigilo_i60_69":false,"i70m":39,"sigilo_i70m":false,"indigenas":0,"sigilo_indigenas":false,"pretos_pardos":178,"sigilo_pretos_pardos":false,"dom_ocupados":215,"sigilo_dom_ocupados":false,"dom_agua":173,"sigilo_dom_agua":false,"dom_esgoto":16,"sigilo_dom_esgoto":false,"renda_resp":1886.14,"sigilo_renda_resp":false,"n_resp":215,"sigilo_n_resp":false,"dens":2565.5,"sigilo_dens":false,"na_bacia":0,"area_pct_bacia":0.0,"metodo_recorte_bacia":"ponto_representativo_setor_2022; area_pct_geometrica","status_borda_bacia":"total","metodo_area_bacia":"interse??o geom?trica em EPSG:5880","metodo_na_bacia":"ponto_representativo_setor_2022_within_bacia","pop_n_validos":1,"pop_n_total":1,"pop_completude":1.0,"dom_n_validos":1,"dom_n_total":1,"dom_completude":1.0,"dom_ocupados_n_validos":1,"dom_ocupados_n_total":1,"dom_ocupados_completude":1.0,"mulheres_n_validos":1,"mulheres_n_total":1,"mulheres_completude":1.0,"c0_4_n_validos":1,"c0_4_n_total":1,"c0_4_completude":1.0,"c5_9_n_validos":1,"c5_9_n_total":1,"c5_9_completude":1.0,"i60_69_n_validos":1,"i60_69_n_total":1,"i60_69_completude":1.0,"i70m_n_validos":1,"i70m_n_total":1,"i70m_completude":1.0,"indigenas_n_validos":1,"indigenas_n_total":1,"indigenas_completude":1.0,"pretos_pardos_n_validos":1,"pretos_pardos_n_total":1,"pretos_pardos_completude":1.0,"dom_agua_n_validos":1,"dom_agua_n_total":1,"dom_agua_completude":1.0,"dom_esgoto_n_validos":1,"dom_esgoto_n_total":1,"dom_esgoto_completude":1.0,"n_resp_n_validos":1,"n_resp_n_total":1,"n_resp_completude":1.0,"renda_resp_n_validos":1,"renda_resp_n_total":1,"renda_resp_completude":1.0,"dens_n_validos":1,"dens_n_total":1,"dens_completude":1.0},"geometry":{"type":"Polygon","coordinates":[[[-52.51022869999997,-28.61848],[-52.51301059999997,-28.62141159999993],[-52.51358979999998,-28.62001959999998],[-52.514733399999955,-28.620394199999968],[-52.516639,-28.615914199999967],[-52.514897,-28.613549599999946],[-52.51450139999997,-28.614565899999953],[-52.51505469999996,-28.615721899999983],[-52.512738799999966,-28.616861899999943],[-52.512031699999966,-28.61747509999999],[-52.510431299999944,-28.61761449999995],[-52.51022869999997,-28.61848]]]}},{"type":"Feature","properties":{"setor":"430995105000003","pop":348,"sigilo_pop":false,"dom":155,"sigilo_dom":false,"mulheres":172,"sigilo_mulheres":false,"c0_4":28,"sigilo_c0_4":false,"c5_9":29,"sigilo_c5_9":false,"i60_69":27,"sigilo_i60_69":false,"i70m":29,"sigilo_i70m":false,"indigenas":0,"sigilo_indigenas":false,"pretos_pardos":93,"sigilo_pretos_pardos":false,"dom_ocupados":135,"sigilo_dom_ocupados":false,"dom_agua":128,"sigilo_dom_agua":false,"dom_esgoto":5,"sigilo_dom_esgoto":false,"renda_resp":2183.11,"sigilo_renda_resp":false,"n_resp":135,"sigilo_n_resp":false,"dens":1385.1,"sigilo_dens":false,"na_bacia":0,"area_pct_bacia":0.0,"metodo_recorte_bacia":"ponto_representativo_setor_2022; area_pct_geometrica","status_borda_bacia":"total","metodo_area_bacia":"interse??o geom?trica em EPSG:5880","metodo_na_bacia":"ponto_representativo_setor_2022_within_bacia","pop_n_validos":1,"pop_n_total":1,"pop_completude":1.0,"dom_n_validos":1,"dom_n_total":1,"dom_completude":1.0,"dom_ocupados_n_validos":1,"dom_ocupados_n_total":1,"dom_ocupados_completude":1.0,"mulheres_n_validos":1,"mulheres_n_total":1,"mulheres_completude":1.0,"c0_4_n_validos":1,"c0_4_n_total":1,"c0_4_completude":1.0,"c5_9_n_validos":1,"c5_9_n_total":1,"c5_9_completude":1.0,"i60_69_n_validos":1,"i60_69_n_total":1,"i60_69_completude":1.0,"i70m_n_validos":1,"i70m_n_total":1,"i70m_completude":1.0,"indigenas_n_validos":1,"indigenas_n_total":1,"indigenas_completude":1.0,"pretos_pardos_n_validos":1,"pretos_pardos_n_total":1,"pretos_pardos_completude":1.0,"dom_agua_n_validos":1,"dom_agua_n_total":1,"dom_agua_completude":1.0,"dom_esgoto_n_validos":1,"dom_esgoto_n_total":1,"dom_esgoto_completude":1.0,"n_resp_n_validos":1,"n_resp_n_total":1,"n_resp_completude":1.0,"renda_resp_n_validos":1,"renda_resp_n_total":1,"renda_resp_completude":1.0,"dens_n_validos":1,"dens_n_total":1,"dens_completude":1.0},"geometry":{"type":"Polygon","coordinates":[[[-52.51022739999996,-28.627734],[-52.51301059999997,-28.62141159999993],[-52.51022869999997,-28.61848],[-52.50988849999993,-28.619329799999953],[-52.51017909999996,-28.620034199999957],[-52.509600499999976,-28.621982899999985],[-52.509699299999966,-28.62279159999996],[-52.50948839999995,-28.62297779999995],[-52.50839479999997,-28.62285649999995],[-52.507558899999935,-28.62310619999994],[-52.507448,-28.624093],[-52.507800399999944,-28.624532799999944],[-52.50760439999994,-28.625072199999973],[-52.507726099999964,-28.62550679999998],[-52.509720699999946,-28.62641059999993],[-52.51022739999996,-28.627734]]]}},{"type":"Feature","properties":{"setor":"430995105000004","pop":429,"sigilo_pop":false,"dom":196,"sigilo_dom":false,"mulheres":216,"sigilo_mulheres":false,"c0_4":26,"sigilo_c0_4":false,"c5_9":20,"sigilo_c5_9":false,"i60_69":42,"sigilo_i60_69":false,"i70m":66,"sigilo_i70m":false,"indigenas":null,"sigilo_indigenas":true,"pretos_pardos":79,"sigilo_pretos_pardos":false,"dom_ocupados":181,"sigilo_dom_ocupados":false,"dom_agua":172,"sigilo_dom_agua":false,"dom_esgoto":11,"sigilo_dom_esgoto":false,"renda_resp":3566.49,"sigilo_renda_resp":false,"n_resp":181,"sigilo_n_resp":false,"dens":1521.0,"sigilo_dens":false,"na_bacia":0,"area_pct_bacia":0.0,"metodo_recorte_bacia":"ponto_representativo_setor_2022; area_pct_geometrica","status_borda_bacia":"total","metodo_area_bacia":"interse??o geom?trica em EPSG:5880","metodo_na_bacia":"ponto_representativo_setor_2022_within_bacia","pop_n_validos":1,"pop_n_total":1,"pop_completude":1.0,"dom_n_validos":1,"dom_n_total":1,"dom_completude":1.0,"dom_ocupados_n_validos":1,"dom_ocupados_n_total":1,"dom_ocupados_completude":1.0,"mulheres_n_validos":1,"mulheres_n_total":1,"mulheres_completude":1.0,"c0_4_n_validos":1,"c0_4_n_total":1,"c0_4_completude":1.0,"c5_9_n_validos":1,"c5_9_n_total":1,"c5_9_completude":1.0,"i60_69_n_validos":1,"i60_69_n_total":1,"i60_69_completude":1.0,"i70m_n_validos":1,"i70m_n_total":1,"i70m_completude":1.0,"indigenas_n_validos":0,"indigenas_n_total":1,"indigenas_completude":0.0,"pretos_pardos_n_validos":1,"pretos_pardos_n_total":1,"pretos_pardos_completude":1.0,"dom_agua_n_validos":1,"dom_agua_n_total":1,"dom_agua_completude":1.0,"dom_esgoto_n_validos":1,"dom_esgoto_n_total":1,"dom_esgoto_completude":1.0,"n_resp_n_validos":1,"n_resp_n_total":1,"n_resp_completude":1.0,"renda_resp_n_validos":1,"renda_resp_n_total":1,"renda_resp_completude":1.0,"dens_n_validos":1,"dens_n_total":1,"dens_completude":1.0},"geometry":{"type":"Polygon","coordinates":[[[-52.51358979999998,-28.62001959999998],[-52.51022739999996,-28.627734],[-52.51029939999995,-28.62817429999997],[-52.50984109999997,-28.628836],[-52.50759939999995,-28.63075979999996],[-52.50694189999996,-28.63183119999996],[-52.506879699999956,-28.633],[-52.50747389999998,-28.632847899999945],[-52.51010409999998,-28.630624799999953],[-52.510128,-28.63008],[-52.51067349999994,-28.629005399999986],[-52.51217929999996,-28.626877299999936],[-52.512638099999954,-28.625374299999972],[-52.51372219999996,-28.625721199999923],[-52.51503009999993,-28.62275569999997],[-52.515506199999955,-28.622910399999956],[-52.51716679999998,-28.621188],[-52.51358979999998,-28.62001959999998]]]}},{"type":"Feature","properties":{"setor":"430995105000005","pop":351,"sigilo_pop":false,"dom":157,"sigilo_dom":false,"mulheres":187,"sigilo_mulheres":false,"c0_4":19,"sigilo_c0_4":false,"c5_9":17,"sigilo_c5_9":false,"i60_69":45,"sigilo_i60_69":false,"i70m":52,"sigilo_i70m":false,"indigenas":0,"sigilo_indigenas":false,"pretos_pardos":59,"sigilo_pretos_pardos":false,"dom_ocupados":147,"sigilo_dom_ocupados":false,"dom_agua":146,"sigilo_dom_agua":false,"dom_esgoto":14,"sigilo_dom_esgoto":false,"renda_resp":3019.48,"sigilo_renda_resp":false,"n_resp":147,"sigilo_n_resp":false,"dens":1005.5,"sigilo_dens":false,"na_bacia":0,"area_pct_bacia":0.0,"metodo_recorte_bacia":"ponto_representativo_setor_2022; area_pct_geometrica","status_borda_bacia":"total","metodo_area_bacia":"interse??o geom?trica em EPSG:5880","metodo_na_bacia":"ponto_representativo_setor_2022_within_bacia","pop_n_validos":1,"pop_n_total":1,"pop_completude":1.0,"dom_n_validos":1,"dom_n_total":1,"dom_completude":1.0,"dom_ocupados_n_validos":1,"dom_ocupados_n_total":1,"dom_ocupados_completude":1.0,"mulheres_n_validos":1,"mulheres_n_total":1,"mulheres_completude":1.0,"c0_4_n_validos":1,"c0_4_n_total":1,"c0_4_completude":1.0,"c5_9_n_validos":1,"c5_9_n_total":1,"c5_9_completude":1.0,"i60_69_n_validos":1,"i60_69_n_total":1,"i60_69_completude":1.0,"i70m_n_validos":1,"i70m_n_total":1,"i70m_completude":1.0,"indigenas_n_validos":1,"indigenas_n_total":1,"indigenas_completude":1.0,"pretos_pardos_n_validos":1,"pretos_pardos_n_total":1,"pretos_pardos_completude":1.0,"dom_agua_n_validos":1,"dom_agua_n_total":1,"dom_agua_completude":1.0,"dom_esgoto_n_validos":1,"dom_esgoto_n_total":1,"dom_esgoto_completude":1.0,"n_resp_n_validos":1,"n_resp_n_total":1,"n_resp_completude":1.0,"renda_resp_n_validos":1,"renda_resp_n_total":1,"renda_resp_completude":1.0,"dens_n_validos":1,"dens_n_total":1,"dens_completude":1.0},"geometry":{"type":"Polygon","coordinates":[[[-52.514733399999955,-28.620394199999968],[-52.51723769999995,-28.621204399999954],[-52.51770189999996,-28.62154459999993],[-52.52156409999998,-28.62695039999994],[-52.52230449999996,-28.625575099999935],[-52.52193079999995,-28.625331199999945],[-52.521963699999965,-28.62503389999995],[-52.524005699999975,-28.624577899999952],[-52.51980119999996,-28.61962469999997],[-52.51948089999997,-28.619575899999965],[-52.517923799999956,-28.618037],[-52.516639,-28.615914199999967],[-52.514733399999955,-28.620394199999968]]]}},{"type":"Feature","properties":{"setor":"430995105000006","pop":474,"sigilo_pop":false,"dom":227,"sigilo_dom":false,"mulheres":222,"sigilo_mulheres":false,"c0_4":32,"sigilo_c0_4":false,"c5_9":31,"sigilo_c5_9":false,"i60_69":43,"sigilo_i60_69":false,"i70m":33,"sigilo_i70m":false,"indigenas":0,"sigilo_indigenas":false,"pretos_pardos":112,"sigilo_pretos_pardos":false,"dom_ocupados":183,"sigilo_dom_ocupados":false,"dom_agua":122,"sigilo_dom_agua":false,"dom_esgoto":8,"sigilo_dom_esgoto":false,"renda_resp":1637.8,"sigilo_renda_resp":false,"n_resp":183,"sigilo_n_resp":false,"dens":851.9,"sigilo_dens":false,"na_bacia":0,"area_pct_bacia":0.0,"metodo_recorte_bacia":"ponto_representativo_setor_2022; area_pct_geometrica","status_borda_bacia":"total","metodo_area_bacia":"interse??o geom?trica em EPSG:5880","metodo_na_bacia":"ponto_representativo_setor_2022_within_bacia","pop_n_validos":1,"pop_n_total":1,"pop_completude":1.0,"dom_n_validos":1,"dom_n_total":1,"dom_completude":1.0,"dom_ocupados_n_validos":1,"dom_ocupados_n_total":1,"dom_ocupados_completude":1.0,"mulheres_n_validos":1,"mulheres_n_total":1,"mulheres_completude":1.0,"c0_4_n_validos":1,"c0_4_n_total":1,"c0_4_completude":1.0,"c5_9_n_validos":1,"c5_9_n_total":1,"c5_9_completude":1.0,"i60_69_n_validos":1,"i60_69_n_total":1,"i60_69_completude":1.0,"i70m_n_validos":1,"i70m_n_total":1,"i70m_completude":1.0,"indigenas_n_validos":1,"indigenas_n_total":1,"indigenas_completude":1.0,"pretos_pardos_n_validos":1,"pretos_pardos_n_total":1,"pretos_pardos_completude":1.0,"dom_agua_n_validos":1,"dom_agua_n_total":1,"dom_agua_completude":1.0,"dom_esgoto_n_validos":1,"dom_esgoto_n_total":1,"dom_esgoto_completude":1.0,"n_resp_n_validos":1,"n_resp_n_total":1,"n_resp_completude":1.0,"renda_resp_n_validos":1,"renda_resp_n_total":1,"renda_resp_completude":1.0,"dens_n_validos":1,"dens_n_total":1,"dens_completude":1.0},"geometry":{"type":"Polygon","coordinates":[[[-52.51967419999994,-28.619536899999954],[-52.524005699999975,-28.624577899999952],[-52.52458029999997,-28.62392209999996],[-52.524171,-28.622796699999984],[-52.52484389999995,-28.622407699999936],[-52.52483369999993,-28.620326],[-52.52557379999996,-28.61944939999994],[-52.52609309999996,-28.61926449999992],[-52.526273,-28.618538],[-52.527507499999956,-28.617289899999946],[-52.530451,-28.615438799999936],[-52.52400259999996,-28.612990199999942],[-52.523206399999935,-28.61454389999995],[-52.521389099999965,-28.616737399999973],[-52.51967419999994,-28.619536899999954]]]}},{"type":"Feature","properties":{"setor":"430995105000007","pop":9,"sigilo_pop":false,"dom":6,"sigilo_dom":false,"mulheres":null,"sigilo_mulheres":true,"c0_4":null,"sigilo_c0_4":true,"c5_9":null,"sigilo_c5_9":true,"i60_69":null,"sigilo_i60_69":true,"i70m":null,"sigilo_i70m":true,"indigenas":null,"sigilo_indigenas":true,"pretos_pardos":null,"sigilo_pretos_pardos":true,"dom_ocupados":null,"sigilo_dom_ocupados":true,"dom_agua":null,"sigilo_dom_agua":true,"dom_esgoto":null,"sigilo_dom_esgoto":true,"renda_resp":null,"sigilo_renda_resp":true,"n_resp":null,"sigilo_n_resp":true,"dens":23.2,"sigilo_dens":false,"na_bacia":0,"area_pct_bacia":0.0,"metodo_recorte_bacia":"ponto_representativo_setor_2022; area_pct_geometrica","status_borda_bacia":"total","metodo_area_bacia":"interse??o geom?trica em EPSG:5880","metodo_na_bacia":"ponto_representativo_setor_2022_within_bacia","pop_n_validos":1,"pop_n_total":1,"pop_completude":1.0,"dom_n_validos":1,"dom_n_total":1,"dom_completude":1.0,"dom_ocupados_n_validos":0,"dom_ocupados_n_total":1,"dom_ocupados_completude":0.0,"mulheres_n_validos":0,"mulheres_n_total":1,"mulheres_completude":0.0,"c0_4_n_validos":0,"c0_4_n_total":1,"c0_4_completude":0.0,"c5_9_n_validos":0,"c5_9_n_total":1,"c5_9_completude":0.0,"i60_69_n_validos":0,"i60_69_n_total":1,"i60_69_completude":0.0,"i70m_n_validos":0,"i70m_n_total":1,"i70m_completude":0.0,"indigenas_n_validos":0,"indigenas_n_total":1,"indigenas_completude":0.0,"pretos_pardos_n_validos":0,"pretos_pardos_n_total":1,"pretos_pardos_completude":0.0,"dom_agua_n_validos":0,"dom_agua_n_total":1,"dom_agua_completude":0.0,"dom_esgoto_n_validos":0,"dom_esgoto_n_total":1,"dom_esgoto_completude":0.0,"n_resp_n_validos":0,"n_resp_n_total":1,"n_resp_completude":0.0,"renda_resp_n_validos":0,"renda_resp_n_total":1,"renda_resp_completude":0.0,"dens_n_validos":1,"dens_n_total":1,"dens_completude":1.0},"geometry":{"type":"Polygon","coordinates":[[[-52.50634889999997,-28.613886099999945],[-52.50750859999994,-28.614521299999982],[-52.508511,-28.617269],[-52.51022869999997,-28.61848],[-52.510431299999944,-28.61761449999995],[-52.512031699999966,-28.61747509999999],[-52.512738799999966,-28.616861899999943],[-52.51505469999996,-28.615721899999983],[-52.514495599999975,-28.614434199999945],[-52.51570219999997,-28.611372399999933],[-52.51362819999998,-28.611602],[-52.51285409999997,-28.611890199999937],[-52.511524399999985,-28.61155959999997],[-52.51110969999996,-28.612529599999956],[-52.510609199999976,-28.612134799999986],[-52.51031619999998,-28.612231799999968],[-52.509919,-28.612562899999936],[-52.50989519999997,-28.612900699999955],[-52.509186,-28.613233399999956],[-52.50881519999996,-28.61297139999994],[-52.50837319999994,-28.613803799999978],[-52.507365,-28.613623099999987],[-52.50634889999997,-28.613886099999945]]]}},{"type":"Feature","properties":{"setor":"430995105000008","pop":213,"sigilo_pop":false,"dom":91,"sigilo_dom":false,"mulheres":108,"sigilo_mulheres":false,"c0_4":16,"sigilo_c0_4":false,"c5_9":12,"sigilo_c5_9":false,"i60_69":33,"sigilo_i60_69":false,"i70m":19,"sigilo_i70m":false,"indigenas":0,"sigilo_indigenas":false,"pretos_pardos":33,"sigilo_pretos_pardos":false,"dom_ocupados":78,"sigilo_dom_ocupados":false,"dom_agua":69,"sigilo_dom_agua":false,"dom_esgoto":0,"sigilo_dom_esgoto":false,"renda_resp":4910.66,"sigilo_renda_resp":false,"n_resp":78,"sigilo_n_resp":false,"dens":244.6,"sigilo_dens":false,"na_bacia":0,"area_pct_bacia":0.0,"metodo_recorte_bacia":"ponto_representativo_setor_2022; area_pct_geometrica","status_borda_bacia":"total","metodo_area_bacia":"interse??o geom?trica em EPSG:5880","metodo_na_bacia":"ponto_representativo_setor_2022_within_bacia","pop_n_validos":1,"pop_n_total":1,"pop_completude":1.0,"dom_n_validos":1,"dom_n_total":1,"dom_completude":1.0,"dom_ocupados_n_validos":1,"dom_ocupados_n_total":1,"dom_ocupados_completude":1.0,"mulheres_n_validos":1,"mulheres_n_total":1,"mulheres_completude":1.0,"c0_4_n_validos":1,"c0_4_n_total":1,"c0_4_completude":1.0,"c5_9_n_validos":1,"c5_9_n_total":1,"c5_9_completude":1.0,"i60_69_n_validos":1,"i60_69_n_total":1,"i60_69_completude":1.0,"i70m_n_validos":1,"i70m_n_total":1,"i70m_completude":1.0,"indigenas_n_validos":1,"indigenas_n_total":1,"indigenas_completude":1.0,"pretos_pardos_n_validos":1,"pretos_pardos_n_total":1,"pretos_pardos_completude":1.0,"dom_agua_n_validos":1,"dom_agua_n_total":1,"dom_agua_completude":1.0,"dom_esgoto_n_validos":1,"dom_esgoto_n_total":1,"dom_esgoto_completude":1.0,"n_resp_n_validos":1,"n_resp_n_total":1,"n_resp_completude":1.0,"renda_resp_n_validos":1,"renda_resp_n_total":1,"renda_resp_completude":1.0,"dens_n_validos":1,"dens_n_total":1,"dens_completude":1.0},"geometry":{"type":"Polygon","coordinates":[[[-52.51010409999998,-28.630624799999953],[-52.511594799999955,-28.63152739999999],[-52.51236339999997,-28.63340379999993],[-52.514327899999955,-28.633548799999964],[-52.515865599999984,-28.632876599999975],[-52.516270599999984,-28.633044599999945],[-52.51758559999997,-28.632978099999946],[-52.518656799999974,-28.631679299999966],[-52.51827389999994,-28.630864799999976],[-52.51889429999994,-28.629969199999948],[-52.519836599999955,-28.62923539999998],[-52.520270799999935,-28.628521299999935],[-52.52133689999994,-28.628440499999947],[-52.52121409999996,-28.627811099999974],[-52.52156409999998,-28.62695039999994],[-52.51770189999996,-28.62154459999993],[-52.51723769999995,-28.621204399999954],[-52.515506199999955,-28.622910399999956],[-52.51503009999993,-28.62275569999997],[-52.51372219999996,-28.625721199999923],[-52.512638099999954,-28.625374299999972],[-52.51217929999996,-28.626877299999936],[-52.51067349999994,-28.629005399999986],[-52.510128,-28.63008],[-52.51010409999998,-28.630624799999953]]]}},{"type":"Feature","properties":{"setor":"430995105000009","pop":120,"sigilo_pop":false,"dom":125,"sigilo_dom":false,"mulheres":56,"sigilo_mulheres":false,"c0_4":7,"sigilo_c0_4":false,"c5_9":null,"sigilo_c5_9":true,"i60_69":21,"sigilo_i60_69":false,"i70m":23,"sigilo_i70m":false,"indigenas":0,"sigilo_indigenas":false,"pretos_pardos":null,"sigilo_pretos_pardos":true,"dom_ocupados":48,"sigilo_dom_ocupados":false,"dom_agua":42,"sigilo_dom_agua":false,"dom_esgoto":0,"sigilo_dom_esgoto":false,"renda_resp":1778.43,"sigilo_renda_resp":false,"n_resp":48,"sigilo_n_resp":false,"dens":5.3,"sigilo_dens":false,"na_bacia":0,"area_pct_bacia":0.0,"metodo_recorte_bacia":"ponto_representativo_setor_2022; area_pct_geometrica","status_borda_bacia":"total","metodo_area_bacia":"interse??o geom?trica em EPSG:5880","metodo_na_bacia":"ponto_representativo_setor_2022_within_bacia","pop_n_validos":1,"pop_n_total":1,"pop_completude":1.0,"dom_n_validos":1,"dom_n_total":1,"dom_completude":1.0,"dom_ocupados_n_validos":1,"dom_ocupados_n_total":1,"dom_ocupados_completude":1.0,"mulheres_n_validos":1,"mulheres_n_total":1,"mulheres_completude":1.0,"c0_4_n_validos":1,"c0_4_n_total":1,"c0_4_completude":1.0,"c5_9_n_validos":0,"c5_9_n_total":1,"c5_9_completude":0.0,"i60_69_n_validos":1,"i60_69_n_total":1,"i60_69_completude":1.0,"i70m_n_validos":1,"i70m_n_total":1,"i70m_completude":1.0,"indigenas_n_validos":1,"indigenas_n_total":1,"indigenas_completude":1.0,"pretos_pardos_n_validos":0,"pretos_pardos_n_total":1,"pretos_pardos_completude":0.0,"dom_agua_n_validos":1,"dom_agua_n_total":1,"dom_agua_completude":1.0,"dom_esgoto_n_validos":1,"dom_esgoto_n_total":1,"dom_esgoto_completude":1.0,"n_resp_n_validos":1,"n_resp_n_total":1,"n_resp_completude":1.0,"renda_resp_n_validos":1,"renda_resp_n_total":1,"renda_resp_completude":1.0,"dens_n_validos":1,"dens_n_total":1,"dens_completude":1.0},"geometry":{"type":"Polygon","coordinates":[[[-52.547963,-28.564337799999986],[-52.54807049999994,-28.56490909999996],[-52.54675969999994,-28.566262699999974],[-52.54674539999997,-28.567368299999938],[-52.546394299999974,-28.568405],[-52.54658079999996,-28.569164],[-52.546450399999976,-28.56987659999992],[-52.54403869999993,-28.57398769999997],[-52.542841599999974,-28.574979099999954],[-52.54019509999995,-28.579118899999973],[-52.53819869999995,-28.58072739999994],[-52.536632499999946,-28.58138929999995],[-52.53593879999994,-28.582057699999957],[-52.53602619999998,-28.5853504],[-52.535409,-28.586979599999946],[-52.53648209999995,-28.590463399999976],[-52.536509499999966,-28.591806499999954],[-52.53463469999998,-28.594756299999972],[-52.53296779999994,-28.595433899999925],[-52.530514399999966,-28.595556599999945],[-52.52938089999998,-28.596376599999935],[-52.52728659999997,-28.601547899999964],[-52.52628509999994,-28.607564099999944],[-52.524915299999975,-28.609050099999934],[-52.52406619999993,-28.610636099999958],[-52.52423559999995,-28.61230469999998],[-52.52400259999996,-28.612990199999942],[-52.530451,-28.615438799999936],[-52.527507499999956,-28.617289899999946],[-52.526273,-28.618538],[-52.52609309999996,-28.61926449999992],[-52.52557379999996,-28.61944939999994],[-52.52483369999993,-28.620326],[-52.52484389999995,-28.622407699999936],[-52.524171,-28.622796699999984],[-52.52458029999997,-28.62392209999996],[-52.524005699999975,-28.624577899999952],[-52.52986539999995,-28.631240499999926],[-52.537482799999964,-28.63267859999995],[-52.53839769999996,-28.63297349999993],[-52.541078099999936,-28.63476759999997],[-52.54340479999996,-28.635077],[-52.54572009999998,-28.63516],[-52.546528199999955,-28.633814199999964],[-52.54608669999993,-28.633015699999934],[-52.54609789999996,-28.63209909999995],[-52.54631349999993,-28.631846099999954],[-52.54612439999994,-28.63048919999994],[-52.54472629999998,-28.627862599999965],[-52.544613,-28.627073599999964],[-52.544298899999944,-28.62677489999993],[-52.54474659999994,-28.625027599999953],[-52.544406,-28.624193199999972],[-52.545062399999956,-28.62370329999993],[-52.546241399999985,-28.622206799999958],[-52.546056,-28.620563299999954],[-52.54638749999998,-28.619652299999935],[-52.54629829999994,-28.618923799999948],[-52.548616799999934,-28.61855649999996],[-52.548786199999945,-28.617726399999974],[-52.54957909999996,-28.61712359999995],[-52.55010079999994,-28.615674699999946],[-52.55104209999997,-28.615287399999943],[-52.55142579999995,-28.614782],[-52.55233729999998,-28.614685199999936],[-52.554452,-28.614938499999933],[-52.55600469999996,-28.614672399999964],[-52.55711449999996,-28.61288039999993],[-52.55713069999995,-28.611754099999917],[-52.558067799999954,-28.609935499999953],[-52.55729119999995,-28.607726299999964],[-52.55773679999998,-28.607203599999938],[-52.557312299999985,-28.606352899999933],[-52.55750159999996,-28.606005299999932],[-52.55787729999997,-28.60566779999994],[-52.558883899999955,-28.60549439999994],[-52.5597317,-28.60612259999994],[-52.56182039999993,-28.60626569999994],[-52.5622499,-28.606011199999955],[-52.562295,-28.60514229999995],[-52.562696399999936,-28.605559699999947],[-52.56346819999993,-28.60503739999997],[-52.56361319999996,-28.60329149999995],[-52.56429389999994,-28.60315259999993],[-52.56652489999993,-28.603715199999947],[-52.567198399999945,-28.604365399999946],[-52.56741709999995,-28.605384199999946],[-52.56837829999994,-28.606589],[-52.56934189999998,-28.607322499999942],[-52.56968339999998,-28.60733129999994],[-52.569825299999934,-28.60700659999998],[-52.569547899999975,-28.60531169999997],[-52.56998039999997,-28.604636899999935],[-52.570285199999944,-28.604591399999947],[-52.57173559999996,-28.60179329999994],[-52.57235459999998,-28.60159769999996],[-52.572603,-28.60120819999997],[-52.57387709999994,-28.600929299999954],[-52.57466589999996,-28.60103319999996],[-52.57517539999998,-28.60141679999998],[-52.575963599999966,-28.60121189999995],[-52.57630169999993,-28.601333399999934],[-52.576992699999956,-28.602272099999936],[-52.57763139999997,-28.60443739999993],[-52.57823749999994,-28.60458589999996],[-52.58025539999994,-28.604243799999935],[-52.58070409999994,-28.604061099999956],[-52.58030439999994,-28.602801899999957],[-52.580375899999986,-28.600775199999937],[-52.582000599999965,-28.59880109999995],[-52.58245429999994,-28.597773799999977],[-52.582181399999975,-28.59711869999996],[-52.58123259999997,-28.596158499999945],[-52.57928169999997,-28.59504409999994],[-52.578822599999974,-28.59392629999996],[-52.579084199999954,-28.59322829999996],[-52.58173019999998,-28.590509599999965],[-52.58214639999994,-28.588908399999973],[-52.58217969999998,-28.588024399999938],[-52.58136079999996,-28.58524579999994],[-52.58137879999999,-28.58438169999993],[-52.580596199999945,-28.581891099999943],[-52.577137499999935,-28.5808],[-52.575984399999975,-28.579991799999963],[-52.573092,-28.578649499999983],[-52.57213079999997,-28.57870769999993],[-52.571627199999966,-28.579477099999956],[-52.570753199999956,-28.580199],[-52.569791899999984,-28.580278499999967],[-52.56920029999998,-28.58009719999997],[-52.56887879999994,-28.579841699999978],[-52.568749699999955,-28.579249099999966],[-52.568801399999984,-28.577537399999986],[-52.5685855,-28.57697719999993],[-52.56792789999997,-28.575784799999948],[-52.56726619999995,-28.575450299999954],[-52.56595829999998,-28.575600399999917],[-52.56378739999997,-28.576221399999955],[-52.559163299999966,-28.576841799999947],[-52.558588899999954,-28.575881199999966],[-52.55862069999995,-28.57512479999998],[-52.56037269999996,-28.57347349999998],[-52.560497,-28.57301849999993],[-52.55906889999994,-28.571005499999952],[-52.55877769999995,-28.570200399999962],[-52.5577249,-28.569381499999967],[-52.556774099999984,-28.569127799999936],[-52.553947,-28.569890899999965],[-52.55297969999999,-28.56890659999993],[-52.552975,-28.56765629999994],[-52.55377919999995,-28.56711],[-52.554170399999975,-28.567031399999962],[-52.55606779999994,-28.567486199999962],[-52.55552229999995,-28.565423199999948],[-52.555907,-28.56350969999994],[-52.55537769999995,-28.562512599999938],[-52.55463469999995,-28.56254479999995],[-52.553314899999975,-28.563107399999964],[-52.55195239999995,-28.563189799999975],[-52.547963,-28.564337799999986]]]}},{"type":"Feature","properties":{"setor":"430995105000010","pop":229,"sigilo_pop":false,"dom":171,"sigilo_dom":false,"mulheres":101,"sigilo_mulheres":false,"c0_4":null,"sigilo_c0_4":true,"c5_9":10,"sigilo_c5_9":false,"i60_69":45,"sigilo_i60_69":false,"i70m":25,"sigilo_i70m":false,"indigenas":0,"sigilo_indigenas":false,"pretos_pardos":23,"sigilo_pretos_pardos":false,"dom_ocupados":89,"sigilo_dom_ocupados":false,"dom_agua":66,"sigilo_dom_agua":false,"dom_esgoto":0,"sigilo_dom_esgoto":false,"renda_resp":1725.84,"sigilo_renda_resp":false,"n_resp":89,"sigilo_n_resp":false,"dens":2.8,"sigilo_dens":false,"na_bacia":0,"area_pct_bacia":0.0,"metodo_recorte_bacia":"ponto_representativo_setor_2022; area_pct_geometrica","status_borda_bacia":"total","metodo_area_bacia":"interse??o geom?trica em EPSG:5880","metodo_na_bacia":"ponto_representativo_setor_2022_within_bacia","pop_n_validos":1,"pop_n_total":1,"pop_completude":1.0,"dom_n_validos":1,"dom_n_total":1,"dom_completude":1.0,"dom_ocupados_n_validos":1,"dom_ocupados_n_total":1,"dom_ocupados_completude":1.0,"mulheres_n_validos":1,"mulheres_n_total":1,"mulheres_completude":1.0,"c0_4_n_validos":0,"c0_4_n_total":1,"c0_4_completude":0.0,"c5_9_n_validos":1,"c5_9_n_total":1,"c5_9_completude":1.0,"i60_69_n_validos":1,"i60_69_n_total":1,"i60_69_completude":1.0,"i70m_n_validos":1,"i70m_n_total":1,"i70m_completude":1.0,"indigenas_n_validos":1,"indigenas_n_total":1,"indigenas_completude":1.0,"pretos_pardos_n_validos":1,"pretos_pardos_n_total":1,"pretos_pardos_completude":1.0,"dom_agua_n_validos":1,"dom_agua_n_total":1,"dom_agua_completude":1.0,"dom_esgoto_n_validos":1,"dom_esgoto_n_total":1,"dom_esgoto_completude":1.0,"n_resp_n_validos":1,"n_resp_n_total":1,"n_resp_completude":1.0,"renda_resp_n_validos":1,"renda_resp_n_total":1,"renda_resp_completude":1.0,"dens_n_validos":1,"dens_n_total":1,"dens_completude":1.0},"geometry":{"type":"Polygon","coordinates":[[[-52.428989599999966,-28.549201899999954],[-52.42791189999997,-28.551206499999978],[-52.427476199999944,-28.55122769999996],[-52.427180299999975,-28.55080809999997],[-52.42490859999999,-28.550912199999964],[-52.424649199999976,-28.551408499999983],[-52.42479519999995,-28.55217049999993],[-52.4255371,-28.552675199999946],[-52.42532259999996,-28.55337559999998],[-52.42491469999993,-28.553666799999977],[-52.42267339999996,-28.55383159999997],[-52.422086899999954,-28.55470359999997],[-52.421664,-28.556511099999952],[-52.42081079999997,-28.556466299999958],[-52.42005859999995,-28.55614879999996],[-52.419473399999966,-28.556309],[-52.41907619999996,-28.555813499999935],[-52.418496,-28.555733],[-52.416434799999934,-28.555994299999956],[-52.416270199999985,-28.55617059999997],[-52.416581699999945,-28.556853199999974],[-52.415952,-28.55838039999998],[-52.414840099999935,-28.558949299999938],[-52.41405609999998,-28.55995109999998],[-52.413302199999976,-28.56007759999995],[-52.413053,-28.560470599999967],[-52.411656,-28.560266099999982],[-52.40820569999994,-28.560900499999935],[-52.40510919999997,-28.560852099999977],[-52.404503699999964,-28.5615835],[-52.40466019999996,-28.562822599999947],[-52.403590399999985,-28.56307869999994],[-52.40334709999996,-28.563686199999953],[-52.40288469999996,-28.563980199999936],[-52.40131789999998,-28.5637402],[-52.39933269999995,-28.563839099999935],[-52.3980921,-28.564962799999925],[-52.39811409999999,-28.566244899999955],[-52.39611189999994,-28.566315699999965],[-52.39556489999995,-28.56693469999993],[-52.39459469999997,-28.56709279999995],[-52.39369859999994,-28.56817039999993],[-52.39158029999999,-28.568085699999976],[-52.391447599999935,-28.56886029999997],[-52.39082619999994,-28.569330699999963],[-52.39091049999996,-28.569763799999965],[-52.39056479999994,-28.570360299999948],[-52.39119529999994,-28.57094659999995],[-52.39108589999995,-28.571380399999946],[-52.38999559999996,-28.571974599999983],[-52.388580199999986,-28.572201899999985],[-52.38738829999994,-28.57322129999995],[-52.387245199999946,-28.5741887],[-52.38690019999996,-28.57454159999996],[-52.38487509999993,-28.574717099999923],[-52.38366329999996,-28.57524559999995],[-52.382942,-28.577592099999947],[-52.381947399999945,-28.577888299999977],[-52.38087179999997,-28.577055599999934],[-52.37986349999994,-28.577577],[-52.37911769999994,-28.576961],[-52.378849199999934,-28.577063],[-52.37831209999997,-28.578153699999966],[-52.37682529999995,-28.578871],[-52.37604159999996,-28.58017219999992],[-52.37429749999995,-28.580335499999933],[-52.37452379999996,-28.580750199999958],[-52.37606859999995,-28.581222],[-52.376954,-28.582213799999977],[-52.37843469999996,-28.5827],[-52.37997789999997,-28.584221599999978],[-52.381234799999966,-28.58713719999998],[-52.38315719999997,-28.589979299999985],[-52.38483019999995,-28.594076599999944],[-52.38671429999994,-28.595343],[-52.388044699999966,-28.596598299999968],[-52.38807559999997,-28.597354099999958],[-52.38601479999995,-28.60128809999998],[-52.384181299999966,-28.60672179999994],[-52.38553679999995,-28.609001499999977],[-52.38685149999998,-28.61022979999995],[-52.38745529999994,-28.610280499999927],[-52.38954449999995,-28.60906719999997],[-52.39089549999994,-28.60788669999993],[-52.39442439999994,-28.607407699999957],[-52.396186299999954,-28.608474299999955],[-52.39861129999996,-28.608631599999978],[-52.40012789999997,-28.610509899999936],[-52.40156069999994,-28.61097719999998],[-52.403595199999984,-28.610393499999923],[-52.40504839999995,-28.61037349999998],[-52.40799149999999,-28.608201699999945],[-52.408724099999965,-28.608161599999956],[-52.410589499999965,-28.60858239999993],[-52.41171989999998,-28.607577299999942],[-52.41239219999995,-28.607279599999963],[-52.415443,-28.608260699999953],[-52.415858399999934,-28.608090699999927],[-52.416161399999964,-28.607196699999967],[-52.41726609999996,-28.606576],[-52.418256499999984,-28.606532299999966],[-52.420294799999965,-28.60782729999993],[-52.42300689999996,-28.608917899999945],[-52.42822829999994,-28.60843329999994],[-52.43126609999995,-28.608452699999937],[-52.432718099999924,-28.607842599999973],[-52.433266499999945,-28.606967699999924],[-52.436256,-28.607113399999935],[-52.43673809999995,-28.606872199999938],[-52.437190199999975,-28.605984399999954],[-52.43731759999997,-28.60497959999998],[-52.437896,-28.604627599999954],[-52.44070339999996,-28.604077899999936],[-52.44245639999997,-28.604351299999955],[-52.44775479999998,-28.603371099999944],[-52.45024849999999,-28.60176729999994],[-52.45325,-28.600547799999973],[-52.45397729999996,-28.60056459999993],[-52.456348099999964,-28.60227569999994],[-52.46200229999994,-28.60072979999994],[-52.462506099999985,-28.60049869999994],[-52.46334759999996,-28.599463],[-52.46551509999995,-28.59758319999997],[-52.466101199999976,-28.597250399999947],[-52.46684279999993,-28.597195],[-52.47174759999996,-28.597944199999965],[-52.47331979999995,-28.59888779999995],[-52.47611509999996,-28.598343299999954],[-52.476999099999944,-28.598435099999953],[-52.481653699999974,-28.60057319999992],[-52.48506549999996,-28.600685699999925],[-52.486390599999936,-28.60043859999997],[-52.48683869999997,-28.600656799999975],[-52.48711579999997,-28.60124519999993],[-52.487010899999966,-28.60432689999993],[-52.48731639999993,-28.604907],[-52.48778379999993,-28.605144699999986],[-52.48883669999998,-28.605008699999935],[-52.48907829999997,-28.60413639999996],[-52.489430099999936,-28.603872],[-52.49098689999994,-28.603910099999947],[-52.491650799999945,-28.60366419999997],[-52.49277839999996,-28.60278929999998],[-52.492893299999935,-28.602006099999976],[-52.49351329999997,-28.60133729999995],[-52.49410109999997,-28.601202499999946],[-52.49514169999998,-28.601409099999955],[-52.495768,-28.60203019999995],[-52.496361899999954,-28.60553009999996],[-52.49743009999997,-28.608342199999967],[-52.49692239999997,-28.609596799999952],[-52.497015799999986,-28.609853099999953],[-52.49840839999996,-28.610205],[-52.50057049999998,-28.61184969999993],[-52.50274379999996,-28.612914499999924],[-52.504051,-28.612978799999954],[-52.50634889999997,-28.613886099999945],[-52.507365,-28.613623099999987],[-52.50837319999994,-28.613803799999978],[-52.50881519999996,-28.61297139999994],[-52.509186,-28.613233399999956],[-52.50989519999997,-28.612900699999955],[-52.509919,-28.612562899999936],[-52.51031619999998,-28.612231799999968],[-52.510609199999976,-28.612134799999986],[-52.51110969999996,-28.612529599999956],[-52.511368499999946,-28.61227359999998],[-52.51144379999994,-28.61158179999995],[-52.51285409999997,-28.611890199999937],[-52.51362819999998,-28.611602],[-52.516064399999955,-28.611319799999936],[-52.5166253,-28.61100239999996],[-52.51695529999996,-28.610311299999985],[-52.52400259999996,-28.612990199999942],[-52.52423559999995,-28.61230469999998],[-52.524102599999935,-28.610428499999962],[-52.524915299999975,-28.609050099999934],[-52.52628509999994,-28.607564099999944],[-52.52728659999997,-28.601547899999964],[-52.52938089999998,-28.596376599999935],[-52.530514399999966,-28.595556599999945],[-52.53296779999994,-28.595433899999925],[-52.53463469999998,-28.594756299999972],[-52.536509499999966,-28.591806499999954],[-52.53648209999995,-28.590463399999976],[-52.535409,-28.586979599999946],[-52.53602619999998,-28.5853504],[-52.53593879999994,-28.582057699999957],[-52.536632499999946,-28.58138929999995],[-52.53819869999995,-28.58072739999994],[-52.54019509999995,-28.579118899999973],[-52.542841599999974,-28.574979099999954],[-52.54403869999993,-28.57398769999997],[-52.546450399999976,-28.56987659999992],[-52.54658079999996,-28.569164],[-52.546394299999974,-28.568405],[-52.54674539999997,-28.567368299999938],[-52.54680479999996,-28.566115299999975],[-52.548103699999956,-28.564812599999975],[-52.547963,-28.564337799999986],[-52.54590459999998,-28.56473639999996],[-52.54521649999998,-28.564622699999966],[-52.54438219999997,-28.564289099999947],[-52.544101099999985,-28.563530499999946],[-52.544462,-28.56086459999994],[-52.54418959999998,-28.55920949999994],[-52.545367899999974,-28.55657619999993],[-52.545357199999955,-28.552967699999964],[-52.54642409999997,-28.54970319999995],[-52.546173199999934,-28.547378],[-52.545209,-28.54610609999997],[-52.54390029999996,-28.545131699999956],[-52.54233039999997,-28.543442199999944],[-52.54201119999994,-28.542810499999984],[-52.541844699999956,-28.540445299999938],[-52.54127829999994,-28.53775509999997],[-52.53963959999999,-28.534712399999933],[-52.538431099999976,-28.533277599999963],[-52.536012,-28.531138499999933],[-52.53373089999997,-28.530636],[-52.532572,-28.530798599999972],[-52.530396199999984,-28.531853199999933],[-52.52770529999998,-28.533631099999972],[-52.526355799999976,-28.535060899999966],[-52.52475479999998,-28.537748799999974],[-52.52277879999997,-28.543719099999976],[-52.52214429999998,-28.55096859999998],[-52.522227799999946,-28.55355419999995],[-52.523361799999975,-28.556129099999957],[-52.525726099999986,-28.55927009999994],[-52.52647279999996,-28.56284989999995],[-52.526312699999956,-28.56361809999992],[-52.52606059999993,-28.563859599999944],[-52.5252033,-28.563699],[-52.524587499999946,-28.56252069999993],[-52.523900399999945,-28.562170899999945],[-52.52128009999996,-28.562508799999932],[-52.51974939999997,-28.56240649999994],[-52.516888499999936,-28.562687299999936],[-52.51544739999997,-28.56232919999997],[-52.51503479999996,-28.563160699999976],[-52.515303599999974,-28.565372199999953],[-52.514916,-28.56663],[-52.51522509999995,-28.569078899999973],[-52.514305699999966,-28.571941499999973],[-52.51336519999995,-28.571601799999947],[-52.513061499999935,-28.57176379999992],[-52.511762199999964,-28.573958],[-52.51013759999995,-28.574808399999938],[-52.50781189999998,-28.574589199999934],[-52.50779909999994,-28.572179199999933],[-52.506640499999946,-28.57195949999994],[-52.50612259999997,-28.57164269999998],[-52.505971699999975,-28.57087439999998],[-52.506365899999935,-28.570162199999974],[-52.50637249999995,-28.56884639999998],[-52.507226699999926,-28.568121],[-52.50742089999995,-28.567289],[-52.506493899999946,-28.566664699999933],[-52.50548429999998,-28.566287699999975],[-52.50393389999993,-28.566279899999984],[-52.501136599999946,-28.567999],[-52.499510099999945,-28.568407599999947],[-52.49850239999994,-28.569057],[-52.49772449999995,-28.569100599999953],[-52.49725219999994,-28.568788199999965],[-52.49723669999998,-28.56826239999997],[-52.49760249999997,-28.567597199999962],[-52.498542199999974,-28.567429499999953],[-52.49873269999995,-28.567034399999958],[-52.49845289999996,-28.56440759999999],[-52.497988099999986,-28.56366729999997],[-52.49805309999993,-28.562978799999936],[-52.500303599999945,-28.55916009999992],[-52.50083409999996,-28.558862699999963],[-52.502301699999975,-28.557196099999928],[-52.50249379999997,-28.556659899999943],[-52.50163809999998,-28.5564007],[-52.50155639999998,-28.556189699999948],[-52.50263059999998,-28.5551531],[-52.501828899999964,-28.551621],[-52.49880739999998,-28.550728499999924],[-52.49670369999996,-28.54967329999993],[-52.49519809999998,-28.54935979999993],[-52.493909499999965,-28.549662599999973],[-52.49412809999996,-28.551394599999984],[-52.49309669999997,-28.551872899999974],[-52.49219429999993,-28.552729399999972],[-52.49340119999993,-28.554774599999977],[-52.49322849999999,-28.555232799999924],[-52.49238219999996,-28.555478599999958],[-52.49039279999994,-28.55446129999995],[-52.489233399999925,-28.55528919999994],[-52.489891399999976,-28.557840299999945],[-52.490298199999984,-28.558225],[-52.49086969999996,-28.55838019999992],[-52.49093289999996,-28.558834099999974],[-52.487868299999946,-28.558346199999967],[-52.485718299999974,-28.556795599999923],[-52.48506649999997,-28.557582899999947],[-52.48492849999997,-28.558460399999937],[-52.48279359999999,-28.55861],[-52.48155339999994,-28.557537199999953],[-52.480983799999926,-28.55669969999996],[-52.480675499999954,-28.55661119999996],[-52.479846,-28.556976699999954],[-52.47889329999999,-28.55788259999997],[-52.476415799999984,-28.559074199999944],[-52.47552959999996,-28.55924],[-52.47418269999997,-28.55862269999994],[-52.473872699999966,-28.55814],[-52.47388529999995,-28.557470099999918],[-52.473361,-28.557312099999937],[-52.472873,-28.557673499999968],[-52.472598,-28.55836669999996],[-52.47370279999995,-28.561025],[-52.47338569999994,-28.56152429999997],[-52.47019249999994,-28.562604199999956],[-52.468645,-28.562171499999973],[-52.46744219999994,-28.561437599999973],[-52.466295099999975,-28.561612399999945],[-52.46492859999994,-28.561288],[-52.46377989999996,-28.561843099999972],[-52.461940599999934,-28.562162699999924],[-52.461342399999985,-28.563396],[-52.46097279999998,-28.563670299999963],[-52.45967219999994,-28.564292699999953],[-52.458845,-28.56439059999997],[-52.45763109999996,-28.56519219999996],[-52.455105,-28.56425839999997],[-52.45313519999996,-28.56418729999995],[-52.451360199999954,-28.563788199999983],[-52.45119439999997,-28.56326529999996],[-52.45074509999995,-28.563045],[-52.45114909999995,-28.561168899999917],[-52.45182859999994,-28.56070959999994],[-52.45307649999995,-28.56032559999994],[-52.452993799999945,-28.55934479999996],[-52.452322599999945,-28.55786069999994],[-52.44948969999996,-28.55671279999996],[-52.448839299999975,-28.557022399999937],[-52.44885379999994,-28.558275599999945],[-52.449292699999944,-28.559068099999934],[-52.44902449999995,-28.55949479999998],[-52.446147,-28.559310399999948],[-52.44402289999993,-28.559655799999987],[-52.44338269999997,-28.55958],[-52.44249709999997,-28.558807],[-52.442109899999934,-28.558003199999966],[-52.44021759999998,-28.55572949999998],[-52.439184199999936,-28.55538849999994],[-52.43860609999995,-28.555987699999935],[-52.43823759999999,-28.55572439999996],[-52.438088199999974,-28.554384599999942],[-52.43559529999994,-28.552493799999986],[-52.43424109999995,-28.548854199999926],[-52.43362419999994,-28.548617399999962],[-52.43290379999996,-28.549244799999943],[-52.43166759999996,-28.54983229999993],[-52.431239,-28.549551799999968],[-52.428989599999966,-28.549201899999954]]]}},{"type":"Feature","properties":{"setor":"430995105000011","pop":193,"sigilo_pop":false,"dom":95,"sigilo_dom":0,"mulheres":93,"sigilo_mulheres":0,"c0_4":7,"sigilo_c0_4":0,"c5_9":null,"sigilo_c5_9":1,"i60_69":31,"sigilo_i60_69":0,"i70m":25,"sigilo_i70m":0,"indigenas":0,"sigilo_indigenas":0,"pretos_pardos":35,"sigilo_pretos_pardos":0,"dom_ocupados":70,"sigilo_dom_ocupados":0,"dom_agua":26,"sigilo_dom_agua":0,"dom_esgoto":0,"sigilo_dom_esgoto":0,"renda_resp":2054.48,"sigilo_renda_resp":0,"n_resp":70,"sigilo_n_resp":0,"dens":2.1,"sigilo_dens":false,"na_bacia":1,"area_pct_bacia":40.6396,"metodo_recorte_bacia":"ponto_representativo_setor_2022; area_pct_geometrica","pop_n_validos":1,"pop_n_total":1,"pop_completude":1.0,"dom_n_validos":1,"dom_n_total":1,"dom_completude":1.0,"dom_ocupados_n_validos":1,"dom_ocupados_n_total":1,"dom_ocupados_completude":1.0,"mulheres_n_validos":1,"mulheres_n_total":1,"mulheres_completude":1.0,"c0_4_n_validos":1,"c0_4_n_total":1,"c0_4_completude":1.0,"c5_9_n_validos":0,"c5_9_n_total":1,"c5_9_completude":0.0,"i60_69_n_validos":1,"i60_69_n_total":1,"i60_69_completude":1.0,"i70m_n_validos":1,"i70m_n_total":1,"i70m_completude":1.0,"indigenas_n_validos":1,"indigenas_n_total":1,"indigenas_completude":1.0,"pretos_pardos_n_validos":1,"pretos_pardos_n_total":1,"pretos_pardos_completude":1.0,"dom_agua_n_validos":1,"dom_agua_n_total":1,"dom_agua_completude":1.0,"dom_esgoto_n_validos":1,"dom_esgoto_n_total":1,"dom_esgoto_completude":1.0,"n_resp_n_validos":1,"n_resp_n_total":1,"n_resp_completude":1.0,"renda_resp_n_validos":1,"renda_resp_n_total":1,"renda_resp_completude":1.0,"dens_n_validos":1,"dens_n_total":1,"dens_completude":1.0,"status_borda_bacia":"parcial","metodo_area_bacia":"interse??o geom?trica em EPSG:5880","metodo_na_bacia":"ponto_representativo_setor_2022_within_bacia","municipio":"Ibirapuitã","cod_mun":"4309951","mun_pct_na_bacia":11.9,"mun_pop_total":3723,"mun_pop_na_bacia":193.0,"mun_ubs_iede":2,"mun_hospitais_iede":null,"mun_escolas_iede":null,"mun_bombeiros_iede":null,"mun_servicos_cobertura":"cadastro_IEDE_parcial_nao_inventario","mun_icm_faixa":"B","mun_icm_pontos":12,"mun_icm_prioritario":"sim","mun_ubs_iede_status":"published","mun_hospitais_iede_status":"unknown","mun_escolas_iede_status":"unknown","mun_bombeiros_iede_status":"unknown"},"geometry":{"type":"Polygon","coordinates":[[[-52.31408369999997,-28.648232799999963],[-52.31608009999996,-28.65135009999995],[-52.316133799999925,-28.653593099999974],[-52.31723669999997,-28.654287899999932],[-52.31819379999995,-28.65447639999996],[-52.31915829999997,-28.655443399999967],[-52.31914919999998,-28.655722499999975],[-52.31868889999998,-28.65585949999997],[-52.31590569999997,-28.655516199999973],[-52.315591,-28.65566739999997],[-52.315161699999976,-28.65695839999995],[-52.317060899999944,-28.65785469999997],[-52.318488,-28.659646],[-52.31815249999995,-28.660597899999974],[-52.31834249999997,-28.661511799999964],[-52.31906049999998,-28.66153649999997],[-52.31948219999998,-28.66179],[-52.31948269999999,-28.662973],[-52.319267,-28.66315089999995],[-52.31881989999994,-28.662863399999935],[-52.318164499999966,-28.663460599999958],[-52.318493599999954,-28.664512699999925],[-52.31969639999994,-28.666438499999973],[-52.31948629999994,-28.668508499999966],[-52.319989,-28.669005099999936],[-52.323387299999986,-28.67019239999996],[-52.323389099999986,-28.670735699999963],[-52.322453799999955,-28.672004499999954],[-52.321735899999965,-28.672175399999958],[-52.321557,-28.672422799999932],[-52.32180719999997,-28.67352379999995],[-52.323863099999976,-28.675347399999954],[-52.32389829999994,-28.676051],[-52.322806199999945,-28.67725609999998],[-52.32269259999998,-28.678701199999978],[-52.32325659999998,-28.67891849999996],[-52.324108199999955,-28.68061639999997],[-52.32476009999994,-28.680871099999926],[-52.32522719999997,-28.681969099999936],[-52.32520659999994,-28.682875199999955],[-52.326976299999956,-28.68344419999994],[-52.32800569999995,-28.684760199999968],[-52.329975599999955,-28.685157599999968],[-52.33039409999998,-28.68595849999997],[-52.33087879999994,-28.685870499999965],[-52.332027,-28.686240399999974],[-52.33263249999993,-28.687931099999943],[-52.33225569999996,-28.68894439999996],[-52.33277749999996,-28.69027459999995],[-52.333209899999986,-28.690553099999935],[-52.33317469999998,-28.691989699999976],[-52.33349369999997,-28.692472799999965],[-52.33174869999993,-28.6936487],[-52.332512399999985,-28.69436929999995],[-52.333108599999946,-28.696103699999973],[-52.33417929999996,-28.696631499999967],[-52.335118199999954,-28.697436],[-52.336732799999936,-28.698198799999933],[-52.33895429999996,-28.69824869999997],[-52.34037769999997,-28.698559199999966],[-52.34143889999996,-28.69963],[-52.34324119999997,-28.702628399999973],[-52.346335899999985,-28.70360369999997],[-52.352056599999976,-28.702597099999924],[-52.353034099999945,-28.702261299999968],[-52.354011,-28.701361299999977],[-52.35562589999995,-28.701231799999956],[-52.357416,-28.700295399999963],[-52.36052539999998,-28.699846599999947],[-52.36355709999998,-28.69972089999993],[-52.36744989999995,-28.70135409999994],[-52.36958639999994,-28.700089799999944],[-52.37030569999996,-28.700484699999954],[-52.37251209999994,-28.70104739999994],[-52.37768809999994,-28.700061899999977],[-52.38219959999998,-28.701751899999973],[-52.38309419999995,-28.702491],[-52.38582629999996,-28.70122429999999],[-52.38732589999996,-28.70013429999994],[-52.38889689999996,-28.69618009999992],[-52.38957659999994,-28.695567899999954],[-52.39031329999994,-28.69426519999997],[-52.390955799999965,-28.693784699999977],[-52.391745499999956,-28.693702],[-52.396851099999935,-28.694467],[-52.39794719999998,-28.694420899999955],[-52.39952409999995,-28.693104299999963],[-52.40275839999998,-28.69171519999998],[-52.40411969999997,-28.690365299999932],[-52.40514009999998,-28.689879099999917],[-52.40735229999996,-28.689234399999982],[-52.41282669999998,-28.689897199999955],[-52.413725199999924,-28.68950519999993],[-52.41707859999997,-28.686943499999973],[-52.41821089999996,-28.686509199999936],[-52.41961059999994,-28.68638459999993],[-52.42108459999997,-28.68568789999994],[-52.42250539999998,-28.674648199999975],[-52.42226849999997,-28.674010799999966],[-52.42139829999997,-28.673308599999928],[-52.42102479999995,-28.672638699999943],[-52.42135209999997,-28.668931399999966],[-52.418992199999934,-28.665981899999963],[-52.41946739999997,-28.66519039999997],[-52.41941909999998,-28.663753699999983],[-52.41904189999997,-28.66247759999994],[-52.420334199999964,-28.659574199999945],[-52.421325,-28.658252799999957],[-52.42149489999997,-28.657239599999972],[-52.42236939999999,-28.655793199999945],[-52.42243609999996,-28.652850299999965],[-52.42564,-28.651426899999926],[-52.4268795,-28.650335099999953],[-52.42778029999994,-28.64848389999998],[-52.428734,-28.643888399999977],[-52.42859969999994,-28.641574099999957],[-52.429116599999986,-28.640276699999962],[-52.428394899999944,-28.639445399999946],[-52.427792,-28.63926819999994],[-52.42635359999997,-28.63819359999997],[-52.424628899999966,-28.636126199999985],[-52.42222219999997,-28.634538],[-52.42127149999993,-28.634146499999932],[-52.42082439999996,-28.635352899999926],[-52.41931279999994,-28.63671869999996],[-52.41765079999994,-28.637315399999974],[-52.417284,-28.637921],[-52.416351299999974,-28.638597199999936],[-52.41586509999996,-28.639605],[-52.41485159999997,-28.640213499999962],[-52.41276229999994,-28.640139799999936],[-52.411931299999935,-28.641147599999954],[-52.41167489999998,-28.64193659999995],[-52.409745599999944,-28.642406199999982],[-52.408870399999955,-28.643398499999925],[-52.40707369999996,-28.64450569999996],[-52.40543829999996,-28.64609249999994],[-52.40249669999997,-28.647992],[-52.40188009999997,-28.64901079999992],[-52.40026459999996,-28.65040089999995],[-52.399080599999934,-28.65191629999998],[-52.39785569999998,-28.65195239999998],[-52.395623599999965,-28.650637399999944],[-52.394421299999976,-28.650717],[-52.393347199999944,-28.650168899999983],[-52.39123669999998,-28.650060599999964],[-52.39036809999994,-28.650504799999965],[-52.38732489999996,-28.650529099999975],[-52.382284099999936,-28.648876799999982],[-52.383161799999975,-28.648291599999933],[-52.38384519999994,-28.64678459999993],[-52.38499779999995,-28.64574949999996],[-52.386857,-28.642799199999953],[-52.38636719999994,-28.64167449999996],[-52.38630639999997,-28.640438],[-52.38541379999998,-28.638770599999933],[-52.384281699999974,-28.63359249999997],[-52.38430109999996,-28.63148369999993],[-52.38341709999998,-28.625311099999976],[-52.382469,-28.62186459999997],[-52.381317499999966,-28.61946009999997],[-52.380986,-28.61735389999995],[-52.381171699999975,-28.616503099999917],[-52.38169319999997,-28.61575609999995],[-52.38543919999995,-28.615076499999933],[-52.386765199999964,-28.613195799999957],[-52.38698619999997,-28.61183659999995],[-52.38685809999998,-28.61079349999994],[-52.384181299999966,-28.60672179999994],[-52.38601479999995,-28.60128809999998],[-52.38796069999995,-28.597630299999924],[-52.38808889999996,-28.596735299999974],[-52.38671429999994,-28.595343],[-52.38483019999995,-28.594076599999944],[-52.38315719999997,-28.589979299999985],[-52.381234799999966,-28.58713719999998],[-52.38012429999998,-28.584443699999955],[-52.37843469999996,-28.5827],[-52.376954,-28.582213799999977],[-52.37606859999995,-28.581222],[-52.37452379999996,-28.580750199999958],[-52.37361169999997,-28.579854899999926],[-52.37178389999997,-28.579726199999975],[-52.37182259999998,-28.579030099999965],[-52.37110389999999,-28.578545899999934],[-52.36907889999998,-28.579518799999963],[-52.36857909999998,-28.580679399999944],[-52.36854029999994,-28.58143029999997],[-52.367345899999975,-28.581782799999925],[-52.366535599999956,-28.581537899999947],[-52.36504869999994,-28.581538199999947],[-52.36455539999997,-28.58099009999995],[-52.36239219999993,-28.58049489999996],[-52.361799399999946,-28.57975739999994],[-52.36169,-28.579191399999957],[-52.361059799999964,-28.57906039999994],[-52.35968579999996,-28.580047099999952],[-52.358678199999986,-28.580403699999973],[-52.35831969999998,-28.58094259999996],[-52.35734259999998,-28.58144779999998],[-52.35560409999994,-28.58294639999997],[-52.35410959999995,-28.58377439999999],[-52.35347349999995,-28.58450509999994],[-52.353146,-28.58553349999994],[-52.35135109999993,-28.58615429999997],[-52.34983009999997,-28.58587929999993],[-52.34934139999996,-28.585581699999985],[-52.347424,-28.583529199999923],[-52.34698579999998,-28.58277319999996],[-52.34612319999997,-28.58209179999995],[-52.345593,-28.581934599999943],[-52.34370259999997,-28.582095399999965],[-52.343633299999965,-28.582358299999957],[-52.34441719999995,-28.58357959999995],[-52.34507879999995,-28.58659279999995],[-52.34730909999997,-28.586957399999946],[-52.348703599999965,-28.589395099999937],[-52.348591,-28.590782299999944],[-52.34789889999996,-28.5928757],[-52.34820819999993,-28.593998],[-52.35335,-28.60267909999993],[-52.3494166,-28.602409],[-52.348058099999946,-28.601970399999963],[-52.34775589999998,-28.602041],[-52.347787099999955,-28.604098399999945],[-52.347398099999964,-28.604700099999942],[-52.345188299999954,-28.605063899999948],[-52.34325869999997,-28.604726799999987],[-52.34152849999998,-28.604915],[-52.340556599999964,-28.60540679999997],[-52.33961169999998,-28.606625399999928],[-52.33847309999994,-28.606544],[-52.337521899999956,-28.605709799999946],[-52.31408369999997,-28.648232799999963]]]}},{"type":"Feature","properties":{"setor":"430995105000012","pop":221,"sigilo_pop":false,"dom":125,"sigilo_dom":false,"mulheres":98,"sigilo_mulheres":false,"c0_4":null,"sigilo_c0_4":true,"c5_9":6,"sigilo_c5_9":false,"i60_69":36,"sigilo_i60_69":false,"i70m":34,"sigilo_i70m":false,"indigenas":0,"sigilo_indigenas":false,"pretos_pardos":null,"sigilo_pretos_pardos":true,"dom_ocupados":85,"sigilo_dom_ocupados":false,"dom_agua":30,"sigilo_dom_agua":false,"dom_esgoto":0,"sigilo_dom_esgoto":false,"renda_resp":5896.51,"sigilo_renda_resp":false,"n_resp":85,"sigilo_n_resp":false,"dens":4.7,"sigilo_dens":false,"na_bacia":0,"area_pct_bacia":0.0,"metodo_recorte_bacia":"ponto_representativo_setor_2022; area_pct_geometrica","status_borda_bacia":"total","metodo_area_bacia":"interse??o geom?trica em EPSG:5880","metodo_na_bacia":"ponto_representativo_setor_2022_within_bacia","pop_n_validos":1,"pop_n_total":1,"pop_completude":1.0,"dom_n_validos":1,"dom_n_total":1,"dom_completude":1.0,"dom_ocupados_n_validos":1,"dom_ocupados_n_total":1,"dom_ocupados_completude":1.0,"mulheres_n_validos":1,"mulheres_n_total":1,"mulheres_completude":1.0,"c0_4_n_validos":0,"c0_4_n_total":1,"c0_4_completude":0.0,"c5_9_n_validos":1,"c5_9_n_total":1,"c5_9_completude":1.0,"i60_69_n_validos":1,"i60_69_n_total":1,"i60_69_completude":1.0,"i70m_n_validos":1,"i70m_n_total":1,"i70m_completude":1.0,"indigenas_n_validos":1,"indigenas_n_total":1,"indigenas_completude":1.0,"pretos_pardos_n_validos":0,"pretos_pardos_n_total":1,"pretos_pardos_completude":0.0,"dom_agua_n_validos":1,"dom_agua_n_total":1,"dom_agua_completude":1.0,"dom_esgoto_n_validos":1,"dom_esgoto_n_total":1,"dom_esgoto_completude":1.0,"n_resp_n_validos":1,"n_resp_n_total":1,"n_resp_completude":1.0,"renda_resp_n_validos":1,"renda_resp_n_total":1,"renda_resp_completude":1.0,"dens_n_validos":1,"dens_n_total":1,"dens_completude":1.0},"geometry":{"type":"Polygon","coordinates":[[[-52.386019,-28.60956109999994],[-52.38692439999995,-28.611023299999943],[-52.386707799999954,-28.61330189999995],[-52.38543919999995,-28.615076499999933],[-52.38169319999997,-28.61575609999995],[-52.381171699999975,-28.616503099999917],[-52.38097719999996,-28.617628],[-52.381317499999966,-28.61946009999997],[-52.382469,-28.62186459999997],[-52.38341709999998,-28.625311099999976],[-52.38430109999996,-28.63148369999993],[-52.384281699999974,-28.63359249999997],[-52.38541379999998,-28.638770599999933],[-52.38630639999997,-28.640438],[-52.38636719999994,-28.64167449999996],[-52.386857,-28.642799199999953],[-52.38499779999995,-28.64574949999996],[-52.38384519999994,-28.64678459999993],[-52.383161799999975,-28.648291599999933],[-52.382284099999936,-28.648876799999982],[-52.38732489999996,-28.650529099999975],[-52.39036809999994,-28.650504799999965],[-52.39123669999998,-28.650060599999964],[-52.393347199999944,-28.650168899999983],[-52.394421299999976,-28.650717],[-52.395623599999965,-28.650637399999944],[-52.39785569999998,-28.65195239999998],[-52.399080599999934,-28.65191629999998],[-52.40026459999996,-28.65040089999995],[-52.40188009999997,-28.64901079999992],[-52.40249669999997,-28.647992],[-52.40543829999996,-28.64609249999994],[-52.40707369999996,-28.64450569999996],[-52.408870399999955,-28.643398499999925],[-52.409745599999944,-28.642406199999982],[-52.41167489999998,-28.64193659999995],[-52.411931299999935,-28.641147599999954],[-52.41276229999994,-28.640139799999936],[-52.41485159999997,-28.640213499999962],[-52.41586509999996,-28.639605],[-52.416351299999974,-28.638597199999936],[-52.417284,-28.637921],[-52.41765079999994,-28.637315399999974],[-52.41931279999994,-28.63671869999996],[-52.42082439999996,-28.635352899999926],[-52.42127149999993,-28.634146499999932],[-52.42222219999997,-28.634538],[-52.424628899999966,-28.636126199999985],[-52.42635359999997,-28.63819359999997],[-52.42818189999996,-28.639435399999957],[-52.428590099999944,-28.639313],[-52.43010419999997,-28.637922799999952],[-52.431675,-28.63848989999998],[-52.432925599999976,-28.639336699999937],[-52.43402679999997,-28.639607499999954],[-52.435941799999966,-28.639251199999933],[-52.43755379999993,-28.6383896],[-52.44396229999995,-28.638696199999966],[-52.44539619999995,-28.63899179999992],[-52.44730679999997,-28.63875159999997],[-52.44890269999997,-28.638265],[-52.45171219999998,-28.638329799999955],[-52.45887279999994,-28.63937939999993],[-52.46006,-28.63993519999996],[-52.46256969999997,-28.64013879999993],[-52.466965,-28.641649899999948],[-52.46863259999998,-28.64093],[-52.470131599999945,-28.640921199999962],[-52.473180799999966,-28.63898669999998],[-52.47552729999995,-28.639240899999947],[-52.477415,-28.640098299999973],[-52.478567399999974,-28.639701],[-52.47930889999998,-28.639678],[-52.48255559999995,-28.640224499999935],[-52.48641509999994,-28.639557099999937],[-52.491016,-28.637483699999954],[-52.49412479999995,-28.63553679999995],[-52.49828309999998,-28.633989599999957],[-52.49875819999995,-28.63369669999997],[-52.49915779999998,-28.632872699999954],[-52.499868499999934,-28.632491299999977],[-52.501222,-28.63240809999996],[-52.50256059999998,-28.633494],[-52.50292429999996,-28.63356779999998],[-52.50550669999995,-28.632551599999942],[-52.506879699999956,-28.633],[-52.50679059999993,-28.63235709999998],[-52.50730159999995,-28.631181099999935],[-52.50984109999997,-28.628836],[-52.510325499999965,-28.628108599999965],[-52.509720699999946,-28.62641059999993],[-52.507726099999964,-28.62550679999998],[-52.50760439999994,-28.625072199999973],[-52.507800399999944,-28.624532799999944],[-52.507448,-28.624093],[-52.507558899999935,-28.62310619999994],[-52.50839479999997,-28.62285649999995],[-52.50948839999995,-28.62297779999995],[-52.509699299999966,-28.62279159999996],[-52.509600499999976,-28.621982899999985],[-52.51017909999996,-28.620034199999957],[-52.50988849999993,-28.619329799999953],[-52.51022869999997,-28.61848],[-52.50823029999998,-28.616933499999963],[-52.50766539999995,-28.614830299999927],[-52.50711059999997,-28.614159699999952],[-52.50423909999994,-28.613033499999972],[-52.50241749999998,-28.612781199999972],[-52.50034709999995,-28.61170759999993],[-52.49840839999996,-28.610205],[-52.497015799999986,-28.609853099999953],[-52.49692239999997,-28.609596799999952],[-52.49743009999997,-28.608342199999967],[-52.496361899999954,-28.60553009999996],[-52.49582659999998,-28.602233],[-52.49552569999997,-28.601628699999935],[-52.494581,-28.60125649999997],[-52.49351329999997,-28.60133729999995],[-52.492893299999935,-28.602006099999976],[-52.49277839999996,-28.60278929999998],[-52.491650799999945,-28.60366419999997],[-52.49098689999994,-28.603910099999947],[-52.489430099999936,-28.603872],[-52.48907829999997,-28.60413639999996],[-52.48883669999998,-28.605008699999935],[-52.48778379999993,-28.605144699999986],[-52.48731639999993,-28.604907],[-52.487010899999966,-28.60432689999993],[-52.48711579999997,-28.60124519999993],[-52.48671379999996,-28.600572199999927],[-52.48615909999995,-28.600406],[-52.48506549999996,-28.600685699999925],[-52.481653699999974,-28.60057319999992],[-52.477429,-28.598589899999983],[-52.476539,-28.598365499999954],[-52.47331979999995,-28.59888779999995],[-52.47174759999996,-28.597944199999965],[-52.46717249999995,-28.597218199999922],[-52.466101199999976,-28.597250399999947],[-52.46355809999994,-28.599269699999976],[-52.462506099999985,-28.60049869999994],[-52.46200229999994,-28.60072979999994],[-52.456348099999964,-28.60227569999994],[-52.45397729999996,-28.60056459999993],[-52.45325,-28.600547799999973],[-52.45024849999999,-28.60176729999994],[-52.44775479999998,-28.603371099999944],[-52.44245639999997,-28.604351299999955],[-52.44070339999996,-28.604077899999936],[-52.437896,-28.604627599999954],[-52.43731759999997,-28.60497959999998],[-52.437190199999975,-28.605984399999954],[-52.43673809999995,-28.606872199999938],[-52.436256,-28.607113399999935],[-52.433266499999945,-28.606967699999924],[-52.432718099999924,-28.607842599999973],[-52.43126609999995,-28.608452699999937],[-52.42822829999994,-28.60843329999994],[-52.42300689999996,-28.608917899999945],[-52.420294799999965,-28.60782729999993],[-52.418256499999984,-28.606532299999966],[-52.41726609999996,-28.606576],[-52.416161399999964,-28.607196699999967],[-52.415858399999934,-28.608090699999927],[-52.415443,-28.608260699999953],[-52.41239219999995,-28.607279599999963],[-52.41171989999998,-28.607577299999942],[-52.410589499999965,-28.60858239999993],[-52.408724099999965,-28.608161599999956],[-52.40799149999999,-28.608201699999945],[-52.40504839999995,-28.61037349999998],[-52.403595199999984,-28.610393499999923],[-52.40156069999994,-28.61097719999998],[-52.40012789999997,-28.610509899999936],[-52.39861129999996,-28.608631599999978],[-52.396186299999954,-28.608474299999955],[-52.39442439999994,-28.607407699999957],[-52.39089549999994,-28.60788669999993],[-52.38954449999995,-28.60906719999997],[-52.38745529999994,-28.610280499999927],[-52.38685149999998,-28.61022979999995],[-52.386019,-28.60956109999994]]]}},{"type":"Feature","properties":{"setor":"430995105000013","pop":308,"sigilo_pop":false,"dom":174,"sigilo_dom":false,"mulheres":140,"sigilo_mulheres":false,"c0_4":17,"sigilo_c0_4":false,"c5_9":14,"sigilo_c5_9":false,"i60_69":35,"sigilo_i60_69":false,"i70m":54,"sigilo_i70m":false,"indigenas":0,"sigilo_indigenas":false,"pretos_pardos":null,"sigilo_pretos_pardos":true,"dom_ocupados":125,"sigilo_dom_ocupados":false,"dom_agua":93,"sigilo_dom_agua":false,"dom_esgoto":0,"sigilo_dom_esgoto":false,"renda_resp":3063.38,"sigilo_renda_resp":false,"n_resp":125,"sigilo_n_resp":false,"dens":6.2,"sigilo_dens":false,"na_bacia":0,"area_pct_bacia":0.0,"metodo_recorte_bacia":"ponto_representativo_setor_2022; area_pct_geometrica","status_borda_bacia":"total","metodo_area_bacia":"interse??o geom?trica em EPSG:5880","metodo_na_bacia":"ponto_representativo_setor_2022_within_bacia","pop_n_validos":1,"pop_n_total":1,"pop_completude":1.0,"dom_n_validos":1,"dom_n_total":1,"dom_completude":1.0,"dom_ocupados_n_validos":1,"dom_ocupados_n_total":1,"dom_ocupados_completude":1.0,"mulheres_n_validos":1,"mulheres_n_total":1,"mulheres_completude":1.0,"c0_4_n_validos":1,"c0_4_n_total":1,"c0_4_completude":1.0,"c5_9_n_validos":1,"c5_9_n_total":1,"c5_9_completude":1.0,"i60_69_n_validos":1,"i60_69_n_total":1,"i60_69_completude":1.0,"i70m_n_validos":1,"i70m_n_total":1,"i70m_completude":1.0,"indigenas_n_validos":1,"indigenas_n_total":1,"indigenas_completude":1.0,"pretos_pardos_n_validos":0,"pretos_pardos_n_total":1,"pretos_pardos_completude":0.0,"dom_agua_n_validos":1,"dom_agua_n_total":1,"dom_agua_completude":1.0,"dom_esgoto_n_validos":1,"dom_esgoto_n_total":1,"dom_esgoto_completude":1.0,"n_resp_n_validos":1,"n_resp_n_total":1,"n_resp_completude":1.0,"renda_resp_n_validos":1,"renda_resp_n_total":1,"renda_resp_completude":1.0,"dens_n_validos":1,"dens_n_total":1,"dens_completude":1.0},"geometry":{"type":"Polygon","coordinates":[[[-52.506879699999956,-28.633],[-52.50550669999995,-28.632551599999942],[-52.50292429999996,-28.63356779999998],[-52.50256059999998,-28.633494],[-52.501222,-28.63240809999996],[-52.499868499999934,-28.632491299999977],[-52.49915779999998,-28.632872699999954],[-52.49875819999995,-28.63369669999997],[-52.49828309999998,-28.633989599999957],[-52.49412479999995,-28.63553679999995],[-52.491016,-28.637483699999954],[-52.48641509999994,-28.639557099999937],[-52.48554319999994,-28.63976459999997],[-52.48255559999995,-28.640224499999935],[-52.478567399999974,-28.639701],[-52.477415,-28.640098299999973],[-52.47552729999995,-28.639240899999947],[-52.473180799999966,-28.63898669999998],[-52.470131599999945,-28.640921199999962],[-52.46863259999998,-28.64093],[-52.466965,-28.641649899999948],[-52.46256969999997,-28.64013879999993],[-52.46006,-28.63993519999996],[-52.45887279999994,-28.63937939999993],[-52.45171219999998,-28.638329799999955],[-52.44890269999997,-28.638265],[-52.44730679999997,-28.63875159999997],[-52.44539619999995,-28.63899179999992],[-52.44396229999995,-28.638696199999966],[-52.43755379999993,-28.6383896],[-52.435941799999966,-28.639251199999933],[-52.43402679999997,-28.639607499999954],[-52.432925599999976,-28.639336699999937],[-52.43060819999994,-28.638060099999958],[-52.42987009999996,-28.637999],[-52.428394899999944,-28.639445399999946],[-52.42911719999995,-28.64031249999994],[-52.42859969999994,-28.641574099999957],[-52.428734,-28.643888399999977],[-52.42778029999994,-28.64848389999998],[-52.4268795,-28.650335099999953],[-52.42564,-28.651426899999926],[-52.42243609999996,-28.652850299999965],[-52.42236939999999,-28.655793199999945],[-52.42149489999997,-28.657239599999972],[-52.421325,-28.658252799999957],[-52.420334199999964,-28.659574199999945],[-52.41904189999997,-28.66247759999994],[-52.41941909999998,-28.663753699999983],[-52.41946739999997,-28.66519039999997],[-52.418992199999934,-28.665981899999963],[-52.42135209999997,-28.668931399999966],[-52.42102479999995,-28.672638699999943],[-52.42139829999997,-28.673308599999928],[-52.42226849999997,-28.674010799999966],[-52.42250539999998,-28.674648199999975],[-52.42125969999995,-28.685154399999924],[-52.42108459999997,-28.68568789999994],[-52.41985209999996,-28.686302899999934],[-52.41821089999996,-28.686509199999936],[-52.41707859999997,-28.686943499999973],[-52.41316929999994,-28.689783399999957],[-52.413554699999956,-28.690059],[-52.413543199999935,-28.69038089999998],[-52.414288,-28.69098209999992],[-52.414698299999934,-28.69098509999997],[-52.415211399999976,-28.691519299999978],[-52.41534969999998,-28.69232519999996],[-52.415302,-28.69360329999995],[-52.414546,-28.693991699999966],[-52.41406539999997,-28.693641099999983],[-52.41376349999996,-28.693718099999952],[-52.413237,-28.694096],[-52.413407,-28.694695],[-52.414609399999954,-28.695600899999924],[-52.41513649999997,-28.69631089999996],[-52.41574259999994,-28.69644949999997],[-52.41694629999995,-28.69743239999997],[-52.417508099999964,-28.697343799999942],[-52.41798069999999,-28.69656109999994],[-52.41975839999997,-28.695465299999963],[-52.422222899999944,-28.6955488],[-52.42289829999998,-28.69615739999995],[-52.42213639999995,-28.69714219999997],[-52.42215229999993,-28.697415099999944],[-52.42285959999998,-28.697770899999963],[-52.42410419999993,-28.69780429999997],[-52.42571839999994,-28.69881279999993],[-52.426011199999955,-28.69985719999994],[-52.426668499999955,-28.700570299999974],[-52.42714669999999,-28.700713399999984],[-52.428002,-28.70071979999994],[-52.42860719999994,-28.700082599999977],[-52.43086869999997,-28.699858199999934],[-52.43146079999997,-28.69942379999997],[-52.43260369999996,-28.69910969999995],[-52.43374139999997,-28.697395599999926],[-52.435205,-28.697909199999962],[-52.436255,-28.698856799999934],[-52.437523699999986,-28.69939759999994],[-52.44037429999997,-28.698475799999986],[-52.44198,-28.697125699999955],[-52.44311359999995,-28.696654],[-52.44361329999998,-28.697303499999975],[-52.44392989999995,-28.698309299999945],[-52.44481239999993,-28.698896899999976],[-52.445843299999986,-28.699079499999982],[-52.446213099999966,-28.69890379999998],[-52.44634849999994,-28.698297199999963],[-52.44553609999996,-28.697546299999942],[-52.445197,-28.69650359999998],[-52.44553949999994,-28.695581099999963],[-52.445433599999944,-28.694790799999964],[-52.446047799999974,-28.694537099999938],[-52.446712,-28.694590299999945],[-52.44670139999993,-28.692905499999938],[-52.44739929999998,-28.691411599999977],[-52.44722839999997,-28.690731],[-52.44800719999995,-28.68923309999997],[-52.449544099999976,-28.688234699999946],[-52.450994499999986,-28.687893],[-52.452094199999976,-28.688010699999957],[-52.45263309999996,-28.68913929999995],[-52.45197019999995,-28.691146599999975],[-52.45207849999996,-28.691407],[-52.45426429999998,-28.69103219999994],[-52.45501429999997,-28.69109619999995],[-52.457416,-28.69046579999996],[-52.457997,-28.689913899999958],[-52.45850529999996,-28.688362199999965],[-52.459400199999955,-28.687742],[-52.459950299999946,-28.68764639999994],[-52.46136829999995,-28.689338099999926],[-52.461613599999964,-28.69068229999992],[-52.462004699999966,-28.69110189999998],[-52.46383049999997,-28.689134],[-52.46493539999994,-28.688301799999984],[-52.46563019999997,-28.688179799999936],[-52.46610149999997,-28.688419399999933],[-52.466009499999984,-28.688989],[-52.46680289999995,-28.690855499999937],[-52.46831979999997,-28.691119599999976],[-52.46928189999995,-28.69103],[-52.47144629999997,-28.68860679999994],[-52.47145519999999,-28.68365949999997],[-52.471764699999945,-28.68304129999995],[-52.476743399999975,-28.683000899999957],[-52.47922059999996,-28.68219179999994],[-52.47927979999997,-28.681911699999937],[-52.47863319999993,-28.681179199999978],[-52.47841079999994,-28.680549399999958],[-52.47874039999994,-28.680028799999945],[-52.47898729999998,-28.67858439999998],[-52.48123929999997,-28.675296499999956],[-52.482759,-28.67551869999995],[-52.48434439999995,-28.673956],[-52.48501879999998,-28.674103599999956],[-52.487035,-28.673149599999938],[-52.48818479999994,-28.67316979999998],[-52.49057369999996,-28.673911899999947],[-52.49159409999998,-28.67521],[-52.493015199999945,-28.675957199999967],[-52.49456549999997,-28.67531649999995],[-52.49558469999994,-28.67525069999993],[-52.49617839999996,-28.675717699999954],[-52.49742209999994,-28.675749799999945],[-52.49782009999995,-28.67651409999996],[-52.49814369999995,-28.676692499999948],[-52.4993899,-28.67551449999996],[-52.499834,-28.675582599999927],[-52.500941299999965,-28.67656129999995],[-52.50215179999998,-28.676932699999956],[-52.50298859999998,-28.676450699999986],[-52.50547809999995,-28.67233129999994],[-52.507299599999946,-28.671689599999972],[-52.507953499999985,-28.672807399999957],[-52.50902309999998,-28.672739499999977],[-52.50907439999998,-28.672327899999967],[-52.50967239999994,-28.671946899999977],[-52.510554199999945,-28.67059979999993],[-52.51196009999995,-28.669734],[-52.51192159999994,-28.66897079999996],[-52.51236479999994,-28.668831099999974],[-52.51337479999995,-28.669095699999954],[-52.51787749999994,-28.664021799999947],[-52.51810839999997,-28.662125],[-52.51728959999998,-28.657329499999943],[-52.51966369999997,-28.656720399999983],[-52.520466,-28.65533909999994],[-52.52077589999993,-28.653724099999977],[-52.52065659999994,-28.652844],[-52.520219,-28.652023],[-52.520579199999986,-28.65073119999994],[-52.52057259999998,-28.648303499999926],[-52.51998639999993,-28.646246],[-52.519294699999925,-28.645282399999928],[-52.51900509999996,-28.64407629999994],[-52.519168699999966,-28.643228699999945],[-52.520110699999975,-28.641900499999966],[-52.51987419999995,-28.640993299999938],[-52.51866539999997,-28.640294899999958],[-52.51706749999994,-28.639972299999947],[-52.51507189999995,-28.63864069999994],[-52.51441049999994,-28.63709289999998],[-52.51300379999998,-28.635339799999944],[-52.511594799999955,-28.63152739999999],[-52.51010409999998,-28.630624799999953],[-52.50747389999998,-28.632847899999945],[-52.506879699999956,-28.633]]]}},{"type":"Feature","properties":{"setor":"430995105000014","pop":97,"sigilo_pop":false,"dom":42,"sigilo_dom":false,"mulheres":46,"sigilo_mulheres":false,"c0_4":null,"sigilo_c0_4":true,"c5_9":8,"sigilo_c5_9":false,"i60_69":10,"sigilo_i60_69":false,"i70m":13,"sigilo_i70m":false,"indigenas":0,"sigilo_indigenas":false,"pretos_pardos":null,"sigilo_pretos_pardos":true,"dom_ocupados":37,"sigilo_dom_ocupados":false,"dom_agua":6,"sigilo_dom_agua":false,"dom_esgoto":0,"sigilo_dom_esgoto":false,"renda_resp":1941.14,"sigilo_renda_resp":false,"n_resp":37,"sigilo_n_resp":false,"dens":7.9,"sigilo_dens":false,"na_bacia":0,"area_pct_bacia":0.0,"metodo_recorte_bacia":"ponto_representativo_setor_2022; area_pct_geometrica","status_borda_bacia":"total","metodo_area_bacia":"interse??o geom?trica em EPSG:5880","metodo_na_bacia":"ponto_representativo_setor_2022_within_bacia","pop_n_validos":1,"pop_n_total":1,"pop_completude":1.0,"dom_n_validos":1,"dom_n_total":1,"dom_completude":1.0,"dom_ocupados_n_validos":1,"dom_ocupados_n_total":1,"dom_ocupados_completude":1.0,"mulheres_n_validos":1,"mulheres_n_total":1,"mulheres_completude":1.0,"c0_4_n_validos":0,"c0_4_n_total":1,"c0_4_completude":0.0,"c5_9_n_validos":1,"c5_9_n_total":1,"c5_9_completude":1.0,"i60_69_n_validos":1,"i60_69_n_total":1,"i60_69_completude":1.0,"i70m_n_validos":1,"i70m_n_total":1,"i70m_completude":1.0,"indigenas_n_validos":1,"indigenas_n_total":1,"indigenas_completude":1.0,"pretos_pardos_n_validos":0,"pretos_pardos_n_total":1,"pretos_pardos_completude":0.0,"dom_agua_n_validos":1,"dom_agua_n_total":1,"dom_agua_completude":1.0,"dom_esgoto_n_validos":1,"dom_esgoto_n_total":1,"dom_esgoto_completude":1.0,"n_resp_n_validos":1,"n_resp_n_total":1,"n_resp_completude":1.0,"renda_resp_n_validos":1,"renda_resp_n_total":1,"renda_resp_completude":1.0,"dens_n_validos":1,"dens_n_total":1,"dens_completude":1.0},"geometry":{"type":"Polygon","coordinates":[[[-52.52230449999996,-28.625575099999935],[-52.52121409999996,-28.627811099999974],[-52.52133689999994,-28.628440499999947],[-52.520270799999935,-28.628521299999935],[-52.51827389999994,-28.630864799999976],[-52.518703399999936,-28.631556],[-52.517771299999936,-28.63288509999995],[-52.516270599999984,-28.633044599999945],[-52.515865599999984,-28.632876599999975],[-52.514327899999955,-28.633548799999964],[-52.51236339999997,-28.63340379999993],[-52.51300379999998,-28.635339799999944],[-52.51441049999994,-28.63709289999998],[-52.51518459999994,-28.63876669999995],[-52.51706749999994,-28.639972299999947],[-52.51866539999997,-28.640294899999958],[-52.51968469999997,-28.640725199999963],[-52.51991839999993,-28.641095],[-52.520110699999975,-28.641900499999966],[-52.519168699999966,-28.643228699999945],[-52.51900509999996,-28.64407629999994],[-52.519294699999925,-28.645282399999928],[-52.519953199999975,-28.646162],[-52.52051959999995,-28.647883599999933],[-52.52059909999996,-28.650495799999934],[-52.520219,-28.652023],[-52.52065659999994,-28.652844],[-52.52077589999993,-28.653724099999977],[-52.52062339999997,-28.65490479999994],[-52.519761,-28.656656299999938],[-52.51728959999998,-28.657329499999943],[-52.51810839999997,-28.662125],[-52.51787749999994,-28.664021799999947],[-52.51337479999995,-28.669095699999954],[-52.518734799999955,-28.669410099999947],[-52.51944439999994,-28.66872129999995],[-52.51980869999994,-28.666983299999963],[-52.52019849999993,-28.666815],[-52.52150719999998,-28.666903599999948],[-52.521815,-28.666497199999984],[-52.52178429999998,-28.665771599999967],[-52.52242279999996,-28.665373],[-52.522812399999964,-28.66466229999998],[-52.52385219999997,-28.66443109999994],[-52.52714439999994,-28.666761699999935],[-52.529405,-28.667797799999967],[-52.52949259999997,-28.668582199999946],[-52.52894639999994,-28.66937549999995],[-52.52893779999994,-28.670165499999946],[-52.52931519999998,-28.670440599999957],[-52.52979939999995,-28.670258],[-52.53016109999999,-28.66950259999993],[-52.530999799999954,-28.66883359999997],[-52.53102319999994,-28.66819269999996],[-52.532586399999964,-28.66713609999993],[-52.536318499999936,-28.66553209999995],[-52.54092379999998,-28.66780669999997],[-52.5438228,-28.66885039999994],[-52.5441656,-28.665439299999935],[-52.54568309999997,-28.663627499999954],[-52.545703799999956,-28.66252289999994],[-52.54648149999997,-28.65951329999995],[-52.54634469999996,-28.658772199999923],[-52.54422759999994,-28.656266199999944],[-52.54407319999996,-28.655541499999963],[-52.54468009999993,-28.65366749999998],[-52.545118899999984,-28.653097299999942],[-52.546444,-28.652421399999984],[-52.54711059999994,-28.65238639999994],[-52.547813099999985,-28.652711499999945],[-52.54831559999996,-28.65325639999997],[-52.54923259999998,-28.654438199999962],[-52.55011669999993,-28.657084799999947],[-52.55046209999995,-28.65753029999997],[-52.551349899999934,-28.657837899999944],[-52.55263669999994,-28.65758789999996],[-52.554454899999946,-28.656453599999967],[-52.557087299999985,-28.65575289999999],[-52.55840649999994,-28.65464619999994],[-52.55956249999998,-28.65400539999996],[-52.55977489999998,-28.65345159999998],[-52.561070099999945,-28.65339469999999],[-52.561404799999934,-28.65436309999996],[-52.563340299999936,-28.655779899999967],[-52.56532289999995,-28.655445399999962],[-52.565313499999945,-28.655062],[-52.564311099999934,-28.654012499999975],[-52.56437769999996,-28.653359299999984],[-52.56053879999996,-28.65226159999998],[-52.55903939999996,-28.64907829999993],[-52.55742279999998,-28.64969669999993],[-52.55614529999996,-28.649689899999935],[-52.555756299999985,-28.649016699999954],[-52.554899699999964,-28.648665499999932],[-52.55391549999996,-28.647659],[-52.552455399999985,-28.647398199999945],[-52.55129039999997,-28.646799],[-52.549461,-28.64188689999997],[-52.546951699999966,-28.640081],[-52.545904399999976,-28.639793799999946],[-52.545215,-28.637603899999934],[-52.544703399999946,-28.636910399999973],[-52.54433519999998,-28.635099399999945],[-52.541283599999986,-28.634846699999983],[-52.53839769999996,-28.63297349999993],[-52.537482799999964,-28.63267859999995],[-52.52986539999995,-28.631240499999926],[-52.524005699999975,-28.624577899999952],[-52.521963699999965,-28.62503389999995],[-52.52193079999995,-28.625331199999945],[-52.52230449999996,-28.625575099999935]]]}}]}
