{"type":"FeatureCollection","name":"4309902","crs":{"type":"name","properties":{"name":"urn:ogc:def:crs:OGC:1.3:CRS84"}},"features":[{"type":"Feature","properties":{"setor":"430990205000001","pop":2389,"sigilo_pop":false,"dom":1060,"sigilo_dom":false,"mulheres":1222,"sigilo_mulheres":false,"c0_4":143,"sigilo_c0_4":false,"c5_9":139,"sigilo_c5_9":false,"i60_69":263,"sigilo_i60_69":false,"i70m":254,"sigilo_i70m":false,"indigenas":null,"sigilo_indigenas":true,"pretos_pardos":464,"sigilo_pretos_pardos":false,"dom_ocupados":946,"sigilo_dom_ocupados":false,"dom_agua":945,"sigilo_dom_agua":false,"dom_esgoto":224,"sigilo_dom_esgoto":false,"renda_resp":3171.76,"sigilo_renda_resp":false,"n_resp":946,"sigilo_n_resp":false,"dens":1975.5,"sigilo_dens":false,"na_bacia":1,"area_pct_bacia":100.0,"metodo_recorte_bacia":"ponto_representativo_setor_2022; area_pct_geometrica"},"geometry":{"type":"Polygon","coordinates":[[[-51.631606799999986,-28.362525699999935],[-51.63390859999998,-28.366562],[-51.632088099999976,-28.367417099999958],[-51.63060349999996,-28.366225],[-51.62996409999994,-28.36608089999992],[-51.629538699999955,-28.365688699999964],[-51.628904,-28.3638711],[-51.62844389999998,-28.36449409999994],[-51.62727009999998,-28.365126],[-51.63058619999998,-28.36846039999995],[-51.63182049999995,-28.37044119999996],[-51.62963819999993,-28.371694299999948],[-51.62968,-28.37227909999995],[-51.63175919999998,-28.37542239999994],[-51.63299989999996,-28.374395399999973],[-51.63623819999998,-28.372851399999938],[-51.63792729999995,-28.375745499999923],[-51.644911,-28.372872399999938],[-51.64406659999998,-28.371996599999928],[-51.64389349999993,-28.371346799999966],[-51.642776,-28.371257299999968],[-51.64207259999995,-28.37072349999993],[-51.641791,-28.370756399999948],[-51.64105319999993,-28.369378699999974],[-51.63999269999994,-28.36986589999998],[-51.638279899999986,-28.366969299999937],[-51.63870829999997,-28.366778499999945],[-51.63925539999996,-28.363820699999966],[-51.636882499999956,-28.364605],[-51.63590979999998,-28.363049899999954],[-51.63365849999997,-28.36173149999995],[-51.631606799999986,-28.362525699999935]]]}},{"type":"Feature","properties":{"setor":"430990205000003","pop":422,"sigilo_pop":false,"dom":182,"sigilo_dom":false,"mulheres":215,"sigilo_mulheres":false,"c0_4":20,"sigilo_c0_4":false,"c5_9":21,"sigilo_c5_9":false,"i60_69":58,"sigilo_i60_69":false,"i70m":41,"sigilo_i70m":false,"indigenas":0,"sigilo_indigenas":false,"pretos_pardos":91,"sigilo_pretos_pardos":false,"dom_ocupados":173,"sigilo_dom_ocupados":false,"dom_agua":173,"sigilo_dom_agua":false,"dom_esgoto":95,"sigilo_dom_esgoto":false,"renda_resp":2423.72,"sigilo_renda_resp":false,"n_resp":173,"sigilo_n_resp":false,"dens":2402.0,"sigilo_dens":false,"na_bacia":1,"area_pct_bacia":100.0,"metodo_recorte_bacia":"ponto_representativo_setor_2022; area_pct_geometrica"},"geometry":{"type":"Polygon","coordinates":[[[-51.63175919999998,-28.37542239999994],[-51.63355909999996,-28.37781379999996],[-51.63792729999995,-28.375745499999923],[-51.63623819999998,-28.372851399999938],[-51.63299989999996,-28.374395399999973],[-51.63175919999998,-28.37542239999994]]]}},{"type":"Feature","properties":{"setor":"430990205000004","pop":128,"sigilo_pop":false,"dom":59,"sigilo_dom":false,"mulheres":61,"sigilo_mulheres":false,"c0_4":null,"sigilo_c0_4":true,"c5_9":null,"sigilo_c5_9":true,"i60_69":9,"sigilo_i60_69":false,"i70m":13,"sigilo_i70m":false,"indigenas":0,"sigilo_indigenas":false,"pretos_pardos":21,"sigilo_pretos_pardos":false,"dom_ocupados":51,"sigilo_dom_ocupados":false,"dom_agua":50,"sigilo_dom_agua":false,"dom_esgoto":11,"sigilo_dom_esgoto":false,"renda_resp":4527.85,"sigilo_renda_resp":false,"n_resp":51,"sigilo_n_resp":false,"dens":565.0,"sigilo_dens":false,"na_bacia":1,"area_pct_bacia":100.0,"metodo_recorte_bacia":"ponto_representativo_setor_2022; area_pct_geometrica"},"geometry":{"type":"Polygon","coordinates":[[[-51.64283249999994,-28.365201799999966],[-51.64254589999996,-28.367468599999935],[-51.63942239999994,-28.368924],[-51.63999269999994,-28.36986589999998],[-51.64105319999993,-28.369378699999974],[-51.641791,-28.370756399999948],[-51.64207259999995,-28.37072349999993],[-51.642776,-28.371257299999968],[-51.64389349999993,-28.371346799999966],[-51.64406659999998,-28.371996599999928],[-51.644911,-28.372872399999938],[-51.646240399999954,-28.372308399999948],[-51.643479499999955,-28.365015],[-51.64283249999994,-28.365201799999966]]]}},{"type":"Feature","properties":{"setor":"430990205000005","pop":224,"sigilo_pop":false,"dom":88,"sigilo_dom":false,"mulheres":107,"sigilo_mulheres":false,"c0_4":10,"sigilo_c0_4":false,"c5_9":10,"sigilo_c5_9":false,"i60_69":28,"sigilo_i60_69":false,"i70m":22,"sigilo_i70m":false,"indigenas":0,"sigilo_indigenas":false,"pretos_pardos":41,"sigilo_pretos_pardos":false,"dom_ocupados":82,"sigilo_dom_ocupados":false,"dom_agua":78,"sigilo_dom_agua":false,"dom_esgoto":46,"sigilo_dom_esgoto":false,"renda_resp":2643.78,"sigilo_renda_resp":false,"n_resp":82,"sigilo_n_resp":false,"dens":1614.8,"sigilo_dens":false,"na_bacia":1,"area_pct_bacia":100.0,"metodo_recorte_bacia":"ponto_representativo_setor_2022; area_pct_geometrica"},"geometry":{"type":"Polygon","coordinates":[[[-51.63942239999994,-28.368924],[-51.64254589999996,-28.367468599999935],[-51.64283249999994,-28.365201799999966],[-51.64153669999997,-28.365654699999943],[-51.64098579999995,-28.365418],[-51.63925539999996,-28.363820699999966],[-51.63870829999997,-28.366778499999945],[-51.638279899999986,-28.366969299999937],[-51.63942239999994,-28.368924]]]}},{"type":"Feature","properties":{"setor":"430990205000007","pop":267,"sigilo_pop":false,"dom":149,"sigilo_dom":false,"mulheres":124,"sigilo_mulheres":false,"c0_4":14,"sigilo_c0_4":false,"c5_9":11,"sigilo_c5_9":false,"i60_69":44,"sigilo_i60_69":false,"i70m":30,"sigilo_i70m":false,"indigenas":0,"sigilo_indigenas":false,"pretos_pardos":38,"sigilo_pretos_pardos":false,"dom_ocupados":104,"sigilo_dom_ocupados":false,"dom_agua":0,"sigilo_dom_agua":false,"dom_esgoto":0,"sigilo_dom_esgoto":false,"renda_resp":1733.11,"sigilo_renda_resp":false,"n_resp":104,"sigilo_n_resp":false,"dens":10.9,"sigilo_dens":false,"na_bacia":1,"area_pct_bacia":100.0,"metodo_recorte_bacia":"ponto_representativo_setor_2022; area_pct_geometrica"},"geometry":{"type":"Polygon","coordinates":[[[-51.54160889999997,-28.325711299999973],[-51.54209809999998,-28.32501309999998],[-51.542634799999966,-28.325065099999957],[-51.543152,-28.32553919999998],[-51.54362709999997,-28.32562639999998],[-51.5446927,-28.325353],[-51.547948099999985,-28.32516859999998],[-51.54745879999996,-28.32606879999997],[-51.5474402,-28.326658099999975],[-51.54891759999999,-28.32740939999996],[-51.548911,-28.33092169999998],[-51.5498171,-28.332275899999946],[-51.55007939999996,-28.334057],[-51.55061669999998,-28.33450539999995],[-51.55107789999994,-28.335763599999954],[-51.55215919999994,-28.337106299999967],[-51.55232749999993,-28.33802019999996],[-51.553774199999964,-28.34002369999995],[-51.55622249999993,-28.341806699999946],[-51.55809489999995,-28.339278599999936],[-51.56127689999994,-28.336978799999944],[-51.562449,-28.33667489999993],[-51.563218499999955,-28.33543279999997],[-51.56477109999998,-28.334405799999956],[-51.56599209999996,-28.33473029999993],[-51.56884459999998,-28.334907299999934],[-51.57072309999995,-28.335486499999934],[-51.57327389999995,-28.33453989999999],[-51.57478919999994,-28.33345129999997],[-51.575659,-28.333310899999944],[-51.57789559999997,-28.33391859999994],[-51.57878819999996,-28.334651299999955],[-51.57958259999999,-28.335765099999946],[-51.57954169999994,-28.3371193],[-51.58005979999995,-28.337818],[-51.579711799999984,-28.34063679999996],[-51.580567599999945,-28.340774099999987],[-51.58003579999996,-28.348575],[-51.57940739999999,-28.34948879999995],[-51.57776039999993,-28.349406199999972],[-51.57770139999997,-28.350238699999988],[-51.576462799999945,-28.351537599999975],[-51.576665899999966,-28.354391499999966],[-51.5774009,-28.355348899999974],[-51.57852539999994,-28.356140299999932],[-51.577862,-28.357593699999942],[-51.57791649999995,-28.357942099999935],[-51.576640299999944,-28.358210199999967],[-51.57476049999996,-28.35813059999999],[-51.573454099999935,-28.35832],[-51.57131889999994,-28.35931989999995],[-51.570629,-28.360171399999945],[-51.569763799999976,-28.360016299999987],[-51.567619,-28.360483799999937],[-51.565277699999974,-28.360673599999927],[-51.56365119999998,-28.360462],[-51.562446299999976,-28.36327029999996],[-51.56337549999995,-28.36532029999995],[-51.56323939999998,-28.366398099999962],[-51.56249329999997,-28.367273299999958],[-51.56179979999997,-28.367218],[-51.55981419999995,-28.368462],[-51.55885889999996,-28.36844],[-51.55846569999995,-28.368666],[-51.557538299999976,-28.369886],[-51.55632339999993,-28.370708199999967],[-51.555509,-28.371648799999953],[-51.55374339999997,-28.372093499999952],[-51.55184219999996,-28.373032099999932],[-51.551021599999956,-28.37681759999998],[-51.55024259999994,-28.377437199999978],[-51.55306939999996,-28.377093],[-51.55555929999997,-28.37762629999997],[-51.555693599999984,-28.378178],[-51.556431299999986,-28.37875719999994],[-51.55873749999996,-28.378451799999926],[-51.55986989999997,-28.378752799999972],[-51.56152259999993,-28.38057319999996],[-51.561983399999974,-28.382881],[-51.563897099999956,-28.384753199999974],[-51.564238,-28.38400909999996],[-51.56504719999998,-28.383237],[-51.5677381,-28.383653199999973],[-51.568974,-28.383318199999962],[-51.57074239999997,-28.38410709999994],[-51.57264149999998,-28.3833261],[-51.575462099999974,-28.381693699999964],[-51.575829399999975,-28.381158099999936],[-51.576184699999935,-28.378745099999946],[-51.57761689999996,-28.377767399999982],[-51.57824869999996,-28.37539319999996],[-51.57882349999994,-28.374361799999974],[-51.580489,-28.372331],[-51.58190179999997,-28.371119799999956],[-51.582993299999934,-28.368776],[-51.58283249999994,-28.36806009999997],[-51.58315779999998,-28.36761389999998],[-51.585701099999945,-28.365807499999956],[-51.588227,-28.365266499999965],[-51.58993449999997,-28.36310369999996],[-51.59057269999993,-28.362645799999942],[-51.591867099999945,-28.362248699999956],[-51.59282209999998,-28.36236379999998],[-51.593631,-28.36217909999993],[-51.5954584,-28.36089629999998],[-51.59797979999996,-28.359888699999946],[-51.60062189999997,-28.35678179999997],[-51.60274959999998,-28.35608909999996],[-51.607285399999974,-28.355737],[-51.609504299999976,-28.356207],[-51.61262769999996,-28.35635419999994],[-51.614423899999956,-28.355748099999975],[-51.61586309999996,-28.35487989999995],[-51.60759889999997,-28.345628599999937],[-51.60250569999993,-28.34061559999998],[-51.60101629999997,-28.33775839999992],[-51.59457549999997,-28.333116599999983],[-51.58218789999995,-28.320971499999924],[-51.5770687,-28.316386099999924],[-51.57033969999997,-28.31264609999994],[-51.56743,-28.307530199999984],[-51.56695429999997,-28.30601729999994],[-51.56551719999993,-28.306253299999977],[-51.56374449999998,-28.301929599999937],[-51.55765479999997,-28.309513899999953],[-51.55358329999996,-28.309937099999953],[-51.54474559999995,-28.3136277],[-51.541727399999964,-28.32153779999993],[-51.54160889999997,-28.325711299999973]]]}},{"type":"Feature","properties":{"setor":"430990205000009","pop":103,"sigilo_pop":false,"dom":52,"sigilo_dom":false,"mulheres":50,"sigilo_mulheres":false,"c0_4":null,"sigilo_c0_4":true,"c5_9":null,"sigilo_c5_9":true,"i60_69":19,"sigilo_i60_69":false,"i70m":21,"sigilo_i70m":false,"indigenas":0,"sigilo_indigenas":false,"pretos_pardos":5,"sigilo_pretos_pardos":false,"dom_ocupados":37,"sigilo_dom_ocupados":false,"dom_agua":21,"sigilo_dom_agua":false,"dom_esgoto":0,"sigilo_dom_esgoto":false,"renda_resp":5388.7,"sigilo_renda_resp":false,"n_resp":37,"sigilo_n_resp":false,"dens":5.9,"sigilo_dens":false,"na_bacia":1,"area_pct_bacia":100.0,"metodo_recorte_bacia":"ponto_representativo_setor_2022; area_pct_geometrica"},"geometry":{"type":"Polygon","coordinates":[[[-51.584370199999974,-28.42559239999997],[-51.58355179999995,-28.429354],[-51.58429469999999,-28.431838299999974],[-51.587495299999944,-28.435308599999924],[-51.589620099999934,-28.435349],[-51.591977499999985,-28.43372939999995],[-51.59298029999996,-28.433944699999987],[-51.60155229999998,-28.442589699999925],[-51.60407639999994,-28.443406199999966],[-51.60476339999997,-28.44672],[-51.604319499999974,-28.449062499999958],[-51.60511619999994,-28.450547499999978],[-51.61014519999998,-28.44927759999996],[-51.61271029999994,-28.44737],[-51.614229199999954,-28.447116199999982],[-51.61518019999995,-28.449013299999923],[-51.61501759999994,-28.452527699999965],[-51.61711389999993,-28.45307669999994],[-51.61578609999998,-28.454228599999965],[-51.616798,-28.456368399999977],[-51.61639819999993,-28.460078099999983],[-51.616983199999936,-28.461953399999967],[-51.61920529999997,-28.463189099999962],[-51.618338599999966,-28.46531229999994],[-51.62130609999997,-28.464275599999944],[-51.622373,-28.465932099999968],[-51.620367,-28.470134899999948],[-51.61747359999998,-28.47304519999995],[-51.61872629999994,-28.4744803],[-51.618432599999956,-28.477445299999935],[-51.61975539999998,-28.479645399999974],[-51.620269199999946,-28.478226099999958],[-51.62197829999997,-28.476139899999964],[-51.62189829999994,-28.47511649999995],[-51.62217649999997,-28.474793499999976],[-51.62626009999997,-28.471650799999964],[-51.62825819999995,-28.47075269999994],[-51.62932669999998,-28.469728499999963],[-51.63016019999998,-28.466907099999954],[-51.63152239999994,-28.463627499999983],[-51.63466439999996,-28.459775099999938],[-51.63611169999996,-28.457537399999982],[-51.63606239999996,-28.454058299999936],[-51.636989699999965,-28.450634599999933],[-51.635182,-28.44614479999995],[-51.635871399999985,-28.44176909999993],[-51.634204899999986,-28.44007759999994],[-51.633984099999964,-28.439437399999985],[-51.63449149999997,-28.42872049999995],[-51.63292429999996,-28.42577149999993],[-51.63302909999993,-28.422615099999966],[-51.63258549999995,-28.41882059999995],[-51.632117499999936,-28.418918799999975],[-51.63173849999998,-28.419294199999957],[-51.62980319999997,-28.41982189999992],[-51.62326489999999,-28.419473],[-51.61634859999998,-28.42014989999995],[-51.61537909999998,-28.418947399999972],[-51.61430809999996,-28.418083199999952],[-51.613949599999955,-28.417169],[-51.610837,-28.415910299999954],[-51.610511,-28.41485609999996],[-51.608229,-28.413617899999963],[-51.60788,-28.41298789999996],[-51.60734739999998,-28.412605],[-51.60668919999994,-28.413194099999945],[-51.60656809999994,-28.414313599999957],[-51.606113599999965,-28.41501989999994],[-51.60321179999995,-28.417083899999966],[-51.603156699999936,-28.417631899999936],[-51.603932699999966,-28.419349799999956],[-51.60323589999996,-28.420789499999955],[-51.601729499999976,-28.421338899999963],[-51.601984099999974,-28.421959799999964],[-51.601498399999976,-28.42335169999995],[-51.59926019999995,-28.423152099999978],[-51.59796649999998,-28.423812799999943],[-51.597111499999976,-28.423435799999933],[-51.59546769999997,-28.42362179999997],[-51.592692899999975,-28.423429699999932],[-51.58688319999993,-28.42235969999995],[-51.585519499999975,-28.423706399999954],[-51.585406699999965,-28.424687899999974],[-51.584370199999974,-28.42559239999997]]]}},{"type":"Feature","properties":{"setor":"430990205000010","pop":447,"sigilo_pop":false,"dom":206,"sigilo_dom":false,"mulheres":207,"sigilo_mulheres":false,"c0_4":20,"sigilo_c0_4":false,"c5_9":22,"sigilo_c5_9":false,"i60_69":61,"sigilo_i60_69":false,"i70m":56,"sigilo_i70m":false,"indigenas":0,"sigilo_indigenas":false,"pretos_pardos":116,"sigilo_pretos_pardos":false,"dom_ocupados":165,"sigilo_dom_ocupados":false,"dom_agua":81,"sigilo_dom_agua":false,"dom_esgoto":0,"sigilo_dom_esgoto":false,"renda_resp":4387.18,"sigilo_renda_resp":false,"n_resp":165,"sigilo_n_resp":false,"dens":11.9,"sigilo_dens":false,"na_bacia":1,"area_pct_bacia":97.5369,"metodo_recorte_bacia":"ponto_representativo_setor_2022; area_pct_geometrica"},"geometry":{"type":"Polygon","coordinates":[[[-51.693450599999956,-28.38371549999993],[-51.69541869999995,-28.381414399999986],[-51.69457769999997,-28.381169199999924],[-51.69364759999996,-28.380321899999956],[-51.69237389999995,-28.380039299999957],[-51.692305,-28.378551],[-51.691875599999946,-28.378078599999984],[-51.69155319999993,-28.377083899999935],[-51.69025349999998,-28.375353899999933],[-51.68999319999995,-28.374094],[-51.690232899999955,-28.373957699999938],[-51.69256389999998,-28.374104599999946],[-51.69501479999996,-28.373571799999983],[-51.69545549999998,-28.37286879999993],[-51.69593469999995,-28.36990379999997],[-51.69623119999994,-28.369376299999953],[-51.697137199999986,-28.36896249999995],[-51.69968209999996,-28.36864289999994],[-51.69976889999999,-28.368214399999946],[-51.69817789999996,-28.367684699999984],[-51.697478899999965,-28.366759],[-51.69706459999998,-28.36559529999993],[-51.696366299999966,-28.36531449999995],[-51.69566189999995,-28.36558379999998],[-51.69472,-28.366636099999933],[-51.69246429999998,-28.36711819999993],[-51.690873499999945,-28.367965199999954],[-51.69015139999994,-28.368052],[-51.689292499999965,-28.368864299999927],[-51.68818139999996,-28.369374],[-51.686675,-28.369333599999944],[-51.68453539999995,-28.368125099999926],[-51.684561799999976,-28.367590499999945],[-51.68615849999997,-28.366736899999974],[-51.68697569999995,-28.365319399999972],[-51.688024,-28.364333],[-51.69084909999998,-28.36340989999996],[-51.69149669999996,-28.36164429999996],[-51.691593499999954,-28.35994889999995],[-51.690469,-28.36027369999994],[-51.688678899999964,-28.361655899999956],[-51.6877899,-28.361963799999963],[-51.68661179999998,-28.361907899999938],[-51.68525129999995,-28.36134609999993],[-51.684792799999975,-28.360074099999963],[-51.68530029999994,-28.358903699999928],[-51.68591029999993,-28.358407899999982],[-51.686513299999945,-28.356533199999955],[-51.68711119999994,-28.35548839999995],[-51.687156699999946,-28.355018499999975],[-51.68688589999994,-28.354595],[-51.68613279999994,-28.354532599999953],[-51.684590699999944,-28.35519479999994],[-51.683815299999935,-28.355253499999947],[-51.680966,-28.35660719999992],[-51.68082469999995,-28.354026399999945],[-51.680245199999945,-28.353956399999955],[-51.679642,-28.354263],[-51.678076,-28.35384319999996],[-51.67626229999996,-28.352983299999952],[-51.675499,-28.352368699999946],[-51.676755,-28.349692],[-51.67643319999997,-28.348888499999926],[-51.67459309999999,-28.34882089999996],[-51.673292699999934,-28.348278099999952],[-51.67296159999995,-28.34726509999996],[-51.67143739999995,-28.346643499999974],[-51.67024859999998,-28.345397499999933],[-51.67033089999995,-28.34398269999997],[-51.66761319999995,-28.344236299999974],[-51.66679589999996,-28.34406979999993],[-51.66595529999994,-28.34357579999994],[-51.66638639999997,-28.34282739999998],[-51.666042399999974,-28.342070499999966],[-51.66578029999994,-28.342386399999942],[-51.66547059999994,-28.34233639999997],[-51.66531089999995,-28.341829499999953],[-51.66556639999993,-28.34154],[-51.665452199999955,-28.340834599999926],[-51.66671259999998,-28.339695599999974],[-51.66687919999998,-28.339115699999972],[-51.667643,-28.338478399999925],[-51.66822569999994,-28.337289599999963],[-51.66783739999994,-28.336668499999977],[-51.66813629999996,-28.33466119999997],[-51.66703429999996,-28.332224799999945],[-51.667374,-28.331708799999948],[-51.66739339999998,-28.330847399999985],[-51.66766729999994,-28.330353],[-51.667133,-28.330086499999936],[-51.666943799999956,-28.32892089999996],[-51.66629219999999,-28.328726399999933],[-51.66608919999993,-28.327979],[-51.66480129999997,-28.327170199999955],[-51.664815799999985,-28.32697989999996],[-51.665857799999976,-28.326547699999928],[-51.66616349999999,-28.32446869999996],[-51.66549229999998,-28.323903599999934],[-51.65512789999997,-28.305273],[-51.65213429999994,-28.307020899999934],[-51.64977369999997,-28.30631649999998],[-51.64582109999998,-28.302620099999956],[-51.64428769999996,-28.297699899999945],[-51.64388949999995,-28.297540599999934],[-51.64314149999995,-28.297976499999955],[-51.636388599999975,-28.30899859999994],[-51.63236619999998,-28.316533899999957],[-51.63214259999995,-28.317401899999936],[-51.63482429999994,-28.327208899999963],[-51.64171719999996,-28.34111539999997],[-51.64175139999997,-28.343170699999973],[-51.64104049999998,-28.348041],[-51.64248169999997,-28.354006],[-51.64132589999997,-28.359512799999955],[-51.64144339999996,-28.360704399999968],[-51.64262769999994,-28.363270099999955],[-51.64283249999994,-28.365201799999966],[-51.643479499999955,-28.365015],[-51.64513679999994,-28.36937469999998],[-51.64643289999998,-28.36900679999995],[-51.647968299999945,-28.368933699999964],[-51.64806669999996,-28.371970299999933],[-51.64779809999994,-28.372805899999936],[-51.64464679999998,-28.377599799999928],[-51.64342179999994,-28.37701879999997],[-51.64136869999999,-28.376754599999973],[-51.639178799999975,-28.377534899999926],[-51.63900259999997,-28.377258],[-51.63650009999998,-28.378663099999983],[-51.63603889999996,-28.377692599999932],[-51.633621499999954,-28.37913],[-51.63249789999997,-28.378144699999957],[-51.63187659999994,-28.3787],[-51.63161739999998,-28.37936659999997],[-51.63167519999996,-28.38000939999995],[-51.632517,-28.382719699999946],[-51.633418,-28.384604],[-51.63320989999994,-28.38832609999996],[-51.633433699999955,-28.389844199999963],[-51.63441819999997,-28.390989899999965],[-51.65380029999995,-28.393009099999976],[-51.655759599999946,-28.393098399999925],[-51.655666699999976,-28.392721599999977],[-51.659335299999945,-28.393637899999934],[-51.66129079999996,-28.394683699999977],[-51.66359039999998,-28.39530989999997],[-51.66480359999997,-28.396536799999986],[-51.666037899999935,-28.396773],[-51.66815459999998,-28.396669299999928],[-51.670625099999945,-28.396987799999984],[-51.67309029999996,-28.396580199999963],[-51.674538599999956,-28.39684389999996],[-51.676684,-28.395735799999958],[-51.67852659999994,-28.397130299999965],[-51.67921929999994,-28.397375699999948],[-51.68095729999993,-28.39732239999995],[-51.68309659999994,-28.396933599999965],[-51.685793,-28.39720209999997],[-51.687017099999935,-28.396937599999934],[-51.68690669999996,-28.394368799999928],[-51.687465499999966,-28.39377209999998],[-51.688868699999944,-28.391166899999966],[-51.69006619999993,-28.39059259999993],[-51.68969459999993,-28.388822899999987],[-51.68996439999995,-28.386374699999976],[-51.693450599999956,-28.38371549999993]]]}},{"type":"Feature","properties":{"setor":"430990205000011","pop":26,"sigilo_pop":false,"dom":18,"sigilo_dom":false,"mulheres":12,"sigilo_mulheres":false,"c0_4":null,"sigilo_c0_4":true,"c5_9":null,"sigilo_c5_9":true,"i60_69":null,"sigilo_i60_69":true,"i70m":null,"sigilo_i70m":true,"indigenas":0,"sigilo_indigenas":false,"pretos_pardos":3,"sigilo_pretos_pardos":false,"dom_ocupados":10,"sigilo_dom_ocupados":false,"dom_agua":null,"sigilo_dom_agua":true,"dom_esgoto":0,"sigilo_dom_esgoto":false,"renda_resp":4923.6,"sigilo_renda_resp":false,"n_resp":10,"sigilo_n_resp":false,"dens":2.9,"sigilo_dens":false,"na_bacia":1,"area_pct_bacia":100.0,"metodo_recorte_bacia":"ponto_representativo_setor_2022; area_pct_geometrica"},"geometry":{"type":"Polygon","coordinates":[[[-51.69541869999995,-28.381414399999986],[-51.693450599999956,-28.38371549999993],[-51.690364199999976,-28.385938099999972],[-51.68989819999995,-28.38648629999995],[-51.68969459999993,-28.388822899999987],[-51.69006619999993,-28.39059259999993],[-51.688868699999944,-28.391166899999966],[-51.687465499999966,-28.39377209999998],[-51.68690669999996,-28.394368799999928],[-51.687017099999935,-28.396937599999934],[-51.68548409999995,-28.39721949999996],[-51.68309659999994,-28.396933599999965],[-51.68095729999993,-28.39732239999995],[-51.67921929999994,-28.397375699999948],[-51.67852659999994,-28.397130299999965],[-51.676684,-28.395735799999958],[-51.674538599999956,-28.39684389999996],[-51.673918799999974,-28.396793599999963],[-51.67415479999995,-28.398208],[-51.674758699999984,-28.39922449999995],[-51.67696479999996,-28.400742499999975],[-51.677914,-28.40483439999998],[-51.67940589999995,-28.406293799999954],[-51.681419499999954,-28.407275499999965],[-51.685182199999986,-28.40683239999992],[-51.686948,-28.40740039999998],[-51.68896709999996,-28.407508299999954],[-51.69090449999994,-28.409037299999966],[-51.692007599999954,-28.410516299999973],[-51.69355849999994,-28.411684699999963],[-51.695426699999985,-28.411448099999966],[-51.698646,-28.412544699999952],[-51.70113379999998,-28.41225989999998],[-51.702481399999954,-28.41251739999995],[-51.70468279999995,-28.413451099999968],[-51.70971049999997,-28.41443339999994],[-51.71121839999994,-28.41528269999997],[-51.712033599999984,-28.417262],[-51.71431759999996,-28.420058699999977],[-51.71631819999993,-28.420663799999947],[-51.718747,-28.422726499999964],[-51.71961419999997,-28.422524399999926],[-51.72093,-28.422665299999956],[-51.723388599999964,-28.42162239999993],[-51.725356,-28.419701099999937],[-51.72407309999994,-28.41854409999996],[-51.721416799999986,-28.417932399999977],[-51.720389099999984,-28.42058849999995],[-51.71713449999998,-28.41826839999993],[-51.713206699999944,-28.41721129999995],[-51.714167499999974,-28.414823],[-51.713615799999964,-28.41361139999998],[-51.71676,-28.412505199999938],[-51.71498619999995,-28.40987879999994],[-51.715403099999946,-28.407388399999938],[-51.712738299999955,-28.405522699999956],[-51.71261649999997,-28.40193019999998],[-51.70910369999996,-28.401439099999948],[-51.707728,-28.39934969999996],[-51.71368129999997,-28.39859109999996],[-51.71718109999995,-28.39568149999997],[-51.71883049999997,-28.395291499999924],[-51.718293,-28.39332359999998],[-51.711359799999975,-28.393487899999972],[-51.70491689999995,-28.3962873],[-51.70267179999996,-28.394286899999937],[-51.707737899999984,-28.390450699999963],[-51.70517049999995,-28.388209499999963],[-51.706570599999964,-28.384799499999932],[-51.70458819999993,-28.382367],[-51.704428499999956,-28.37940689999992],[-51.70474939999997,-28.37924369999996],[-51.70481059999997,-28.37854689999994],[-51.70437869999996,-28.378308899999976],[-51.70374479999998,-28.378314199999966],[-51.702993799999945,-28.37877059999993],[-51.70236229999995,-28.37886339999994],[-51.70082239999994,-28.380401199999937],[-51.69875479999996,-28.381289799999927],[-51.697049,-28.381505199999935],[-51.69541869999995,-28.381414399999986]]]}},{"type":"Feature","properties":{"setor":"430990205000014","pop":185,"sigilo_pop":false,"dom":71,"sigilo_dom":false,"mulheres":92,"sigilo_mulheres":false,"c0_4":12,"sigilo_c0_4":false,"c5_9":11,"sigilo_c5_9":false,"i60_69":15,"sigilo_i60_69":false,"i70m":30,"sigilo_i70m":false,"indigenas":0,"sigilo_indigenas":false,"pretos_pardos":59,"sigilo_pretos_pardos":false,"dom_ocupados":70,"sigilo_dom_ocupados":false,"dom_agua":63,"sigilo_dom_agua":false,"dom_esgoto":4,"sigilo_dom_esgoto":false,"renda_resp":3772.26,"sigilo_renda_resp":false,"n_resp":70,"sigilo_n_resp":false,"dens":395.7,"sigilo_dens":false,"na_bacia":1,"area_pct_bacia":100.0,"metodo_recorte_bacia":"ponto_representativo_setor_2022; area_pct_geometrica"},"geometry":{"type":"Polygon","coordinates":[[[-51.64513679999994,-28.36937469999998],[-51.646240399999954,-28.372308399999948],[-51.64016149999997,-28.374734799999935],[-51.63355909999996,-28.37781379999996],[-51.6331613,-28.37734309999996],[-51.63249789999997,-28.378144699999957],[-51.633621499999954,-28.37913],[-51.63603889999996,-28.377692599999932],[-51.63650009999998,-28.378663099999983],[-51.63900259999997,-28.377258],[-51.639178799999975,-28.377534899999926],[-51.64136869999999,-28.376754599999973],[-51.64342179999994,-28.37701879999997],[-51.64464679999998,-28.377599799999928],[-51.64779809999994,-28.372805899999936],[-51.6480964,-28.371677899999952],[-51.647968299999945,-28.368933699999964],[-51.64643289999998,-28.36900679999995],[-51.64513679999994,-28.36937469999998]]]}},{"type":"Feature","properties":{"setor":"430990205000017","pop":420,"sigilo_pop":false,"dom":188,"sigilo_dom":false,"mulheres":219,"sigilo_mulheres":false,"c0_4":19,"sigilo_c0_4":false,"c5_9":29,"sigilo_c5_9":false,"i60_69":47,"sigilo_i60_69":false,"i70m":49,"sigilo_i70m":false,"indigenas":3,"sigilo_indigenas":false,"pretos_pardos":131,"sigilo_pretos_pardos":false,"dom_ocupados":166,"sigilo_dom_ocupados":false,"dom_agua":162,"sigilo_dom_agua":false,"dom_esgoto":104,"sigilo_dom_esgoto":false,"renda_resp":2413.94,"sigilo_renda_resp":false,"n_resp":166,"sigilo_n_resp":false,"dens":2607.8,"sigilo_dens":false,"na_bacia":1,"area_pct_bacia":100.0,"metodo_recorte_bacia":"ponto_representativo_setor_2022; area_pct_geometrica"},"geometry":{"type":"Polygon","coordinates":[[[-51.628904,-28.3638711],[-51.629538699999955,-28.365688699999964],[-51.62996409999994,-28.36608089999992],[-51.63060349999996,-28.366225],[-51.632088099999976,-28.367417099999958],[-51.63390859999998,-28.366562],[-51.631606799999986,-28.362525699999935],[-51.63034279999994,-28.363208199999967],[-51.62874439999996,-28.361751699999953],[-51.628904,-28.3638711]]]}},{"type":"Feature","properties":{"setor":"430990205000018","pop":329,"sigilo_pop":false,"dom":165,"sigilo_dom":false,"mulheres":148,"sigilo_mulheres":false,"c0_4":17,"sigilo_c0_4":false,"c5_9":16,"sigilo_c5_9":false,"i60_69":40,"sigilo_i60_69":false,"i70m":39,"sigilo_i70m":false,"indigenas":0,"sigilo_indigenas":false,"pretos_pardos":110,"sigilo_pretos_pardos":false,"dom_ocupados":122,"sigilo_dom_ocupados":false,"dom_agua":60,"sigilo_dom_agua":false,"dom_esgoto":0,"sigilo_dom_esgoto":false,"renda_resp":4764.94,"sigilo_renda_resp":false,"n_resp":122,"sigilo_n_resp":false,"dens":8.4,"sigilo_dens":false,"na_bacia":1,"area_pct_bacia":72.4029,"metodo_recorte_bacia":"ponto_representativo_setor_2022; area_pct_geometrica"},"geometry":{"type":"Polygon","coordinates":[[[-51.62767489999994,-28.261625],[-51.62129859999994,-28.267839199999973],[-51.622265699999964,-28.26982579999997],[-51.621844,-28.271235399999963],[-51.61833539999998,-28.27314579999995],[-51.61634139999995,-28.27699189999993],[-51.61134489999994,-28.27932449999998],[-51.60502079999998,-28.29258349999998],[-51.60319119999997,-28.292419799999944],[-51.60283109999994,-28.294339],[-51.59400809999994,-28.30136289999996],[-51.58623289999997,-28.303798],[-51.58430469999997,-28.30316229999993],[-51.56695429999997,-28.30601729999994],[-51.56743,-28.307530199999984],[-51.57033969999997,-28.31264609999994],[-51.5770687,-28.316386099999924],[-51.58218789999995,-28.320971499999924],[-51.59457549999997,-28.333116599999983],[-51.60101629999997,-28.33775839999992],[-51.60250569999993,-28.34061559999998],[-51.60759889999997,-28.345628599999937],[-51.61557769999995,-28.354717299999947],[-51.62013149999995,-28.356153499999945],[-51.624294,-28.358035899999944],[-51.62590839999995,-28.359125299999956],[-51.62691629999995,-28.360278699999974],[-51.62995559999996,-28.362677399999935],[-51.63034279999994,-28.363208199999967],[-51.63365849999997,-28.36173149999995],[-51.63590979999998,-28.363049899999954],[-51.636882499999956,-28.364605],[-51.63925539999996,-28.363820699999966],[-51.64098579999995,-28.365418],[-51.64153669999997,-28.365654699999943],[-51.64283249999994,-28.365201799999966],[-51.64285109999998,-28.364591199999953],[-51.64262769999994,-28.363270099999955],[-51.64135249999998,-28.360362],[-51.64132589999997,-28.359512799999955],[-51.64248169999997,-28.354006],[-51.64104049999998,-28.348041],[-51.64175139999997,-28.343170699999973],[-51.64171719999996,-28.34111539999997],[-51.63482429999994,-28.327208899999963],[-51.63214259999995,-28.317401899999936],[-51.63236619999998,-28.316533899999957],[-51.636388599999975,-28.30899859999994],[-51.64314149999995,-28.297976499999955],[-51.64388949999995,-28.297540599999934],[-51.64256339999997,-28.297011799999943],[-51.63848309999997,-28.292930499999947],[-51.638048699999956,-28.287115599999932],[-51.633216299999965,-28.284151399999917],[-51.63132029999997,-28.282062199999935],[-51.62925509999997,-28.281911799999932],[-51.627722,-28.27992269999993],[-51.62944669999996,-28.277682499999973],[-51.629430799999966,-28.274808799999963],[-51.63306289999998,-28.27066609999996],[-51.633427599999955,-28.268234599999968],[-51.63467039999995,-28.266749899999972],[-51.634862,-28.26564569999993],[-51.632360499999955,-28.26186759999996],[-51.63566939999998,-28.252485499999977],[-51.629567,-28.256502499999936],[-51.62767489999994,-28.261625]]]}},{"type":"Feature","properties":{"setor":"430990205000019","pop":486,"sigilo_pop":false,"dom":230,"sigilo_dom":false,"mulheres":237,"sigilo_mulheres":false,"c0_4":25,"sigilo_c0_4":false,"c5_9":30,"sigilo_c5_9":false,"i60_69":64,"sigilo_i60_69":false,"i70m":53,"sigilo_i70m":false,"indigenas":null,"sigilo_indigenas":true,"pretos_pardos":82,"sigilo_pretos_pardos":false,"dom_ocupados":173,"sigilo_dom_ocupados":false,"dom_agua":31,"sigilo_dom_agua":false,"dom_esgoto":null,"sigilo_dom_esgoto":true,"renda_resp":2547.68,"sigilo_renda_resp":false,"n_resp":173,"sigilo_n_resp":false,"dens":8.3,"sigilo_dens":false,"na_bacia":1,"area_pct_bacia":100.0,"metodo_recorte_bacia":"ponto_representativo_setor_2022; area_pct_geometrica"},"geometry":{"type":"Polygon","coordinates":[[[-51.5677381,-28.383653199999973],[-51.567807,-28.384196],[-51.56718359999997,-28.38461989999997],[-51.56618459999998,-28.386356299999935],[-51.56573769999994,-28.386563499999962],[-51.56545049999995,-28.387052399999966],[-51.564132399999956,-28.38777939999994],[-51.56324289999998,-28.38778479999996],[-51.561347,-28.388325],[-51.56094629999996,-28.387981299999968],[-51.560572099999945,-28.387023899999985],[-51.559615,-28.386493199999958],[-51.55944369999997,-28.385972099999943],[-51.557241599999934,-28.38455759999994],[-51.556281499999955,-28.385155499999936],[-51.55527919999997,-28.386373],[-51.55597789999996,-28.387697499999934],[-51.55589409999993,-28.387968499999957],[-51.553790799999945,-28.38901959999998],[-51.55328979999996,-28.388689699999933],[-51.553270399999974,-28.38789679999996],[-51.552804099999946,-28.38726659999998],[-51.549269599999946,-28.386435199999934],[-51.547916199999975,-28.386943899999945],[-51.54693089999995,-28.38833989999995],[-51.54608,-28.388933699999924],[-51.545575499999984,-28.38980669999995],[-51.544849799999945,-28.38987649999994],[-51.54348079999994,-28.38918289999998],[-51.54266269999994,-28.388082899999965],[-51.54165569999997,-28.387814799999934],[-51.540684,-28.386732699999985],[-51.539274199999966,-28.38652659999997],[-51.53889939999994,-28.386660699999943],[-51.53855649999997,-28.387466299999982],[-51.537763,-28.387854199999925],[-51.537585599999936,-28.38832439999992],[-51.537071099999935,-28.388596899999982],[-51.53682719999995,-28.389321299999953],[-51.53576929999996,-28.38976529999996],[-51.53514589999998,-28.389568199999932],[-51.53505689999997,-28.390265499999934],[-51.5346833,-28.390661899999927],[-51.53175089999996,-28.392065399999964],[-51.53098829999994,-28.391524899999972],[-51.53089989999996,-28.39023779999997],[-51.52958929999994,-28.389699099999962],[-51.52853389999996,-28.390263699999927],[-51.528773399999984,-28.39081689999995],[-51.528583499999975,-28.391082199999964],[-51.52794479999994,-28.39123],[-51.52779359999993,-28.391648799999935],[-51.52677059999996,-28.39209889999995],[-51.525360599999935,-28.391699799999973],[-51.52432569999996,-28.392031699999958],[-51.521737,-28.390561599999955],[-51.52055879999995,-28.391592599999974],[-51.51744069999995,-28.391602599999946],[-51.515909399999934,-28.388733],[-51.514701799999955,-28.389882499999953],[-51.51282359999993,-28.39015759999996],[-51.51369709999994,-28.388325599999977],[-51.50828859999996,-28.38634559999997],[-51.50399249999999,-28.388898599999937],[-51.501905,-28.389005599999958],[-51.501531,-28.393246399999946],[-51.49807939999994,-28.39467659999997],[-51.49775509999996,-28.396184799999965],[-51.49874989999996,-28.398154699999957],[-51.500791299999946,-28.397930599999945],[-51.50289219999996,-28.399263199999943],[-51.50114359999998,-28.400489299999947],[-51.50187509999995,-28.401459499999923],[-51.50396529999995,-28.40155189999996],[-51.50293319999997,-28.40364959999992],[-51.508647199999984,-28.4045604],[-51.509875499999964,-28.40738039999995],[-51.51066489999994,-28.40767169999998],[-51.51332629999997,-28.40590579999997],[-51.51571979999994,-28.406042299999964],[-51.5191291,-28.408930799999958],[-51.51914679999994,-28.412635899999927],[-51.52236589999995,-28.413574699999973],[-51.52414789999994,-28.412449099999957],[-51.5281859,-28.41311489999999],[-51.53049619999996,-28.414469899999972],[-51.53382689999996,-28.414653799999936],[-51.53641669999996,-28.41610479999997],[-51.540271799999964,-28.416700199999987],[-51.547814,-28.421776499999964],[-51.55775509999996,-28.420804299999915],[-51.56026609999998,-28.419795],[-51.567673799999966,-28.42093389999996],[-51.57246739999994,-28.41965039999997],[-51.57711039999998,-28.422016599999953],[-51.5846461,-28.424325699999933],[-51.584370199999974,-28.42559239999997],[-51.585406699999965,-28.424687899999974],[-51.585519499999975,-28.423706399999954],[-51.58688319999993,-28.42235969999995],[-51.592692899999975,-28.423429699999932],[-51.59546769999997,-28.42362179999997],[-51.597111499999976,-28.423435799999933],[-51.59796649999998,-28.423812799999943],[-51.59926019999995,-28.423152099999978],[-51.601498399999976,-28.42335169999995],[-51.601984099999974,-28.421959799999964],[-51.601729499999976,-28.421338899999963],[-51.60323589999996,-28.420789499999955],[-51.603932699999966,-28.419349799999956],[-51.603156699999936,-28.417631899999936],[-51.60321179999995,-28.417083899999966],[-51.606113599999965,-28.41501989999994],[-51.60656809999994,-28.414313599999957],[-51.60668919999994,-28.413194099999945],[-51.60734739999998,-28.412605],[-51.60788,-28.41298789999996],[-51.608229,-28.413617899999963],[-51.610511,-28.41485609999996],[-51.610837,-28.415910299999954],[-51.613949599999955,-28.417169],[-51.61430809999996,-28.418083199999952],[-51.61537909999998,-28.418947399999972],[-51.61634859999998,-28.42014989999995],[-51.62326489999999,-28.419473],[-51.62980319999997,-28.41982189999992],[-51.63173849999998,-28.419294199999957],[-51.632117499999936,-28.418918799999975],[-51.63258549999995,-28.41882059999995],[-51.63249719999994,-28.416903499999925],[-51.63309429999999,-28.41479189999996],[-51.63498289999995,-28.411802799999975],[-51.63507329999993,-28.408822499999918],[-51.635577199999936,-28.408027199999935],[-51.636963899999955,-28.406835599999976],[-51.63705379999993,-28.405719499999968],[-51.636699499999956,-28.404159799999945],[-51.63577159999994,-28.40209789999993],[-51.63243359999996,-28.399240799999966],[-51.63140579999999,-28.39534919999994],[-51.631498499999964,-28.394421499999975],[-51.63297069999993,-28.39190919999993],[-51.633431,-28.39053659999996],[-51.63320989999994,-28.38832609999996],[-51.633418,-28.384604],[-51.632517,-28.382719699999946],[-51.63161329999998,-28.37965489999993],[-51.63187659999994,-28.3787],[-51.6331613,-28.37734309999996],[-51.62968,-28.37227909999995],[-51.62963819999993,-28.371694299999948],[-51.63182049999995,-28.37044119999996],[-51.63058619999998,-28.36846039999995],[-51.62727009999998,-28.365126],[-51.62844389999998,-28.36449409999994],[-51.62891639999999,-28.363854299999957],[-51.62874439999996,-28.361751699999953],[-51.62691629999995,-28.360278699999974],[-51.62590839999995,-28.359125299999956],[-51.624294,-28.358035899999944],[-51.62013149999995,-28.356153499999945],[-51.61586309999996,-28.35487989999995],[-51.614423899999956,-28.355748099999975],[-51.61262769999996,-28.35635419999994],[-51.609504299999976,-28.356207],[-51.607285399999974,-28.355737],[-51.60274959999998,-28.35608909999996],[-51.60062189999997,-28.35678179999997],[-51.59797979999996,-28.359888699999946],[-51.5954584,-28.36089629999998],[-51.593631,-28.36217909999993],[-51.59282209999998,-28.36236379999998],[-51.591867099999945,-28.362248699999956],[-51.59057269999993,-28.362645799999942],[-51.58993449999997,-28.36310369999996],[-51.588227,-28.365266499999965],[-51.585701099999945,-28.365807499999956],[-51.58315779999998,-28.36761389999998],[-51.58283249999994,-28.36806009999997],[-51.582993299999934,-28.368776],[-51.58190179999997,-28.371119799999956],[-51.580489,-28.372331],[-51.57882349999994,-28.374361799999974],[-51.57824869999996,-28.37539319999996],[-51.57761689999996,-28.377767399999982],[-51.576184699999935,-28.378745099999946],[-51.575829399999975,-28.381158099999936],[-51.575462099999974,-28.381693699999964],[-51.5712142,-28.38402749999994],[-51.57049459999996,-28.384105199999965],[-51.568974,-28.383318199999962],[-51.5677381,-28.383653199999973]]]}},{"type":"Feature","properties":{"setor":"430990205000020","pop":300,"sigilo_pop":false,"dom":73,"sigilo_dom":false,"mulheres":153,"sigilo_mulheres":false,"c0_4":39,"sigilo_c0_4":false,"c5_9":39,"sigilo_c5_9":false,"i60_69":null,"sigilo_i60_69":true,"i70m":null,"sigilo_i70m":true,"indigenas":288,"sigilo_indigenas":false,"pretos_pardos":9,"sigilo_pretos_pardos":false,"dom_ocupados":69,"sigilo_dom_ocupados":false,"dom_agua":56,"sigilo_dom_agua":false,"dom_esgoto":null,"sigilo_dom_esgoto":true,"renda_resp":1132.67,"sigilo_renda_resp":false,"n_resp":69,"sigilo_n_resp":false,"dens":60.0,"sigilo_dens":false,"na_bacia":1,"area_pct_bacia":100.0,"metodo_recorte_bacia":"ponto_representativo_setor_2022; area_pct_geometrica"},"geometry":{"type":"Polygon","coordinates":[[[-51.70479009999997,-28.378780199999937],[-51.70474939999997,-28.37924369999996],[-51.71022789999995,-28.376451399999947],[-51.71392349999996,-28.37655669999998],[-51.714444399999934,-28.375439799999977],[-51.71269419999992,-28.371935399999973],[-51.713623799999944,-28.370552099999948],[-51.71660629999997,-28.36969289999996],[-51.71539039999993,-28.36296319999997],[-51.71414219999997,-28.36107889999994],[-51.708049399999936,-28.360831399999935],[-51.70209539999996,-28.35603949999995],[-51.69637449999994,-28.357199399999953],[-51.69628489999997,-28.35655579999996],[-51.69493929999993,-28.356892899999924],[-51.693337,-28.35827709999994],[-51.69317269999994,-28.35873889999994],[-51.69209069999993,-28.359045899999945],[-51.691593499999954,-28.35994889999995],[-51.69149669999996,-28.36164429999996],[-51.69080939999998,-28.363453599999957],[-51.688024,-28.364333],[-51.68697569999995,-28.365319399999972],[-51.68630149999996,-28.36659919999993],[-51.684654799999976,-28.36751289999996],[-51.68447709999999,-28.36803519999995],[-51.686675,-28.369333599999944],[-51.68818139999996,-28.369374],[-51.689292499999965,-28.368864299999927],[-51.69015139999994,-28.368052],[-51.690873499999945,-28.367965199999954],[-51.69246429999998,-28.36711819999993],[-51.69483119999996,-28.366580799999948],[-51.695782,-28.365497199999947],[-51.696366299999966,-28.36531449999995],[-51.69687379999993,-28.365438899999965],[-51.69804149999993,-28.36755789999995],[-51.69963779999995,-28.36810079999998],[-51.69972449999995,-28.368615399999943],[-51.698325799999964,-28.368941],[-51.697137199999986,-28.36896249999995],[-51.69623119999994,-28.369376299999953],[-51.69593469999995,-28.36990379999997],[-51.69545549999998,-28.37286879999993],[-51.69501479999996,-28.373571799999983],[-51.69256389999998,-28.374104599999946],[-51.690232899999955,-28.373957699999938],[-51.68999319999995,-28.374094],[-51.69025349999998,-28.375353899999933],[-51.69155319999993,-28.377083899999935],[-51.691875599999946,-28.378078599999984],[-51.692305,-28.378551],[-51.69237389999995,-28.380039299999957],[-51.69364759999996,-28.380321899999956],[-51.69457769999997,-28.381169199999924],[-51.695661,-28.38148939999996],[-51.69800879999997,-28.38143959999997],[-51.70051529999996,-28.380604599999966],[-51.70145589999998,-28.37990779999996],[-51.70206009999998,-28.379041299999976],[-51.702993799999945,-28.37877059999993],[-51.70360379999995,-28.378339199999967],[-51.704501499999935,-28.378344799999983],[-51.70479009999997,-28.378780199999937]],[[-51.70664029999995,-28.36611],[-51.707262399999934,-28.366933899999932],[-51.706732,-28.36821489999994],[-51.70500229999993,-28.368638099999952],[-51.70392029999994,-28.36758849999995],[-51.70437029999994,-28.366372399999936],[-51.70664029999995,-28.36611]]]}},{"type":"Feature","properties":{"setor":"430990205000021","pop":153,"sigilo_pop":false,"dom":38,"sigilo_dom":false,"mulheres":77,"sigilo_mulheres":false,"c0_4":20,"sigilo_c0_4":false,"c5_9":22,"sigilo_c5_9":false,"i60_69":null,"sigilo_i60_69":true,"i70m":null,"sigilo_i70m":true,"indigenas":153,"sigilo_indigenas":false,"pretos_pardos":0,"sigilo_pretos_pardos":false,"dom_ocupados":38,"sigilo_dom_ocupados":false,"dom_agua":38,"sigilo_dom_agua":false,"dom_esgoto":0,"sigilo_dom_esgoto":false,"renda_resp":892.94,"sigilo_renda_resp":false,"n_resp":38,"sigilo_n_resp":false,"dens":2340.9,"sigilo_dens":false,"na_bacia":1,"area_pct_bacia":100.0,"metodo_recorte_bacia":"ponto_representativo_setor_2022; area_pct_geometrica"},"geometry":{"type":"Polygon","coordinates":[[[-51.70664029999995,-28.36611],[-51.70437029999994,-28.366372399999936],[-51.70392029999994,-28.36758849999995],[-51.70500229999993,-28.368638099999952],[-51.706732,-28.36821489999994],[-51.707262399999934,-28.366933899999932],[-51.70664029999995,-28.36611]]]}},{"type":"Feature","properties":{"setor":"430990207000003","pop":114,"sigilo_pop":false,"dom":52,"sigilo_dom":false,"mulheres":62,"sigilo_mulheres":false,"c0_4":null,"sigilo_c0_4":true,"c5_9":null,"sigilo_c5_9":true,"i60_69":10,"sigilo_i60_69":false,"i70m":24,"sigilo_i70m":false,"indigenas":0,"sigilo_indigenas":false,"pretos_pardos":14,"sigilo_pretos_pardos":false,"dom_ocupados":41,"sigilo_dom_ocupados":false,"dom_agua":19,"sigilo_dom_agua":false,"dom_esgoto":0,"sigilo_dom_esgoto":false,"renda_resp":4526.05,"sigilo_renda_resp":false,"n_resp":41,"sigilo_n_resp":false,"dens":7.5,"sigilo_dens":false,"na_bacia":1,"area_pct_bacia":100.0,"metodo_recorte_bacia":"ponto_representativo_setor_2022; area_pct_geometrica"},"geometry":{"type":"Polygon","coordinates":[[[-51.69481719999994,-28.356968799999958],[-51.69628489999997,-28.35655579999996],[-51.69637449999994,-28.357199399999953],[-51.69885069999998,-28.353979799999934],[-51.69931419999995,-28.352164899999927],[-51.700852,-28.35115539999997],[-51.70209669999997,-28.351291799999956],[-51.70417139999996,-28.349362299999942],[-51.7030362,-28.344094099999946],[-51.70578829999994,-28.34105939999995],[-51.70397779999996,-28.339585],[-51.70468749999998,-28.33774609999995],[-51.70344069999993,-28.334681199999977],[-51.70242949999994,-28.334224899999985],[-51.70452049999994,-28.331992699999944],[-51.70397029999998,-28.32940389999993],[-51.70512919999993,-28.32255979999997],[-51.703604,-28.318693699999972],[-51.70593449999995,-28.31426749999998],[-51.70521789999998,-28.312733899999955],[-51.68394269999993,-28.315423199999934],[-51.67534279999995,-28.31836259999995],[-51.673190699999964,-28.319587699999932],[-51.67180929999995,-28.32157539999997],[-51.66549229999998,-28.323903599999934],[-51.66616349999999,-28.32446869999996],[-51.665922799999976,-28.326378499999976],[-51.664815799999985,-28.32697989999996],[-51.66480129999997,-28.327170199999955],[-51.66608919999993,-28.327979],[-51.66629219999999,-28.328726399999933],[-51.666943799999956,-28.32892089999996],[-51.667133,-28.330086499999936],[-51.66766729999994,-28.330353],[-51.66739339999998,-28.330847399999985],[-51.667374,-28.331708799999948],[-51.66703429999996,-28.332224799999945],[-51.66813629999996,-28.33466119999997],[-51.66783739999994,-28.336668499999977],[-51.66822569999994,-28.337289599999963],[-51.667643,-28.338478399999925],[-51.66687919999998,-28.339115699999972],[-51.66671259999998,-28.339695599999974],[-51.665452199999955,-28.340834599999926],[-51.66556639999993,-28.34154],[-51.66531089999995,-28.341829499999953],[-51.66547059999994,-28.34233639999997],[-51.66578029999994,-28.342386399999942],[-51.666042399999974,-28.342070499999966],[-51.66638639999997,-28.34282739999998],[-51.66595529999994,-28.34357579999994],[-51.66679589999996,-28.34406979999993],[-51.66761319999995,-28.344236299999974],[-51.67033089999995,-28.34398269999997],[-51.67024859999998,-28.345397499999933],[-51.67143739999995,-28.346643499999974],[-51.67296159999995,-28.34726509999996],[-51.673292699999934,-28.348278099999952],[-51.67459309999999,-28.34882089999996],[-51.67643319999997,-28.348888499999926],[-51.676755,-28.349692],[-51.675499,-28.352368699999946],[-51.67626229999996,-28.352983299999952],[-51.678076,-28.35384319999996],[-51.679642,-28.354263],[-51.680245199999945,-28.353956399999955],[-51.68082469999995,-28.354026399999945],[-51.680966,-28.35660719999992],[-51.683815299999935,-28.355253499999947],[-51.684590699999944,-28.35519479999994],[-51.68613279999994,-28.354532599999953],[-51.68688589999994,-28.354595],[-51.687156699999946,-28.355018499999975],[-51.68711119999994,-28.35548839999995],[-51.686513299999945,-28.356533199999955],[-51.68591029999993,-28.358407899999982],[-51.68530029999994,-28.358903699999928],[-51.684792799999975,-28.360074099999963],[-51.68505049999994,-28.361110199999914],[-51.68577009999996,-28.361659099999937],[-51.68729749999994,-28.361973599999946],[-51.688399,-28.361798699999955],[-51.69027989999995,-28.360374599999936],[-51.691593499999954,-28.35994889999995],[-51.692228599999964,-28.358908499999988],[-51.69311269999997,-28.358779],[-51.693337,-28.35827709999994],[-51.69481719999994,-28.356968799999958]]]}},{"type":"Feature","properties":{"setor":"430990209000003","pop":200,"sigilo_pop":false,"dom":97,"sigilo_dom":false,"mulheres":98,"sigilo_mulheres":false,"c0_4":null,"sigilo_c0_4":true,"c5_9":null,"sigilo_c5_9":true,"i60_69":32,"sigilo_i60_69":false,"i70m":33,"sigilo_i70m":false,"indigenas":null,"sigilo_indigenas":true,"pretos_pardos":null,"sigilo_pretos_pardos":true,"dom_ocupados":81,"sigilo_dom_ocupados":false,"dom_agua":0,"sigilo_dom_agua":false,"dom_esgoto":0,"sigilo_dom_esgoto":false,"renda_resp":1874.87,"sigilo_renda_resp":false,"n_resp":81,"sigilo_n_resp":false,"dens":9.2,"sigilo_dens":false,"na_bacia":1,"area_pct_bacia":100.0,"metodo_recorte_bacia":"ponto_representativo_setor_2022; area_pct_geometrica"},"geometry":{"type":"Polygon","coordinates":[[[-51.54209809999998,-28.32501309999998],[-51.54159849999996,-28.326073599999976],[-51.53881649999993,-28.32747279999995],[-51.534298,-28.326370399999984],[-51.53268439999994,-28.33052049999997],[-51.529791899999964,-28.33399439999994],[-51.5325759,-28.339229599999957],[-51.53298539999997,-28.342563899999952],[-51.53481539999996,-28.344243799999948],[-51.53862309999993,-28.35465509999993],[-51.53833849999996,-28.35836559999995],[-51.53971089999994,-28.359772899999932],[-51.536922199999935,-28.365218499999965],[-51.53856159999999,-28.366336699999962],[-51.53886969999997,-28.367529099999963],[-51.53470869999996,-28.37181259999993],[-51.535204499999956,-28.374152],[-51.533272899999986,-28.375696199999936],[-51.532001399999956,-28.37565069999994],[-51.53122449999995,-28.378310599999953],[-51.52946319999995,-28.37734439999997],[-51.528845099999955,-28.381247299999973],[-51.52698559999994,-28.37967139999994],[-51.524057,-28.38128939999995],[-51.5251545,-28.382893899999946],[-51.52291539999994,-28.383513399999966],[-51.52235019999995,-28.385611599999944],[-51.52432569999996,-28.392031699999958],[-51.525360599999935,-28.391699799999973],[-51.52701569999994,-28.392025299999947],[-51.52779359999993,-28.391648799999935],[-51.52794479999994,-28.39123],[-51.528583499999975,-28.391082199999964],[-51.528773399999984,-28.39081689999995],[-51.52853389999996,-28.390263699999927],[-51.52958929999994,-28.389699099999962],[-51.53078919999996,-28.39011929999998],[-51.53100069999994,-28.390442],[-51.53098829999994,-28.391524899999972],[-51.531472099999974,-28.391981],[-51.53205819999994,-28.39200979999998],[-51.5346833,-28.390661899999927],[-51.53505689999997,-28.390265499999934],[-51.53514589999998,-28.389568199999932],[-51.53576929999996,-28.38976529999996],[-51.53682719999995,-28.389321299999953],[-51.537071099999935,-28.388596899999982],[-51.537585599999936,-28.38832439999992],[-51.537763,-28.387854199999925],[-51.53855649999997,-28.387466299999982],[-51.53889939999994,-28.386660699999943],[-51.539274199999966,-28.38652659999997],[-51.540684,-28.386732699999985],[-51.54165569999997,-28.387814799999934],[-51.54266269999994,-28.388082899999965],[-51.54348079999994,-28.38918289999998],[-51.544849799999945,-28.38987649999994],[-51.545575499999984,-28.38980669999995],[-51.54608,-28.388933699999924],[-51.54693089999995,-28.38833989999995],[-51.547916199999975,-28.386943899999945],[-51.549269599999946,-28.386435199999934],[-51.552804099999946,-28.38726659999998],[-51.553270399999974,-28.38789679999996],[-51.55336829999993,-28.38882149999995],[-51.55404089999996,-28.388959899999975],[-51.55589409999993,-28.387968499999957],[-51.55597789999996,-28.387697499999934],[-51.55527919999997,-28.386373],[-51.556281499999955,-28.385155499999936],[-51.557241599999934,-28.38455759999994],[-51.55923739999998,-28.38579929999998],[-51.559615,-28.386493199999958],[-51.560572099999945,-28.387023899999985],[-51.56116289999994,-28.388286],[-51.56239409999995,-28.388156299999924],[-51.56324289999998,-28.38778479999996],[-51.564132399999956,-28.38777939999994],[-51.565153099999975,-28.387249499999946],[-51.56618459999998,-28.386356299999935],[-51.56718359999997,-28.38461989999997],[-51.567682099999956,-28.384379299999974],[-51.5677381,-28.383653199999973],[-51.56504719999998,-28.383237],[-51.564238,-28.38400909999996],[-51.563897099999956,-28.384753199999974],[-51.561983399999974,-28.382881],[-51.56152259999993,-28.38057319999996],[-51.55986989999997,-28.378752799999972],[-51.55873749999996,-28.378451799999926],[-51.556431299999986,-28.37875719999994],[-51.555693599999984,-28.378178],[-51.55555929999997,-28.37762629999997],[-51.55306939999996,-28.377093],[-51.55024259999994,-28.377437199999978],[-51.551021599999956,-28.37681759999998],[-51.551794599999944,-28.373139599999934],[-51.55374339999997,-28.372093499999952],[-51.555509,-28.371648799999953],[-51.55632339999993,-28.370708199999967],[-51.557538299999976,-28.369886],[-51.558739799999955,-28.368482399999948],[-51.559644299999945,-28.368533799999966],[-51.56179979999997,-28.367218],[-51.56249329999997,-28.367273299999958],[-51.56323939999998,-28.366398099999962],[-51.56340319999998,-28.36550279999995],[-51.562446299999976,-28.36327029999996],[-51.56365119999998,-28.360462],[-51.565277699999974,-28.360673599999927],[-51.567619,-28.360483799999937],[-51.569763799999976,-28.360016299999987],[-51.57070059999995,-28.360157499999957],[-51.57131889999994,-28.35931989999995],[-51.573454099999935,-28.35832],[-51.57787609999997,-28.357984399999964],[-51.578505,-28.356297099999942],[-51.57835209999997,-28.355874],[-51.5774009,-28.355348899999974],[-51.576665899999966,-28.354391499999966],[-51.576462799999945,-28.351537599999975],[-51.57770139999997,-28.350238699999988],[-51.57776039999993,-28.349406199999972],[-51.57940739999999,-28.34948879999995],[-51.58001259999998,-28.348667699999964],[-51.580567599999945,-28.340774099999987],[-51.579711799999984,-28.34063679999996],[-51.58005979999995,-28.337818],[-51.57954169999994,-28.3371193],[-51.57958259999999,-28.335765099999946],[-51.578408499999966,-28.334240399999942],[-51.577464,-28.33373479999994],[-51.57540369999999,-28.33329259999994],[-51.57478919999994,-28.33345129999997],[-51.57253859999997,-28.33488619999997],[-51.570526599999944,-28.33549249999992],[-51.56884459999998,-28.334907299999934],[-51.56599209999996,-28.33473029999993],[-51.56477109999998,-28.334405799999956],[-51.563218499999955,-28.33543279999997],[-51.562449,-28.33667489999993],[-51.56127689999994,-28.336978799999944],[-51.55809489999995,-28.339278599999936],[-51.55622249999993,-28.341806699999946],[-51.553774199999964,-28.34002369999995],[-51.55232749999993,-28.33802019999996],[-51.55215919999994,-28.337106299999967],[-51.55107789999994,-28.335763599999954],[-51.55061669999998,-28.33450539999995],[-51.55007939999996,-28.334057],[-51.5498171,-28.332275899999946],[-51.548911,-28.33092169999998],[-51.54891759999999,-28.32740939999996],[-51.5474402,-28.326658099999975],[-51.54745879999996,-28.32606879999997],[-51.547948099999985,-28.32516859999998],[-51.5446927,-28.325353],[-51.54362709999997,-28.32562639999998],[-51.543152,-28.32553919999998],[-51.542634799999966,-28.325065099999957],[-51.54209809999998,-28.32501309999998]]]}},{"type":"Feature","properties":{"setor":"430990210000001","pop":62,"sigilo_pop":false,"dom":32,"sigilo_dom":false,"mulheres":33,"sigilo_mulheres":false,"c0_4":null,"sigilo_c0_4":true,"c5_9":null,"sigilo_c5_9":true,"i60_69":7,"sigilo_i60_69":false,"i70m":13,"sigilo_i70m":false,"indigenas":0,"sigilo_indigenas":false,"pretos_pardos":9,"sigilo_pretos_pardos":false,"dom_ocupados":24,"sigilo_dom_ocupados":false,"dom_agua":22,"sigilo_dom_agua":false,"dom_esgoto":0,"sigilo_dom_esgoto":false,"renda_resp":3288.17,"sigilo_renda_resp":false,"n_resp":24,"sigilo_n_resp":false,"dens":487.8,"sigilo_dens":false,"na_bacia":1,"area_pct_bacia":100.0,"metodo_recorte_bacia":"ponto_representativo_setor_2022; area_pct_geometrica"},"geometry":{"type":"Polygon","coordinates":[[[-51.675444899999945,-28.46461229999994],[-51.67730169999999,-28.464014399999943],[-51.678504299999986,-28.463983],[-51.67946379999995,-28.460614],[-51.676447,-28.460221799999943],[-51.67578329999998,-28.462326],[-51.675444899999945,-28.46461229999994]]]}},{"type":"Feature","properties":{"setor":"430990210000003","pop":521,"sigilo_pop":false,"dom":214,"sigilo_dom":false,"mulheres":258,"sigilo_mulheres":false,"c0_4":19,"sigilo_c0_4":false,"c5_9":9,"sigilo_c5_9":false,"i60_69":103,"sigilo_i60_69":false,"i70m":77,"sigilo_i70m":false,"indigenas":0,"sigilo_indigenas":false,"pretos_pardos":65,"sigilo_pretos_pardos":false,"dom_ocupados":173,"sigilo_dom_ocupados":false,"dom_agua":94,"sigilo_dom_agua":false,"dom_esgoto":0,"sigilo_dom_esgoto":false,"renda_resp":4981.02,"sigilo_renda_resp":false,"n_resp":173,"sigilo_n_resp":false,"dens":8.5,"sigilo_dens":false,"na_bacia":1,"area_pct_bacia":100.0,"metodo_recorte_bacia":"ponto_representativo_setor_2022; area_pct_geometrica"},"geometry":{"type":"Polygon","coordinates":[[[-51.63249719999994,-28.416903499999925],[-51.63302909999993,-28.422615099999966],[-51.63292429999996,-28.42577149999993],[-51.63449149999997,-28.42872049999995],[-51.633984099999964,-28.439437399999985],[-51.634204899999986,-28.44007759999994],[-51.635871399999985,-28.44176909999993],[-51.635182,-28.44614479999995],[-51.636989699999965,-28.450634599999933],[-51.63606239999996,-28.454058299999936],[-51.63611169999996,-28.457537399999982],[-51.63466439999996,-28.459775099999938],[-51.63152239999994,-28.463627499999983],[-51.63016019999998,-28.466907099999954],[-51.62932669999998,-28.469728499999963],[-51.62825819999995,-28.47075269999994],[-51.62626009999997,-28.471650799999964],[-51.62217649999997,-28.474793499999976],[-51.62189829999994,-28.47511649999995],[-51.62197829999997,-28.476139899999964],[-51.62333639999998,-28.475907799999955],[-51.623829599999965,-28.47552729999996],[-51.624107299999935,-28.475657099999978],[-51.62538619999999,-28.475465499999917],[-51.627414399999964,-28.473448],[-51.62818759999993,-28.47304229999998],[-51.629693,-28.472783399999965],[-51.63066329999997,-28.471853199999952],[-51.63192849999996,-28.471816899999965],[-51.63316969999994,-28.471265299999978],[-51.63364459999996,-28.470318599999917],[-51.63297759999995,-28.46942649999994],[-51.63289979999996,-28.46860009999995],[-51.63391819999999,-28.4669823],[-51.63450889999995,-28.46637909999998],[-51.635332799999965,-28.46603639999995],[-51.63846259999996,-28.465575799999947],[-51.641682,-28.465613299999966],[-51.64279989999994,-28.466057399999958],[-51.64439679999998,-28.467209799999974],[-51.64684749999998,-28.46800659999997],[-51.64835119999998,-28.469798899999933],[-51.649501,-28.469744699999982],[-51.650411599999984,-28.469984799999963],[-51.65073979999994,-28.47041029999998],[-51.65145589999998,-28.470538],[-51.653365699999945,-28.469544199999977],[-51.65342059999995,-28.469218499999958],[-51.65420729999994,-28.46906079999996],[-51.654538299999956,-28.465880699999964],[-51.65680409999994,-28.464889699999958],[-51.66090349999997,-28.465875199999964],[-51.67223729999995,-28.46569259999995],[-51.674328399999986,-28.46535479999994],[-51.67453479999995,-28.464927399999954],[-51.675444899999945,-28.46461229999994],[-51.67578329999998,-28.462326],[-51.676447,-28.460221799999943],[-51.67946379999995,-28.460614],[-51.678504299999986,-28.463983],[-51.67940839999994,-28.46426579999997],[-51.68079119999994,-28.465389199999947],[-51.68394029999996,-28.465924299999987],[-51.68537359999993,-28.466704799999945],[-51.687121899999966,-28.46670129999996],[-51.69007069999998,-28.463453],[-51.69580329999997,-28.463565599999967],[-51.69769249999997,-28.463396699999976],[-51.69973279999993,-28.46241079999994],[-51.70070329999999,-28.46061019999996],[-51.701533,-28.459777899999953],[-51.70708689999998,-28.458401899999963],[-51.708431099999984,-28.458619299999953],[-51.71027909999999,-28.455824099999973],[-51.71148709999994,-28.455101899999946],[-51.71315819999995,-28.454668899999945],[-51.71435429999997,-28.454574099999945],[-51.71513889999994,-28.454738799999962],[-51.717042499999934,-28.454298599999948],[-51.719973699999976,-28.455236099999972],[-51.72002229999998,-28.454323099999954],[-51.72082929999994,-28.453770499999973],[-51.72166139999996,-28.453784],[-51.72344429999998,-28.45279229999995],[-51.725029,-28.452998299999937],[-51.72903969999993,-28.451331399999948],[-51.73216269999995,-28.451497299999975],[-51.73437119999994,-28.451124],[-51.73815339999993,-28.449708799999943],[-51.739708199999946,-28.449726399999964],[-51.740468,-28.450173899999985],[-51.742694,-28.450684199999944],[-51.74358059999998,-28.450099799999965],[-51.74476459999994,-28.449720699999936],[-51.74648149999996,-28.451316499999955],[-51.74721709999995,-28.451649],[-51.747370699999976,-28.451273599999976],[-51.74796779999997,-28.45100169999994],[-51.747929,-28.450358199999982],[-51.748868799999975,-28.449642399999956],[-51.750249399999966,-28.448952299999963],[-51.751699299999984,-28.44869089999998],[-51.75217279999998,-28.44892679999997],[-51.75255079999994,-28.44955069999998],[-51.75311019999998,-28.44992629999996],[-51.753516899999966,-28.44991669999996],[-51.75364019999994,-28.450277599999932],[-51.753967,-28.450299799999982],[-51.755651099999966,-28.449334599999933],[-51.756816,-28.449313099999983],[-51.75705949999997,-28.449738499999967],[-51.75768109999996,-28.449733499999976],[-51.758079099999975,-28.450009],[-51.759459299999946,-28.449772599999953],[-51.76026049999996,-28.449328299999934],[-51.75943769999998,-28.448169099999983],[-51.75961239999998,-28.447127499999965],[-51.755576299999966,-28.443880599999947],[-51.75268309999996,-28.443810399999954],[-51.748184399999964,-28.44877419999995],[-51.74522509999997,-28.449119399999976],[-51.743002599999954,-28.446885499999944],[-51.743978399999946,-28.44478569999995],[-51.74059319999998,-28.443508399999928],[-51.73958069999998,-28.440562099999955],[-51.735153699999955,-28.436963899999956],[-51.73381929999993,-28.436627799999943],[-51.729021,-28.437807],[-51.72662659999998,-28.436766799999937],[-51.72372629999995,-28.43703759999994],[-51.72204569999997,-28.43637549999993],[-51.723212699999976,-28.433606299999944],[-51.72501809999994,-28.431921],[-51.72594109999994,-28.42657089999994],[-51.72882009999995,-28.424173799999952],[-51.729099899999945,-28.420634799999963],[-51.72820419999993,-28.42017789999995],[-51.725999,-28.420281799999945],[-51.72517719999996,-28.41973219999993],[-51.723631299999965,-28.42145869999996],[-51.722472699999976,-28.42208539999996],[-51.72093,-28.422665299999956],[-51.71961419999997,-28.422524399999926],[-51.718747,-28.422726499999964],[-51.71631819999993,-28.420663799999947],[-51.71431759999996,-28.420058699999977],[-51.712033599999984,-28.417262],[-51.71121839999994,-28.41528269999997],[-51.70971049999997,-28.41443339999994],[-51.70468279999995,-28.413451099999968],[-51.702481399999954,-28.41251739999995],[-51.70113379999998,-28.41225989999998],[-51.698646,-28.412544699999952],[-51.695426699999985,-28.411448099999966],[-51.69355849999994,-28.411684699999963],[-51.692007599999954,-28.410516299999973],[-51.69090449999994,-28.409037299999966],[-51.68896709999996,-28.407508299999954],[-51.686948,-28.40740039999998],[-51.685182199999986,-28.40683239999992],[-51.68175219999994,-28.407338199999984],[-51.68114189999995,-28.407199199999976],[-51.679187499999955,-28.40613409999997],[-51.677914,-28.40483439999998],[-51.67696479999996,-28.400742499999975],[-51.674758699999984,-28.39922449999995],[-51.67415479999995,-28.398208],[-51.673918799999974,-28.396793599999963],[-51.673604299999965,-28.396646699999966],[-51.670625099999945,-28.396987799999984],[-51.66815459999998,-28.396669299999928],[-51.66550819999998,-28.396695399999942],[-51.66480359999997,-28.396536799999986],[-51.66359039999998,-28.39530989999997],[-51.66129079999996,-28.394683699999977],[-51.659335299999945,-28.393637899999934],[-51.655666699999976,-28.392721599999977],[-51.655759599999946,-28.393098399999925],[-51.65380029999995,-28.393009099999976],[-51.63441819999997,-28.390989899999965],[-51.633433699999955,-28.389844199999963],[-51.63325309999993,-28.391321599999973],[-51.631498499999964,-28.394421499999975],[-51.63140579999999,-28.39534919999994],[-51.63243359999996,-28.399240799999966],[-51.63577159999994,-28.40209789999993],[-51.63687349999998,-28.404688799999978],[-51.63709579999993,-28.406187799999934],[-51.63676779999997,-28.40713379999994],[-51.635577199999936,-28.408027199999935],[-51.63507329999993,-28.408822499999918],[-51.63498289999995,-28.411802799999975],[-51.63309429999999,-28.41479189999996],[-51.63249719999994,-28.416903499999925]]]}}]}