{"type":"FeatureCollection","name":"4310306","crs":{"type":"name","properties":{"name":"urn:ogc:def:crs:OGC:1.3:CRS84"}},"features":[{"type":"Feature","properties":{"setor":"431030605000001","pop":577,"sigilo_pop":false,"dom":257,"sigilo_dom":false,"mulheres":311,"sigilo_mulheres":false,"c0_4":41,"sigilo_c0_4":false,"c5_9":28,"sigilo_c5_9":false,"i60_69":72,"sigilo_i60_69":false,"i70m":85,"sigilo_i70m":false,"indigenas":null,"sigilo_indigenas":true,"pretos_pardos":105,"sigilo_pretos_pardos":false,"dom_ocupados":229,"sigilo_dom_ocupados":false,"dom_agua":229,"sigilo_dom_agua":false,"dom_esgoto":3,"sigilo_dom_esgoto":false,"renda_resp":2680.45,"sigilo_renda_resp":false,"n_resp":229,"sigilo_n_resp":false,"dens":1688.6,"sigilo_dens":false,"na_bacia":1,"area_pct_bacia":100.0,"metodo_recorte_bacia":"ponto_representativo_setor_2022; area_pct_geometrica"},"geometry":{"type":"Polygon","coordinates":[[[-52.11883769999997,-28.93276489999994],[-52.12700529999995,-28.928100699999966],[-52.124985299999935,-28.925366],[-52.11670349999997,-28.930125099999945],[-52.11883769999997,-28.93276489999994]]]}},{"type":"Feature","properties":{"setor":"431030605000002","pop":645,"sigilo_pop":false,"dom":290,"sigilo_dom":false,"mulheres":326,"sigilo_mulheres":false,"c0_4":42,"sigilo_c0_4":false,"c5_9":24,"sigilo_c5_9":false,"i60_69":83,"sigilo_i60_69":false,"i70m":100,"sigilo_i70m":false,"indigenas":0,"sigilo_indigenas":false,"pretos_pardos":72,"sigilo_pretos_pardos":false,"dom_ocupados":249,"sigilo_dom_ocupados":false,"dom_agua":244,"sigilo_dom_agua":false,"dom_esgoto":0,"sigilo_dom_esgoto":false,"renda_resp":2583.66,"sigilo_renda_resp":false,"n_resp":249,"sigilo_n_resp":false,"dens":940.4,"sigilo_dens":false,"na_bacia":1,"area_pct_bacia":100.0,"metodo_recorte_bacia":"ponto_representativo_setor_2022; area_pct_geometrica"},"geometry":{"type":"Polygon","coordinates":[[[-52.124985299999935,-28.925366],[-52.12700529999995,-28.928100699999966],[-52.12869409999996,-28.927124399999954],[-52.12935729999998,-28.92802729999994],[-52.127675599999975,-28.92899689999997],[-52.128331899999985,-28.92990369999994],[-52.12667169999998,-28.930871399999937],[-52.127337899999986,-28.931773599999932],[-52.128015,-28.931433399999946],[-52.12980569999996,-28.932985899999952],[-52.130412099999944,-28.931911199999945],[-52.133073699999954,-28.93280029999994],[-52.13469619999995,-28.931006599999925],[-52.13321769999993,-28.930354199999957],[-52.13339829999995,-28.92704869999994],[-52.13502409999995,-28.925882699999924],[-52.13167979999997,-28.921540899999965],[-52.124985299999935,-28.925366]]]}},{"type":"Feature","properties":{"setor":"431030605000003","pop":424,"sigilo_pop":false,"dom":200,"sigilo_dom":false,"mulheres":209,"sigilo_mulheres":false,"c0_4":23,"sigilo_c0_4":false,"c5_9":16,"sigilo_c5_9":false,"i60_69":51,"sigilo_i60_69":false,"i70m":46,"sigilo_i70m":false,"indigenas":0,"sigilo_indigenas":false,"pretos_pardos":65,"sigilo_pretos_pardos":false,"dom_ocupados":167,"sigilo_dom_ocupados":false,"dom_agua":161,"sigilo_dom_agua":false,"dom_esgoto":0,"sigilo_dom_esgoto":false,"renda_resp":2551.16,"sigilo_renda_resp":false,"n_resp":167,"sigilo_n_resp":false,"dens":182.5,"sigilo_dens":false,"na_bacia":1,"area_pct_bacia":100.0,"metodo_recorte_bacia":"ponto_representativo_setor_2022; area_pct_geometrica"},"geometry":{"type":"Polygon","coordinates":[[[-52.12637619999998,-28.92059389999997],[-52.120913299999984,-28.92472419999995],[-52.11701949999997,-28.92920159999994],[-52.115996499999945,-28.929888899999977],[-52.11522839999997,-28.929511],[-52.11369659999996,-28.929697099999945],[-52.112234,-28.928554299999977],[-52.11179579999998,-28.92742539999995],[-52.10993869999999,-28.928465299999967],[-52.11923179999996,-28.942223699999946],[-52.14038309999995,-28.930040299999966],[-52.13480919999995,-28.922495399999946],[-52.134231,-28.92140169999993],[-52.12949169999997,-28.920042199999934],[-52.128182199999976,-28.920060699999958],[-52.12637619999998,-28.92059389999997]],[[-52.128015,-28.931433399999946],[-52.12230049999993,-28.934648899999946],[-52.121647,-28.93374529999994],[-52.12026339999995,-28.934559699999966],[-52.11670349999997,-28.930125099999945],[-52.13167979999997,-28.921540899999965],[-52.13502409999995,-28.925882699999924],[-52.13339829999995,-28.92704869999994],[-52.133153499999935,-28.929885599999974],[-52.13321769999993,-28.930354199999957],[-52.13469619999995,-28.931006599999925],[-52.133073699999954,-28.93280029999994],[-52.130412099999944,-28.931911199999945],[-52.12980569999996,-28.932985899999952],[-52.128015,-28.931433399999946]]]}},{"type":"Feature","properties":{"setor":"431030605000004","pop":12,"sigilo_pop":false,"dom":8,"sigilo_dom":false,"mulheres":null,"sigilo_mulheres":true,"c0_4":null,"sigilo_c0_4":true,"c5_9":null,"sigilo_c5_9":true,"i60_69":null,"sigilo_i60_69":true,"i70m":null,"sigilo_i70m":true,"indigenas":null,"sigilo_indigenas":true,"pretos_pardos":null,"sigilo_pretos_pardos":true,"dom_ocupados":null,"sigilo_dom_ocupados":true,"dom_agua":null,"sigilo_dom_agua":true,"dom_esgoto":null,"sigilo_dom_esgoto":true,"renda_resp":null,"sigilo_renda_resp":true,"n_resp":null,"sigilo_n_resp":true,"dens":12.4,"sigilo_dens":false,"na_bacia":1,"area_pct_bacia":100.0,"metodo_recorte_bacia":"ponto_representativo_setor_2022; area_pct_geometrica"},"geometry":{"type":"Polygon","coordinates":[[[-52.12172339999995,-28.918738099999928],[-52.12217109999995,-28.920019099999934],[-52.12315679999995,-28.92170949999996],[-52.1232179,-28.922971099999977],[-52.12637619999998,-28.92059389999997],[-52.12708449999997,-28.920287],[-52.12893159999992,-28.920013499999985],[-52.134231,-28.92140169999993],[-52.13480919999995,-28.922495399999946],[-52.136502099999966,-28.922489299999945],[-52.13680579999994,-28.92226139999997],[-52.13940519999995,-28.92339489999993],[-52.140332,-28.92336529999994],[-52.13231429999997,-28.912524299999962],[-52.12172339999995,-28.918738099999928]]]}},{"type":"Feature","properties":{"setor":"431030605000005","pop":212,"sigilo_pop":false,"dom":82,"sigilo_dom":false,"mulheres":102,"sigilo_mulheres":false,"c0_4":13,"sigilo_c0_4":false,"c5_9":22,"sigilo_c5_9":false,"i60_69":20,"sigilo_i60_69":false,"i70m":11,"sigilo_i70m":false,"indigenas":0,"sigilo_indigenas":false,"pretos_pardos":92,"sigilo_pretos_pardos":false,"dom_ocupados":73,"sigilo_dom_ocupados":false,"dom_agua":71,"sigilo_dom_agua":false,"dom_esgoto":0,"sigilo_dom_esgoto":false,"renda_resp":1452.52,"sigilo_renda_resp":false,"n_resp":73,"sigilo_n_resp":false,"dens":208.1,"sigilo_dens":false,"na_bacia":1,"area_pct_bacia":100.0,"metodo_recorte_bacia":"ponto_representativo_setor_2022; area_pct_geometrica"},"geometry":{"type":"Polygon","coordinates":[[[-52.109915,-28.933040099999978],[-52.112221199999965,-28.93184469999995],[-52.10993869999999,-28.928465299999967],[-52.11179579999998,-28.92742539999995],[-52.112234,-28.928554299999977],[-52.11369659999996,-28.929697099999945],[-52.11522839999997,-28.929511],[-52.115996499999945,-28.929888899999977],[-52.11701949999997,-28.92920159999994],[-52.120913299999984,-28.92472419999995],[-52.1232179,-28.922971099999977],[-52.12315679999995,-28.92170949999996],[-52.12217109999995,-28.920019099999934],[-52.12172339999995,-28.918738099999928],[-52.106219399999986,-28.9274215],[-52.109915,-28.933040099999978]]]}},{"type":"Feature","properties":{"setor":"431030605000006","pop":4,"sigilo_pop":false,"dom":5,"sigilo_dom":false,"mulheres":null,"sigilo_mulheres":true,"c0_4":null,"sigilo_c0_4":true,"c5_9":null,"sigilo_c5_9":true,"i60_69":null,"sigilo_i60_69":true,"i70m":null,"sigilo_i70m":true,"indigenas":null,"sigilo_indigenas":true,"pretos_pardos":null,"sigilo_pretos_pardos":true,"dom_ocupados":null,"sigilo_dom_ocupados":true,"dom_agua":null,"sigilo_dom_agua":true,"dom_esgoto":null,"sigilo_dom_esgoto":true,"renda_resp":null,"sigilo_renda_resp":true,"n_resp":null,"sigilo_n_resp":true,"dens":16.0,"sigilo_dens":false,"na_bacia":1,"area_pct_bacia":100.0,"metodo_recorte_bacia":"ponto_representativo_setor_2022; area_pct_geometrica"},"geometry":{"type":"Polygon","coordinates":[[[-52.109915,-28.933040099999978],[-52.114389699999954,-28.940032399999946],[-52.11609819999995,-28.942863099999943],[-52.11633959999995,-28.942031399999962],[-52.115449199999944,-28.94141739999997],[-52.11609079999993,-28.94038769999998],[-52.1158339,-28.93981849999993],[-52.11604009999996,-28.93868249999997],[-52.11512359999995,-28.937357499999973],[-52.11550229999995,-28.936908899999942],[-52.112221199999965,-28.93184469999995],[-52.109915,-28.933040099999978]]]}},{"type":"Feature","properties":{"setor":"431030605000009","pop":254,"sigilo_pop":false,"dom":106,"sigilo_dom":false,"mulheres":124,"sigilo_mulheres":false,"c0_4":null,"sigilo_c0_4":true,"c5_9":15,"sigilo_c5_9":false,"i60_69":51,"sigilo_i60_69":false,"i70m":32,"sigilo_i70m":false,"indigenas":0,"sigilo_indigenas":false,"pretos_pardos":null,"sigilo_pretos_pardos":true,"dom_ocupados":89,"sigilo_dom_ocupados":false,"dom_agua":55,"sigilo_dom_agua":false,"dom_esgoto":0,"sigilo_dom_esgoto":false,"renda_resp":4644.38,"sigilo_renda_resp":false,"n_resp":89,"sigilo_n_resp":false,"dens":13.1,"sigilo_dens":false,"na_bacia":1,"area_pct_bacia":100.0,"metodo_recorte_bacia":"ponto_representativo_setor_2022; area_pct_geometrica"},"geometry":{"type":"Polygon","coordinates":[[[-52.06860159999997,-28.916353099999974],[-52.068137399999955,-28.926156899999967],[-52.068687099999984,-28.92613779999994],[-52.066999599999974,-28.943122],[-52.06973209999996,-28.943367199999944],[-52.06901709999994,-28.955023899999958],[-52.07017909999996,-28.954917199999954],[-52.073937899999976,-28.95374009999995],[-52.079378,-28.951905399999927],[-52.083752199999935,-28.95016359999994],[-52.09094859999993,-28.942259799999935],[-52.09187849999994,-28.94050029999994],[-52.092617699999956,-28.939832499999966],[-52.096153399999935,-28.939010799999956],[-52.10093,-28.93844559999996],[-52.103593399999966,-28.938496],[-52.108380499999946,-28.934037599999957],[-52.109915,-28.933040099999978],[-52.106219399999986,-28.9274215],[-52.12172339999995,-28.918738099999928],[-52.120865699999975,-28.916406299999945],[-52.12031439999998,-28.91581669999993],[-52.11859119999997,-28.915149599999943],[-52.117279699999976,-28.91425689999995],[-52.11380769999994,-28.91306419999995],[-52.11314679999998,-28.911787],[-52.110868799999935,-28.90910349999995],[-52.110600199999965,-28.907967499999973],[-52.11015579999997,-28.907484899999933],[-52.104838699999966,-28.90670309999996],[-52.10145639999996,-28.90481339999996],[-52.10021849999998,-28.90475609999994],[-52.098536599999925,-28.90554059999993],[-52.09678919999993,-28.905831399999954],[-52.09274309999994,-28.905298899999934],[-52.08883169999996,-28.90376309999993],[-52.087737,-28.903891599999955],[-52.08553989999996,-28.904618499999977],[-52.08362719999996,-28.904659599999952],[-52.08144009999995,-28.90381389999993],[-52.080184,-28.903555199999964],[-52.075504,-28.90163329999995],[-52.07322789999996,-28.900042099999943],[-52.069685399999976,-28.89894609999993],[-52.068987799999945,-28.90679469999998],[-52.06695249999996,-28.90660519999995],[-52.06653719999997,-28.916245099999966],[-52.06860159999997,-28.916353099999974]]]}},{"type":"Feature","properties":{"setor":"431030605000010","pop":239,"sigilo_pop":false,"dom":102,"sigilo_dom":false,"mulheres":116,"sigilo_mulheres":false,"c0_4":17,"sigilo_c0_4":false,"c5_9":8,"sigilo_c5_9":false,"i60_69":33,"sigilo_i60_69":false,"i70m":35,"sigilo_i70m":false,"indigenas":0,"sigilo_indigenas":false,"pretos_pardos":18,"sigilo_pretos_pardos":false,"dom_ocupados":73,"sigilo_dom_ocupados":false,"dom_agua":58,"sigilo_dom_agua":false,"dom_esgoto":0,"sigilo_dom_esgoto":false,"renda_resp":6902.5,"sigilo_renda_resp":false,"n_resp":73,"sigilo_n_resp":false,"dens":12.6,"sigilo_dens":false,"na_bacia":1,"area_pct_bacia":100.0,"metodo_recorte_bacia":"ponto_representativo_setor_2022; area_pct_geometrica"},"geometry":{"type":"Polygon","coordinates":[[[-52.12235229999994,-28.974702499999974],[-52.120685399999964,-28.974563299999936],[-52.11762679999998,-28.974871],[-52.11466069999994,-28.97648409999993],[-52.11425339999994,-28.97641639999994],[-52.11461239999994,-28.97450069999997],[-52.11429539999994,-28.97249189999997],[-52.113454599999955,-28.971955499999982],[-52.11314489999995,-28.97141269999997],[-52.113008699999966,-28.969824],[-52.11243019999995,-28.968650099999927],[-52.11246569999997,-28.967808199999965],[-52.111909199999964,-28.96704849999997],[-52.111694299999954,-28.96561729999997],[-52.11107229999993,-28.964590599999962],[-52.11158109999997,-28.96397289999994],[-52.111380199999985,-28.962949499999983],[-52.11237459999995,-28.96232779999998],[-52.11365639999996,-28.96265319999997],[-52.115658099999955,-28.962382399999974],[-52.11707809999996,-28.961598699999954],[-52.11804029999996,-28.95991059999994],[-52.11944439999996,-28.958709199999916],[-52.12133189999998,-28.958434299999958],[-52.12203679999994,-28.957745699999972],[-52.12150359999998,-28.956360199999946],[-52.11992669999995,-28.955105],[-52.11914759999996,-28.953809299999932],[-52.118980599999986,-28.95336659999997],[-52.11915749999997,-28.951340899999934],[-52.11847409999996,-28.950764699999983],[-52.11778939999994,-28.94959229999995],[-52.11669529999995,-28.948438899999942],[-52.115816,-28.94505769999995],[-52.11609819999995,-28.942863099999943],[-52.109915,-28.933040099999978],[-52.108380499999946,-28.934037599999957],[-52.10334709999995,-28.938600299999948],[-52.10093,-28.93844559999996],[-52.096153399999935,-28.939010799999956],[-52.092305,-28.94001069999995],[-52.09094859999993,-28.942259799999935],[-52.08346889999996,-28.950328399999947],[-52.073937899999976,-28.95374009999995],[-52.07017909999996,-28.954917199999954],[-52.06901709999994,-28.955023899999958],[-52.06867079999995,-28.96067539999995],[-52.0708,-28.96078079999995],[-52.06958879999996,-28.979624299999948],[-52.09204289999997,-28.980435699999923],[-52.121615099999985,-28.982829899999956],[-52.12235229999994,-28.974702499999974]]]}},{"type":"Feature","properties":{"setor":"431030605000013","pop":490,"sigilo_pop":false,"dom":177,"sigilo_dom":false,"mulheres":221,"sigilo_mulheres":false,"c0_4":29,"sigilo_c0_4":false,"c5_9":26,"sigilo_c5_9":false,"i60_69":51,"sigilo_i60_69":false,"i70m":52,"sigilo_i70m":false,"indigenas":0,"sigilo_indigenas":false,"pretos_pardos":46,"sigilo_pretos_pardos":false,"dom_ocupados":163,"sigilo_dom_ocupados":false,"dom_agua":114,"sigilo_dom_agua":false,"dom_esgoto":0,"sigilo_dom_esgoto":false,"renda_resp":2765.4,"sigilo_renda_resp":false,"n_resp":163,"sigilo_n_resp":false,"dens":20.8,"sigilo_dens":false,"na_bacia":1,"area_pct_bacia":100.0,"metodo_recorte_bacia":"ponto_representativo_setor_2022; area_pct_geometrica"},"geometry":{"type":"Polygon","coordinates":[[[-52.101529,-28.879111],[-52.078997199999954,-28.87766419999995],[-52.077577099999985,-28.887644899999948],[-52.070743,-28.887064799999965],[-52.069685399999976,-28.89894609999993],[-52.07322789999996,-28.900042099999943],[-52.075504,-28.90163329999995],[-52.080184,-28.903555199999964],[-52.08144009999995,-28.90381389999993],[-52.08362719999996,-28.904659599999952],[-52.08553989999996,-28.904618499999977],[-52.087737,-28.903891599999955],[-52.08883169999996,-28.90376309999993],[-52.09274309999994,-28.905298899999934],[-52.09678919999993,-28.905831399999954],[-52.098536599999925,-28.90554059999993],[-52.10021849999998,-28.90475609999994],[-52.10145639999996,-28.90481339999996],[-52.104838699999966,-28.90670309999996],[-52.11015579999997,-28.907484899999933],[-52.110600199999965,-28.907967499999973],[-52.110868799999935,-28.90910349999995],[-52.11314679999998,-28.911787],[-52.11380769999994,-28.91306419999995],[-52.117279699999976,-28.91425689999995],[-52.11859119999997,-28.915149599999943],[-52.12031439999998,-28.91581669999993],[-52.120865699999975,-28.916406299999945],[-52.12172339999995,-28.918738099999928],[-52.13231429999997,-28.912524299999962],[-52.140332,-28.92336529999994],[-52.14099859999994,-28.922846499999928],[-52.143809,-28.919251899999946],[-52.147466299999955,-28.916335],[-52.14816529999996,-28.915028199999938],[-52.15066909999996,-28.91404239999997],[-52.15135429999999,-28.91174929999994],[-52.153945299999975,-28.90817119999998],[-52.154673199999934,-28.907649399999965],[-52.15641339999996,-28.907511299999957],[-52.15706569999997,-28.907174499999943],[-52.15827669999993,-28.905830199999972],[-52.15928529999997,-28.903400599999948],[-52.16049469999996,-28.902339],[-52.160527499999944,-28.901670499999966],[-52.15966849999995,-28.89956819999996],[-52.15989849999994,-28.89714859999998],[-52.15714509999998,-28.89728769999993],[-52.15486389999995,-28.896965699999946],[-52.149947399999974,-28.893701299999975],[-52.14905929999997,-28.892318799999934],[-52.148488399999955,-28.892222599999965],[-52.147649099999974,-28.891666],[-52.146581,-28.892152199999938],[-52.145067799999936,-28.891268099999937],[-52.14340419999996,-28.891349199999976],[-52.141774,-28.89050659999998],[-52.13984239999996,-28.89085639999997],[-52.139288,-28.890396599999985],[-52.13894739999995,-28.889195599999937],[-52.13844979999994,-28.88873559999997],[-52.137941299999966,-28.888793],[-52.137203199999924,-28.889398],[-52.13676979999996,-28.890474899999962],[-52.135918699999934,-28.890690299999953],[-52.13492649999995,-28.890608899999965],[-52.13450409999996,-28.890278899999938],[-52.13422179999998,-28.88898],[-52.13369529999995,-28.888171499999935],[-52.13314669999994,-28.888048099999928],[-52.13165729999998,-28.888294499999972],[-52.128865499999954,-28.88622649999996],[-52.128240699999935,-28.886015299999947],[-52.12760709999998,-28.88613849999995],[-52.12691409999996,-28.886811699999956],[-52.12624529999994,-28.886824899999965],[-52.125389499999976,-28.886200099999943],[-52.124747099999986,-28.88467329999998],[-52.12289579999998,-28.88469859999997],[-52.122086599999925,-28.883871599999974],[-52.120793599999956,-28.883636],[-52.11961379999997,-28.882991599999965],[-52.11797759999996,-28.883145399999925],[-52.11590079999996,-28.88258439999993],[-52.114184799999975,-28.88342919999996],[-52.112696899999946,-28.883528399999932],[-52.11126759999996,-28.88335],[-52.10972129999994,-28.88257739999994],[-52.109212099999986,-28.882542799999957],[-52.10859609999994,-28.883167599999982],[-52.10919519999994,-28.884164],[-52.109226,-28.884692],[-52.10859239999997,-28.885299199999967],[-52.10765079999994,-28.88542239999997],[-52.10685879999994,-28.885255199999964],[-52.10505039999998,-28.88367119999998],[-52.10431049999993,-28.883484399999922],[-52.103935,-28.883787799999944],[-52.103804499999974,-28.88531919999997],[-52.103077,-28.886078],[-52.102604,-28.886024099999915],[-52.10096189999996,-28.885088],[-52.101529,-28.879111]]]}},{"type":"Feature","properties":{"setor":"431030605000014","pop":457,"sigilo_pop":false,"dom":205,"sigilo_dom":false,"mulheres":237,"sigilo_mulheres":false,"c0_4":19,"sigilo_c0_4":false,"c5_9":23,"sigilo_c5_9":false,"i60_69":85,"sigilo_i60_69":false,"i70m":90,"sigilo_i70m":false,"indigenas":0,"sigilo_indigenas":false,"pretos_pardos":null,"sigilo_pretos_pardos":true,"dom_ocupados":168,"sigilo_dom_ocupados":false,"dom_agua":168,"sigilo_dom_agua":false,"dom_esgoto":8,"sigilo_dom_esgoto":false,"renda_resp":3668.83,"sigilo_renda_resp":false,"n_resp":168,"sigilo_n_resp":false,"dens":1420.6,"sigilo_dens":false,"na_bacia":1,"area_pct_bacia":100.0,"metodo_recorte_bacia":"ponto_representativo_setor_2022; area_pct_geometrica"},"geometry":{"type":"Polygon","coordinates":[[[-52.12869409999996,-28.927124399999954],[-52.11883769999997,-28.93276489999994],[-52.12026339999995,-28.934559699999966],[-52.121647,-28.93374529999994],[-52.12230049999993,-28.934648899999946],[-52.12739269999997,-28.931843199999943],[-52.12667169999998,-28.930871399999937],[-52.128331899999985,-28.92990369999994],[-52.127675599999975,-28.92899689999997],[-52.12935729999998,-28.92802729999994],[-52.12869409999996,-28.927124399999954]]]}},{"type":"Feature","properties":{"setor":"431030605000015","pop":27,"sigilo_pop":false,"dom":16,"sigilo_dom":false,"mulheres":10,"sigilo_mulheres":false,"c0_4":0,"sigilo_c0_4":false,"c5_9":0,"sigilo_c5_9":false,"i60_69":0,"sigilo_i60_69":false,"i70m":10,"sigilo_i70m":false,"indigenas":0,"sigilo_indigenas":false,"pretos_pardos":null,"sigilo_pretos_pardos":true,"dom_ocupados":10,"sigilo_dom_ocupados":false,"dom_agua":null,"sigilo_dom_agua":true,"dom_esgoto":0,"sigilo_dom_esgoto":false,"renda_resp":1964.8,"sigilo_renda_resp":false,"n_resp":10,"sigilo_n_resp":false,"dens":29.8,"sigilo_dens":false,"na_bacia":1,"area_pct_bacia":100.0,"metodo_recorte_bacia":"ponto_representativo_setor_2022; area_pct_geometrica"},"geometry":{"type":"Polygon","coordinates":[[[-52.149947399999974,-28.893701299999975],[-52.15486389999995,-28.896965699999946],[-52.15714509999998,-28.89728769999993],[-52.15989849999994,-28.89714859999998],[-52.16140279999996,-28.89488239999997],[-52.16168509999994,-28.893858299999973],[-52.161189399999955,-28.890664499999954],[-52.16131329999996,-28.889702899999982],[-52.164556699999935,-28.88574319999998],[-52.16263959999997,-28.88531439999997],[-52.16257749999994,-28.887064899999928],[-52.16142139999994,-28.888078],[-52.16046349999994,-28.888342],[-52.15955089999994,-28.889235199999977],[-52.15845639999998,-28.88980609999992],[-52.156641399999955,-28.889201099999976],[-52.15571409999996,-28.889350699999977],[-52.155181399999954,-28.88864779999994],[-52.15417759999996,-28.888719099999943],[-52.15341559999996,-28.889417299999938],[-52.15273709999997,-28.889556399999943],[-52.15103859999993,-28.890528899999936],[-52.149670199999946,-28.891606899999935],[-52.14939289999996,-28.892216199999943],[-52.14905929999997,-28.892318799999934],[-52.149947399999974,-28.893701299999975]]]}},{"type":"Feature","properties":{"setor":"431030605000016","pop":52,"sigilo_pop":false,"dom":18,"sigilo_dom":false,"mulheres":25,"sigilo_mulheres":false,"c0_4":3,"sigilo_c0_4":false,"c5_9":null,"sigilo_c5_9":true,"i60_69":null,"sigilo_i60_69":true,"i70m":null,"sigilo_i70m":true,"indigenas":0,"sigilo_indigenas":false,"pretos_pardos":null,"sigilo_pretos_pardos":true,"dom_ocupados":17,"sigilo_dom_ocupados":false,"dom_agua":5,"sigilo_dom_agua":false,"dom_esgoto":0,"sigilo_dom_esgoto":false,"renda_resp":2956.94,"sigilo_renda_resp":false,"n_resp":17,"sigilo_n_resp":false,"dens":16.6,"sigilo_dens":false,"na_bacia":1,"area_pct_bacia":100.0,"metodo_recorte_bacia":"ponto_representativo_setor_2022; area_pct_geometrica"},"geometry":{"type":"Polygon","coordinates":[[[-52.16598839999994,-28.886059499999917],[-52.164556699999935,-28.88574319999998],[-52.16131329999996,-28.889702899999982],[-52.161189399999955,-28.890664499999954],[-52.16168509999994,-28.893858299999973],[-52.16140279999996,-28.89488239999997],[-52.15989849999994,-28.89714859999998],[-52.16609209999995,-28.89617909999998],[-52.16676219999994,-28.896458399999972],[-52.16706579999993,-28.89715539999997],[-52.16691539999994,-28.897653899999952],[-52.16716319999995,-28.89847549999996],[-52.16784549999994,-28.899605499999957],[-52.16778719999997,-28.900227299999983],[-52.16855129999994,-28.9013212],[-52.16853289999994,-28.90261289999994],[-52.17108189999993,-28.90416149999993],[-52.17119219999995,-28.90468669999995],[-52.171676,-28.90526289999996],[-52.171587899999956,-28.905645499999935],[-52.172179,-28.906437099999945],[-52.17206029999994,-28.907670599999975],[-52.17264279999995,-28.908080299999934],[-52.172627599999934,-28.9088399],[-52.17455179999996,-28.911462399999934],[-52.175887,-28.911874399999935],[-52.17701809999994,-28.912826499999937],[-52.18112419999994,-28.91343039999998],[-52.1836335,-28.91293389999992],[-52.18638489999996,-28.91201359999996],[-52.185710099999945,-28.90871849999996],[-52.185860299999945,-28.90835329999992],[-52.187030799999945,-28.907741699999974],[-52.18711859999996,-28.90737649999994],[-52.18642559999995,-28.906830899999928],[-52.18531459999998,-28.906483299999923],[-52.18439939999996,-28.90571989999995],[-52.18290339999999,-28.905889299999963],[-52.182159799999965,-28.905664899999977],[-52.1816975,-28.90525459999997],[-52.18129749999997,-28.903029299999957],[-52.18196619999998,-28.900074699999955],[-52.179277799999966,-28.89919029999993],[-52.17707779999995,-28.896202699999943],[-52.17526069999997,-28.89517969999997],[-52.17319669999995,-28.894538899999933],[-52.17204419999996,-28.892726699999972],[-52.16873979999997,-28.891103099999953],[-52.16793459999997,-28.889074599999955],[-52.166988299999964,-28.88796089999994],[-52.16618309999995,-28.88745049999993],[-52.16598839999994,-28.886059499999917]]]}},{"type":"Feature","properties":{"setor":"431030605000017","pop":216,"sigilo_pop":false,"dom":83,"sigilo_dom":false,"mulheres":96,"sigilo_mulheres":false,"c0_4":15,"sigilo_c0_4":false,"c5_9":12,"sigilo_c5_9":false,"i60_69":32,"sigilo_i60_69":false,"i70m":25,"sigilo_i70m":false,"indigenas":0,"sigilo_indigenas":false,"pretos_pardos":20,"sigilo_pretos_pardos":false,"dom_ocupados":71,"sigilo_dom_ocupados":false,"dom_agua":30,"sigilo_dom_agua":false,"dom_esgoto":0,"sigilo_dom_esgoto":false,"renda_resp":2714.42,"sigilo_renda_resp":false,"n_resp":71,"sigilo_n_resp":false,"dens":13.2,"sigilo_dens":false,"na_bacia":1,"area_pct_bacia":100.0,"metodo_recorte_bacia":"ponto_representativo_setor_2022; area_pct_geometrica"},"geometry":{"type":"Polygon","coordinates":[[[-52.15977419999995,-28.95423519999997],[-52.159413099999945,-28.953769599999923],[-52.159633799999945,-28.95284879999996],[-52.15916149999999,-28.951502599999976],[-52.15793959999997,-28.950931899999933],[-52.15748729999996,-28.950360499999935],[-52.15735119999994,-28.94890709999994],[-52.156906799999945,-28.947779599999926],[-52.15739589999998,-28.946329099999954],[-52.15675859999993,-28.943866099999973],[-52.157420599999966,-28.942259599999943],[-52.15612659999993,-28.941643199999934],[-52.155823299999945,-28.940057299999978],[-52.155579499999924,-28.939625099999933],[-52.15475749999997,-28.939085],[-52.15424359999997,-28.937911599999953],[-52.153257,-28.938302599999922],[-52.15151869999994,-28.938389799999968],[-52.14820679999997,-28.936448499999983],[-52.147245699999985,-28.936182299999928],[-52.14666829999994,-28.936244399999968],[-52.143892799999946,-28.93745969999997],[-52.14323879999994,-28.938789899999964],[-52.14096719999998,-28.940245299999958],[-52.138370899999984,-28.938806599999953],[-52.13621349999994,-28.938816299999917],[-52.13386809999998,-28.937417],[-52.131235,-28.93637309999996],[-52.130498899999964,-28.935729899999945],[-52.11923179999996,-28.942223699999946],[-52.11550229999995,-28.936908899999942],[-52.11531639999998,-28.93697719999996],[-52.11512359999995,-28.937357499999973],[-52.11609149999998,-28.938900299999936],[-52.115832799999964,-28.939717],[-52.11609079999993,-28.94038769999998],[-52.115449199999944,-28.94141739999997],[-52.11633959999995,-28.942031399999962],[-52.11586879999993,-28.943451599999943],[-52.115816,-28.94505769999995],[-52.11669529999995,-28.948438899999942],[-52.11778939999994,-28.94959229999995],[-52.11847409999996,-28.950764699999983],[-52.11915749999997,-28.951340899999934],[-52.118980599999986,-28.95336659999997],[-52.11914759999996,-28.953809299999932],[-52.11992669999995,-28.955105],[-52.12150359999998,-28.956360199999946],[-52.12203679999994,-28.957745699999972],[-52.12133189999998,-28.958434299999958],[-52.11944439999996,-28.958709199999916],[-52.11804029999996,-28.95991059999994],[-52.11707809999996,-28.961598699999954],[-52.115658099999955,-28.962382399999974],[-52.11365639999996,-28.96265319999997],[-52.11237459999995,-28.96232779999998],[-52.111380199999985,-28.962949499999983],[-52.11158109999997,-28.96397289999994],[-52.11107229999993,-28.964590599999962],[-52.111694299999954,-28.96561729999997],[-52.111909199999964,-28.96704849999997],[-52.11246569999997,-28.967808199999965],[-52.11243019999995,-28.968650099999927],[-52.113008699999966,-28.969824],[-52.11314489999995,-28.97141269999997],[-52.113454599999955,-28.971955499999982],[-52.11429539999994,-28.97249189999997],[-52.11461239999994,-28.97450069999997],[-52.11431279999994,-28.97651369999994],[-52.11762679999998,-28.974871],[-52.120685399999964,-28.974563299999936],[-52.12235229999994,-28.974702499999974],[-52.12251429999998,-28.972933599999973],[-52.15758909999994,-28.975115199999944],[-52.158197099999946,-28.966209],[-52.15988459999994,-28.966366899999954],[-52.16073229999995,-28.954517899999928],[-52.15977419999995,-28.95423519999997]]]}},{"type":"Feature","properties":{"setor":"431030605000018","pop":548,"sigilo_pop":false,"dom":242,"sigilo_dom":false,"mulheres":265,"sigilo_mulheres":false,"c0_4":23,"sigilo_c0_4":false,"c5_9":31,"sigilo_c5_9":false,"i60_69":71,"sigilo_i60_69":false,"i70m":74,"sigilo_i70m":false,"indigenas":0,"sigilo_indigenas":false,"pretos_pardos":55,"sigilo_pretos_pardos":false,"dom_ocupados":195,"sigilo_dom_ocupados":false,"dom_agua":14,"sigilo_dom_agua":false,"dom_esgoto":0,"sigilo_dom_esgoto":false,"renda_resp":2171.91,"sigilo_renda_resp":false,"n_resp":195,"sigilo_n_resp":false,"dens":15.5,"sigilo_dens":false,"na_bacia":1,"area_pct_bacia":100.0,"metodo_recorte_bacia":"ponto_representativo_setor_2022; area_pct_geometrica"},"geometry":{"type":"Polygon","coordinates":[[[-52.2283073,-28.964963899999923],[-52.22788269999995,-28.96194109999993],[-52.22843489999997,-28.96136249999996],[-52.22977249999997,-28.961014899999963],[-52.23032249999994,-28.96060349999994],[-52.230450099999985,-28.96005569999994],[-52.230146499999925,-28.957919399999987],[-52.228047699999934,-28.956502599999972],[-52.22594229999998,-28.95170659999995],[-52.22472949999997,-28.951392599999956],[-52.22442049999995,-28.951689599999956],[-52.224346799999985,-28.95245849999998],[-52.22397779999995,-28.95265809999994],[-52.223563499999955,-28.951879899999923],[-52.221513699999946,-28.949577],[-52.22116429999994,-28.94838569999996],[-52.21943189999996,-28.948964899999975],[-52.216480599999954,-28.947239],[-52.216398,-28.945985499999946],[-52.21723679999997,-28.944675399999927],[-52.21725059999994,-28.944008299999958],[-52.21583489999995,-28.943744299999945],[-52.21508669999998,-28.943323],[-52.21492409999996,-28.94234729999994],[-52.21514849999994,-28.941027199999954],[-52.21452259999995,-28.940249499999936],[-52.21430859999998,-28.93956479999997],[-52.213367,-28.940131799999953],[-52.212572799999975,-28.93973249999994],[-52.21225049999998,-28.937414799999942],[-52.211843499999986,-28.93735209999994],[-52.211673,-28.937004],[-52.211954599999956,-28.935622399999946],[-52.21336869999993,-28.93458779999997],[-52.2132544,-28.93296589999995],[-52.212933799999966,-28.933018399999973],[-52.21211249999993,-28.934173699999974],[-52.21120609999997,-28.93420229999998],[-52.21057909999996,-28.933673199999934],[-52.210089,-28.93208039999996],[-52.209129799999964,-28.932181299999947],[-52.20863809999998,-28.931993199999958],[-52.20849979999997,-28.931115699999967],[-52.208113399999945,-28.930641599999944],[-52.20737339999994,-28.930278599999948],[-52.204518599999965,-28.92959879999995],[-52.204150399999946,-28.927955399999973],[-52.20524709999995,-28.927734299999948],[-52.206026,-28.92730589999996],[-52.206285199999975,-28.92669259999996],[-52.206068799999976,-28.926136],[-52.20525589999994,-28.92600289999996],[-52.20440559999997,-28.92661449999997],[-52.203615799999966,-28.92661559999994],[-52.20268819999996,-28.92628339999993],[-52.201302199999986,-28.925126199999948],[-52.199916199999954,-28.92525819999998],[-52.19932219999998,-28.924637699999955],[-52.19879489999994,-28.924541499999968],[-52.19861789999993,-28.924221899999967],[-52.19877449999996,-28.923233299999943],[-52.198018299999944,-28.922506599999963],[-52.19668739999997,-28.92171339999992],[-52.196653599999934,-28.91983069999998],[-52.19426789999995,-28.918889699999962],[-52.191092,-28.916667099999977],[-52.19000649999999,-28.914423699999936],[-52.18904349999997,-28.91457],[-52.189046399999945,-28.91414259999993],[-52.189422,-28.913633299999958],[-52.189045299999975,-28.912934799999956],[-52.18716539999998,-28.912502],[-52.18638489999996,-28.91201359999996],[-52.1836335,-28.91293389999992],[-52.18112419999994,-28.91343039999998],[-52.17701809999994,-28.912826499999937],[-52.175887,-28.911874399999935],[-52.17455179999996,-28.911462399999934],[-52.172627599999934,-28.9088399],[-52.17264279999995,-28.908080299999934],[-52.17206029999994,-28.907670599999975],[-52.172179,-28.906437099999945],[-52.171587899999956,-28.905645499999935],[-52.171676,-28.90526289999996],[-52.17119219999995,-28.90468669999995],[-52.17108189999993,-28.90416149999993],[-52.16853289999994,-28.90261289999994],[-52.16855129999994,-28.9013212],[-52.16778719999997,-28.900227299999983],[-52.16784549999994,-28.899605499999957],[-52.16716319999995,-28.89847549999996],[-52.16695859999999,-28.896733799999943],[-52.166621099999986,-28.896364099999975],[-52.16609209999995,-28.89617909999998],[-52.15989849999994,-28.89714859999998],[-52.15966849999995,-28.89956819999996],[-52.16055689999997,-28.90210169999995],[-52.16005929999994,-28.902891599999965],[-52.15928529999997,-28.903400599999948],[-52.15806879999997,-28.90612069999998],[-52.15667769999993,-28.90741619999994],[-52.15496719999993,-28.907559099999947],[-52.1541443,-28.907959299999966],[-52.15135429999999,-28.91174929999994],[-52.15066909999996,-28.91404239999997],[-52.14816529999996,-28.915028199999938],[-52.147466299999955,-28.916335],[-52.143809,-28.919251899999946],[-52.140540699999974,-28.92327539999995],[-52.13940519999995,-28.92339489999993],[-52.13680579999994,-28.92226139999997],[-52.136502099999966,-28.922489299999945],[-52.13480919999995,-28.922495399999946],[-52.14038309999995,-28.930040299999966],[-52.130498899999964,-28.935729899999945],[-52.131235,-28.93637309999996],[-52.13386809999998,-28.937417],[-52.13621349999994,-28.938816299999917],[-52.138370899999984,-28.938806599999953],[-52.14096719999998,-28.940245299999958],[-52.14323879999994,-28.938789899999964],[-52.143892799999946,-28.93745969999997],[-52.14666829999994,-28.936244399999968],[-52.147245699999985,-28.936182299999928],[-52.14820679999997,-28.936448499999983],[-52.15151869999994,-28.938389799999968],[-52.153257,-28.938302599999922],[-52.15424359999997,-28.937911599999953],[-52.15475749999997,-28.939085],[-52.155579499999924,-28.939625099999933],[-52.155823299999945,-28.940057299999978],[-52.15612659999993,-28.941643199999934],[-52.157420599999966,-28.942259599999943],[-52.15675859999993,-28.943866099999973],[-52.15739589999998,-28.946329099999954],[-52.156906799999945,-28.947779599999926],[-52.15735119999994,-28.94890709999994],[-52.15748729999996,-28.950360499999935],[-52.15793959999997,-28.950931899999933],[-52.15916149999999,-28.951502599999976],[-52.159633799999945,-28.95284879999996],[-52.159413099999945,-28.953769599999923],[-52.15991669999993,-28.954304899999958],[-52.16073229999995,-28.954517899999928],[-52.16112549999997,-28.948312199999975],[-52.177777799999944,-28.949394899999955],[-52.17701909999994,-28.958313099999934],[-52.194363099999975,-28.95924749999995],[-52.19376939999995,-28.968497199999934],[-52.228290499999964,-28.970056599999953],[-52.22943089999996,-28.96914169999997],[-52.22962449999994,-28.96872589999999],[-52.22919109999999,-28.968032899999972],[-52.22711409999994,-28.967170099999958],[-52.22813569999994,-28.966011099999953],[-52.2283073,-28.964963899999923]]]}}]}