{"type":"FeatureCollection","name":"4312351","crs":{"type":"name","properties":{"name":"urn:ogc:def:crs:OGC:1.3:CRS84"}},"features":[{"type":"Feature","properties":{"setor":"431235105000001","pop":794,"sigilo_pop":false,"dom":344,"sigilo_dom":0,"mulheres":408,"sigilo_mulheres":0,"c0_4":49,"sigilo_c0_4":0,"c5_9":37,"sigilo_c5_9":0,"i60_69":107,"sigilo_i60_69":0,"i70m":105,"sigilo_i70m":0,"indigenas":0,"sigilo_indigenas":0,"pretos_pardos":31,"sigilo_pretos_pardos":0,"dom_ocupados":303,"sigilo_dom_ocupados":0,"dom_agua":301,"sigilo_dom_agua":0,"dom_esgoto":5,"sigilo_dom_esgoto":0,"renda_resp":3317.03,"sigilo_renda_resp":0,"n_resp":303,"sigilo_n_resp":0,"dens":770.2,"sigilo_dens":false,"na_bacia":1,"area_pct_bacia":100.0,"metodo_recorte_bacia":"ponto_representativo_setor_2022; area_pct_geometrica","pop_n_validos":1,"pop_n_total":1,"pop_completude":1.0,"dom_n_validos":1,"dom_n_total":1,"dom_completude":1.0,"dom_ocupados_n_validos":1,"dom_ocupados_n_total":1,"dom_ocupados_completude":1.0,"mulheres_n_validos":1,"mulheres_n_total":1,"mulheres_completude":1.0,"c0_4_n_validos":1,"c0_4_n_total":1,"c0_4_completude":1.0,"c5_9_n_validos":1,"c5_9_n_total":1,"c5_9_completude":1.0,"i60_69_n_validos":1,"i60_69_n_total":1,"i60_69_completude":1.0,"i70m_n_validos":1,"i70m_n_total":1,"i70m_completude":1.0,"indigenas_n_validos":1,"indigenas_n_total":1,"indigenas_completude":1.0,"pretos_pardos_n_validos":1,"pretos_pardos_n_total":1,"pretos_pardos_completude":1.0,"dom_agua_n_validos":1,"dom_agua_n_total":1,"dom_agua_completude":1.0,"dom_esgoto_n_validos":1,"dom_esgoto_n_total":1,"dom_esgoto_completude":1.0,"n_resp_n_validos":1,"n_resp_n_total":1,"n_resp_completude":1.0,"renda_resp_n_validos":1,"renda_resp_n_total":1,"renda_resp_completude":1.0,"dens_n_validos":1,"dens_n_total":1,"dens_completude":1.0,"status_borda_bacia":"total","metodo_area_bacia":"interseção geométrica em EPSG:5880","metodo_na_bacia":"ponto_representativo_setor_2022_within_bacia","municipio":"Montauri","cod_mun":"4312351","mun_pct_na_bacia":100.0,"mun_pop_total":1499,"mun_pop_na_bacia":1499.0,"mun_ubs_iede":1,"mun_hospitais_iede":null,"mun_escolas_iede":null,"mun_bombeiros_iede":null,"mun_servicos_cobertura":"cadastro_IEDE_parcial_nao_inventario","mun_icm_faixa":"B","mun_icm_pontos":9,"mun_icm_prioritario":"não","mun_ubs_iede_status":"published","mun_hospitais_iede_status":"unknown","mun_escolas_iede_status":"unknown","mun_bombeiros_iede_status":"unknown"},"geometry":{"type":"Polygon","coordinates":[[[-52.07338809999994,-28.649745599999957],[-52.071729499999954,-28.657638199999948],[-52.07363369999996,-28.658272899999933],[-52.075447199999985,-28.658295599999974],[-52.07503909999998,-28.65938369999998],[-52.07593209999993,-28.66029579999998],[-52.081040799999975,-28.65967269999994],[-52.080978399999935,-28.654509899999926],[-52.07909689999997,-28.652787],[-52.07909689999997,-28.646893099999936],[-52.078043099999945,-28.646909],[-52.07805789999997,-28.64611859999997],[-52.072949799999954,-28.646118599999955],[-52.07338809999994,-28.649745599999957]]]}},{"type":"Feature","properties":{"setor":"431235105000002","pop":260,"sigilo_pop":false,"dom":96,"sigilo_dom":0,"mulheres":125,"sigilo_mulheres":0,"c0_4":12,"sigilo_c0_4":0,"c5_9":12,"sigilo_c5_9":0,"i60_69":37,"sigilo_i60_69":0,"i70m":42,"sigilo_i70m":0,"indigenas":0,"sigilo_indigenas":0,"pretos_pardos":null,"sigilo_pretos_pardos":1,"dom_ocupados":84,"sigilo_dom_ocupados":0,"dom_agua":51,"sigilo_dom_agua":0,"dom_esgoto":0,"sigilo_dom_esgoto":0,"renda_resp":4972.38,"sigilo_renda_resp":0,"n_resp":84,"sigilo_n_resp":0,"dens":11.3,"sigilo_dens":false,"na_bacia":1,"area_pct_bacia":100.0,"metodo_recorte_bacia":"ponto_representativo_setor_2022; area_pct_geometrica","pop_n_validos":1,"pop_n_total":1,"pop_completude":1.0,"dom_n_validos":1,"dom_n_total":1,"dom_completude":1.0,"dom_ocupados_n_validos":1,"dom_ocupados_n_total":1,"dom_ocupados_completude":1.0,"mulheres_n_validos":1,"mulheres_n_total":1,"mulheres_completude":1.0,"c0_4_n_validos":1,"c0_4_n_total":1,"c0_4_completude":1.0,"c5_9_n_validos":1,"c5_9_n_total":1,"c5_9_completude":1.0,"i60_69_n_validos":1,"i60_69_n_total":1,"i60_69_completude":1.0,"i70m_n_validos":1,"i70m_n_total":1,"i70m_completude":1.0,"indigenas_n_validos":1,"indigenas_n_total":1,"indigenas_completude":1.0,"pretos_pardos_n_validos":0,"pretos_pardos_n_total":1,"pretos_pardos_completude":0.0,"dom_agua_n_validos":1,"dom_agua_n_total":1,"dom_agua_completude":1.0,"dom_esgoto_n_validos":1,"dom_esgoto_n_total":1,"dom_esgoto_completude":1.0,"n_resp_n_validos":1,"n_resp_n_total":1,"n_resp_completude":1.0,"renda_resp_n_validos":1,"renda_resp_n_total":1,"renda_resp_completude":1.0,"dens_n_validos":1,"dens_n_total":1,"dens_completude":1.0,"status_borda_bacia":"total","metodo_area_bacia":"interseção geométrica em EPSG:5880","metodo_na_bacia":"ponto_representativo_setor_2022_within_bacia","municipio":"Montauri","cod_mun":"4312351","mun_pct_na_bacia":100.0,"mun_pop_total":1499,"mun_pop_na_bacia":1499.0,"mun_ubs_iede":1,"mun_hospitais_iede":null,"mun_escolas_iede":null,"mun_bombeiros_iede":null,"mun_servicos_cobertura":"cadastro_IEDE_parcial_nao_inventario","mun_icm_faixa":"B","mun_icm_pontos":9,"mun_icm_prioritario":"não","mun_ubs_iede_status":"published","mun_hospitais_iede_status":"unknown","mun_escolas_iede_status":"unknown","mun_bombeiros_iede_status":"unknown"},"geometry":{"type":"Polygon","coordinates":[[[-52.04021679999994,-28.648104],[-52.040509099999944,-28.64912149999998],[-52.04134079999995,-28.650007099999975],[-52.04215309999995,-28.650426299999936],[-52.04390889999996,-28.65060709999994],[-52.04724209999995,-28.648983299999934],[-52.04888529999994,-28.649257],[-52.04966179999996,-28.649101899999955],[-52.050998899999975,-28.649276599999947],[-52.052857699999954,-28.650185199999957],[-52.05600459999994,-28.650397699999946],[-52.05652589999994,-28.65097379999998],[-52.05836919999996,-28.651789899999986],[-52.06048679999998,-28.65248289999994],[-52.06179619999995,-28.65262129999996],[-52.065804599999986,-28.65486019999998],[-52.0666303,-28.654912899999943],[-52.06717829999996,-28.65476849999993],[-52.06822709999994,-28.653396499999932],[-52.069146,-28.652802599999966],[-52.06985089999995,-28.65286489999995],[-52.07108949999998,-28.653559],[-52.07253689999993,-28.653790799999967],[-52.07338809999994,-28.649745599999957],[-52.072949799999954,-28.646118599999955],[-52.07805789999997,-28.64611859999997],[-52.078043099999945,-28.646909],[-52.07909689999997,-28.646893099999936],[-52.07909689999997,-28.652787],[-52.080978399999935,-28.654509899999926],[-52.081040799999975,-28.65967269999994],[-52.0780774,-28.660048399999944],[-52.07906809999997,-28.660797099999975],[-52.07932819999996,-28.66128019999996],[-52.07933489999993,-28.662126899999983],[-52.078889,-28.66355859999993],[-52.07995509999995,-28.663060599999934],[-52.08239129999998,-28.663118199999925],[-52.08316,-28.664208699999968],[-52.08384259999997,-28.665879299999983],[-52.084142199999974,-28.66829849999993],[-52.084758,-28.669950299999986],[-52.08651739999994,-28.669579899999967],[-52.086845099999955,-28.67029559999998],[-52.08641049999994,-28.670889899999963],[-52.085114499999975,-28.671535899999984],[-52.08373089999997,-28.672984299999932],[-52.08322969999995,-28.673860699999985],[-52.083116099999984,-28.675780099999937],[-52.084693,-28.679628299999933],[-52.084587,-28.680610499999943],[-52.08486819999997,-28.682193199999983],[-52.084276299999935,-28.68436059999994],[-52.08204839999996,-28.685056799999977],[-52.07807829999996,-28.685690499999968],[-52.077321,-28.686305099999977],[-52.076697199999956,-28.687327],[-52.076578799999936,-28.689130699999957],[-52.07548409999998,-28.68911359999994],[-52.074447299999974,-28.68866809999997],[-52.074267899999946,-28.68880509999997],[-52.07709289999997,-28.689685199999925],[-52.0771678,-28.687154399999937],[-52.078459899999984,-28.68605209999997],[-52.07914569999998,-28.68604849999997],[-52.08036419999996,-28.68685],[-52.08468669999996,-28.69072129999996],[-52.08675629999994,-28.691692699999972],[-52.08814989999996,-28.69202849999994],[-52.08981079999995,-28.69164519999997],[-52.09029519999996,-28.691022],[-52.090594199999934,-28.689023199999944],[-52.09056089999996,-28.685771099999947],[-52.08991609999998,-28.68543489999995],[-52.08892989999998,-28.68566069999998],[-52.087612899999954,-28.68557839999994],[-52.08696979999996,-28.684866299999964],[-52.08631509999997,-28.68167629999994],[-52.08540809999993,-28.678773799999938],[-52.08445089999997,-28.67683879999993],[-52.084914,-28.674112199999975],[-52.085443399999974,-28.67351],[-52.08657279999995,-28.672826699999963],[-52.08867679999997,-28.672456099999962],[-52.091268199999945,-28.674233199999936],[-52.09254149999998,-28.676233199999952],[-52.092936099999974,-28.676425399999967],[-52.09530369999993,-28.675697299999968],[-52.09716,-28.674690199999944],[-52.09828339999995,-28.673799799999976],[-52.09895389999997,-28.672682399999925],[-52.100595699999985,-28.667632599999934],[-52.1007446,-28.664788899999955],[-52.101345299999934,-28.661010299999933],[-52.101075099999946,-28.66024479999993],[-52.100981299999944,-28.65782989999997],[-52.101533,-28.65664979999996],[-52.10283549999997,-28.655636299999962],[-52.10383809999997,-28.655492899999967],[-52.11034519999998,-28.65581069999995],[-52.110781,-28.655400699999976],[-52.11109709999994,-28.65417949999994],[-52.111087199999986,-28.653250299999968],[-52.11059439999997,-28.652108199999933],[-52.110113499999954,-28.651718299999974],[-52.10691149999997,-28.650784499999926],[-52.10588419999994,-28.64968259999995],[-52.10494209999996,-28.64761],[-52.10389219999996,-28.644061199999953],[-52.10244759999995,-28.641740599999938],[-52.10169509999997,-28.639641399999963],[-52.10172,-28.638453299999977],[-52.10251789999995,-28.637612],[-52.102467,-28.63722239999993],[-52.101519199999984,-28.636897099999945],[-52.100030199999935,-28.635791099999956],[-52.09962969999998,-28.635207199999968],[-52.09965409999995,-28.634246699999945],[-52.100287899999955,-28.63311989999994],[-52.10059639999997,-28.63111969999994],[-52.10016289999999,-28.629935499999927],[-52.09869479999997,-28.629742299999975],[-52.095511399999964,-28.6321129],[-52.092565099999945,-28.633290599999956],[-52.091837399999974,-28.63236379999995],[-52.08955709999997,-28.632061399999944],[-52.088246599999934,-28.630263599999978],[-52.08875709999995,-28.62947219999996],[-52.08972529999994,-28.629146699999982],[-52.09036919999995,-28.628567899999954],[-52.091649,-28.628823199999946],[-52.09298389999997,-28.615920799999977],[-52.06650569999993,-28.614439699999938],[-52.066905099999985,-28.615343799999962],[-52.06686239999993,-28.615832599999983],[-52.064845699999985,-28.616298599999922],[-52.063585099999955,-28.61595729999994],[-52.062833,-28.61616579999997],[-52.06098869999994,-28.617385799999962],[-52.05901259999995,-28.618129499999956],[-52.057824299999936,-28.61828859999997],[-52.05740989999998,-28.618572499999967],[-52.0557745,-28.618457499999977],[-52.055112,-28.619696699999956],[-52.054141,-28.620844899999955],[-52.053057499999966,-28.62452909999996],[-52.053977,-28.62589829999996],[-52.054228899999934,-28.627313099999984],[-52.05492149999998,-28.62794269999995],[-52.05792239999994,-28.62908559999994],[-52.059935499999945,-28.631576199999984],[-52.062050899999974,-28.632188199999966],[-52.065689599999985,-28.630423599999972],[-52.06722579999996,-28.630073099999954],[-52.06693859999996,-28.633248],[-52.065874399999984,-28.634016399999954],[-52.06556389999997,-28.634595299999948],[-52.065797799999984,-28.63562],[-52.06566669999995,-28.63803959999996],[-52.065380699999935,-28.638737],[-52.06609479999997,-28.63998329999997],[-52.06597289999996,-28.640635699999947],[-52.05955739999996,-28.64159759999995],[-52.04427579999998,-28.636318599999974],[-52.03856319999994,-28.644553699999967],[-52.03926769999998,-28.645477799999984],[-52.03946829999995,-28.64619159999995],[-52.04045629999996,-28.647272399999967],[-52.04021679999994,-28.648104]]]}},{"type":"Feature","properties":{"setor":"431235105000003","pop":212,"sigilo_pop":false,"dom":92,"sigilo_dom":0,"mulheres":103,"sigilo_mulheres":0,"c0_4":null,"sigilo_c0_4":1,"c5_9":null,"sigilo_c5_9":1,"i60_69":46,"sigilo_i60_69":0,"i70m":38,"sigilo_i70m":0,"indigenas":0,"sigilo_indigenas":0,"pretos_pardos":null,"sigilo_pretos_pardos":1,"dom_ocupados":71,"sigilo_dom_ocupados":0,"dom_agua":40,"sigilo_dom_agua":0,"dom_esgoto":0,"sigilo_dom_esgoto":0,"renda_resp":5310.45,"sigilo_renda_resp":0,"n_resp":71,"sigilo_n_resp":0,"dens":7.0,"sigilo_dens":false,"na_bacia":1,"area_pct_bacia":100.0,"metodo_recorte_bacia":"ponto_representativo_setor_2022; area_pct_geometrica","pop_n_validos":1,"pop_n_total":1,"pop_completude":1.0,"dom_n_validos":1,"dom_n_total":1,"dom_completude":1.0,"dom_ocupados_n_validos":1,"dom_ocupados_n_total":1,"dom_ocupados_completude":1.0,"mulheres_n_validos":1,"mulheres_n_total":1,"mulheres_completude":1.0,"c0_4_n_validos":0,"c0_4_n_total":1,"c0_4_completude":0.0,"c5_9_n_validos":0,"c5_9_n_total":1,"c5_9_completude":0.0,"i60_69_n_validos":1,"i60_69_n_total":1,"i60_69_completude":1.0,"i70m_n_validos":1,"i70m_n_total":1,"i70m_completude":1.0,"indigenas_n_validos":1,"indigenas_n_total":1,"indigenas_completude":1.0,"pretos_pardos_n_validos":0,"pretos_pardos_n_total":1,"pretos_pardos_completude":0.0,"dom_agua_n_validos":1,"dom_agua_n_total":1,"dom_agua_completude":1.0,"dom_esgoto_n_validos":1,"dom_esgoto_n_total":1,"dom_esgoto_completude":1.0,"n_resp_n_validos":1,"n_resp_n_total":1,"n_resp_completude":1.0,"renda_resp_n_validos":1,"renda_resp_n_total":1,"renda_resp_completude":1.0,"dens_n_validos":1,"dens_n_total":1,"dens_completude":1.0,"status_borda_bacia":"total","metodo_area_bacia":"interseção geométrica em EPSG:5880","metodo_na_bacia":"ponto_representativo_setor_2022_within_bacia","municipio":"Montauri","cod_mun":"4312351","mun_pct_na_bacia":100.0,"mun_pop_total":1499,"mun_pop_na_bacia":1499.0,"mun_ubs_iede":1,"mun_hospitais_iede":null,"mun_escolas_iede":null,"mun_bombeiros_iede":null,"mun_servicos_cobertura":"cadastro_IEDE_parcial_nao_inventario","mun_icm_faixa":"B","mun_icm_pontos":9,"mun_icm_prioritario":"não","mun_ubs_iede_status":"published","mun_hospitais_iede_status":"unknown","mun_escolas_iede_status":"unknown","mun_bombeiros_iede_status":"unknown"},"geometry":{"type":"Polygon","coordinates":[[[-52.00878089999998,-28.67944319999996],[-52.011799,-28.679611299999987],[-52.01397109999994,-28.678371199999965],[-52.01544919999998,-28.678037899999932],[-52.01804439999995,-28.67895709999993],[-52.01938009999998,-28.678772699999968],[-52.02353089999997,-28.680440699999952],[-52.0249831,-28.68179869999995],[-52.02632609999994,-28.68248569999997],[-52.030383099999945,-28.682834299999975],[-52.032788599999954,-28.682139599999967],[-52.03393139999997,-28.683032],[-52.035879499999965,-28.68315409999996],[-52.03737089999998,-28.682312499999966],[-52.039847899999984,-28.68260539999994],[-52.04063239999993,-28.682408399999936],[-52.04202269999996,-28.683471199999925],[-52.043326899999954,-28.684052899999983],[-52.046735499999954,-28.68444309999995],[-52.04910229999996,-28.68395589999994],[-52.05138289999997,-28.685081],[-52.05594449999995,-28.685272799999954],[-52.05688029999993,-28.685577599999938],[-52.058227699999975,-28.68653769999997],[-52.060169599999945,-28.686280499999945],[-52.06134169999995,-28.685820199999966],[-52.062104399999946,-28.685189799999925],[-52.06285169999996,-28.68506429999995],[-52.06366539999994,-28.68533389999994],[-52.065503899999946,-28.686637399999942],[-52.06631109999996,-28.68631879999998],[-52.06671749999998,-28.68641929999995],[-52.067538,-28.687210299999958],[-52.06851269999998,-28.68768879999994],[-52.06942429999997,-28.687698099999963],[-52.07158679999998,-28.68861249999997],[-52.074267899999946,-28.68880509999997],[-52.074447299999974,-28.68866809999997],[-52.075149,-28.689029799999943],[-52.076427399999936,-28.689242599999943],[-52.076634,-28.68900809999997],[-52.076697199999956,-28.687327],[-52.07785359999997,-28.685820599999943],[-52.08204839999996,-28.685056799999977],[-52.084151,-28.684472599999932],[-52.084379699999936,-28.684189099999962],[-52.08486819999997,-28.682193199999983],[-52.084587,-28.680610499999943],[-52.084693,-28.679628299999933],[-52.083116099999984,-28.675780099999937],[-52.08322969999995,-28.673860699999985],[-52.08373089999997,-28.672984299999932],[-52.085114499999975,-28.671535899999984],[-52.08641049999994,-28.670889899999963],[-52.086845099999955,-28.67029559999998],[-52.08651739999994,-28.669579899999967],[-52.084758,-28.669950299999986],[-52.084142199999974,-28.66829849999993],[-52.08384259999997,-28.665879299999983],[-52.08316,-28.664208699999968],[-52.08239129999998,-28.663118199999925],[-52.07995509999995,-28.663060599999934],[-52.078889,-28.66355859999993],[-52.07933489999993,-28.662126899999983],[-52.07932819999996,-28.66128019999996],[-52.07906809999997,-28.660797099999975],[-52.0780774,-28.660048399999944],[-52.07593209999993,-28.66029579999998],[-52.07503909999998,-28.65938369999998],[-52.075447199999985,-28.658295599999974],[-52.07363369999996,-28.658272899999933],[-52.071729499999954,-28.657638199999948],[-52.07253689999993,-28.653790799999967],[-52.07108949999998,-28.653559],[-52.06935559999994,-28.652763099999962],[-52.068426099999954,-28.65321319999999],[-52.06717829999996,-28.65476849999993],[-52.065804599999986,-28.65486019999998],[-52.06179619999995,-28.65262129999996],[-52.06048679999998,-28.65248289999994],[-52.05862909999997,-28.65188989999995],[-52.05652589999994,-28.65097379999998],[-52.05600459999994,-28.650397699999946],[-52.052857699999954,-28.650185199999957],[-52.051151699999934,-28.649327299999985],[-52.050039099999935,-28.649124099999938],[-52.04888529999994,-28.649257],[-52.04724209999995,-28.648983299999934],[-52.04390889999996,-28.65060709999994],[-52.04215309999995,-28.650426299999936],[-52.04134079999995,-28.650007099999975],[-52.040509099999944,-28.64912149999998],[-52.04021679999994,-28.648104],[-52.03942,-28.648061399999964],[-52.03817389999995,-28.648403399999943],[-52.03641419999997,-28.647360899999963],[-52.03540919999995,-28.646569899999964],[-52.03450049999997,-28.644767699999928],[-52.03367429999997,-28.644027],[-52.032549499999966,-28.64603029999994],[-52.02981909999994,-28.646203499999952],[-52.02972179999995,-28.64910829999996],[-52.02853189999996,-28.649448199999938],[-52.02346389999997,-28.648522],[-52.02199009999999,-28.645510399999985],[-52.01885169999997,-28.64409079999995],[-52.01506779999994,-28.639804199999947],[-52.01309869999995,-28.63877149999996],[-52.00659689999998,-28.63873549999994],[-52.00484819999998,-28.643931699999932],[-52.003489299999956,-28.643879],[-52.00259909999994,-28.644818499999932],[-52.001302399999986,-28.645195699999928],[-52.00131919999995,-28.646154799999973],[-52.000746299999946,-28.646932099999947],[-51.99926419999997,-28.647928799999924],[-51.998982199999936,-28.651735499999972],[-52.00182769999998,-28.657049599999933],[-52.00224749999995,-28.659406299999933],[-52.003460099999984,-28.660474099999924],[-51.99881129999994,-28.670050399999983],[-51.998406,-28.67613729999994],[-52.00340139999998,-28.674361399999963],[-52.009182299999964,-28.675468499999962],[-52.00878089999998,-28.67944319999996]]]}},{"type":"Feature","properties":{"setor":"431235105000004","pop":152,"sigilo_pop":false,"dom":52,"sigilo_dom":0,"mulheres":75,"sigilo_mulheres":0,"c0_4":null,"sigilo_c0_4":1,"c5_9":null,"sigilo_c5_9":1,"i60_69":27,"sigilo_i60_69":0,"i70m":31,"sigilo_i70m":0,"indigenas":0,"sigilo_indigenas":0,"pretos_pardos":null,"sigilo_pretos_pardos":1,"dom_ocupados":48,"sigilo_dom_ocupados":0,"dom_agua":0,"sigilo_dom_agua":0,"dom_esgoto":0,"sigilo_dom_esgoto":0,"renda_resp":3948.18,"sigilo_renda_resp":0,"n_resp":48,"sigilo_n_resp":0,"dens":8.3,"sigilo_dens":false,"na_bacia":1,"area_pct_bacia":100.0,"metodo_recorte_bacia":"ponto_representativo_setor_2022; area_pct_geometrica","pop_n_validos":1,"pop_n_total":1,"pop_completude":1.0,"dom_n_validos":1,"dom_n_total":1,"dom_completude":1.0,"dom_ocupados_n_validos":1,"dom_ocupados_n_total":1,"dom_ocupados_completude":1.0,"mulheres_n_validos":1,"mulheres_n_total":1,"mulheres_completude":1.0,"c0_4_n_validos":0,"c0_4_n_total":1,"c0_4_completude":0.0,"c5_9_n_validos":0,"c5_9_n_total":1,"c5_9_completude":0.0,"i60_69_n_validos":1,"i60_69_n_total":1,"i60_69_completude":1.0,"i70m_n_validos":1,"i70m_n_total":1,"i70m_completude":1.0,"indigenas_n_validos":1,"indigenas_n_total":1,"indigenas_completude":1.0,"pretos_pardos_n_validos":0,"pretos_pardos_n_total":1,"pretos_pardos_completude":0.0,"dom_agua_n_validos":1,"dom_agua_n_total":1,"dom_agua_completude":1.0,"dom_esgoto_n_validos":1,"dom_esgoto_n_total":1,"dom_esgoto_completude":1.0,"n_resp_n_validos":1,"n_resp_n_total":1,"n_resp_completude":1.0,"renda_resp_n_validos":1,"renda_resp_n_total":1,"renda_resp_completude":1.0,"dens_n_validos":1,"dens_n_total":1,"dens_completude":1.0,"status_borda_bacia":"total","metodo_area_bacia":"interseção geométrica em EPSG:5880","metodo_na_bacia":"ponto_representativo_setor_2022_within_bacia","municipio":"Montauri","cod_mun":"4312351","mun_pct_na_bacia":100.0,"mun_pop_total":1499,"mun_pop_na_bacia":1499.0,"mun_ubs_iede":1,"mun_hospitais_iede":null,"mun_escolas_iede":null,"mun_bombeiros_iede":null,"mun_servicos_cobertura":"cadastro_IEDE_parcial_nao_inventario","mun_icm_faixa":"B","mun_icm_pontos":9,"mun_icm_prioritario":"não","mun_ubs_iede_status":"published","mun_hospitais_iede_status":"unknown","mun_escolas_iede_status":"unknown","mun_bombeiros_iede_status":"unknown"},"geometry":{"type":"Polygon","coordinates":[[[-52.00878089999998,-28.67944319999996],[-52.007158,-28.67987859999994],[-52.00355349999995,-28.67880919999993],[-52.001823299999955,-28.678745199999987],[-51.99884319999995,-28.679650499999976],[-51.996921,-28.681222099999953],[-51.99538289999998,-28.68169209999996],[-51.99219849999997,-28.681357399999968],[-51.99401609999995,-28.684356099999942],[-51.995227,-28.687940499999964],[-51.99512829999997,-28.688820199999945],[-51.99544959999997,-28.689470799999977],[-51.99583679999995,-28.69165389999994],[-51.99581349999994,-28.696794799999974],[-51.99852809999993,-28.696776399999976],[-51.99929919999994,-28.695137099999965],[-52.00026319999995,-28.69427919999998],[-52.00151329999994,-28.694904699999938],[-52.00999669999993,-28.695219899999984],[-52.013816599999984,-28.69785209999998],[-52.01513039999997,-28.69819429999994],[-52.01600739999998,-28.69879789999994],[-52.01680029999994,-28.69989729999997],[-52.01807609999998,-28.700306599999973],[-52.024786,-28.701400399999958],[-52.02769379999996,-28.70074289999996],[-52.02977259999995,-28.701280099999973],[-52.032318299999986,-28.702473499999943],[-52.033451699999944,-28.70244839999998],[-52.034680399999964,-28.70198729999993],[-52.038624599999935,-28.70228269999996],[-52.04031119999996,-28.702670599999973],[-52.04148339999994,-28.702545899999958],[-52.04237969999997,-28.702120499999978],[-52.045147499999985,-28.703153599999943],[-52.051239,-28.703013299999945],[-52.05212709999995,-28.703910899999986],[-52.05320939999996,-28.704387399999973],[-52.05542939999998,-28.704445499999977],[-52.056922,-28.70503419999993],[-52.05844989999997,-28.705159899999956],[-52.06060059999999,-28.705091499999988],[-52.06266869999996,-28.704557399999935],[-52.063795899999946,-28.702765],[-52.06468819999998,-28.70210669999995],[-52.06584289999995,-28.702096099999956],[-52.067076,-28.704111699999938],[-52.06834459999994,-28.704812599999972],[-52.07194009999995,-28.704650099999984],[-52.07271479999998,-28.705715499999936],[-52.07419509999994,-28.70687489999994],[-52.079382199999934,-28.708063499999973],[-52.080770299999976,-28.708909099999985],[-52.08125209999997,-28.709904499999922],[-52.083129499999984,-28.709415099999934],[-52.08548239999993,-28.709639099999933],[-52.08648089999997,-28.709926199999977],[-52.088944499999975,-28.711353299999924],[-52.090056299999965,-28.711550599999953],[-52.09120039999994,-28.71124419999996],[-52.092425,-28.710398099999964],[-52.09476179999995,-28.709262],[-52.09561459999997,-28.708165699999938],[-52.09682379999998,-28.705322099999933],[-52.09797279999998,-28.704021599999972],[-52.09801269999997,-28.702542],[-52.09741969999993,-28.701939499999973],[-52.09661459999996,-28.701571099999967],[-52.09447249999994,-28.701161],[-52.08735819999998,-28.69918619999992],[-52.08562959999995,-28.699305499999973],[-52.082050799999934,-28.70048229999997],[-52.07967209999998,-28.700299099999942],[-52.07887649999998,-28.699724399999976],[-52.07817609999995,-28.697904499999943],[-52.078007,-28.695363299999936],[-52.07698659999995,-28.691244799999936],[-52.07709289999997,-28.689685199999925],[-52.07497919999997,-28.689152899999943],[-52.07454739999997,-28.688820599999925],[-52.07158679999998,-28.68861249999997],[-52.06942429999997,-28.687698099999963],[-52.06851269999998,-28.68768879999994],[-52.067538,-28.687210299999958],[-52.06671749999998,-28.68641929999995],[-52.06631109999996,-28.68631879999998],[-52.065503899999946,-28.686637399999942],[-52.06366539999994,-28.68533389999994],[-52.06285169999996,-28.68506429999995],[-52.062104399999946,-28.685189799999925],[-52.06134169999995,-28.685820199999966],[-52.060169599999945,-28.686280499999945],[-52.058227699999975,-28.68653769999997],[-52.05688029999993,-28.685577599999938],[-52.05594449999995,-28.685272799999954],[-52.05138289999997,-28.685081],[-52.04910229999996,-28.68395589999994],[-52.046735499999954,-28.68444309999995],[-52.043326899999954,-28.684052899999983],[-52.04202269999996,-28.683471199999925],[-52.04063239999993,-28.682408399999936],[-52.039847899999984,-28.68260539999994],[-52.03737089999998,-28.682312499999966],[-52.035879499999965,-28.68315409999996],[-52.03393139999997,-28.683032],[-52.032788599999954,-28.682139599999967],[-52.030383099999945,-28.682834299999975],[-52.02632609999994,-28.68248569999997],[-52.0249831,-28.68179869999995],[-52.02353089999997,-28.680440699999952],[-52.01938009999998,-28.678772699999968],[-52.01804439999995,-28.67895709999993],[-52.01544919999998,-28.678037899999932],[-52.01397109999994,-28.678371199999965],[-52.011799,-28.679611299999987],[-52.00878089999998,-28.67944319999996]]]}},{"type":"Feature","properties":{"setor":"431235105000005","pop":81,"sigilo_pop":false,"dom":35,"sigilo_dom":0,"mulheres":37,"sigilo_mulheres":0,"c0_4":null,"sigilo_c0_4":1,"c5_9":null,"sigilo_c5_9":1,"i60_69":15,"sigilo_i60_69":0,"i70m":14,"sigilo_i70m":0,"indigenas":0,"sigilo_indigenas":0,"pretos_pardos":3,"sigilo_pretos_pardos":0,"dom_ocupados":29,"sigilo_dom_ocupados":0,"dom_agua":null,"sigilo_dom_agua":1,"dom_esgoto":null,"sigilo_dom_esgoto":1,"renda_resp":1902.31,"sigilo_renda_resp":0,"n_resp":29,"sigilo_n_resp":0,"dens":8.5,"sigilo_dens":false,"na_bacia":1,"area_pct_bacia":100.0,"metodo_recorte_bacia":"ponto_representativo_setor_2022; area_pct_geometrica","pop_n_validos":1,"pop_n_total":1,"pop_completude":1.0,"dom_n_validos":1,"dom_n_total":1,"dom_completude":1.0,"dom_ocupados_n_validos":1,"dom_ocupados_n_total":1,"dom_ocupados_completude":1.0,"mulheres_n_validos":1,"mulheres_n_total":1,"mulheres_completude":1.0,"c0_4_n_validos":0,"c0_4_n_total":1,"c0_4_completude":0.0,"c5_9_n_validos":0,"c5_9_n_total":1,"c5_9_completude":0.0,"i60_69_n_validos":1,"i60_69_n_total":1,"i60_69_completude":1.0,"i70m_n_validos":1,"i70m_n_total":1,"i70m_completude":1.0,"indigenas_n_validos":1,"indigenas_n_total":1,"indigenas_completude":1.0,"pretos_pardos_n_validos":1,"pretos_pardos_n_total":1,"pretos_pardos_completude":1.0,"dom_agua_n_validos":0,"dom_agua_n_total":1,"dom_agua_completude":0.0,"dom_esgoto_n_validos":0,"dom_esgoto_n_total":1,"dom_esgoto_completude":0.0,"n_resp_n_validos":1,"n_resp_n_total":1,"n_resp_completude":1.0,"renda_resp_n_validos":1,"renda_resp_n_total":1,"renda_resp_completude":1.0,"dens_n_validos":1,"dens_n_total":1,"dens_completude":1.0,"status_borda_bacia":"total","metodo_area_bacia":"interseção geométrica em EPSG:5880","metodo_na_bacia":"ponto_representativo_setor_2022_within_bacia","municipio":"Montauri","cod_mun":"4312351","mun_pct_na_bacia":100.0,"mun_pop_total":1499,"mun_pop_na_bacia":1499.0,"mun_ubs_iede":1,"mun_hospitais_iede":null,"mun_escolas_iede":null,"mun_bombeiros_iede":null,"mun_servicos_cobertura":"cadastro_IEDE_parcial_nao_inventario","mun_icm_faixa":"B","mun_icm_pontos":9,"mun_icm_prioritario":"não","mun_ubs_iede_status":"published","mun_hospitais_iede_status":"unknown","mun_escolas_iede_status":"unknown","mun_bombeiros_iede_status":"unknown"},"geometry":{"type":"Polygon","coordinates":[[[-51.98606349999995,-28.70688649999995],[-52.013043299999936,-28.70849939999993],[-52.08163029999998,-28.711988899999948],[-52.080969799999934,-28.710821599999964],[-52.08099989999994,-28.710157199999955],[-52.08125209999997,-28.709904499999922],[-52.080511299999955,-28.708665],[-52.079382199999934,-28.708063499999973],[-52.07419509999994,-28.70687489999994],[-52.07271479999998,-28.705715499999936],[-52.07194009999995,-28.704650099999984],[-52.06834459999994,-28.704812599999972],[-52.067076,-28.704111699999938],[-52.06584289999995,-28.702096099999956],[-52.06468819999998,-28.70210669999995],[-52.063795899999946,-28.702765],[-52.06266869999996,-28.704557399999935],[-52.06060059999999,-28.705091499999988],[-52.05844989999997,-28.705159899999956],[-52.056922,-28.70503419999993],[-52.05542939999998,-28.704445499999977],[-52.05320939999996,-28.704387399999973],[-52.05212709999995,-28.703910899999986],[-52.051239,-28.703013299999945],[-52.045147499999985,-28.703153599999943],[-52.04237969999997,-28.702120499999978],[-52.04148339999994,-28.702545899999958],[-52.04031119999996,-28.702670599999973],[-52.038624599999935,-28.70228269999996],[-52.034680399999964,-28.70198729999993],[-52.033451699999944,-28.70244839999998],[-52.032318299999986,-28.702473499999943],[-52.02977259999995,-28.701280099999973],[-52.02769379999996,-28.70074289999996],[-52.024786,-28.701400399999958],[-52.01807609999998,-28.700306599999973],[-52.01680029999994,-28.69989729999997],[-52.01600739999998,-28.69879789999994],[-52.01513039999997,-28.69819429999994],[-52.013816599999984,-28.69785209999998],[-52.00999669999993,-28.695219899999984],[-52.00151329999994,-28.694904699999938],[-52.00026319999995,-28.69427919999998],[-51.99929919999994,-28.695137099999965],[-51.99852809999993,-28.696776399999976],[-51.99581349999994,-28.696794799999974],[-51.99583679999995,-28.69165389999994],[-51.99544959999997,-28.689470799999977],[-51.99512829999997,-28.688820199999945],[-51.995227,-28.687940499999964],[-51.99401609999995,-28.684356099999942],[-51.99267889999993,-28.682346],[-51.992047599999985,-28.689380899999943],[-51.98697,-28.689086099999937],[-51.986922399999976,-28.697414899999956],[-51.98724509999994,-28.697707599999937],[-51.98711879999997,-28.69810679999995],[-51.986501,-28.698539499999978],[-51.987080599999956,-28.700156499999935],[-51.98682439999994,-28.70084169999996],[-51.987065,-28.701578],[-51.985978099999954,-28.702709399999936],[-51.9856238,-28.70357019999994],[-51.98606349999995,-28.70688649999995]]]}}]}
