{"type":"FeatureCollection","name":"4312385","crs":{"type":"name","properties":{"name":"urn:ogc:def:crs:OGC:1.3:CRS84"}},"features":[{"type":"Feature","properties":{"setor":"431238505000002","pop":218,"sigilo_pop":false,"dom":106,"sigilo_dom":0,"mulheres":111,"sigilo_mulheres":0,"c0_4":16,"sigilo_c0_4":0,"c5_9":13,"sigilo_c5_9":0,"i60_69":28,"sigilo_i60_69":0,"i70m":35,"sigilo_i70m":0,"indigenas":0,"sigilo_indigenas":0,"pretos_pardos":9,"sigilo_pretos_pardos":0,"dom_ocupados":75,"sigilo_dom_ocupados":0,"dom_agua":62,"sigilo_dom_agua":0,"dom_esgoto":null,"sigilo_dom_esgoto":1,"renda_resp":2796.35,"sigilo_renda_resp":0,"n_resp":75,"sigilo_n_resp":0,"dens":34.5,"sigilo_dens":false,"na_bacia":1,"area_pct_bacia":100.0,"metodo_recorte_bacia":"ponto_representativo_setor_2022; area_pct_geometrica","pop_n_validos":1,"pop_n_total":1,"pop_completude":1.0,"dom_n_validos":1,"dom_n_total":1,"dom_completude":1.0,"dom_ocupados_n_validos":1,"dom_ocupados_n_total":1,"dom_ocupados_completude":1.0,"mulheres_n_validos":1,"mulheres_n_total":1,"mulheres_completude":1.0,"c0_4_n_validos":1,"c0_4_n_total":1,"c0_4_completude":1.0,"c5_9_n_validos":1,"c5_9_n_total":1,"c5_9_completude":1.0,"i60_69_n_validos":1,"i60_69_n_total":1,"i60_69_completude":1.0,"i70m_n_validos":1,"i70m_n_total":1,"i70m_completude":1.0,"indigenas_n_validos":1,"indigenas_n_total":1,"indigenas_completude":1.0,"pretos_pardos_n_validos":1,"pretos_pardos_n_total":1,"pretos_pardos_completude":1.0,"dom_agua_n_validos":1,"dom_agua_n_total":1,"dom_agua_completude":1.0,"dom_esgoto_n_validos":0,"dom_esgoto_n_total":1,"dom_esgoto_completude":0.0,"n_resp_n_validos":1,"n_resp_n_total":1,"n_resp_completude":1.0,"renda_resp_n_validos":1,"renda_resp_n_total":1,"renda_resp_completude":1.0,"dens_n_validos":1,"dens_n_total":1,"dens_completude":1.0,"status_borda_bacia":"total","metodo_area_bacia":"interseção geométrica em EPSG:5880","metodo_na_bacia":"ponto_representativo_setor_2022_within_bacia","municipio":"Monte Belo do Sul","cod_mun":"4312385","mun_pct_na_bacia":100.0,"mun_pop_total":2557,"mun_pop_na_bacia":2557.0,"mun_ubs_iede":1,"mun_hospitais_iede":null,"mun_escolas_iede":4,"mun_bombeiros_iede":null,"mun_servicos_cobertura":"cadastro_IEDE_parcial_nao_inventario","mun_icm_faixa":"D","mun_icm_pontos":7,"mun_icm_prioritario":"não","mun_ubs_iede_status":"published","mun_hospitais_iede_status":"unknown","mun_escolas_iede_status":"published","mun_bombeiros_iede_status":"unknown"},"geometry":{"type":"Polygon","coordinates":[[[-51.66988319999996,-29.151688099999937],[-51.66796629999993,-29.151392299999944],[-51.66585679999998,-29.15205669999994],[-51.664793,-29.15213959999994],[-51.66208289999998,-29.153205],[-51.660791,-29.153288],[-51.659532199999944,-29.153074599999965],[-51.65686579999993,-29.153861],[-51.655485,-29.153572299999958],[-51.65243239999995,-29.155330399999972],[-51.65088449999996,-29.154848499999968],[-51.649446299999966,-29.154676899999977],[-51.64659689999996,-29.15498559999998],[-51.643942799999934,-29.154259599999925],[-51.64160369999996,-29.154544399999963],[-51.641143,-29.155135699999953],[-51.64009119999997,-29.158116099999972],[-51.646853,-29.15823],[-51.64692449999996,-29.16136719999998],[-51.64970109999996,-29.161407899999972],[-51.64968689999995,-29.162800099999963],[-51.65128849999997,-29.162399299999944],[-51.651991099999975,-29.164016599999968],[-51.652071499999984,-29.16475749999995],[-51.65310389999997,-29.166085099999975],[-51.655695,-29.16689219999995],[-51.656429,-29.167314699999956],[-51.65782389999998,-29.16678229999996],[-51.65916579999998,-29.16667669999999],[-51.66050769999999,-29.167212899999974],[-51.66124689999997,-29.167814399999934],[-51.661841399999965,-29.167682199999938],[-51.66198519999995,-29.168243599999972],[-51.66241279999997,-29.168632699999936],[-51.66304969999994,-29.167847299999952],[-51.66372,-29.16842569999994],[-51.66524109999995,-29.16851219999995],[-51.66514849999999,-29.158889899999956],[-51.695429599999954,-29.15839209999996],[-51.695416499999965,-29.14002089999998],[-51.69478379999999,-29.140244599999946],[-51.69297009999997,-29.141670699999967],[-51.69192229999993,-29.14205669999996],[-51.690855699999986,-29.141537899999953],[-51.68898439999999,-29.142277899999957],[-51.68715489999993,-29.141785],[-51.68634609999998,-29.142810199999943],[-51.68560279999998,-29.142892799999974],[-51.68515329999997,-29.143398499999932],[-51.68442309999995,-29.14354009999993],[-51.6829719,-29.144296299999944],[-51.68134849999996,-29.14592359999994],[-51.68069479999997,-29.14722029999996],[-51.680625,-29.147912499999965],[-51.67892229999996,-29.148859499999954],[-51.67783659999997,-29.15161109999996],[-51.67742109999995,-29.15193259999996],[-51.67637819999993,-29.152202599999953],[-51.67575979999997,-29.152683099999926],[-51.673842399999955,-29.153421199999965],[-51.67310269999996,-29.153144699999928],[-51.672096899999985,-29.15173049999992],[-51.671342,-29.15151439999994],[-51.66988319999996,-29.151688099999937]]]}},{"type":"Feature","properties":{"setor":"431238505000004","pop":131,"sigilo_pop":false,"dom":59,"sigilo_dom":0,"mulheres":59,"sigilo_mulheres":0,"c0_4":4,"sigilo_c0_4":0,"c5_9":null,"sigilo_c5_9":1,"i60_69":25,"sigilo_i60_69":0,"i70m":21,"sigilo_i70m":0,"indigenas":0,"sigilo_indigenas":0,"pretos_pardos":10,"sigilo_pretos_pardos":0,"dom_ocupados":45,"sigilo_dom_ocupados":0,"dom_agua":30,"sigilo_dom_agua":0,"dom_esgoto":0,"sigilo_dom_esgoto":0,"renda_resp":3391.11,"sigilo_renda_resp":0,"n_resp":45,"sigilo_n_resp":0,"dens":29.6,"sigilo_dens":false,"na_bacia":1,"area_pct_bacia":100.0,"metodo_recorte_bacia":"ponto_representativo_setor_2022; area_pct_geometrica","pop_n_validos":1,"pop_n_total":1,"pop_completude":1.0,"dom_n_validos":1,"dom_n_total":1,"dom_completude":1.0,"dom_ocupados_n_validos":1,"dom_ocupados_n_total":1,"dom_ocupados_completude":1.0,"mulheres_n_validos":1,"mulheres_n_total":1,"mulheres_completude":1.0,"c0_4_n_validos":1,"c0_4_n_total":1,"c0_4_completude":1.0,"c5_9_n_validos":0,"c5_9_n_total":1,"c5_9_completude":0.0,"i60_69_n_validos":1,"i60_69_n_total":1,"i60_69_completude":1.0,"i70m_n_validos":1,"i70m_n_total":1,"i70m_completude":1.0,"indigenas_n_validos":1,"indigenas_n_total":1,"indigenas_completude":1.0,"pretos_pardos_n_validos":1,"pretos_pardos_n_total":1,"pretos_pardos_completude":1.0,"dom_agua_n_validos":1,"dom_agua_n_total":1,"dom_agua_completude":1.0,"dom_esgoto_n_validos":1,"dom_esgoto_n_total":1,"dom_esgoto_completude":1.0,"n_resp_n_validos":1,"n_resp_n_total":1,"n_resp_completude":1.0,"renda_resp_n_validos":1,"renda_resp_n_total":1,"renda_resp_completude":1.0,"dens_n_validos":1,"dens_n_total":1,"dens_completude":1.0,"status_borda_bacia":"total","metodo_area_bacia":"interseção geométrica em EPSG:5880","metodo_na_bacia":"ponto_representativo_setor_2022_within_bacia","municipio":"Monte Belo do Sul","cod_mun":"4312385","mun_pct_na_bacia":100.0,"mun_pop_total":2557,"mun_pop_na_bacia":2557.0,"mun_ubs_iede":1,"mun_hospitais_iede":null,"mun_escolas_iede":4,"mun_bombeiros_iede":null,"mun_servicos_cobertura":"cadastro_IEDE_parcial_nao_inventario","mun_icm_faixa":"D","mun_icm_pontos":7,"mun_icm_prioritario":"não","mun_ubs_iede_status":"published","mun_hospitais_iede_status":"unknown","mun_escolas_iede_status":"published","mun_bombeiros_iede_status":"unknown"},"geometry":{"type":"Polygon","coordinates":[[[-51.622419,-29.17778539999994],[-51.62234589999997,-29.178916299999962],[-51.62172719999995,-29.179402799999924],[-51.621849499999946,-29.17957],[-51.62255079999995,-29.17987],[-51.623929099999934,-29.179528599999976],[-51.62516309999995,-29.180091799999953],[-51.62745659999996,-29.182592],[-51.62840529999993,-29.183081299999966],[-51.62909069999995,-29.18427589999993],[-51.62922549999996,-29.18512619999995],[-51.63067569999998,-29.185846099999942],[-51.63213239999993,-29.18735259999994],[-51.63215729999996,-29.187814],[-51.66550439999997,-29.18811759999995],[-51.66551239999996,-29.176096899999937],[-51.663535099999926,-29.17625259999993],[-51.660881399999944,-29.176974199999957],[-51.65708079999995,-29.176595],[-51.65560159999996,-29.177698899999935],[-51.65203119999995,-29.177058899999956],[-51.65017229999995,-29.17711509999998],[-51.64903549999996,-29.177480399999975],[-51.64824519999997,-29.17814849999996],[-51.647523699999965,-29.17824509999997],[-51.644645299999986,-29.177732],[-51.643650399999956,-29.177336499999964],[-51.642765499999946,-29.177317],[-51.637736299999965,-29.179527299999954],[-51.637081799999976,-29.179376299999948],[-51.63681069999995,-29.178024099999963],[-51.63503869999994,-29.177853299999988],[-51.63434769999998,-29.17729919999993],[-51.633217,-29.177804],[-51.630955,-29.17804809999994],[-51.630821699999956,-29.17701289999997],[-51.629262799999935,-29.175845],[-51.628303399999936,-29.175796699999967],[-51.62763439999998,-29.176265199999925],[-51.62493629999995,-29.17640879999993],[-51.623470199999986,-29.177671199999956],[-51.622419,-29.17778539999994]]]}},{"type":"Feature","properties":{"setor":"431238505000005","pop":246,"sigilo_pop":false,"dom":107,"sigilo_dom":0,"mulheres":119,"sigilo_mulheres":0,"c0_4":null,"sigilo_c0_4":1,"c5_9":9,"sigilo_c5_9":0,"i60_69":43,"sigilo_i60_69":0,"i70m":50,"sigilo_i70m":0,"indigenas":0,"sigilo_indigenas":0,"pretos_pardos":4,"sigilo_pretos_pardos":0,"dom_ocupados":85,"sigilo_dom_ocupados":0,"dom_agua":64,"sigilo_dom_agua":0,"dom_esgoto":0,"sigilo_dom_esgoto":0,"renda_resp":2882.99,"sigilo_renda_resp":0,"n_resp":85,"sigilo_n_resp":0,"dens":24.5,"sigilo_dens":false,"na_bacia":1,"area_pct_bacia":100.0,"metodo_recorte_bacia":"ponto_representativo_setor_2022; area_pct_geometrica","pop_n_validos":1,"pop_n_total":1,"pop_completude":1.0,"dom_n_validos":1,"dom_n_total":1,"dom_completude":1.0,"dom_ocupados_n_validos":1,"dom_ocupados_n_total":1,"dom_ocupados_completude":1.0,"mulheres_n_validos":1,"mulheres_n_total":1,"mulheres_completude":1.0,"c0_4_n_validos":0,"c0_4_n_total":1,"c0_4_completude":0.0,"c5_9_n_validos":1,"c5_9_n_total":1,"c5_9_completude":1.0,"i60_69_n_validos":1,"i60_69_n_total":1,"i60_69_completude":1.0,"i70m_n_validos":1,"i70m_n_total":1,"i70m_completude":1.0,"indigenas_n_validos":1,"indigenas_n_total":1,"indigenas_completude":1.0,"pretos_pardos_n_validos":1,"pretos_pardos_n_total":1,"pretos_pardos_completude":1.0,"dom_agua_n_validos":1,"dom_agua_n_total":1,"dom_agua_completude":1.0,"dom_esgoto_n_validos":1,"dom_esgoto_n_total":1,"dom_esgoto_completude":1.0,"n_resp_n_validos":1,"n_resp_n_total":1,"n_resp_completude":1.0,"renda_resp_n_validos":1,"renda_resp_n_total":1,"renda_resp_completude":1.0,"dens_n_validos":1,"dens_n_total":1,"dens_completude":1.0,"status_borda_bacia":"total","metodo_area_bacia":"interseção geométrica em EPSG:5880","metodo_na_bacia":"ponto_representativo_setor_2022_within_bacia","municipio":"Monte Belo do Sul","cod_mun":"4312385","mun_pct_na_bacia":100.0,"mun_pop_total":2557,"mun_pop_na_bacia":2557.0,"mun_ubs_iede":1,"mun_hospitais_iede":null,"mun_escolas_iede":4,"mun_bombeiros_iede":null,"mun_servicos_cobertura":"cadastro_IEDE_parcial_nao_inventario","mun_icm_faixa":"D","mun_icm_pontos":7,"mun_icm_prioritario":"não","mun_ubs_iede_status":"published","mun_hospitais_iede_status":"unknown","mun_escolas_iede_status":"published","mun_bombeiros_iede_status":"unknown"},"geometry":{"type":"Polygon","coordinates":[[[-51.66988319999996,-29.151688099999937],[-51.671342,-29.15151439999994],[-51.672096899999985,-29.15173049999992],[-51.672982299999944,-29.15301769999996],[-51.673644899999935,-29.153408099999975],[-51.67575979999997,-29.152683099999926],[-51.676235099999985,-29.152270899999962],[-51.67742109999995,-29.15193259999996],[-51.67783659999997,-29.15161109999996],[-51.67885819999998,-29.14894869999995],[-51.680625,-29.147912499999965],[-51.68069479999997,-29.14722029999996],[-51.68134849999996,-29.14592359999994],[-51.6829719,-29.144296299999944],[-51.68442309999995,-29.14354009999993],[-51.68515329999997,-29.143398499999932],[-51.68560279999998,-29.142892799999974],[-51.68634609999998,-29.142810199999943],[-51.68715489999993,-29.141785],[-51.68898439999999,-29.142277899999957],[-51.690855699999986,-29.141537899999953],[-51.69192229999993,-29.14205669999996],[-51.69315059999997,-29.141563299999973],[-51.69478379999999,-29.140244599999946],[-51.695416499999965,-29.14002089999998],[-51.69544369999994,-29.14026919999997],[-51.69547509999995,-29.097251399999966],[-51.69027519999998,-29.09748129999996],[-51.689201,-29.09708719999997],[-51.68841439999994,-29.097708599999972],[-51.688845199999946,-29.098107199999962],[-51.68836869999996,-29.099776599999917],[-51.68734789999996,-29.10029939999998],[-51.68691829999994,-29.101042299999957],[-51.68696059999997,-29.10158449999995],[-51.68611429999998,-29.102318],[-51.686379399999964,-29.10337269999997],[-51.686724799999986,-29.103763699999945],[-51.686874899999964,-29.104835799999936],[-51.68594239999993,-29.10592479999996],[-51.68593929999997,-29.10761],[-51.68548709999993,-29.108079099999948],[-51.68416389999993,-29.108616299999944],[-51.683650399999976,-29.109090199999976],[-51.684616699999935,-29.110763199999948],[-51.68455719999998,-29.11143809999993],[-51.68432449999995,-29.11182049999997],[-51.683843699999954,-29.11181949999997],[-51.68138989999994,-29.11269759999993],[-51.681178699999975,-29.113619899999954],[-51.681809,-29.115087099999986],[-51.68180849999994,-29.115871699999946],[-51.680728,-29.11630919999994],[-51.680026099999964,-29.117163699999928],[-51.67894869999997,-29.117954],[-51.677467899999954,-29.117722799999964],[-51.676857,-29.11793329999995],[-51.675720799999965,-29.118937],[-51.67480949999998,-29.119061299999945],[-51.673138,-29.119983599999948],[-51.67148409999999,-29.121520599999936],[-51.67011089999994,-29.12351959999995],[-51.670008799999955,-29.126524399999926],[-51.669390299999975,-29.128744499999986],[-51.67017369999997,-29.130148399999936],[-51.669460699999945,-29.13286339999997],[-51.67055159999995,-29.133601099999964],[-51.671167399999945,-29.13562979999994],[-51.67261019999996,-29.13627529999996],[-51.67454559999994,-29.137935],[-51.67412329999996,-29.140270899999962],[-51.67364379999998,-29.141414699999935],[-51.670246299999974,-29.142992299999953],[-51.667260099999964,-29.143828599999946],[-51.666115,-29.144733],[-51.66346409999995,-29.14538439999995],[-51.662580899999966,-29.146015299999924],[-51.66496889999997,-29.146576899999964],[-51.66567679999997,-29.146934499999926],[-51.66586179999995,-29.147778399999932],[-51.66549149999997,-29.149499299999945],[-51.66636269999998,-29.149697499999963],[-51.66809139999998,-29.148801599999967],[-51.66849629999995,-29.148788399999937],[-51.669476599999946,-29.150449799999933],[-51.66988319999996,-29.151688099999937]]]}},{"type":"Feature","properties":{"setor":"431238505000007","pop":116,"sigilo_pop":false,"dom":68,"sigilo_dom":0,"mulheres":58,"sigilo_mulheres":0,"c0_4":null,"sigilo_c0_4":1,"c5_9":9,"sigilo_c5_9":0,"i60_69":23,"sigilo_i60_69":0,"i70m":25,"sigilo_i70m":0,"indigenas":0,"sigilo_indigenas":0,"pretos_pardos":6,"sigilo_pretos_pardos":0,"dom_ocupados":43,"sigilo_dom_ocupados":0,"dom_agua":36,"sigilo_dom_agua":0,"dom_esgoto":0,"sigilo_dom_esgoto":0,"renda_resp":3948.84,"sigilo_renda_resp":0,"n_resp":43,"sigilo_n_resp":0,"dens":26.0,"sigilo_dens":false,"na_bacia":1,"area_pct_bacia":100.0,"metodo_recorte_bacia":"ponto_representativo_setor_2022; area_pct_geometrica","pop_n_validos":1,"pop_n_total":1,"pop_completude":1.0,"dom_n_validos":1,"dom_n_total":1,"dom_completude":1.0,"dom_ocupados_n_validos":1,"dom_ocupados_n_total":1,"dom_ocupados_completude":1.0,"mulheres_n_validos":1,"mulheres_n_total":1,"mulheres_completude":1.0,"c0_4_n_validos":0,"c0_4_n_total":1,"c0_4_completude":0.0,"c5_9_n_validos":1,"c5_9_n_total":1,"c5_9_completude":1.0,"i60_69_n_validos":1,"i60_69_n_total":1,"i60_69_completude":1.0,"i70m_n_validos":1,"i70m_n_total":1,"i70m_completude":1.0,"indigenas_n_validos":1,"indigenas_n_total":1,"indigenas_completude":1.0,"pretos_pardos_n_validos":1,"pretos_pardos_n_total":1,"pretos_pardos_completude":1.0,"dom_agua_n_validos":1,"dom_agua_n_total":1,"dom_agua_completude":1.0,"dom_esgoto_n_validos":1,"dom_esgoto_n_total":1,"dom_esgoto_completude":1.0,"n_resp_n_validos":1,"n_resp_n_total":1,"n_resp_completude":1.0,"renda_resp_n_validos":1,"renda_resp_n_total":1,"renda_resp_completude":1.0,"dens_n_validos":1,"dens_n_total":1,"dens_completude":1.0,"status_borda_bacia":"total","metodo_area_bacia":"interseção geométrica em EPSG:5880","metodo_na_bacia":"ponto_representativo_setor_2022_within_bacia","municipio":"Monte Belo do Sul","cod_mun":"4312385","mun_pct_na_bacia":100.0,"mun_pop_total":2557,"mun_pop_na_bacia":2557.0,"mun_ubs_iede":1,"mun_hospitais_iede":null,"mun_escolas_iede":4,"mun_bombeiros_iede":null,"mun_servicos_cobertura":"cadastro_IEDE_parcial_nao_inventario","mun_icm_faixa":"D","mun_icm_pontos":7,"mun_icm_prioritario":"não","mun_ubs_iede_status":"published","mun_hospitais_iede_status":"unknown","mun_escolas_iede_status":"published","mun_bombeiros_iede_status":"unknown"},"geometry":{"type":"Polygon","coordinates":[[[-51.64968689999995,-29.162800099999963],[-51.64967749999994,-29.16345509999996],[-51.64866509999996,-29.163443599999923],[-51.648076,-29.163945199999944],[-51.64693759999995,-29.163452],[-51.646923,-29.16440869999996],[-51.644043599999975,-29.164377499999937],[-51.64382039999998,-29.16817669999994],[-51.62955629999994,-29.167957299999955],[-51.629428,-29.172217899999968],[-51.62560079999997,-29.172019099999947],[-51.624655599999976,-29.17131019999994],[-51.62441209999997,-29.17046339999995],[-51.624486099999956,-29.172622099999952],[-51.62372929999999,-29.173299],[-51.62253479999998,-29.17536739999997],[-51.622419,-29.17778539999994],[-51.623470199999986,-29.177671199999956],[-51.62493629999995,-29.17640879999993],[-51.62763439999998,-29.176265199999925],[-51.628303399999936,-29.175796699999967],[-51.629262799999935,-29.175845],[-51.630821699999956,-29.17701289999997],[-51.630955,-29.17804809999994],[-51.633217,-29.177804],[-51.63434769999998,-29.17729919999993],[-51.63503869999994,-29.177853299999988],[-51.63681069999995,-29.178024099999963],[-51.637081799999976,-29.179376299999948],[-51.637736299999965,-29.179527299999954],[-51.642765499999946,-29.177317],[-51.643650399999956,-29.177336499999964],[-51.644645299999986,-29.177732],[-51.647523699999965,-29.17824509999997],[-51.64824519999997,-29.17814849999996],[-51.64914349999998,-29.177429399999927],[-51.650575299999964,-29.177067799999968],[-51.652291299999945,-29.177090299999975],[-51.65560159999996,-29.177698899999935],[-51.65708079999995,-29.176595],[-51.66059179999996,-29.17699019999998],[-51.66382889999995,-29.17620639999995],[-51.66553139999997,-29.17623019999996],[-51.665557399999955,-29.16849829999995],[-51.66372,-29.16842569999994],[-51.66304969999994,-29.167847299999952],[-51.66241279999997,-29.168632699999936],[-51.66198519999995,-29.168243599999972],[-51.661841399999965,-29.167682199999938],[-51.66124689999997,-29.167814399999934],[-51.66050769999999,-29.167212899999974],[-51.65889219999997,-29.16662039999994],[-51.65782389999998,-29.16678229999996],[-51.65650849999997,-29.167321299999976],[-51.65558889999995,-29.166853199999935],[-51.653821499999935,-29.166422299999965],[-51.65294559999995,-29.165969199999953],[-51.65223969999994,-29.165052299999957],[-51.65134119999993,-29.162445199999986],[-51.64968689999995,-29.162800099999963]]]}},{"type":"Feature","properties":{"setor":"431238505000009","pop":416,"sigilo_pop":false,"dom":199,"sigilo_dom":0,"mulheres":224,"sigilo_mulheres":0,"c0_4":21,"sigilo_c0_4":0,"c5_9":11,"sigilo_c5_9":0,"i60_69":82,"sigilo_i60_69":0,"i70m":83,"sigilo_i70m":0,"indigenas":0,"sigilo_indigenas":0,"pretos_pardos":10,"sigilo_pretos_pardos":0,"dom_ocupados":144,"sigilo_dom_ocupados":0,"dom_agua":127,"sigilo_dom_agua":0,"dom_esgoto":0,"sigilo_dom_esgoto":0,"renda_resp":2935.42,"sigilo_renda_resp":0,"n_resp":144,"sigilo_n_resp":0,"dens":29.2,"sigilo_dens":false,"na_bacia":1,"area_pct_bacia":100.0,"metodo_recorte_bacia":"ponto_representativo_setor_2022; area_pct_geometrica","pop_n_validos":1,"pop_n_total":1,"pop_completude":1.0,"dom_n_validos":1,"dom_n_total":1,"dom_completude":1.0,"dom_ocupados_n_validos":1,"dom_ocupados_n_total":1,"dom_ocupados_completude":1.0,"mulheres_n_validos":1,"mulheres_n_total":1,"mulheres_completude":1.0,"c0_4_n_validos":1,"c0_4_n_total":1,"c0_4_completude":1.0,"c5_9_n_validos":1,"c5_9_n_total":1,"c5_9_completude":1.0,"i60_69_n_validos":1,"i60_69_n_total":1,"i60_69_completude":1.0,"i70m_n_validos":1,"i70m_n_total":1,"i70m_completude":1.0,"indigenas_n_validos":1,"indigenas_n_total":1,"indigenas_completude":1.0,"pretos_pardos_n_validos":1,"pretos_pardos_n_total":1,"pretos_pardos_completude":1.0,"dom_agua_n_validos":1,"dom_agua_n_total":1,"dom_agua_completude":1.0,"dom_esgoto_n_validos":1,"dom_esgoto_n_total":1,"dom_esgoto_completude":1.0,"n_resp_n_validos":1,"n_resp_n_total":1,"n_resp_completude":1.0,"renda_resp_n_validos":1,"renda_resp_n_total":1,"renda_resp_completude":1.0,"dens_n_validos":1,"dens_n_total":1,"dens_completude":1.0,"status_borda_bacia":"total","metodo_area_bacia":"interseção geométrica em EPSG:5880","metodo_na_bacia":"ponto_representativo_setor_2022_within_bacia","municipio":"Monte Belo do Sul","cod_mun":"4312385","mun_pct_na_bacia":100.0,"mun_pop_total":2557,"mun_pop_na_bacia":2557.0,"mun_ubs_iede":1,"mun_hospitais_iede":null,"mun_escolas_iede":4,"mun_bombeiros_iede":null,"mun_servicos_cobertura":"cadastro_IEDE_parcial_nao_inventario","mun_icm_faixa":"D","mun_icm_pontos":7,"mun_icm_prioritario":"não","mun_ubs_iede_status":"published","mun_hospitais_iede_status":"unknown","mun_escolas_iede_status":"published","mun_bombeiros_iede_status":"unknown"},"geometry":{"type":"Polygon","coordinates":[[[-51.668765099999966,-29.09367159999994],[-51.66676579999995,-29.094546699999974],[-51.665147699999984,-29.09622729999995],[-51.6637674,-29.09680319999994],[-51.66294969999996,-29.097447499999916],[-51.66274669999996,-29.097889699999936],[-51.66368419999998,-29.100079399999963],[-51.66680939999998,-29.10114779999998],[-51.66760709999994,-29.101718],[-51.667620699999986,-29.103216199999956],[-51.66817759999998,-29.104092499999982],[-51.66787869999997,-29.105637399999974],[-51.66693259999994,-29.106616299999917],[-51.66647829999994,-29.10668489999995],[-51.66536589999998,-29.106222499999944],[-51.664678199999976,-29.106446899999987],[-51.664495,-29.106817199999963],[-51.66458939999995,-29.107256799999956],[-51.665293199999944,-29.107633699999948],[-51.665810199999946,-29.109466799999954],[-51.666528299999975,-29.110138299999964],[-51.666530099999925,-29.11051239999995],[-51.66558459999993,-29.11056429999995],[-51.663083299999975,-29.11335839999998],[-51.66124179999998,-29.113990699999924],[-51.66057049999995,-29.114901299999936],[-51.659746299999945,-29.115439099999946],[-51.657498299999986,-29.117691699999966],[-51.65731439999996,-29.118087799999945],[-51.65764269999994,-29.11897859999994],[-51.657541599999945,-29.12000909999995],[-51.65637939999993,-29.12151909999995],[-51.65441109999995,-29.12250219999993],[-51.65239769999994,-29.12267939999998],[-51.64888419999995,-29.1236747],[-51.647801,-29.12511679999994],[-51.64778929999995,-29.12616209999993],[-51.64885629999998,-29.126820399999918],[-51.6496863,-29.128345299999978],[-51.65019839999997,-29.128429499999967],[-51.65134779999995,-29.1276372],[-51.65225189999996,-29.12779079999996],[-51.654202199999986,-29.130335],[-51.653203,-29.131627899999945],[-51.65227769999996,-29.132309],[-51.652467399999985,-29.13443259999996],[-51.65055129999997,-29.13615489999995],[-51.64956779999994,-29.136118299999957],[-51.648659399999985,-29.136513099999952],[-51.64793209999994,-29.136025],[-51.64702959999993,-29.136254],[-51.64692649999996,-29.13650819999998],[-51.64731579999995,-29.137442499999956],[-51.647045,-29.1382268],[-51.647358199999985,-29.13903409999994],[-51.647082299999965,-29.13997769999997],[-51.64628509999995,-29.140213099999983],[-51.64556639999995,-29.14081709999994],[-51.64493539999995,-29.140928399999947],[-51.644442899999945,-29.141564599999988],[-51.64540939999995,-29.142099699999957],[-51.645597,-29.142716599999964],[-51.644939499999964,-29.144276699999978],[-51.64337519999997,-29.145688199999924],[-51.642979099999934,-29.14636649999994],[-51.642315199999985,-29.148453099999987],[-51.64223249999998,-29.149651899999967],[-51.64322629999998,-29.152007199999968],[-51.642827899999986,-29.154362599999953],[-51.64418269999993,-29.154295099999956],[-51.64659689999996,-29.15498559999998],[-51.648963099999946,-29.154662399999953],[-51.6502086,-29.15475049999998],[-51.65243239999995,-29.155330399999972],[-51.655485,-29.153572299999958],[-51.65686579999993,-29.153861],[-51.659532199999944,-29.153074599999965],[-51.660791,-29.153288],[-51.66208289999998,-29.153205],[-51.664793,-29.15213959999994],[-51.66585679999998,-29.15205669999994],[-51.66796629999993,-29.151392299999944],[-51.66988319999996,-29.151688099999937],[-51.669476599999946,-29.150449799999933],[-51.66849629999995,-29.148788399999937],[-51.66809139999998,-29.148801599999967],[-51.66636269999998,-29.149697499999963],[-51.66549149999997,-29.149499299999945],[-51.66586179999995,-29.147778399999932],[-51.66567679999997,-29.146934499999926],[-51.66496889999997,-29.146576899999964],[-51.662580899999966,-29.146015299999924],[-51.66346409999995,-29.14538439999995],[-51.666115,-29.144733],[-51.667260099999964,-29.143828599999946],[-51.670246299999974,-29.142992299999953],[-51.67364379999998,-29.141414699999935],[-51.67412329999996,-29.140270899999962],[-51.67454559999994,-29.137935],[-51.67261019999996,-29.13627529999996],[-51.671167399999945,-29.13562979999994],[-51.67055159999995,-29.133601099999964],[-51.669460699999945,-29.13286339999997],[-51.67017369999997,-29.130148399999936],[-51.669390299999975,-29.128744499999986],[-51.670008799999955,-29.126524399999926],[-51.67011089999994,-29.12351959999995],[-51.67148409999999,-29.121520599999936],[-51.673138,-29.119983599999948],[-51.67480949999998,-29.119061299999945],[-51.675720799999965,-29.118937],[-51.676857,-29.11793329999995],[-51.677467899999954,-29.117722799999964],[-51.67894869999997,-29.117954],[-51.680026099999964,-29.117163699999928],[-51.680728,-29.11630919999994],[-51.68180849999994,-29.115871699999946],[-51.681809,-29.115087099999986],[-51.681178699999975,-29.113619899999954],[-51.68138989999994,-29.11269759999993],[-51.683843699999954,-29.11181949999997],[-51.68432449999995,-29.11182049999997],[-51.68455719999998,-29.11143809999993],[-51.684616699999935,-29.110763199999948],[-51.683650399999976,-29.109090199999976],[-51.68416389999993,-29.108616299999944],[-51.68548709999993,-29.108079099999948],[-51.68593929999997,-29.10761],[-51.68594239999993,-29.10592479999996],[-51.686874899999964,-29.104835799999936],[-51.686724799999986,-29.103763699999945],[-51.686379399999964,-29.10337269999997],[-51.68611429999998,-29.102318],[-51.68696059999997,-29.10158449999995],[-51.68691829999994,-29.101042299999957],[-51.68734789999996,-29.10029939999998],[-51.68836869999996,-29.099776599999917],[-51.688845199999946,-29.098107199999962],[-51.68841439999994,-29.097708599999972],[-51.689201,-29.09708719999997],[-51.68608879999994,-29.095945499999964],[-51.68254549999995,-29.09189559999994],[-51.681712599999976,-29.088989899999948],[-51.67227639999992,-29.088666099999944],[-51.67240409999994,-29.09367349999997],[-51.668765099999966,-29.09367159999994]]]}},{"type":"Feature","properties":{"setor":"431238505000010","pop":52,"sigilo_pop":false,"dom":17,"sigilo_dom":0,"mulheres":29,"sigilo_mulheres":0,"c0_4":4,"sigilo_c0_4":0,"c5_9":null,"sigilo_c5_9":1,"i60_69":null,"sigilo_i60_69":1,"i70m":null,"sigilo_i70m":1,"indigenas":0,"sigilo_indigenas":0,"pretos_pardos":null,"sigilo_pretos_pardos":1,"dom_ocupados":16,"sigilo_dom_ocupados":0,"dom_agua":9,"sigilo_dom_agua":0,"dom_esgoto":0,"sigilo_dom_esgoto":0,"renda_resp":4215.5,"sigilo_renda_resp":0,"n_resp":16,"sigilo_n_resp":0,"dens":33.3,"sigilo_dens":false,"na_bacia":1,"area_pct_bacia":100.0,"metodo_recorte_bacia":"ponto_representativo_setor_2022; area_pct_geometrica","pop_n_validos":1,"pop_n_total":1,"pop_completude":1.0,"dom_n_validos":1,"dom_n_total":1,"dom_completude":1.0,"dom_ocupados_n_validos":1,"dom_ocupados_n_total":1,"dom_ocupados_completude":1.0,"mulheres_n_validos":1,"mulheres_n_total":1,"mulheres_completude":1.0,"c0_4_n_validos":1,"c0_4_n_total":1,"c0_4_completude":1.0,"c5_9_n_validos":0,"c5_9_n_total":1,"c5_9_completude":0.0,"i60_69_n_validos":0,"i60_69_n_total":1,"i60_69_completude":0.0,"i70m_n_validos":0,"i70m_n_total":1,"i70m_completude":0.0,"indigenas_n_validos":1,"indigenas_n_total":1,"indigenas_completude":1.0,"pretos_pardos_n_validos":0,"pretos_pardos_n_total":1,"pretos_pardos_completude":0.0,"dom_agua_n_validos":1,"dom_agua_n_total":1,"dom_agua_completude":1.0,"dom_esgoto_n_validos":1,"dom_esgoto_n_total":1,"dom_esgoto_completude":1.0,"n_resp_n_validos":1,"n_resp_n_total":1,"n_resp_completude":1.0,"renda_resp_n_validos":1,"renda_resp_n_total":1,"renda_resp_completude":1.0,"dens_n_validos":1,"dens_n_total":1,"dens_completude":1.0,"status_borda_bacia":"total","metodo_area_bacia":"interseção geométrica em EPSG:5880","metodo_na_bacia":"ponto_representativo_setor_2022_within_bacia","municipio":"Monte Belo do Sul","cod_mun":"4312385","mun_pct_na_bacia":100.0,"mun_pop_total":2557,"mun_pop_na_bacia":2557.0,"mun_ubs_iede":1,"mun_hospitais_iede":null,"mun_escolas_iede":4,"mun_bombeiros_iede":null,"mun_servicos_cobertura":"cadastro_IEDE_parcial_nao_inventario","mun_icm_faixa":"D","mun_icm_pontos":7,"mun_icm_prioritario":"não","mun_ubs_iede_status":"published","mun_hospitais_iede_status":"unknown","mun_escolas_iede_status":"published","mun_bombeiros_iede_status":"unknown"},"geometry":{"type":"Polygon","coordinates":[[[-51.632552799999985,-29.187889599999952],[-51.63215729999996,-29.187814],[-51.63213239999993,-29.18735259999994],[-51.63067569999998,-29.185846099999942],[-51.62922549999996,-29.18512619999995],[-51.62909069999995,-29.18427589999993],[-51.62840529999993,-29.183081299999966],[-51.62745659999996,-29.182592],[-51.62483459999998,-29.179830599999956],[-51.62369619999998,-29.17952849999994],[-51.62237849999997,-29.17985089999996],[-51.62172719999995,-29.179402799999924],[-51.62239119999998,-29.178751199999965],[-51.62253479999998,-29.17536739999997],[-51.62372929999999,-29.173299],[-51.624486099999956,-29.172622099999952],[-51.62430259999997,-29.16997679999997],[-51.623211,-29.17002],[-51.61929889999993,-29.17124569999994],[-51.618282499999964,-29.172187699999935],[-51.616758199999936,-29.17210589999997],[-51.61677229999998,-29.167327899999968],[-51.616651899999965,-29.187239699999957],[-51.62548049999998,-29.18718949999994],[-51.632552799999985,-29.187889599999952]]]}},{"type":"Feature","properties":{"setor":"431238505000013","pop":802,"sigilo_pop":false,"dom":375,"sigilo_dom":0,"mulheres":418,"sigilo_mulheres":0,"c0_4":38,"sigilo_c0_4":0,"c5_9":27,"sigilo_c5_9":0,"i60_69":112,"sigilo_i60_69":0,"i70m":145,"sigilo_i70m":0,"indigenas":0,"sigilo_indigenas":0,"pretos_pardos":44,"sigilo_pretos_pardos":0,"dom_ocupados":317,"sigilo_dom_ocupados":0,"dom_agua":314,"sigilo_dom_agua":0,"dom_esgoto":null,"sigilo_dom_esgoto":1,"renda_resp":3579.63,"sigilo_renda_resp":0,"n_resp":317,"sigilo_n_resp":0,"dens":217.9,"sigilo_dens":false,"na_bacia":1,"area_pct_bacia":100.0,"metodo_recorte_bacia":"ponto_representativo_setor_2022; area_pct_geometrica","pop_n_validos":1,"pop_n_total":1,"pop_completude":1.0,"dom_n_validos":1,"dom_n_total":1,"dom_completude":1.0,"dom_ocupados_n_validos":1,"dom_ocupados_n_total":1,"dom_ocupados_completude":1.0,"mulheres_n_validos":1,"mulheres_n_total":1,"mulheres_completude":1.0,"c0_4_n_validos":1,"c0_4_n_total":1,"c0_4_completude":1.0,"c5_9_n_validos":1,"c5_9_n_total":1,"c5_9_completude":1.0,"i60_69_n_validos":1,"i60_69_n_total":1,"i60_69_completude":1.0,"i70m_n_validos":1,"i70m_n_total":1,"i70m_completude":1.0,"indigenas_n_validos":1,"indigenas_n_total":1,"indigenas_completude":1.0,"pretos_pardos_n_validos":1,"pretos_pardos_n_total":1,"pretos_pardos_completude":1.0,"dom_agua_n_validos":1,"dom_agua_n_total":1,"dom_agua_completude":1.0,"dom_esgoto_n_validos":0,"dom_esgoto_n_total":1,"dom_esgoto_completude":0.0,"n_resp_n_validos":1,"n_resp_n_total":1,"n_resp_completude":1.0,"renda_resp_n_validos":1,"renda_resp_n_total":1,"renda_resp_completude":1.0,"dens_n_validos":1,"dens_n_total":1,"dens_completude":1.0,"status_borda_bacia":"total","metodo_area_bacia":"interseção geométrica em EPSG:5880","metodo_na_bacia":"ponto_representativo_setor_2022_within_bacia","municipio":"Monte Belo do Sul","cod_mun":"4312385","mun_pct_na_bacia":100.0,"mun_pop_total":2557,"mun_pop_na_bacia":2557.0,"mun_ubs_iede":1,"mun_hospitais_iede":null,"mun_escolas_iede":4,"mun_bombeiros_iede":null,"mun_servicos_cobertura":"cadastro_IEDE_parcial_nao_inventario","mun_icm_faixa":"D","mun_icm_pontos":7,"mun_icm_prioritario":"não","mun_ubs_iede_status":"published","mun_hospitais_iede_status":"unknown","mun_escolas_iede_status":"published","mun_bombeiros_iede_status":"unknown"},"geometry":{"type":"Polygon","coordinates":[[[-51.61533759999998,-29.16728239999997],[-51.616772699999956,-29.1672617],[-51.616758199999936,-29.17210589999997],[-51.618282499999964,-29.172187699999935],[-51.61929889999993,-29.17124569999994],[-51.6240102,-29.16986259999993],[-51.624355499999986,-29.17008809999992],[-51.624655599999976,-29.17131019999994],[-51.62560079999997,-29.172019099999947],[-51.629428,-29.172217899999968],[-51.62955629999994,-29.167957299999955],[-51.64382039999998,-29.16817669999994],[-51.644043599999975,-29.164377499999937],[-51.646923,-29.16440869999996],[-51.64693759999995,-29.163452],[-51.64791089999995,-29.163961],[-51.64866509999996,-29.163443599999923],[-51.64967749999994,-29.16345509999996],[-51.64970109999996,-29.161407899999972],[-51.64692449999996,-29.16136719999998],[-51.646853,-29.15823],[-51.63782359999993,-29.1580532],[-51.637994799999944,-29.152533599999977],[-51.62664449999994,-29.152456099999945],[-51.62655329999996,-29.156614799999947],[-51.629768499999955,-29.157243],[-51.62979229999996,-29.161141899999954],[-51.62697659999997,-29.161743499999947],[-51.62495939999997,-29.163065699999958],[-51.624369299999955,-29.16274819999995],[-51.621415199999944,-29.163082699999965],[-51.62054889999996,-29.16304539999993],[-51.620323,-29.16284429999996],[-51.61844019999995,-29.16284649999995],[-51.61839029999994,-29.164814299999936],[-51.61535619999996,-29.164701899999947],[-51.61533759999998,-29.16728239999997]]]}},{"type":"Feature","properties":{"setor":"431238505000014","pop":324,"sigilo_pop":false,"dom":151,"sigilo_dom":0,"mulheres":144,"sigilo_mulheres":0,"c0_4":12,"sigilo_c0_4":0,"c5_9":13,"sigilo_c5_9":0,"i60_69":51,"sigilo_i60_69":0,"i70m":55,"sigilo_i70m":0,"indigenas":3,"sigilo_indigenas":0,"pretos_pardos":null,"sigilo_pretos_pardos":1,"dom_ocupados":106,"sigilo_dom_ocupados":0,"dom_agua":95,"sigilo_dom_agua":0,"dom_esgoto":0,"sigilo_dom_esgoto":0,"renda_resp":2486.57,"sigilo_renda_resp":0,"n_resp":106,"sigilo_n_resp":0,"dens":23.9,"sigilo_dens":false,"na_bacia":1,"area_pct_bacia":100.0,"metodo_recorte_bacia":"ponto_representativo_setor_2022; area_pct_geometrica","pop_n_validos":1,"pop_n_total":1,"pop_completude":1.0,"dom_n_validos":1,"dom_n_total":1,"dom_completude":1.0,"dom_ocupados_n_validos":1,"dom_ocupados_n_total":1,"dom_ocupados_completude":1.0,"mulheres_n_validos":1,"mulheres_n_total":1,"mulheres_completude":1.0,"c0_4_n_validos":1,"c0_4_n_total":1,"c0_4_completude":1.0,"c5_9_n_validos":1,"c5_9_n_total":1,"c5_9_completude":1.0,"i60_69_n_validos":1,"i60_69_n_total":1,"i60_69_completude":1.0,"i70m_n_validos":1,"i70m_n_total":1,"i70m_completude":1.0,"indigenas_n_validos":1,"indigenas_n_total":1,"indigenas_completude":1.0,"pretos_pardos_n_validos":0,"pretos_pardos_n_total":1,"pretos_pardos_completude":0.0,"dom_agua_n_validos":1,"dom_agua_n_total":1,"dom_agua_completude":1.0,"dom_esgoto_n_validos":1,"dom_esgoto_n_total":1,"dom_esgoto_completude":1.0,"n_resp_n_validos":1,"n_resp_n_total":1,"n_resp_completude":1.0,"renda_resp_n_validos":1,"renda_resp_n_total":1,"renda_resp_completude":1.0,"dens_n_validos":1,"dens_n_total":1,"dens_completude":1.0,"status_borda_bacia":"total","metodo_area_bacia":"interseção geométrica em EPSG:5880","metodo_na_bacia":"ponto_representativo_setor_2022_within_bacia","municipio":"Monte Belo do Sul","cod_mun":"4312385","mun_pct_na_bacia":100.0,"mun_pop_total":2557,"mun_pop_na_bacia":2557.0,"mun_ubs_iede":1,"mun_hospitais_iede":null,"mun_escolas_iede":4,"mun_bombeiros_iede":null,"mun_servicos_cobertura":"cadastro_IEDE_parcial_nao_inventario","mun_icm_faixa":"D","mun_icm_pontos":7,"mun_icm_prioritario":"não","mun_ubs_iede_status":"published","mun_hospitais_iede_status":"unknown","mun_escolas_iede_status":"published","mun_bombeiros_iede_status":"unknown"},"geometry":{"type":"Polygon","coordinates":[[[-51.649196699999955,-29.099017199999935],[-51.63765649999994,-29.09909139999995],[-51.63767829999995,-29.109695399999957],[-51.633874099999964,-29.109763099999952],[-51.634165,-29.109774799999958],[-51.63350609999998,-29.110485],[-51.63257149999998,-29.11094449999996],[-51.632181799999955,-29.111551599999927],[-51.633722199999966,-29.115053299999943],[-51.632907899999964,-29.117449899999947],[-51.63437619999996,-29.11911309999992],[-51.63520469999998,-29.119631499999976],[-51.63537349999996,-29.120771599999944],[-51.6348488,-29.12097549999993],[-51.63190179999999,-29.121032099999976],[-51.63087119999995,-29.122201299999965],[-51.62839379999997,-29.12249259999993],[-51.62788639999996,-29.122783299999977],[-51.627695399999936,-29.124164299999954],[-51.628609899999965,-29.125312399999924],[-51.629898099999934,-29.12631279999993],[-51.631378,-29.126639],[-51.63219849999996,-29.127302199999985],[-51.63213539999999,-29.13023859999994],[-51.631495499999964,-29.130635099999946],[-51.630835899999965,-29.130510499999957],[-51.63004319999993,-29.13280769999994],[-51.63021509999999,-29.134579199999955],[-51.63138089999996,-29.135199299999954],[-51.63180639999996,-29.135736499999947],[-51.63164439999997,-29.13727139999997],[-51.63202529999995,-29.137822299999982],[-51.63197969999993,-29.138289899999958],[-51.63163089999995,-29.138757],[-51.63079869999996,-29.139073299999936],[-51.62965809999997,-29.138886499999956],[-51.62864019999995,-29.13793069999997],[-51.62825949999995,-29.138243699999972],[-51.629362599999986,-29.13999],[-51.62968429999996,-29.141677099999974],[-51.630576,-29.14225259999995],[-51.63037429999997,-29.14321119999994],[-51.63049829999994,-29.14398379999995],[-51.631564699999956,-29.145236499999957],[-51.63275149999998,-29.14815589999995],[-51.63278749999994,-29.14879919999992],[-51.63338359999995,-29.149497499999935],[-51.63256179999996,-29.151940199999963],[-51.63203439999996,-29.152503199999945],[-51.637994799999944,-29.152533599999977],[-51.63782359999993,-29.1580532],[-51.64009119999997,-29.158116099999972],[-51.64134519999994,-29.154726899999947],[-51.642827899999986,-29.154362599999953],[-51.64291049999997,-29.15418109999996],[-51.64320449999997,-29.151774599999953],[-51.64223249999998,-29.149651899999967],[-51.642315199999985,-29.148453099999987],[-51.642783099999974,-29.146776399999965],[-51.64337519999997,-29.145688199999924],[-51.64467609999997,-29.14458389999993],[-51.64538349999998,-29.14349409999994],[-51.645490699999975,-29.142186599999956],[-51.644463,-29.141712099999943],[-51.644506099999944,-29.141445399999963],[-51.64493539999995,-29.140928399999947],[-51.64556639999995,-29.14081709999994],[-51.64628509999995,-29.140213099999983],[-51.647082299999965,-29.13997769999997],[-51.647358199999985,-29.13903409999994],[-51.647045,-29.1382268],[-51.64731579999995,-29.137442499999956],[-51.64692649999996,-29.13650819999998],[-51.64702959999993,-29.136254],[-51.64793209999994,-29.136025],[-51.648659399999985,-29.136513099999952],[-51.64956779999994,-29.136118299999957],[-51.65055129999997,-29.13615489999995],[-51.652467399999985,-29.13443259999996],[-51.65227769999996,-29.132309],[-51.653203,-29.131627899999945],[-51.654202199999986,-29.130335],[-51.65225189999996,-29.12779079999996],[-51.65134779999995,-29.1276372],[-51.65019839999997,-29.128429499999967],[-51.6496863,-29.128345299999978],[-51.64885629999998,-29.126820399999918],[-51.64778929999995,-29.12616209999993],[-51.647757199999944,-29.125228],[-51.648133899999955,-29.124509499999924],[-51.64888419999995,-29.1236747],[-51.65239769999994,-29.12267939999998],[-51.65441109999995,-29.12250219999993],[-51.65637939999993,-29.12151909999995],[-51.657541599999945,-29.12000909999995],[-51.65764269999994,-29.11897859999994],[-51.65731439999996,-29.118087799999945],[-51.657498299999986,-29.117691699999966],[-51.659746299999945,-29.115439099999946],[-51.66057049999995,-29.114901299999936],[-51.66124179999998,-29.113990699999924],[-51.663083299999975,-29.11335839999998],[-51.66558459999993,-29.11056429999995],[-51.66657959999998,-29.110434399999974],[-51.665810199999946,-29.109466799999954],[-51.66524919999995,-29.10755649999994],[-51.66458939999995,-29.107256799999956],[-51.664495,-29.106817199999963],[-51.664678199999976,-29.106446899999987],[-51.66536589999998,-29.106222499999944],[-51.66647829999994,-29.10668489999995],[-51.66693259999994,-29.106616299999917],[-51.66787869999997,-29.105637399999974],[-51.66817759999998,-29.104092499999982],[-51.667620699999986,-29.103216199999956],[-51.66760709999994,-29.101718],[-51.66680939999998,-29.10114779999998],[-51.66368419999998,-29.100079399999963],[-51.66274669999996,-29.097889699999936],[-51.66294969999996,-29.097447499999916],[-51.6637674,-29.09680319999994],[-51.665147699999984,-29.09622729999995],[-51.66676579999995,-29.094546699999974],[-51.668765099999966,-29.09367159999994],[-51.649336,-29.093755199999976],[-51.649196699999955,-29.099017199999935]]]}},{"type":"Feature","properties":{"setor":"431238505000015","pop":252,"sigilo_pop":false,"dom":118,"sigilo_dom":0,"mulheres":129,"sigilo_mulheres":0,"c0_4":14,"sigilo_c0_4":0,"c5_9":7,"sigilo_c5_9":0,"i60_69":45,"sigilo_i60_69":0,"i70m":39,"sigilo_i70m":0,"indigenas":0,"sigilo_indigenas":0,"pretos_pardos":null,"sigilo_pretos_pardos":1,"dom_ocupados":86,"sigilo_dom_ocupados":0,"dom_agua":68,"sigilo_dom_agua":0,"dom_esgoto":0,"sigilo_dom_esgoto":0,"renda_resp":3061.43,"sigilo_renda_resp":0,"n_resp":86,"sigilo_n_resp":0,"dens":21.9,"sigilo_dens":false,"na_bacia":1,"area_pct_bacia":100.0,"metodo_recorte_bacia":"ponto_representativo_setor_2022; area_pct_geometrica","pop_n_validos":1,"pop_n_total":1,"pop_completude":1.0,"dom_n_validos":1,"dom_n_total":1,"dom_completude":1.0,"dom_ocupados_n_validos":1,"dom_ocupados_n_total":1,"dom_ocupados_completude":1.0,"mulheres_n_validos":1,"mulheres_n_total":1,"mulheres_completude":1.0,"c0_4_n_validos":1,"c0_4_n_total":1,"c0_4_completude":1.0,"c5_9_n_validos":1,"c5_9_n_total":1,"c5_9_completude":1.0,"i60_69_n_validos":1,"i60_69_n_total":1,"i60_69_completude":1.0,"i70m_n_validos":1,"i70m_n_total":1,"i70m_completude":1.0,"indigenas_n_validos":1,"indigenas_n_total":1,"indigenas_completude":1.0,"pretos_pardos_n_validos":0,"pretos_pardos_n_total":1,"pretos_pardos_completude":0.0,"dom_agua_n_validos":1,"dom_agua_n_total":1,"dom_agua_completude":1.0,"dom_esgoto_n_validos":1,"dom_esgoto_n_total":1,"dom_esgoto_completude":1.0,"n_resp_n_validos":1,"n_resp_n_total":1,"n_resp_completude":1.0,"renda_resp_n_validos":1,"renda_resp_n_total":1,"renda_resp_completude":1.0,"dens_n_validos":1,"dens_n_total":1,"dens_completude":1.0,"status_borda_bacia":"total","metodo_area_bacia":"interseção geométrica em EPSG:5880","metodo_na_bacia":"ponto_representativo_setor_2022_within_bacia","municipio":"Monte Belo do Sul","cod_mun":"4312385","mun_pct_na_bacia":100.0,"mun_pop_total":2557,"mun_pop_na_bacia":2557.0,"mun_ubs_iede":1,"mun_hospitais_iede":null,"mun_escolas_iede":4,"mun_bombeiros_iede":null,"mun_servicos_cobertura":"cadastro_IEDE_parcial_nao_inventario","mun_icm_faixa":"D","mun_icm_pontos":7,"mun_icm_prioritario":"não","mun_ubs_iede_status":"published","mun_hospitais_iede_status":"unknown","mun_escolas_iede_status":"published","mun_bombeiros_iede_status":"unknown"},"geometry":{"type":"Polygon","coordinates":[[[-51.603835499999946,-29.158219],[-51.58877469999994,-29.158248499999956],[-51.58843979999994,-29.167531299999954],[-51.61533759999998,-29.16728239999997],[-51.61535619999996,-29.164701899999947],[-51.61839029999994,-29.164814299999936],[-51.61844019999995,-29.16284649999995],[-51.620323,-29.16284429999996],[-51.62054889999996,-29.16304539999993],[-51.621415199999944,-29.163082699999965],[-51.624369299999955,-29.16274819999995],[-51.62495939999997,-29.163065699999958],[-51.62697659999997,-29.161743499999947],[-51.62979229999996,-29.161141899999954],[-51.629768499999955,-29.157243],[-51.62655329999996,-29.156614799999947],[-51.62664449999994,-29.152456099999945],[-51.63203439999996,-29.152503199999945],[-51.63256179999996,-29.151940199999963],[-51.633391699999954,-29.149609699999907],[-51.63278749999994,-29.14879919999992],[-51.63275149999998,-29.14815589999995],[-51.631564699999956,-29.145236499999957],[-51.63049829999994,-29.14398379999995],[-51.63037429999997,-29.14321119999994],[-51.630576,-29.14225259999995],[-51.62968429999996,-29.141677099999974],[-51.629362599999986,-29.13999],[-51.62825949999995,-29.138243699999972],[-51.62864019999995,-29.13793069999997],[-51.62965809999997,-29.138886499999956],[-51.63079869999996,-29.139073299999936],[-51.63163089999995,-29.138757],[-51.63197969999993,-29.138289899999958],[-51.63202529999995,-29.137822299999982],[-51.63164439999997,-29.13727139999997],[-51.63180639999996,-29.135736499999947],[-51.63138089999996,-29.135199299999954],[-51.63021509999999,-29.134579199999955],[-51.63004319999993,-29.13280769999994],[-51.630835899999965,-29.130510499999957],[-51.631495499999964,-29.130635099999946],[-51.63213539999999,-29.13023859999994],[-51.632258899999954,-29.12823379999997],[-51.63210059999995,-29.127147599999947],[-51.631378,-29.126639],[-51.63010769999995,-29.12641379999996],[-51.62955249999993,-29.12610089999998],[-51.628609899999965,-29.125312399999924],[-51.62766949999997,-29.124053299999954],[-51.62808819999998,-29.122578899999954],[-51.63087119999995,-29.122201299999965],[-51.63190179999999,-29.121032099999976],[-51.6348488,-29.12097549999993],[-51.63537349999996,-29.120771599999944],[-51.63520469999998,-29.119631499999976],[-51.63437619999996,-29.11911309999992],[-51.632907899999964,-29.117449899999947],[-51.633722199999966,-29.115053299999943],[-51.632181799999955,-29.111551599999927],[-51.63257149999998,-29.11094449999996],[-51.63350609999998,-29.110485],[-51.634165,-29.109774799999958],[-51.626967599999944,-29.109886],[-51.626183699999956,-29.125088399999985],[-51.61504339999993,-29.12530019999995],[-51.61478209999996,-29.14479889999995],[-51.60408729999995,-29.14498689999993],[-51.603835499999946,-29.158219]]]}}]}
