{"type":"FeatureCollection","name":"4312054","crs":{"type":"name","properties":{"name":"urn:ogc:def:crs:OGC:1.3:CRS84"}},"features":[{"type":"Feature","properties":{"setor":"431205405000001","pop":639,"sigilo_pop":false,"dom":403,"sigilo_dom":0,"mulheres":343,"sigilo_mulheres":0,"c0_4":33,"sigilo_c0_4":0,"c5_9":41,"sigilo_c5_9":0,"i60_69":73,"sigilo_i60_69":0,"i70m":120,"sigilo_i70m":0,"indigenas":0,"sigilo_indigenas":0,"pretos_pardos":66,"sigilo_pretos_pardos":0,"dom_ocupados":279,"sigilo_dom_ocupados":0,"dom_agua":279,"sigilo_dom_agua":0,"dom_esgoto":4,"sigilo_dom_esgoto":0,"renda_resp":2702.72,"sigilo_renda_resp":0,"n_resp":279,"sigilo_n_resp":0,"dens":828.2,"sigilo_dens":false,"na_bacia":1,"area_pct_bacia":100.0,"metodo_recorte_bacia":"ponto_representativo_setor_2022; area_pct_geometrica","pop_n_validos":1,"pop_n_total":1,"pop_completude":1.0,"dom_n_validos":1,"dom_n_total":1,"dom_completude":1.0,"dom_ocupados_n_validos":1,"dom_ocupados_n_total":1,"dom_ocupados_completude":1.0,"mulheres_n_validos":1,"mulheres_n_total":1,"mulheres_completude":1.0,"c0_4_n_validos":1,"c0_4_n_total":1,"c0_4_completude":1.0,"c5_9_n_validos":1,"c5_9_n_total":1,"c5_9_completude":1.0,"i60_69_n_validos":1,"i60_69_n_total":1,"i60_69_completude":1.0,"i70m_n_validos":1,"i70m_n_total":1,"i70m_completude":1.0,"indigenas_n_validos":1,"indigenas_n_total":1,"indigenas_completude":1.0,"pretos_pardos_n_validos":1,"pretos_pardos_n_total":1,"pretos_pardos_completude":1.0,"dom_agua_n_validos":1,"dom_agua_n_total":1,"dom_agua_completude":1.0,"dom_esgoto_n_validos":1,"dom_esgoto_n_total":1,"dom_esgoto_completude":1.0,"n_resp_n_validos":1,"n_resp_n_total":1,"n_resp_completude":1.0,"renda_resp_n_validos":1,"renda_resp_n_total":1,"renda_resp_completude":1.0,"dens_n_validos":1,"dens_n_total":1,"dens_completude":1.0,"status_borda_bacia":"total","metodo_area_bacia":"interseção geométrica em EPSG:5880","metodo_na_bacia":"ponto_representativo_setor_2022_within_bacia","municipio":"Marques de Souza","cod_mun":"4312054","mun_pct_na_bacia":100.0,"mun_pop_total":3969,"mun_pop_na_bacia":3969.0,"mun_ubs_iede":2,"mun_hospitais_iede":1,"mun_escolas_iede":7,"mun_bombeiros_iede":1,"mun_servicos_cobertura":"cadastro_IEDE_parcial_nao_inventario","mun_icm_faixa":"C","mun_icm_pontos":13,"mun_icm_prioritario":"sim","mun_ubs_iede_status":"published","mun_hospitais_iede_status":"published","mun_escolas_iede_status":"published","mun_bombeiros_iede_status":"published"},"geometry":{"type":"Polygon","coordinates":[[[-52.101789199999985,-29.320592799999922],[-52.09758849999997,-29.322788699999936],[-52.09644169999996,-29.322881499999934],[-52.09225129999999,-29.321556399999963],[-52.091082,-29.321623499999927],[-52.09068049999997,-29.32264329999998],[-52.0905853,-29.32377909999996],[-52.09128339999995,-29.327277399999964],[-52.09077769999993,-29.328321499999955],[-52.09042709999994,-29.331202199999954],[-52.089983099999976,-29.332290699999927],[-52.09074679999997,-29.332423],[-52.09210449999995,-29.33218949999995],[-52.09246279999997,-29.332918299999967],[-52.09263269999997,-29.33249019999994],[-52.092233699999944,-29.33108949999995],[-52.093244,-29.329271099999968],[-52.09502439999994,-29.327917799999966],[-52.09598589999996,-29.328642299999956],[-52.099204,-29.326128699999973],[-52.10078,-29.32581349999998],[-52.10206409999995,-29.325016099999967],[-52.10230869999997,-29.323150199999922],[-52.102902399999955,-29.32134229999997],[-52.10252219999995,-29.32127809999997],[-52.10272219999996,-29.321004899999927],[-52.10226239999997,-29.320637],[-52.101789199999985,-29.320592799999922]]]}},{"type":"Feature","properties":{"setor":"431205405000002","pop":260,"sigilo_pop":false,"dom":118,"sigilo_dom":0,"mulheres":120,"sigilo_mulheres":0,"c0_4":18,"sigilo_c0_4":0,"c5_9":14,"sigilo_c5_9":0,"i60_69":30,"sigilo_i60_69":0,"i70m":32,"sigilo_i70m":0,"indigenas":0,"sigilo_indigenas":0,"pretos_pardos":null,"sigilo_pretos_pardos":1,"dom_ocupados":96,"sigilo_dom_ocupados":0,"dom_agua":63,"sigilo_dom_agua":0,"dom_esgoto":0,"sigilo_dom_esgoto":0,"renda_resp":2777.17,"sigilo_renda_resp":0,"n_resp":96,"sigilo_n_resp":0,"dens":22.4,"sigilo_dens":false,"na_bacia":1,"area_pct_bacia":100.0,"metodo_recorte_bacia":"ponto_representativo_setor_2022; area_pct_geometrica","pop_n_validos":1,"pop_n_total":1,"pop_completude":1.0,"dom_n_validos":1,"dom_n_total":1,"dom_completude":1.0,"dom_ocupados_n_validos":1,"dom_ocupados_n_total":1,"dom_ocupados_completude":1.0,"mulheres_n_validos":1,"mulheres_n_total":1,"mulheres_completude":1.0,"c0_4_n_validos":1,"c0_4_n_total":1,"c0_4_completude":1.0,"c5_9_n_validos":1,"c5_9_n_total":1,"c5_9_completude":1.0,"i60_69_n_validos":1,"i60_69_n_total":1,"i60_69_completude":1.0,"i70m_n_validos":1,"i70m_n_total":1,"i70m_completude":1.0,"indigenas_n_validos":1,"indigenas_n_total":1,"indigenas_completude":1.0,"pretos_pardos_n_validos":0,"pretos_pardos_n_total":1,"pretos_pardos_completude":0.0,"dom_agua_n_validos":1,"dom_agua_n_total":1,"dom_agua_completude":1.0,"dom_esgoto_n_validos":1,"dom_esgoto_n_total":1,"dom_esgoto_completude":1.0,"n_resp_n_validos":1,"n_resp_n_total":1,"n_resp_completude":1.0,"renda_resp_n_validos":1,"renda_resp_n_total":1,"renda_resp_completude":1.0,"dens_n_validos":1,"dens_n_total":1,"dens_completude":1.0,"status_borda_bacia":"total","metodo_area_bacia":"interseção geométrica em EPSG:5880","metodo_na_bacia":"ponto_representativo_setor_2022_within_bacia","municipio":"Marques de Souza","cod_mun":"4312054","mun_pct_na_bacia":100.0,"mun_pop_total":3969,"mun_pop_na_bacia":3969.0,"mun_ubs_iede":2,"mun_hospitais_iede":1,"mun_escolas_iede":7,"mun_bombeiros_iede":1,"mun_servicos_cobertura":"cadastro_IEDE_parcial_nao_inventario","mun_icm_faixa":"C","mun_icm_pontos":13,"mun_icm_prioritario":"sim","mun_ubs_iede_status":"published","mun_hospitais_iede_status":"published","mun_escolas_iede_status":"published","mun_bombeiros_iede_status":"published"},"geometry":{"type":"Polygon","coordinates":[[[-52.12726059999994,-29.343993],[-52.13096889999997,-29.351887599999948],[-52.13738249999995,-29.34763709999993],[-52.13759429999993,-29.345548099999977],[-52.138770699999945,-29.344161299999932],[-52.13919649999997,-29.34225689999994],[-52.140104,-29.342227599999944],[-52.142949699999974,-29.341329099999943],[-52.14362189999997,-29.34131939999996],[-52.14592979999998,-29.340284099999963],[-52.14592979999998,-29.339151199999947],[-52.14493269999997,-29.337578799999967],[-52.14485429999996,-29.337070899999954],[-52.14629959999997,-29.335176099999952],[-52.14660209999994,-29.33347659999998],[-52.14930209999994,-29.331923699999937],[-52.14977829999998,-29.330595299999963],[-52.149783899999925,-29.328983699999984],[-52.14939179999993,-29.327254799999942],[-52.14757679999997,-29.325682199999953],[-52.14671969999995,-29.32407529999995],[-52.146562899999935,-29.322922699999943],[-52.14607549999994,-29.322190099999936],[-52.14656289999993,-29.321486799999946],[-52.14805289999998,-29.320441599999985],[-52.14664389999996,-29.318408299999923],[-52.14592349999998,-29.31831969999995],[-52.14495379999994,-29.318537099999958],[-52.143199,-29.317466099999923],[-52.14140719999995,-29.317578899999955],[-52.141287199999965,-29.31674939999993],[-52.140612899999944,-29.31609709999998],[-52.14049289999997,-29.315638099999934],[-52.13965239999993,-29.315163],[-52.137971499999935,-29.314873099999936],[-52.136272099999985,-29.315364299999935],[-52.13487749999996,-29.314881099999976],[-52.13191279999995,-29.31546089999995],[-52.12977939999997,-29.314969699999953],[-52.125143,-29.314768399999934],[-52.11974009999995,-29.315171],[-52.118434599999944,-29.31555979999995],[-52.11839839999993,-29.316687799999944],[-52.11672029999994,-29.317248399999983],[-52.114423699999975,-29.31845469999996],[-52.11240379999998,-29.318945],[-52.110007899999964,-29.320299399999946],[-52.10873459999994,-29.321942799999928],[-52.10863349999995,-29.322506199999964],[-52.10857189999995,-29.323610499999972],[-52.10983689999994,-29.323907],[-52.10967369999997,-29.32431609999998],[-52.10797889999997,-29.32558909999994],[-52.10594579999998,-29.326020499999967],[-52.104482,-29.326736],[-52.10417149999995,-29.32959509999995],[-52.103656,-29.331334099999935],[-52.10248359999997,-29.333182699999952],[-52.100889299999956,-29.33459869999997],[-52.102236,-29.334898899999928],[-52.10281859999998,-29.335358],[-52.105709099999956,-29.336627699999937],[-52.107748199999946,-29.33701829999994],[-52.10929429999993,-29.336783899999947],[-52.10950719999994,-29.337462699999957],[-52.11070589999997,-29.339118199999977],[-52.11361889999995,-29.340153399999956],[-52.11429109999994,-29.340212],[-52.11515379999997,-29.339938599999986],[-52.116106099999975,-29.338844699999974],[-52.11765219999995,-29.338717799999987],[-52.11970249999996,-29.339284199999963],[-52.12027389999997,-29.339655299999947],[-52.12063239999998,-29.34031949999996],[-52.12170789999993,-29.341374199999965],[-52.12331,-29.342214199999948],[-52.12536309999996,-29.342692899999978],[-52.12726059999994,-29.343993]]]}},{"type":"Feature","properties":{"setor":"431205405000003","pop":141,"sigilo_pop":false,"dom":88,"sigilo_dom":0,"mulheres":67,"sigilo_mulheres":0,"c0_4":null,"sigilo_c0_4":1,"c5_9":null,"sigilo_c5_9":1,"i60_69":23,"sigilo_i60_69":0,"i70m":18,"sigilo_i70m":0,"indigenas":0,"sigilo_indigenas":0,"pretos_pardos":4,"sigilo_pretos_pardos":0,"dom_ocupados":56,"sigilo_dom_ocupados":0,"dom_agua":25,"sigilo_dom_agua":0,"dom_esgoto":null,"sigilo_dom_esgoto":1,"renda_resp":2752.83,"sigilo_renda_resp":0,"n_resp":56,"sigilo_n_resp":0,"dens":10.8,"sigilo_dens":false,"na_bacia":1,"area_pct_bacia":100.0,"metodo_recorte_bacia":"ponto_representativo_setor_2022; area_pct_geometrica","pop_n_validos":1,"pop_n_total":1,"pop_completude":1.0,"dom_n_validos":1,"dom_n_total":1,"dom_completude":1.0,"dom_ocupados_n_validos":1,"dom_ocupados_n_total":1,"dom_ocupados_completude":1.0,"mulheres_n_validos":1,"mulheres_n_total":1,"mulheres_completude":1.0,"c0_4_n_validos":0,"c0_4_n_total":1,"c0_4_completude":0.0,"c5_9_n_validos":0,"c5_9_n_total":1,"c5_9_completude":0.0,"i60_69_n_validos":1,"i60_69_n_total":1,"i60_69_completude":1.0,"i70m_n_validos":1,"i70m_n_total":1,"i70m_completude":1.0,"indigenas_n_validos":1,"indigenas_n_total":1,"indigenas_completude":1.0,"pretos_pardos_n_validos":1,"pretos_pardos_n_total":1,"pretos_pardos_completude":1.0,"dom_agua_n_validos":1,"dom_agua_n_total":1,"dom_agua_completude":1.0,"dom_esgoto_n_validos":0,"dom_esgoto_n_total":1,"dom_esgoto_completude":0.0,"n_resp_n_validos":1,"n_resp_n_total":1,"n_resp_completude":1.0,"renda_resp_n_validos":1,"renda_resp_n_total":1,"renda_resp_completude":1.0,"dens_n_validos":1,"dens_n_total":1,"dens_completude":1.0,"status_borda_bacia":"total","metodo_area_bacia":"interseção geométrica em EPSG:5880","metodo_na_bacia":"ponto_representativo_setor_2022_within_bacia","municipio":"Marques de Souza","cod_mun":"4312054","mun_pct_na_bacia":100.0,"mun_pop_total":3969,"mun_pop_na_bacia":3969.0,"mun_ubs_iede":2,"mun_hospitais_iede":1,"mun_escolas_iede":7,"mun_bombeiros_iede":1,"mun_servicos_cobertura":"cadastro_IEDE_parcial_nao_inventario","mun_icm_faixa":"C","mun_icm_pontos":13,"mun_icm_prioritario":"sim","mun_ubs_iede_status":"published","mun_hospitais_iede_status":"published","mun_escolas_iede_status":"published","mun_bombeiros_iede_status":"published"},"geometry":{"type":"Polygon","coordinates":[[[-52.14256169999993,-29.296499299999944],[-52.13774059999997,-29.29838809999995],[-52.13679859999997,-29.299113],[-52.13626289999996,-29.300103699999976],[-52.13545939999994,-29.299266],[-52.13377849999994,-29.30033719999995],[-52.13482209999996,-29.300433899999973],[-52.136198199999974,-29.302270199999953],[-52.13595809999999,-29.303397799999978],[-52.13623519999993,-29.304911899999976],[-52.1377591,-29.307730699999986],[-52.139948,-29.307738799999985],[-52.142118399999966,-29.306925399999955],[-52.14367,-29.3058784],[-52.14472289999998,-29.305636799999938],[-52.14650539999997,-29.30587029999998],[-52.14765059999996,-29.30562869999994],[-52.14827869999994,-29.305967],[-52.14881429999997,-29.30598309999994],[-52.14874039999996,-29.30632939999998],[-52.145129199999985,-29.30948639999998],[-52.14524469999998,-29.31040449999994],[-52.14734119999997,-29.3111656],[-52.146810199999955,-29.3123816],[-52.14527239999995,-29.313170799999977],[-52.14500459999994,-29.31394389999997],[-52.14524469999998,-29.314491599999936],[-52.148347899999976,-29.316774599999974],[-52.14834789999998,-29.317048399999976],[-52.147438199999954,-29.31710069999997],[-52.14781689999995,-29.317583899999928],[-52.14776139999998,-29.318586499999977],[-52.146274499999954,-29.318319699999957],[-52.147013299999976,-29.318722399999952],[-52.14805289999998,-29.320441599999985],[-52.14656289999993,-29.321486799999946],[-52.14607549999994,-29.322190099999936],[-52.146562899999935,-29.322922699999943],[-52.14671969999995,-29.32407529999995],[-52.14757679999997,-29.325682199999953],[-52.14939179999993,-29.327254799999942],[-52.149783899999925,-29.328983699999984],[-52.14977829999998,-29.330595299999963],[-52.14930209999994,-29.331923699999937],[-52.14660209999994,-29.33347659999998],[-52.14629959999997,-29.335176099999952],[-52.14485429999996,-29.337070899999954],[-52.14493269999997,-29.337578799999967],[-52.14592979999998,-29.339151199999947],[-52.14592979999998,-29.340284099999963],[-52.14362189999997,-29.34131939999996],[-52.142949699999974,-29.341329099999943],[-52.140104,-29.342227599999944],[-52.13919649999997,-29.34225689999994],[-52.138770699999945,-29.344161299999932],[-52.13759429999993,-29.345548099999977],[-52.13738249999995,-29.34763709999993],[-52.14504439999996,-29.34258729999993],[-52.16487349999994,-29.327746299999937],[-52.16512159999996,-29.32732229999992],[-52.16695619999996,-29.327050699999976],[-52.167074,-29.326345599999957],[-52.16652309999994,-29.325832799999954],[-52.166501899999965,-29.325297599999935],[-52.166824899999945,-29.32261419999998],[-52.1666211,-29.321810599999925],[-52.16559159999997,-29.31998849999997],[-52.16567769999995,-29.319650499999973],[-52.16690529999994,-29.318950499999968],[-52.16732769999993,-29.31800329999993],[-52.166921799999955,-29.317358199999937],[-52.16520479999997,-29.31737809999994],[-52.165865499999946,-29.31628679999995],[-52.16579949999994,-29.315669],[-52.16547429999997,-29.315420399999923],[-52.16550689999997,-29.31467579999997],[-52.16613129999996,-29.31390749999997],[-52.165134199999954,-29.313575699999937],[-52.165615299999956,-29.311950199999956],[-52.16675009999994,-29.311152799999952],[-52.16772039999995,-29.310088],[-52.16799779999996,-29.309403],[-52.170695199999955,-29.30712279999994],[-52.171235399999944,-29.305567],[-52.17224069999998,-29.30407319999994],[-52.17151379999996,-29.302202399999942],[-52.17208769999996,-29.301806599999964],[-52.17301639999994,-29.302026599999966],[-52.17431349999998,-29.301637099999933],[-52.17766239999997,-29.301295399999955],[-52.17850639999995,-29.300707199999984],[-52.18124059999997,-29.300709399999956],[-52.1817731,-29.29974469999995],[-52.18166549999996,-29.298967799999954],[-52.181208,-29.298658799999934],[-52.18080309999994,-29.297437299999952],[-52.18041939999995,-29.29714459999997],[-52.179810799999984,-29.29570959999995],[-52.17977549999995,-29.294567699999956],[-52.18037109999995,-29.293890299999934],[-52.182200499999965,-29.290346499999938],[-52.18275579999994,-29.289747799999926],[-52.18406449999998,-29.288765799999965],[-52.185362,-29.288230099999968],[-52.18588379999995,-29.28777259999998],[-52.18614059999993,-29.286805399999945],[-52.18782479999992,-29.28654849999998],[-52.18784479999994,-29.285950399999933],[-52.18770619999998,-29.28568449999994],[-52.185314199999944,-29.28437149999995],[-52.18387339999999,-29.284613199999953],[-52.182709699999975,-29.28521729999994],[-52.18159209999993,-29.285434799999965],[-52.17808249999997,-29.28498369999994],[-52.1760599,-29.28558789999994],[-52.17380639999993,-29.284814599999947],[-52.17088789999997,-29.28508039999997],[-52.16743369999995,-29.286393399999945],[-52.165346399999976,-29.28582149999995],[-52.163767099999966,-29.285708699999933],[-52.162584899999956,-29.28524959999994],[-52.16242789999996,-29.28578119999997],[-52.163176,-29.287343899999936],[-52.16275109999999,-29.287980299999962],[-52.16230779999995,-29.290372699999985],[-52.16061769999993,-29.291561799999958],[-52.159537099999966,-29.291602099999974],[-52.15900139999996,-29.291296],[-52.158059399999956,-29.291167099999946],[-52.15678479999997,-29.29192429999994],[-52.154254199999976,-29.29558919999993],[-52.154438899999946,-29.296829599999963],[-52.154281899999944,-29.297264499999986],[-52.15336759999996,-29.297425599999944],[-52.15300739999998,-29.29662009999998],[-52.151779,-29.29618519999997],[-52.15079079999998,-29.296596],[-52.14964549999996,-29.297594699999927],[-52.14815859999993,-29.297876599999938],[-52.14463049999995,-29.29668459999993],[-52.143235899999986,-29.296708699999947],[-52.14256169999993,-29.296499299999944]]]}},{"type":"Feature","properties":{"setor":"431205405000004","pop":288,"sigilo_pop":false,"dom":142,"sigilo_dom":0,"mulheres":133,"sigilo_mulheres":0,"c0_4":23,"sigilo_c0_4":0,"c5_9":11,"sigilo_c5_9":0,"i60_69":42,"sigilo_i60_69":0,"i70m":23,"sigilo_i70m":0,"indigenas":6,"sigilo_indigenas":0,"pretos_pardos":19,"sigilo_pretos_pardos":0,"dom_ocupados":110,"sigilo_dom_ocupados":0,"dom_agua":68,"sigilo_dom_agua":0,"dom_esgoto":0,"sigilo_dom_esgoto":0,"renda_resp":1931.07,"sigilo_renda_resp":0,"n_resp":110,"sigilo_n_resp":0,"dens":29.0,"sigilo_dens":false,"na_bacia":1,"area_pct_bacia":100.0,"metodo_recorte_bacia":"ponto_representativo_setor_2022; area_pct_geometrica","pop_n_validos":1,"pop_n_total":1,"pop_completude":1.0,"dom_n_validos":1,"dom_n_total":1,"dom_completude":1.0,"dom_ocupados_n_validos":1,"dom_ocupados_n_total":1,"dom_ocupados_completude":1.0,"mulheres_n_validos":1,"mulheres_n_total":1,"mulheres_completude":1.0,"c0_4_n_validos":1,"c0_4_n_total":1,"c0_4_completude":1.0,"c5_9_n_validos":1,"c5_9_n_total":1,"c5_9_completude":1.0,"i60_69_n_validos":1,"i60_69_n_total":1,"i60_69_completude":1.0,"i70m_n_validos":1,"i70m_n_total":1,"i70m_completude":1.0,"indigenas_n_validos":1,"indigenas_n_total":1,"indigenas_completude":1.0,"pretos_pardos_n_validos":1,"pretos_pardos_n_total":1,"pretos_pardos_completude":1.0,"dom_agua_n_validos":1,"dom_agua_n_total":1,"dom_agua_completude":1.0,"dom_esgoto_n_validos":1,"dom_esgoto_n_total":1,"dom_esgoto_completude":1.0,"n_resp_n_validos":1,"n_resp_n_total":1,"n_resp_completude":1.0,"renda_resp_n_validos":1,"renda_resp_n_total":1,"renda_resp_completude":1.0,"dens_n_validos":1,"dens_n_total":1,"dens_completude":1.0,"status_borda_bacia":"total","metodo_area_bacia":"interseção geométrica em EPSG:5880","metodo_na_bacia":"ponto_representativo_setor_2022_within_bacia","municipio":"Marques de Souza","cod_mun":"4312054","mun_pct_na_bacia":100.0,"mun_pop_total":3969,"mun_pop_na_bacia":3969.0,"mun_ubs_iede":2,"mun_hospitais_iede":1,"mun_escolas_iede":7,"mun_bombeiros_iede":1,"mun_servicos_cobertura":"cadastro_IEDE_parcial_nao_inventario","mun_icm_faixa":"C","mun_icm_pontos":13,"mun_icm_prioritario":"sim","mun_ubs_iede_status":"published","mun_hospitais_iede_status":"published","mun_escolas_iede_status":"published","mun_bombeiros_iede_status":"published"},"geometry":{"type":"Polygon","coordinates":[[[-52.10446009999998,-29.317284799999978],[-52.10994429999994,-29.316275699999952],[-52.10993989999998,-29.317836299999964],[-52.11112669999994,-29.317437699999978],[-52.1124521,-29.317570599999954],[-52.11250749999994,-29.31721219999997],[-52.113712799999966,-29.31665249999998],[-52.11421149999996,-29.31616929999995],[-52.11456709999993,-29.315086199999943],[-52.11532439999996,-29.314711799999937],[-52.11512579999994,-29.31428489999997],[-52.116478899999954,-29.313693],[-52.11712539999996,-29.314329199999985],[-52.11899029999995,-29.314025799999953],[-52.118489699999934,-29.314414299999967],[-52.118434599999944,-29.31555979999995],[-52.11974009999995,-29.315171],[-52.125143,-29.314768399999934],[-52.12977939999997,-29.314969699999953],[-52.13191279999995,-29.31546089999995],[-52.13487749999996,-29.314881099999976],[-52.136272099999985,-29.315364299999935],[-52.137819099999945,-29.314885099999977],[-52.13915369999995,-29.31501],[-52.14049289999997,-29.315638099999934],[-52.140612899999944,-29.31609709999998],[-52.141287199999965,-29.31674939999993],[-52.14148109999997,-29.31761109999996],[-52.143319,-29.31749029999998],[-52.14495379999994,-29.318537099999958],[-52.146108199999965,-29.318311699999967],[-52.147812199999976,-29.31853819999998],[-52.14781689999995,-29.317583899999928],[-52.147438199999954,-29.31710069999997],[-52.14834789999998,-29.317048399999976],[-52.14831559999993,-29.31669],[-52.14524469999998,-29.314491599999936],[-52.14500459999994,-29.31394389999997],[-52.14527239999995,-29.313170799999977],[-52.146810199999955,-29.3123816],[-52.14734119999997,-29.3111656],[-52.14524469999998,-29.31040449999994],[-52.14511079999994,-29.309587099999927],[-52.14733659999997,-29.307384399999922],[-52.14874039999996,-29.30632939999998],[-52.14881429999997,-29.30598309999994],[-52.14827869999994,-29.305967],[-52.14765059999996,-29.30562869999994],[-52.14650539999997,-29.30587029999998],[-52.14472289999998,-29.305636799999938],[-52.14367,-29.3058784],[-52.142118399999966,-29.306925399999955],[-52.13966169999998,-29.30781929999995],[-52.1377591,-29.307730699999986],[-52.1375374,-29.307561599999925],[-52.13612439999997,-29.304509199999977],[-52.13595809999999,-29.303397799999978],[-52.136198199999974,-29.302270199999953],[-52.13482209999996,-29.300433899999973],[-52.13377849999994,-29.30033719999995],[-52.13545939999994,-29.299266],[-52.13626289999996,-29.300103699999976],[-52.13679859999997,-29.299113],[-52.13774059999997,-29.29838809999995],[-52.14256169999993,-29.296499299999944],[-52.13660459999994,-29.29025289999993],[-52.13488679999994,-29.287353],[-52.13457269999998,-29.286176899999926],[-52.134655899999984,-29.285008899999973],[-52.13125709999997,-29.28191559999993],[-52.13044329999997,-29.28162259999994],[-52.12687009999996,-29.283470299999983],[-52.12214139999998,-29.287788],[-52.11841369999996,-29.289905899999958],[-52.117578899999955,-29.29120329999995],[-52.11656289999996,-29.294731299999963],[-52.11543619999997,-29.29618119999998],[-52.11242529999998,-29.298291399999975],[-52.11019029999995,-29.300466099999934],[-52.10607109999996,-29.301738699999945],[-52.10470419999996,-29.302914599999955],[-52.103762099999976,-29.304106499999925],[-52.10226589999996,-29.306168299999964],[-52.101915,-29.307279699999974],[-52.10189649999995,-29.30852],[-52.10206279999995,-29.309277],[-52.104584099999954,-29.314624399999957],[-52.104685699999955,-29.315929],[-52.10446009999998,-29.317284799999978]]]}},{"type":"Feature","properties":{"setor":"431205405000005","pop":183,"sigilo_pop":false,"dom":95,"sigilo_dom":0,"mulheres":92,"sigilo_mulheres":0,"c0_4":8,"sigilo_c0_4":0,"c5_9":null,"sigilo_c5_9":1,"i60_69":23,"sigilo_i60_69":0,"i70m":30,"sigilo_i70m":0,"indigenas":0,"sigilo_indigenas":0,"pretos_pardos":null,"sigilo_pretos_pardos":1,"dom_ocupados":65,"sigilo_dom_ocupados":0,"dom_agua":57,"sigilo_dom_agua":0,"dom_esgoto":0,"sigilo_dom_esgoto":0,"renda_resp":2021.55,"sigilo_renda_resp":0,"n_resp":65,"sigilo_n_resp":0,"dens":43.6,"sigilo_dens":false,"na_bacia":1,"area_pct_bacia":100.0,"metodo_recorte_bacia":"ponto_representativo_setor_2022; area_pct_geometrica","pop_n_validos":1,"pop_n_total":1,"pop_completude":1.0,"dom_n_validos":1,"dom_n_total":1,"dom_completude":1.0,"dom_ocupados_n_validos":1,"dom_ocupados_n_total":1,"dom_ocupados_completude":1.0,"mulheres_n_validos":1,"mulheres_n_total":1,"mulheres_completude":1.0,"c0_4_n_validos":1,"c0_4_n_total":1,"c0_4_completude":1.0,"c5_9_n_validos":0,"c5_9_n_total":1,"c5_9_completude":0.0,"i60_69_n_validos":1,"i60_69_n_total":1,"i60_69_completude":1.0,"i70m_n_validos":1,"i70m_n_total":1,"i70m_completude":1.0,"indigenas_n_validos":1,"indigenas_n_total":1,"indigenas_completude":1.0,"pretos_pardos_n_validos":0,"pretos_pardos_n_total":1,"pretos_pardos_completude":0.0,"dom_agua_n_validos":1,"dom_agua_n_total":1,"dom_agua_completude":1.0,"dom_esgoto_n_validos":1,"dom_esgoto_n_total":1,"dom_esgoto_completude":1.0,"n_resp_n_validos":1,"n_resp_n_total":1,"n_resp_completude":1.0,"renda_resp_n_validos":1,"renda_resp_n_total":1,"renda_resp_completude":1.0,"dens_n_validos":1,"dens_n_total":1,"dens_completude":1.0,"status_borda_bacia":"total","metodo_area_bacia":"interseção geométrica em EPSG:5880","metodo_na_bacia":"ponto_representativo_setor_2022_within_bacia","municipio":"Marques de Souza","cod_mun":"4312054","mun_pct_na_bacia":100.0,"mun_pop_total":3969,"mun_pop_na_bacia":3969.0,"mun_ubs_iede":2,"mun_hospitais_iede":1,"mun_escolas_iede":7,"mun_bombeiros_iede":1,"mun_servicos_cobertura":"cadastro_IEDE_parcial_nao_inventario","mun_icm_faixa":"C","mun_icm_pontos":13,"mun_icm_prioritario":"sim","mun_ubs_iede_status":"published","mun_hospitais_iede_status":"published","mun_escolas_iede_status":"published","mun_bombeiros_iede_status":"published"},"geometry":{"type":"Polygon","coordinates":[[[-52.12034829999993,-29.277962799999944],[-52.11873809999998,-29.280070899999945],[-52.11797069999994,-29.282323899999934],[-52.118572799999974,-29.283851799999972],[-52.11894079999996,-29.287329],[-52.114808,-29.289246899999966],[-52.111216,-29.291928799999933],[-52.10633539999998,-29.291149899999933],[-52.105420899999956,-29.292966],[-52.104632699999975,-29.296223],[-52.10538989999998,-29.298405399999986],[-52.105595,-29.29948039999993],[-52.10546939999995,-29.300566499999935],[-52.10301809999998,-29.301639399999942],[-52.099465,-29.302375299999927],[-52.09657029999993,-29.302687699999975],[-52.090926,-29.30153789999998],[-52.08848419999998,-29.30148059999992],[-52.08780249999995,-29.302506399999974],[-52.08854629999996,-29.30445079999998],[-52.09030909999996,-29.30689119999993],[-52.091623899999945,-29.31007689999996],[-52.09436769999996,-29.312960699999955],[-52.09718419999996,-29.31494269999996],[-52.09849779999996,-29.316869],[-52.10023039999999,-29.318532299999955],[-52.10077229999995,-29.319623099999948],[-52.100604,-29.320760399999976],[-52.100017599999944,-29.32155979999993],[-52.101957899999945,-29.32057839999993],[-52.102692099999956,-29.320967699999986],[-52.10255339999998,-29.32130519999998],[-52.102902399999955,-29.32134229999997],[-52.10463029999994,-29.316508799999944],[-52.104685699999955,-29.315300899999947],[-52.104353199999935,-29.313948],[-52.10206279999995,-29.309277],[-52.10189649999995,-29.30852],[-52.101915,-29.307279699999974],[-52.10226589999996,-29.306168299999964],[-52.103762099999976,-29.304106499999925],[-52.10470419999996,-29.302914599999955],[-52.10607109999996,-29.301738699999945],[-52.11019029999995,-29.300466099999934],[-52.11242529999998,-29.298291399999975],[-52.11543619999997,-29.29618119999998],[-52.11656289999996,-29.294731299999963],[-52.117578899999955,-29.29120329999995],[-52.11841369999996,-29.289905899999958],[-52.12214139999998,-29.287788],[-52.12629749999996,-29.283857],[-52.13044329999997,-29.28162259999994],[-52.13023189999996,-29.280586399999947],[-52.12954849999995,-29.280046599999938],[-52.12992709999998,-29.27950689999994],[-52.129409899999985,-29.27900739999995],[-52.13012979999997,-29.27803939999995],[-52.128772699999956,-29.27635269999997],[-52.127345899999966,-29.275179499999965],[-52.12630549999995,-29.27493749999996],[-52.125290399999976,-29.27563469999995],[-52.12034829999993,-29.277962799999944]]]}},{"type":"Feature","properties":{"setor":"431205405000006","pop":309,"sigilo_pop":false,"dom":171,"sigilo_dom":0,"mulheres":147,"sigilo_mulheres":0,"c0_4":14,"sigilo_c0_4":0,"c5_9":19,"sigilo_c5_9":0,"i60_69":42,"sigilo_i60_69":0,"i70m":43,"sigilo_i70m":0,"indigenas":0,"sigilo_indigenas":0,"pretos_pardos":48,"sigilo_pretos_pardos":0,"dom_ocupados":112,"sigilo_dom_ocupados":0,"dom_agua":4,"sigilo_dom_agua":0,"dom_esgoto":0,"sigilo_dom_esgoto":0,"renda_resp":3349.36,"sigilo_renda_resp":0,"n_resp":112,"sigilo_n_resp":0,"dens":25.8,"sigilo_dens":false,"na_bacia":1,"area_pct_bacia":100.0,"metodo_recorte_bacia":"ponto_representativo_setor_2022; area_pct_geometrica","pop_n_validos":1,"pop_n_total":1,"pop_completude":1.0,"dom_n_validos":1,"dom_n_total":1,"dom_completude":1.0,"dom_ocupados_n_validos":1,"dom_ocupados_n_total":1,"dom_ocupados_completude":1.0,"mulheres_n_validos":1,"mulheres_n_total":1,"mulheres_completude":1.0,"c0_4_n_validos":1,"c0_4_n_total":1,"c0_4_completude":1.0,"c5_9_n_validos":1,"c5_9_n_total":1,"c5_9_completude":1.0,"i60_69_n_validos":1,"i60_69_n_total":1,"i60_69_completude":1.0,"i70m_n_validos":1,"i70m_n_total":1,"i70m_completude":1.0,"indigenas_n_validos":1,"indigenas_n_total":1,"indigenas_completude":1.0,"pretos_pardos_n_validos":1,"pretos_pardos_n_total":1,"pretos_pardos_completude":1.0,"dom_agua_n_validos":1,"dom_agua_n_total":1,"dom_agua_completude":1.0,"dom_esgoto_n_validos":1,"dom_esgoto_n_total":1,"dom_esgoto_completude":1.0,"n_resp_n_validos":1,"n_resp_n_total":1,"n_resp_completude":1.0,"renda_resp_n_validos":1,"renda_resp_n_total":1,"renda_resp_completude":1.0,"dens_n_validos":1,"dens_n_total":1,"dens_completude":1.0,"status_borda_bacia":"total","metodo_area_bacia":"interseção geométrica em EPSG:5880","metodo_na_bacia":"ponto_representativo_setor_2022_within_bacia","municipio":"Marques de Souza","cod_mun":"4312054","mun_pct_na_bacia":100.0,"mun_pop_total":3969,"mun_pop_na_bacia":3969.0,"mun_ubs_iede":2,"mun_hospitais_iede":1,"mun_escolas_iede":7,"mun_bombeiros_iede":1,"mun_servicos_cobertura":"cadastro_IEDE_parcial_nao_inventario","mun_icm_faixa":"C","mun_icm_pontos":13,"mun_icm_prioritario":"sim","mun_ubs_iede_status":"published","mun_hospitais_iede_status":"published","mun_escolas_iede_status":"published","mun_bombeiros_iede_status":"published"},"geometry":{"type":"Polygon","coordinates":[[[-52.12726059999994,-29.343993],[-52.12536309999996,-29.342692899999978],[-52.12331,-29.342214199999948],[-52.12170789999993,-29.341374199999965],[-52.12063239999998,-29.34031949999996],[-52.12027389999997,-29.339655299999947],[-52.11970249999996,-29.339284199999963],[-52.11765219999995,-29.338717799999987],[-52.116106099999975,-29.338844699999974],[-52.11515379999997,-29.339938599999986],[-52.11429109999994,-29.340212],[-52.11361889999995,-29.340153399999956],[-52.11070589999997,-29.339118199999977],[-52.10950719999994,-29.337462699999957],[-52.10929429999993,-29.336783899999947],[-52.107748199999946,-29.33701829999994],[-52.105709099999956,-29.336627699999937],[-52.101608599999956,-29.334684],[-52.100889299999956,-29.33459869999997],[-52.095707699999934,-29.337048],[-52.093894499999976,-29.337632399999947],[-52.091761599999984,-29.333117],[-52.09246279999997,-29.332918299999967],[-52.09218759999993,-29.332213599999942],[-52.09074679999997,-29.332423],[-52.089983099999976,-29.332290699999927],[-52.08933089999993,-29.332834899999966],[-52.088059,-29.333170199999973],[-52.08439729999998,-29.333564099999933],[-52.08317839999995,-29.333006],[-52.083514399999956,-29.331201199999956],[-52.082606899999966,-29.329423899999945],[-52.08005179999998,-29.328392699999945],[-52.07763739999996,-29.327939299999976],[-52.07527909999994,-29.32977249999993],[-52.071958699999975,-29.331326099999945],[-52.06975239999997,-29.330799899999928],[-52.06881409999995,-29.32966269999998],[-52.067656599999964,-29.329909199999975],[-52.064133899999945,-29.330059099999954],[-52.06333059999998,-29.330529499999958],[-52.06311229999994,-29.331822],[-52.06176109999996,-29.333280699999914],[-52.060395,-29.33556649999997],[-52.061856399999954,-29.33809549999993],[-52.06392409999995,-29.34075929999994],[-52.069059599999946,-29.344222299999952],[-52.06903959999993,-29.343474],[-52.06948769999997,-29.34273179999996],[-52.06989109999996,-29.342585299999943],[-52.070272,-29.343474],[-52.072087,-29.343434899999984],[-52.072591099999954,-29.344645899999925],[-52.0743389,-29.3452612],[-52.07453659999993,-29.345285],[-52.07497189999998,-29.34415029999996],[-52.07797449999998,-29.344177199999937],[-52.0786131,-29.344411499999975],[-52.07862429999994,-29.345563899999963],[-52.078882,-29.34573],[-52.08136919999998,-29.34605219999997],[-52.08692619999994,-29.346052199999964],[-52.088043099999936,-29.346560699999944],[-52.088029799999966,-29.352585399999946],[-52.08850029999996,-29.353610799999963],[-52.089217399999946,-29.354196699999935],[-52.091301199999975,-29.355212299999934],[-52.092668099999976,-29.35677469999995],[-52.09318339999999,-29.35697],[-52.096348499999976,-29.359479499999964],[-52.09663419999998,-29.35946],[-52.09688209999996,-29.358926399999973],[-52.09885749999996,-29.359129],[-52.099037099999975,-29.358380499999946],[-52.09935969999998,-29.35844279999998],[-52.099732,-29.35886759999994],[-52.099904,-29.36050079999995],[-52.10019079999995,-29.360943299999963],[-52.112379299999986,-29.361896499999947],[-52.12726059999994,-29.343993]]]}},{"type":"Feature","properties":{"setor":"431205405000007","pop":304,"sigilo_pop":false,"dom":273,"sigilo_dom":0,"mulheres":150,"sigilo_mulheres":0,"c0_4":14,"sigilo_c0_4":0,"c5_9":18,"sigilo_c5_9":0,"i60_69":49,"sigilo_i60_69":0,"i70m":54,"sigilo_i70m":0,"indigenas":0,"sigilo_indigenas":0,"pretos_pardos":null,"sigilo_pretos_pardos":1,"dom_ocupados":124,"sigilo_dom_ocupados":0,"dom_agua":118,"sigilo_dom_agua":0,"dom_esgoto":0,"sigilo_dom_esgoto":0,"renda_resp":2232.38,"sigilo_renda_resp":0,"n_resp":124,"sigilo_n_resp":0,"dens":22.9,"sigilo_dens":false,"na_bacia":1,"area_pct_bacia":100.0,"metodo_recorte_bacia":"ponto_representativo_setor_2022; area_pct_geometrica","pop_n_validos":1,"pop_n_total":1,"pop_completude":1.0,"dom_n_validos":1,"dom_n_total":1,"dom_completude":1.0,"dom_ocupados_n_validos":1,"dom_ocupados_n_total":1,"dom_ocupados_completude":1.0,"mulheres_n_validos":1,"mulheres_n_total":1,"mulheres_completude":1.0,"c0_4_n_validos":1,"c0_4_n_total":1,"c0_4_completude":1.0,"c5_9_n_validos":1,"c5_9_n_total":1,"c5_9_completude":1.0,"i60_69_n_validos":1,"i60_69_n_total":1,"i60_69_completude":1.0,"i70m_n_validos":1,"i70m_n_total":1,"i70m_completude":1.0,"indigenas_n_validos":1,"indigenas_n_total":1,"indigenas_completude":1.0,"pretos_pardos_n_validos":0,"pretos_pardos_n_total":1,"pretos_pardos_completude":0.0,"dom_agua_n_validos":1,"dom_agua_n_total":1,"dom_agua_completude":1.0,"dom_esgoto_n_validos":1,"dom_esgoto_n_total":1,"dom_esgoto_completude":1.0,"n_resp_n_validos":1,"n_resp_n_total":1,"n_resp_completude":1.0,"renda_resp_n_validos":1,"renda_resp_n_total":1,"renda_resp_completude":1.0,"dens_n_validos":1,"dens_n_total":1,"dens_completude":1.0,"status_borda_bacia":"total","metodo_area_bacia":"interseção geométrica em EPSG:5880","metodo_na_bacia":"ponto_representativo_setor_2022_within_bacia","municipio":"Marques de Souza","cod_mun":"4312054","mun_pct_na_bacia":100.0,"mun_pop_total":3969,"mun_pop_na_bacia":3969.0,"mun_ubs_iede":2,"mun_hospitais_iede":1,"mun_escolas_iede":7,"mun_bombeiros_iede":1,"mun_servicos_cobertura":"cadastro_IEDE_parcial_nao_inventario","mun_icm_faixa":"C","mun_icm_pontos":13,"mun_icm_prioritario":"sim","mun_ubs_iede_status":"published","mun_hospitais_iede_status":"published","mun_escolas_iede_status":"published","mun_bombeiros_iede_status":"published"},"geometry":{"type":"Polygon","coordinates":[[[-52.06903959999993,-29.343474],[-52.06894529999994,-29.345032299999943],[-52.067402,-29.346157399999974],[-52.065664,-29.346366],[-52.06269659999998,-29.34854309999998],[-52.06200409999996,-29.349941499999947],[-52.06312469999994,-29.35157719999995],[-52.06366289999995,-29.354055],[-52.062062699999956,-29.356907],[-52.06335389999998,-29.361153699999925],[-52.06317839999997,-29.363195799999968],[-52.06233419999995,-29.364776],[-52.060691,-29.366077599999976],[-52.05676519999997,-29.370492399999932],[-52.053337699999986,-29.373494399999956],[-52.048650099999975,-29.37430039999999],[-52.047790099999986,-29.37487449999998],[-52.048202,-29.376055],[-52.05007509999996,-29.37760949999995],[-52.05177969999994,-29.37964769999996],[-52.050601399999955,-29.38067719999997],[-52.04851909999996,-29.381382699999957],[-52.04385529999996,-29.382571499999983],[-52.03253079999996,-29.384632],[-52.032534099999964,-29.386769099999974],[-52.030912299999954,-29.389759099999928],[-52.030544099999986,-29.391422],[-52.03102029999997,-29.392908299999924],[-52.03398919999995,-29.393659199999945],[-52.03456959999995,-29.394320199999974],[-52.034623599999975,-29.395284499999953],[-52.03557089999998,-29.397291899999967],[-52.035432799999974,-29.399283799999974],[-52.034860199999976,-29.40121379999993],[-52.04814339999996,-29.399862],[-52.054799799999955,-29.388920099999936],[-52.089566799999936,-29.36012079999996],[-52.10019079999995,-29.360943299999963],[-52.099904,-29.36050079999995],[-52.099732,-29.35886759999994],[-52.09935969999998,-29.35844279999998],[-52.099037099999975,-29.358380499999946],[-52.09885749999996,-29.359129],[-52.09688209999996,-29.358926399999973],[-52.09663419999998,-29.35946],[-52.096348499999976,-29.359479499999964],[-52.09318339999999,-29.35697],[-52.092668099999976,-29.35677469999995],[-52.091301199999975,-29.355212299999934],[-52.089217399999946,-29.354196699999935],[-52.08850029999996,-29.353610799999963],[-52.088029799999966,-29.352585399999946],[-52.088043099999936,-29.346560699999944],[-52.08738559999995,-29.346159699999923],[-52.08136919999998,-29.34605219999997],[-52.078882,-29.34573],[-52.07862429999994,-29.345563899999963],[-52.0786131,-29.344411499999975],[-52.07797449999998,-29.344177199999937],[-52.07497189999998,-29.34415029999996],[-52.07453659999993,-29.345285],[-52.0743389,-29.3452612],[-52.072591099999954,-29.344645899999925],[-52.072087,-29.343434899999984],[-52.070272,-29.343474],[-52.06989109999996,-29.342585299999943],[-52.06948769999997,-29.34273179999996],[-52.06903959999993,-29.343474]]]}},{"type":"Feature","properties":{"setor":"431205405000008","pop":137,"sigilo_pop":false,"dom":68,"sigilo_dom":0,"mulheres":70,"sigilo_mulheres":0,"c0_4":9,"sigilo_c0_4":0,"c5_9":10,"sigilo_c5_9":0,"i60_69":25,"sigilo_i60_69":0,"i70m":null,"sigilo_i70m":1,"indigenas":0,"sigilo_indigenas":0,"pretos_pardos":null,"sigilo_pretos_pardos":1,"dom_ocupados":53,"sigilo_dom_ocupados":0,"dom_agua":52,"sigilo_dom_agua":0,"dom_esgoto":0,"sigilo_dom_esgoto":0,"renda_resp":3173.76,"sigilo_renda_resp":0,"n_resp":53,"sigilo_n_resp":0,"dens":359.1,"sigilo_dens":false,"na_bacia":1,"area_pct_bacia":100.0,"metodo_recorte_bacia":"ponto_representativo_setor_2022; area_pct_geometrica","pop_n_validos":1,"pop_n_total":1,"pop_completude":1.0,"dom_n_validos":1,"dom_n_total":1,"dom_completude":1.0,"dom_ocupados_n_validos":1,"dom_ocupados_n_total":1,"dom_ocupados_completude":1.0,"mulheres_n_validos":1,"mulheres_n_total":1,"mulheres_completude":1.0,"c0_4_n_validos":1,"c0_4_n_total":1,"c0_4_completude":1.0,"c5_9_n_validos":1,"c5_9_n_total":1,"c5_9_completude":1.0,"i60_69_n_validos":1,"i60_69_n_total":1,"i60_69_completude":1.0,"i70m_n_validos":0,"i70m_n_total":1,"i70m_completude":0.0,"indigenas_n_validos":1,"indigenas_n_total":1,"indigenas_completude":1.0,"pretos_pardos_n_validos":0,"pretos_pardos_n_total":1,"pretos_pardos_completude":0.0,"dom_agua_n_validos":1,"dom_agua_n_total":1,"dom_agua_completude":1.0,"dom_esgoto_n_validos":1,"dom_esgoto_n_total":1,"dom_esgoto_completude":1.0,"n_resp_n_validos":1,"n_resp_n_total":1,"n_resp_completude":1.0,"renda_resp_n_validos":1,"renda_resp_n_total":1,"renda_resp_completude":1.0,"dens_n_validos":1,"dens_n_total":1,"dens_completude":1.0,"status_borda_bacia":"total","metodo_area_bacia":"interseção geométrica em EPSG:5880","metodo_na_bacia":"ponto_representativo_setor_2022_within_bacia","municipio":"Marques de Souza","cod_mun":"4312054","mun_pct_na_bacia":100.0,"mun_pop_total":3969,"mun_pop_na_bacia":3969.0,"mun_ubs_iede":2,"mun_hospitais_iede":1,"mun_escolas_iede":7,"mun_bombeiros_iede":1,"mun_servicos_cobertura":"cadastro_IEDE_parcial_nao_inventario","mun_icm_faixa":"C","mun_icm_pontos":13,"mun_icm_prioritario":"sim","mun_ubs_iede_status":"published","mun_hospitais_iede_status":"published","mun_escolas_iede_status":"published","mun_bombeiros_iede_status":"published"},"geometry":{"type":"Polygon","coordinates":[[[-52.102902399999955,-29.32134229999997],[-52.10230869999997,-29.323150199999922],[-52.10180619999995,-29.327694499999943],[-52.102975,-29.32738249999994],[-52.10372309999996,-29.327543499999933],[-52.104412399999944,-29.327425899999966],[-52.104482,-29.326736],[-52.10594579999998,-29.326020499999967],[-52.10797889999997,-29.32558909999994],[-52.10967369999997,-29.32431609999998],[-52.10983689999994,-29.323907],[-52.10857189999995,-29.323610499999972],[-52.10873459999994,-29.321942799999928],[-52.10917569999997,-29.321495799999973],[-52.107623,-29.321399399999958],[-52.10712209999997,-29.320819799999974],[-52.10686439999995,-29.32147609999997],[-52.10604239999997,-29.321327099999948],[-52.105613,-29.321613],[-52.10531169999996,-29.32139759999994],[-52.10521189999997,-29.320682599999937],[-52.10412949999995,-29.320463499999963],[-52.104092499999986,-29.32129289999994],[-52.102902399999955,-29.32134229999997]]]}},{"type":"Feature","properties":{"setor":"431205405000009","pop":190,"sigilo_pop":false,"dom":85,"sigilo_dom":0,"mulheres":89,"sigilo_mulheres":0,"c0_4":7,"sigilo_c0_4":0,"c5_9":12,"sigilo_c5_9":0,"i60_69":18,"sigilo_i60_69":0,"i70m":13,"sigilo_i70m":0,"indigenas":0,"sigilo_indigenas":0,"pretos_pardos":24,"sigilo_pretos_pardos":0,"dom_ocupados":74,"sigilo_dom_ocupados":0,"dom_agua":74,"sigilo_dom_agua":0,"dom_esgoto":5,"sigilo_dom_esgoto":0,"renda_resp":2731.38,"sigilo_renda_resp":0,"n_resp":74,"sigilo_n_resp":0,"dens":357.9,"sigilo_dens":false,"na_bacia":1,"area_pct_bacia":100.0,"metodo_recorte_bacia":"ponto_representativo_setor_2022; area_pct_geometrica","pop_n_validos":1,"pop_n_total":1,"pop_completude":1.0,"dom_n_validos":1,"dom_n_total":1,"dom_completude":1.0,"dom_ocupados_n_validos":1,"dom_ocupados_n_total":1,"dom_ocupados_completude":1.0,"mulheres_n_validos":1,"mulheres_n_total":1,"mulheres_completude":1.0,"c0_4_n_validos":1,"c0_4_n_total":1,"c0_4_completude":1.0,"c5_9_n_validos":1,"c5_9_n_total":1,"c5_9_completude":1.0,"i60_69_n_validos":1,"i60_69_n_total":1,"i60_69_completude":1.0,"i70m_n_validos":1,"i70m_n_total":1,"i70m_completude":1.0,"indigenas_n_validos":1,"indigenas_n_total":1,"indigenas_completude":1.0,"pretos_pardos_n_validos":1,"pretos_pardos_n_total":1,"pretos_pardos_completude":1.0,"dom_agua_n_validos":1,"dom_agua_n_total":1,"dom_agua_completude":1.0,"dom_esgoto_n_validos":1,"dom_esgoto_n_total":1,"dom_esgoto_completude":1.0,"n_resp_n_validos":1,"n_resp_n_total":1,"n_resp_completude":1.0,"renda_resp_n_validos":1,"renda_resp_n_total":1,"renda_resp_completude":1.0,"dens_n_validos":1,"dens_n_total":1,"dens_completude":1.0,"status_borda_bacia":"total","metodo_area_bacia":"interseção geométrica em EPSG:5880","metodo_na_bacia":"ponto_representativo_setor_2022_within_bacia","municipio":"Marques de Souza","cod_mun":"4312054","mun_pct_na_bacia":100.0,"mun_pop_total":3969,"mun_pop_na_bacia":3969.0,"mun_ubs_iede":2,"mun_hospitais_iede":1,"mun_escolas_iede":7,"mun_bombeiros_iede":1,"mun_servicos_cobertura":"cadastro_IEDE_parcial_nao_inventario","mun_icm_faixa":"C","mun_icm_pontos":13,"mun_icm_prioritario":"sim","mun_ubs_iede_status":"published","mun_hospitais_iede_status":"published","mun_escolas_iede_status":"published","mun_bombeiros_iede_status":"published"},"geometry":{"type":"Polygon","coordinates":[[[-52.10446009999998,-29.317284799999978],[-52.102902399999955,-29.32134229999997],[-52.104092499999986,-29.32129289999994],[-52.10412949999995,-29.320463499999963],[-52.10521189999997,-29.320682599999937],[-52.10531169999996,-29.32139759999994],[-52.105613,-29.321613],[-52.10604239999997,-29.321327099999948],[-52.10686439999995,-29.32147609999997],[-52.10712209999997,-29.320819799999974],[-52.107623,-29.321399399999958],[-52.10917569999997,-29.321495799999973],[-52.110007899999964,-29.320299399999946],[-52.11240379999998,-29.318945],[-52.114423699999975,-29.31845469999996],[-52.11672029999994,-29.317248399999983],[-52.11839839999993,-29.316687799999944],[-52.118469,-29.31449],[-52.11899029999995,-29.314025799999953],[-52.11712539999996,-29.314329199999985],[-52.116728199999955,-29.31377149999998],[-52.11637729999996,-29.313693],[-52.11512579999994,-29.31428489999997],[-52.11532439999996,-29.314711799999937],[-52.11456709999993,-29.315086199999943],[-52.11421149999996,-29.31616929999995],[-52.113712799999966,-29.31665249999998],[-52.11250749999994,-29.31721219999997],[-52.1124521,-29.317570599999954],[-52.11112669999994,-29.317437699999978],[-52.10993989999998,-29.317836299999964],[-52.10994429999994,-29.316275699999952],[-52.10446009999998,-29.317284799999978]]]}},{"type":"Feature","properties":{"setor":"431205405000010","pop":377,"sigilo_pop":false,"dom":188,"sigilo_dom":0,"mulheres":202,"sigilo_mulheres":0,"c0_4":12,"sigilo_c0_4":0,"c5_9":17,"sigilo_c5_9":0,"i60_69":70,"sigilo_i60_69":0,"i70m":58,"sigilo_i70m":0,"indigenas":0,"sigilo_indigenas":0,"pretos_pardos":36,"sigilo_pretos_pardos":0,"dom_ocupados":156,"sigilo_dom_ocupados":0,"dom_agua":153,"sigilo_dom_agua":0,"dom_esgoto":null,"sigilo_dom_esgoto":1,"renda_resp":2723.24,"sigilo_renda_resp":0,"n_resp":156,"sigilo_n_resp":0,"dens":378.5,"sigilo_dens":false,"na_bacia":1,"area_pct_bacia":100.0,"metodo_recorte_bacia":"ponto_representativo_setor_2022; area_pct_geometrica","pop_n_validos":1,"pop_n_total":1,"pop_completude":1.0,"dom_n_validos":1,"dom_n_total":1,"dom_completude":1.0,"dom_ocupados_n_validos":1,"dom_ocupados_n_total":1,"dom_ocupados_completude":1.0,"mulheres_n_validos":1,"mulheres_n_total":1,"mulheres_completude":1.0,"c0_4_n_validos":1,"c0_4_n_total":1,"c0_4_completude":1.0,"c5_9_n_validos":1,"c5_9_n_total":1,"c5_9_completude":1.0,"i60_69_n_validos":1,"i60_69_n_total":1,"i60_69_completude":1.0,"i70m_n_validos":1,"i70m_n_total":1,"i70m_completude":1.0,"indigenas_n_validos":1,"indigenas_n_total":1,"indigenas_completude":1.0,"pretos_pardos_n_validos":1,"pretos_pardos_n_total":1,"pretos_pardos_completude":1.0,"dom_agua_n_validos":1,"dom_agua_n_total":1,"dom_agua_completude":1.0,"dom_esgoto_n_validos":0,"dom_esgoto_n_total":1,"dom_esgoto_completude":0.0,"n_resp_n_validos":1,"n_resp_n_total":1,"n_resp_completude":1.0,"renda_resp_n_validos":1,"renda_resp_n_total":1,"renda_resp_completude":1.0,"dens_n_validos":1,"dens_n_total":1,"dens_completude":1.0,"status_borda_bacia":"total","metodo_area_bacia":"interseção geométrica em EPSG:5880","metodo_na_bacia":"ponto_representativo_setor_2022_within_bacia","municipio":"Marques de Souza","cod_mun":"4312054","mun_pct_na_bacia":100.0,"mun_pop_total":3969,"mun_pop_na_bacia":3969.0,"mun_ubs_iede":2,"mun_hospitais_iede":1,"mun_escolas_iede":7,"mun_bombeiros_iede":1,"mun_servicos_cobertura":"cadastro_IEDE_parcial_nao_inventario","mun_icm_faixa":"C","mun_icm_pontos":13,"mun_icm_prioritario":"sim","mun_ubs_iede_status":"published","mun_hospitais_iede_status":"published","mun_escolas_iede_status":"published","mun_bombeiros_iede_status":"published"},"geometry":{"type":"Polygon","coordinates":[[[-52.09246279999997,-29.332918299999967],[-52.091761599999984,-29.333117],[-52.093894499999976,-29.337632399999947],[-52.09940929999994,-29.335403099999944],[-52.10169759999996,-29.333963199999975],[-52.103344499999935,-29.33201019999996],[-52.10417149999995,-29.32959509999995],[-52.104412399999944,-29.327425899999966],[-52.10372309999996,-29.327543499999933],[-52.102975,-29.32738249999994],[-52.10180619999995,-29.327694499999943],[-52.10206409999995,-29.325016099999967],[-52.10078,-29.32581349999998],[-52.099204,-29.326128699999973],[-52.09598589999996,-29.328642299999956],[-52.09502439999994,-29.327917799999966],[-52.093244,-29.329271099999968],[-52.09232709999998,-29.33078579999995],[-52.09222789999996,-29.331222499999956],[-52.09263269999997,-29.33249019999994],[-52.09246279999997,-29.332918299999967]]]}},{"type":"Feature","properties":{"setor":"431205410000001","pop":135,"sigilo_pop":false,"dom":84,"sigilo_dom":0,"mulheres":67,"sigilo_mulheres":0,"c0_4":null,"sigilo_c0_4":1,"c5_9":null,"sigilo_c5_9":1,"i60_69":32,"sigilo_i60_69":0,"i70m":38,"sigilo_i70m":0,"indigenas":0,"sigilo_indigenas":0,"pretos_pardos":7,"sigilo_pretos_pardos":0,"dom_ocupados":67,"sigilo_dom_ocupados":0,"dom_agua":67,"sigilo_dom_agua":0,"dom_esgoto":0,"sigilo_dom_esgoto":0,"renda_resp":2191.27,"sigilo_renda_resp":0,"n_resp":67,"sigilo_n_resp":0,"dens":293.8,"sigilo_dens":false,"na_bacia":1,"area_pct_bacia":100.0,"metodo_recorte_bacia":"ponto_representativo_setor_2022; area_pct_geometrica","pop_n_validos":1,"pop_n_total":1,"pop_completude":1.0,"dom_n_validos":1,"dom_n_total":1,"dom_completude":1.0,"dom_ocupados_n_validos":1,"dom_ocupados_n_total":1,"dom_ocupados_completude":1.0,"mulheres_n_validos":1,"mulheres_n_total":1,"mulheres_completude":1.0,"c0_4_n_validos":0,"c0_4_n_total":1,"c0_4_completude":0.0,"c5_9_n_validos":0,"c5_9_n_total":1,"c5_9_completude":0.0,"i60_69_n_validos":1,"i60_69_n_total":1,"i60_69_completude":1.0,"i70m_n_validos":1,"i70m_n_total":1,"i70m_completude":1.0,"indigenas_n_validos":1,"indigenas_n_total":1,"indigenas_completude":1.0,"pretos_pardos_n_validos":1,"pretos_pardos_n_total":1,"pretos_pardos_completude":1.0,"dom_agua_n_validos":1,"dom_agua_n_total":1,"dom_agua_completude":1.0,"dom_esgoto_n_validos":1,"dom_esgoto_n_total":1,"dom_esgoto_completude":1.0,"n_resp_n_validos":1,"n_resp_n_total":1,"n_resp_completude":1.0,"renda_resp_n_validos":1,"renda_resp_n_total":1,"renda_resp_completude":1.0,"dens_n_validos":1,"dens_n_total":1,"dens_completude":1.0,"status_borda_bacia":"total","metodo_area_bacia":"interseção geométrica em EPSG:5880","metodo_na_bacia":"ponto_representativo_setor_2022_within_bacia","municipio":"Marques de Souza","cod_mun":"4312054","mun_pct_na_bacia":100.0,"mun_pop_total":3969,"mun_pop_na_bacia":3969.0,"mun_ubs_iede":2,"mun_hospitais_iede":1,"mun_escolas_iede":7,"mun_bombeiros_iede":1,"mun_servicos_cobertura":"cadastro_IEDE_parcial_nao_inventario","mun_icm_faixa":"C","mun_icm_pontos":13,"mun_icm_prioritario":"sim","mun_ubs_iede_status":"published","mun_hospitais_iede_status":"published","mun_escolas_iede_status":"published","mun_bombeiros_iede_status":"published"},"geometry":{"type":"Polygon","coordinates":[[[-52.225501,-29.197745699999928],[-52.224527199999955,-29.200256],[-52.22975279999997,-29.200415599999925],[-52.23048639999997,-29.200103699999936],[-52.23053719999995,-29.200698499999927],[-52.23168829999998,-29.20175649999992],[-52.23409649999996,-29.19996689999994],[-52.23450669999993,-29.20082859999997],[-52.235566699999936,-29.200998899999934],[-52.235344699999985,-29.20002359999995],[-52.234896,-29.199394899999955],[-52.235819099999965,-29.198727899999945],[-52.23498529999995,-29.19775539999995],[-52.235508699999976,-29.19734629999993],[-52.23425139999995,-29.19377889999998],[-52.22811359999997,-29.198373099999962],[-52.22661789999995,-29.197457],[-52.225501,-29.197745699999928]]]}},{"type":"Feature","properties":{"setor":"431205410000002","pop":289,"sigilo_pop":false,"dom":159,"sigilo_dom":0,"mulheres":143,"sigilo_mulheres":0,"c0_4":13,"sigilo_c0_4":0,"c5_9":13,"sigilo_c5_9":0,"i60_69":59,"sigilo_i60_69":0,"i70m":51,"sigilo_i70m":0,"indigenas":0,"sigilo_indigenas":0,"pretos_pardos":5,"sigilo_pretos_pardos":0,"dom_ocupados":104,"sigilo_dom_ocupados":0,"dom_agua":82,"sigilo_dom_agua":0,"dom_esgoto":4,"sigilo_dom_esgoto":0,"renda_resp":2089.27,"sigilo_renda_resp":0,"n_resp":104,"sigilo_n_resp":0,"dens":12.6,"sigilo_dens":false,"na_bacia":1,"area_pct_bacia":100.0,"metodo_recorte_bacia":"ponto_representativo_setor_2022; area_pct_geometrica","pop_n_validos":1,"pop_n_total":1,"pop_completude":1.0,"dom_n_validos":1,"dom_n_total":1,"dom_completude":1.0,"dom_ocupados_n_validos":1,"dom_ocupados_n_total":1,"dom_ocupados_completude":1.0,"mulheres_n_validos":1,"mulheres_n_total":1,"mulheres_completude":1.0,"c0_4_n_validos":1,"c0_4_n_total":1,"c0_4_completude":1.0,"c5_9_n_validos":1,"c5_9_n_total":1,"c5_9_completude":1.0,"i60_69_n_validos":1,"i60_69_n_total":1,"i60_69_completude":1.0,"i70m_n_validos":1,"i70m_n_total":1,"i70m_completude":1.0,"indigenas_n_validos":1,"indigenas_n_total":1,"indigenas_completude":1.0,"pretos_pardos_n_validos":1,"pretos_pardos_n_total":1,"pretos_pardos_completude":1.0,"dom_agua_n_validos":1,"dom_agua_n_total":1,"dom_agua_completude":1.0,"dom_esgoto_n_validos":1,"dom_esgoto_n_total":1,"dom_esgoto_completude":1.0,"n_resp_n_validos":1,"n_resp_n_total":1,"n_resp_completude":1.0,"renda_resp_n_validos":1,"renda_resp_n_total":1,"renda_resp_completude":1.0,"dens_n_validos":1,"dens_n_total":1,"dens_completude":1.0,"status_borda_bacia":"total","metodo_area_bacia":"interseção geométrica em EPSG:5880","metodo_na_bacia":"ponto_representativo_setor_2022_within_bacia","municipio":"Marques de Souza","cod_mun":"4312054","mun_pct_na_bacia":100.0,"mun_pop_total":3969,"mun_pop_na_bacia":3969.0,"mun_ubs_iede":2,"mun_hospitais_iede":1,"mun_escolas_iede":7,"mun_bombeiros_iede":1,"mun_servicos_cobertura":"cadastro_IEDE_parcial_nao_inventario","mun_icm_faixa":"C","mun_icm_pontos":13,"mun_icm_prioritario":"sim","mun_ubs_iede_status":"published","mun_hospitais_iede_status":"published","mun_escolas_iede_status":"published","mun_bombeiros_iede_status":"published"},"geometry":{"type":"Polygon","coordinates":[[[-52.225501,-29.197745699999928],[-52.22661789999995,-29.197457],[-52.22811359999997,-29.198373099999962],[-52.23425139999995,-29.19377889999998],[-52.235508699999976,-29.19734629999993],[-52.23498529999995,-29.19775539999995],[-52.235819099999965,-29.198727899999945],[-52.234896,-29.199394899999955],[-52.235344699999985,-29.20002359999995],[-52.235566699999936,-29.200998899999934],[-52.23450669999993,-29.20082859999997],[-52.23409649999996,-29.19996689999994],[-52.23168829999998,-29.20175649999992],[-52.23053719999995,-29.200698499999927],[-52.23048639999997,-29.200103699999936],[-52.22975279999997,-29.200415599999925],[-52.224527199999955,-29.200256],[-52.22455519999994,-29.20011839999996],[-52.22429869999996,-29.20130079999995],[-52.222357399999964,-29.205232499999973],[-52.22113109999998,-29.205867899999927],[-52.21970209999995,-29.205716899999977],[-52.218197799999984,-29.20491679999997],[-52.21651449999996,-29.202589699999976],[-52.21533289999997,-29.201592599999973],[-52.213803499999976,-29.20077229999997],[-52.21239639999994,-29.200180599999946],[-52.210646899999965,-29.200350599999982],[-52.208640299999956,-29.20125359999997],[-52.20713129999996,-29.202867299999973],[-52.20676,-29.20667],[-52.206117499999955,-29.20999829999993],[-52.2042891,-29.21407319999997],[-52.20309479999998,-29.214886399999955],[-52.201861,-29.214660199999965],[-52.20089379999996,-29.213948099999975],[-52.20063159999995,-29.211942599999933],[-52.200002599999955,-29.211045499999944],[-52.19750809999994,-29.208575099999962],[-52.19725489999996,-29.206812799999962],[-52.197351,-29.204925],[-52.19965769999993,-29.201694599999925],[-52.199985399999946,-29.20014969999994],[-52.199182,-29.19883009999995],[-52.197631299999955,-29.198567099999934],[-52.196258199999924,-29.199065099999935],[-52.19421269999999,-29.200919299999946],[-52.19300579999998,-29.20166689999996],[-52.191588199999956,-29.20390409999992],[-52.18792449999995,-29.205886499999966],[-52.18521549999996,-29.206879799999967],[-52.18439459999997,-29.207980899999942],[-52.18395669999995,-29.20915729999995],[-52.18411969999993,-29.210737399999967],[-52.18483809999998,-29.211907699999983],[-52.186825,-29.21295279999998],[-52.18751,-29.21400039999998],[-52.18759589999997,-29.214750699999954],[-52.18699719999995,-29.215796399999935],[-52.18586179999994,-29.217022],[-52.18470779999996,-29.21732979999996],[-52.18198129999996,-29.216453199999943],[-52.180821899999955,-29.215546399999933],[-52.177722499999966,-29.212385799999936],[-52.17663029999994,-29.21228389999993],[-52.17551739999993,-29.212496299999934],[-52.17438309999994,-29.213268],[-52.17183309999996,-29.217064],[-52.17105179999999,-29.21922259999996],[-52.171914399999935,-29.22123479999994],[-52.17286059999998,-29.22289279999995],[-52.174347599999976,-29.223636799999948],[-52.175678,-29.225930799999965],[-52.175932899999964,-29.225246399999946],[-52.17568869999997,-29.22500519999994],[-52.17621579999996,-29.224584499999942],[-52.175714399999954,-29.224186099999947],[-52.17568869999997,-29.223866399999956],[-52.176723599999946,-29.22298],[-52.17764289999997,-29.22312579999993],[-52.17809929999998,-29.223636299999946],[-52.17936559999998,-29.223860799999954],[-52.1812523,-29.223712099999943],[-52.182534799999985,-29.224051499999966],[-52.18524749999995,-29.223636299999953],[-52.188063099999965,-29.223771],[-52.18999159999998,-29.22424219999993],[-52.1913287,-29.22508369999997],[-52.193732899999986,-29.22714819999994],[-52.1963942,-29.228214099999946],[-52.19636849999995,-29.229167799999974],[-52.19720419999994,-29.230996599999983],[-52.19930859999993,-29.233436],[-52.198271299999924,-29.235484199999984],[-52.198027,-29.23776159999994],[-52.197522799999945,-29.23925339999994],[-52.19895269999996,-29.241228199999966],[-52.20044169999994,-29.245781799999975],[-52.200878,-29.244989699999966],[-52.200681799999984,-29.24335959999995],[-52.20180049999993,-29.241757499999945],[-52.20178469999996,-29.24106459999996],[-52.20133359999995,-29.240528699999967],[-52.201602899999955,-29.239626899999966],[-52.20409929999994,-29.237260099999954],[-52.203971799999984,-29.236178299999946],[-52.204543899999976,-29.235310199999976],[-52.206256799999956,-29.235813],[-52.20698459999995,-29.236860399999948],[-52.20696879999998,-29.237259799999947],[-52.2073142,-29.237454699999944],[-52.20766219999995,-29.23736349999997],[-52.20802679999996,-29.23900379999997],[-52.209029499999986,-29.238427599999962],[-52.209586599999966,-29.23763129999998],[-52.20905619999997,-29.235639099999954],[-52.20958929999995,-29.23425],[-52.209402,-29.233265799999963],[-52.20958679999996,-29.232741799999925],[-52.21139389999997,-29.232911399999963],[-52.20970559999996,-29.23172339999996],[-52.20936579999994,-29.231668899999935],[-52.20871529999994,-29.23213809999993],[-52.20903409999994,-29.230685299999948],[-52.20773819999994,-29.22962469999993],[-52.20754139999997,-29.22806429999998],[-52.206497199999944,-29.225602],[-52.206549799999955,-29.224422799999957],[-52.206861,-29.22414649999996],[-52.206291799999974,-29.22187319999994],[-52.205821,-29.221079399999955],[-52.20604169999996,-29.220655899999926],[-52.20677789999996,-29.22092089999995],[-52.20896609999994,-29.22255279999996],[-52.210848899999974,-29.223011],[-52.213561599999935,-29.22216669999993],[-52.21472349999994,-29.222417799999956],[-52.21576319999998,-29.222955199999937],[-52.216789,-29.223135299999967],[-52.217893699999934,-29.223036099999938],[-52.219284399999935,-29.223493199999947],[-52.21983449999993,-29.22504779999998],[-52.22039339999997,-29.22577109999998],[-52.221868,-29.226463599999935],[-52.22291759999997,-29.22729149999997],[-52.22301509999994,-29.228393699999963],[-52.223317399999985,-29.228897899999932],[-52.22426969999998,-29.229489699999924],[-52.22537519999997,-29.229684799999987],[-52.226252399999964,-29.230123299999946],[-52.229656,-29.23039289999998],[-52.22984989999998,-29.23116329999994],[-52.229201,-29.232549799999962],[-52.229212699999955,-29.23364879999997],[-52.23078309999994,-29.233696499999947],[-52.231620599999985,-29.234311599999955],[-52.23256349999997,-29.234218199999926],[-52.233207499999935,-29.235578199999967],[-52.235223,-29.234266899999973],[-52.235447,-29.235183399999983],[-52.234730199999944,-29.237100299999945],[-52.235255399999964,-29.2373818],[-52.235775599999954,-29.23683589999996],[-52.236578699999946,-29.236768699999967],[-52.236870899999985,-29.23729019999996],[-52.23655979999995,-29.238326199999953],[-52.237724,-29.238462699999953],[-52.23906089999998,-29.238257399999952],[-52.23882749999996,-29.23975459999997],[-52.239902899999954,-29.239990399999947],[-52.23994689999996,-29.240874699999956],[-52.241606,-29.240773399999963],[-52.24184809999997,-29.241758399999977],[-52.24256519999995,-29.241715199999927],[-52.24462479999993,-29.240788299999966],[-52.24600949999996,-29.24131589999995],[-52.24759769999997,-29.241362899999967],[-52.24803609999998,-29.240375399999934],[-52.24804749999998,-29.238716599999975],[-52.250044599999974,-29.236710099999986],[-52.25199679999997,-29.23272259999993],[-52.250971899999975,-29.22997879999998],[-52.25099949999998,-29.228664699999964],[-52.250621199999955,-29.22782349999995],[-52.250818899999956,-29.22748749999994],[-52.25067269999994,-29.226502199999963],[-52.25019179999998,-29.22612279999993],[-52.24939559999996,-29.226013299999966],[-52.24905659999996,-29.225629199999958],[-52.248978499999964,-29.224480299999968],[-52.24923849999994,-29.22374939999997],[-52.248726499999975,-29.2227645],[-52.24772169999994,-29.222193399999988],[-52.24737969999995,-29.221756499999977],[-52.247877399999936,-29.220112799999974],[-52.24790139999993,-29.21930519999995],[-52.24749919999994,-29.218475099999974],[-52.250998,-29.21656759999996],[-52.25360889999997,-29.21472639999996],[-52.258142899999946,-29.213469499999974],[-52.25906159999994,-29.211821799999946],[-52.25756939999996,-29.211299399999977],[-52.257010399999956,-29.209776099999942],[-52.25618269999996,-29.209303499999976],[-52.255718,-29.208638399999977],[-52.255479,-29.207349599999926],[-52.25488249999995,-29.20649049999997],[-52.25502409999995,-29.205812899999977],[-52.25316119999996,-29.20452659999996],[-52.25263069999994,-29.203646299999942],[-52.25297559999996,-29.202760199999947],[-52.252240599999936,-29.20188819999992],[-52.24994479999999,-29.20017179999996],[-52.24952119999995,-29.19946729999997],[-52.24908169999998,-29.197791599999956],[-52.24870169999997,-29.19733509999998],[-52.245515499999954,-29.20032419999995],[-52.244567199999956,-29.200772699999963],[-52.24386349999998,-29.200409],[-52.243435799999986,-29.199708099999953],[-52.24378749999994,-29.19608969999997],[-52.242998599999964,-29.195114399999962],[-52.234989799999944,-29.193035099999985],[-52.233060199999954,-29.19295109999996],[-52.23105409999994,-29.193413699999947],[-52.22844889999993,-29.19465509999998],[-52.226999699999965,-29.19572269999997],[-52.225501,-29.197745699999928]]]}},{"type":"Feature","properties":{"setor":"431205415000001","pop":231,"sigilo_pop":false,"dom":134,"sigilo_dom":0,"mulheres":122,"sigilo_mulheres":0,"c0_4":null,"sigilo_c0_4":1,"c5_9":null,"sigilo_c5_9":1,"i60_69":41,"sigilo_i60_69":0,"i70m":47,"sigilo_i70m":0,"indigenas":0,"sigilo_indigenas":0,"pretos_pardos":19,"sigilo_pretos_pardos":0,"dom_ocupados":104,"sigilo_dom_ocupados":0,"dom_agua":104,"sigilo_dom_agua":0,"dom_esgoto":4,"sigilo_dom_esgoto":0,"renda_resp":1950.6,"sigilo_renda_resp":0,"n_resp":104,"sigilo_n_resp":0,"dens":489.4,"sigilo_dens":false,"na_bacia":1,"area_pct_bacia":100.0,"metodo_recorte_bacia":"ponto_representativo_setor_2022; area_pct_geometrica","pop_n_validos":1,"pop_n_total":1,"pop_completude":1.0,"dom_n_validos":1,"dom_n_total":1,"dom_completude":1.0,"dom_ocupados_n_validos":1,"dom_ocupados_n_total":1,"dom_ocupados_completude":1.0,"mulheres_n_validos":1,"mulheres_n_total":1,"mulheres_completude":1.0,"c0_4_n_validos":0,"c0_4_n_total":1,"c0_4_completude":0.0,"c5_9_n_validos":0,"c5_9_n_total":1,"c5_9_completude":0.0,"i60_69_n_validos":1,"i60_69_n_total":1,"i60_69_completude":1.0,"i70m_n_validos":1,"i70m_n_total":1,"i70m_completude":1.0,"indigenas_n_validos":1,"indigenas_n_total":1,"indigenas_completude":1.0,"pretos_pardos_n_validos":1,"pretos_pardos_n_total":1,"pretos_pardos_completude":1.0,"dom_agua_n_validos":1,"dom_agua_n_total":1,"dom_agua_completude":1.0,"dom_esgoto_n_validos":1,"dom_esgoto_n_total":1,"dom_esgoto_completude":1.0,"n_resp_n_validos":1,"n_resp_n_total":1,"n_resp_completude":1.0,"renda_resp_n_validos":1,"renda_resp_n_total":1,"renda_resp_completude":1.0,"dens_n_validos":1,"dens_n_total":1,"dens_completude":1.0,"status_borda_bacia":"total","metodo_area_bacia":"interseção geométrica em EPSG:5880","metodo_na_bacia":"ponto_representativo_setor_2022_within_bacia","municipio":"Marques de Souza","cod_mun":"4312054","mun_pct_na_bacia":100.0,"mun_pop_total":3969,"mun_pop_na_bacia":3969.0,"mun_ubs_iede":2,"mun_hospitais_iede":1,"mun_escolas_iede":7,"mun_bombeiros_iede":1,"mun_servicos_cobertura":"cadastro_IEDE_parcial_nao_inventario","mun_icm_faixa":"C","mun_icm_pontos":13,"mun_icm_prioritario":"sim","mun_ubs_iede_status":"published","mun_hospitais_iede_status":"published","mun_escolas_iede_status":"published","mun_bombeiros_iede_status":"published"},"geometry":{"type":"Polygon","coordinates":[[[-52.147712299999974,-29.26182239999996],[-52.14418359999996,-29.266119099999962],[-52.14427269999993,-29.268585799999983],[-52.14811,-29.263542399999963],[-52.15030169999994,-29.262908],[-52.15030489999998,-29.263373899999973],[-52.152372,-29.263459],[-52.152358399999976,-29.26301779999994],[-52.154934199999964,-29.26303139999992],[-52.15678109999994,-29.26276339999998],[-52.15846239999996,-29.263085799999928],[-52.16123659999994,-29.26232719999996],[-52.163351,-29.263224799999925],[-52.16435489999997,-29.264318199999938],[-52.165223099999935,-29.263085499999935],[-52.16436409999994,-29.261949399999942],[-52.16365759999997,-29.261590799999965],[-52.16340359999998,-29.26057959999996],[-52.16247079999994,-29.26037019999995],[-52.16075759999995,-29.26061989999994],[-52.15779749999996,-29.261474],[-52.15722949999997,-29.26069649999993],[-52.156125799999984,-29.260519199999965],[-52.1544588,-29.260821399999948],[-52.15378449999997,-29.261570699999925],[-52.152256,-29.261369299999956],[-52.15082909999995,-29.26082139999994],[-52.147712299999974,-29.26182239999996]]]}},{"type":"Feature","properties":{"setor":"431205415000002","pop":216,"sigilo_pop":false,"dom":120,"sigilo_dom":0,"mulheres":109,"sigilo_mulheres":0,"c0_4":12,"sigilo_c0_4":0,"c5_9":17,"sigilo_c5_9":0,"i60_69":39,"sigilo_i60_69":0,"i70m":38,"sigilo_i70m":0,"indigenas":0,"sigilo_indigenas":0,"pretos_pardos":null,"sigilo_pretos_pardos":1,"dom_ocupados":78,"sigilo_dom_ocupados":0,"dom_agua":51,"sigilo_dom_agua":0,"dom_esgoto":0,"sigilo_dom_esgoto":0,"renda_resp":2346.31,"sigilo_renda_resp":0,"n_resp":78,"sigilo_n_resp":0,"dens":13.1,"sigilo_dens":false,"na_bacia":1,"area_pct_bacia":100.0,"metodo_recorte_bacia":"ponto_representativo_setor_2022; area_pct_geometrica","pop_n_validos":1,"pop_n_total":1,"pop_completude":1.0,"dom_n_validos":1,"dom_n_total":1,"dom_completude":1.0,"dom_ocupados_n_validos":1,"dom_ocupados_n_total":1,"dom_ocupados_completude":1.0,"mulheres_n_validos":1,"mulheres_n_total":1,"mulheres_completude":1.0,"c0_4_n_validos":1,"c0_4_n_total":1,"c0_4_completude":1.0,"c5_9_n_validos":1,"c5_9_n_total":1,"c5_9_completude":1.0,"i60_69_n_validos":1,"i60_69_n_total":1,"i60_69_completude":1.0,"i70m_n_validos":1,"i70m_n_total":1,"i70m_completude":1.0,"indigenas_n_validos":1,"indigenas_n_total":1,"indigenas_completude":1.0,"pretos_pardos_n_validos":0,"pretos_pardos_n_total":1,"pretos_pardos_completude":0.0,"dom_agua_n_validos":1,"dom_agua_n_total":1,"dom_agua_completude":1.0,"dom_esgoto_n_validos":1,"dom_esgoto_n_total":1,"dom_esgoto_completude":1.0,"n_resp_n_validos":1,"n_resp_n_total":1,"n_resp_completude":1.0,"renda_resp_n_validos":1,"renda_resp_n_total":1,"renda_resp_completude":1.0,"dens_n_validos":1,"dens_n_total":1,"dens_completude":1.0,"status_borda_bacia":"total","metodo_area_bacia":"interseção geométrica em EPSG:5880","metodo_na_bacia":"ponto_representativo_setor_2022_within_bacia","municipio":"Marques de Souza","cod_mun":"4312054","mun_pct_na_bacia":100.0,"mun_pop_total":3969,"mun_pop_na_bacia":3969.0,"mun_ubs_iede":2,"mun_hospitais_iede":1,"mun_escolas_iede":7,"mun_bombeiros_iede":1,"mun_servicos_cobertura":"cadastro_IEDE_parcial_nao_inventario","mun_icm_faixa":"C","mun_icm_pontos":13,"mun_icm_prioritario":"sim","mun_ubs_iede_status":"published","mun_hospitais_iede_status":"published","mun_escolas_iede_status":"published","mun_bombeiros_iede_status":"published"},"geometry":{"type":"Polygon","coordinates":[[[-52.16408249999996,-29.261715699999964],[-52.16522309999994,-29.262964599999968],[-52.16435489999997,-29.264318199999938],[-52.163351,-29.263224799999925],[-52.16123659999994,-29.26232719999996],[-52.15846239999996,-29.263085799999928],[-52.15678109999994,-29.26276339999998],[-52.154934199999964,-29.26303139999992],[-52.152358399999976,-29.26301779999994],[-52.152372,-29.263459],[-52.15030489999998,-29.263373899999973],[-52.15030169999994,-29.262908],[-52.14811,-29.263542399999963],[-52.14427269999993,-29.268585799999983],[-52.14418359999996,-29.266119099999962],[-52.147712299999974,-29.26182239999996],[-52.143906899999934,-29.262964599999965],[-52.142226,-29.26390319999996],[-52.14118689999998,-29.263061299999947],[-52.13968579999993,-29.2632738],[-52.13887619999997,-29.26386769999993],[-52.136873899999955,-29.271548],[-52.13631139999996,-29.276579599999945],[-52.13496689999994,-29.27738679999993],[-52.13233939999997,-29.2781088],[-52.130939799999965,-29.278321799999958],[-52.13012979999997,-29.27803939999995],[-52.129446899999955,-29.278943],[-52.12995479999995,-29.279676099999953],[-52.12954849999995,-29.280046599999938],[-52.13023189999996,-29.280586399999947],[-52.130380799999955,-29.281555199999964],[-52.131423299999945,-29.282044499999976],[-52.134655899999984,-29.285008899999973],[-52.13457269999998,-29.286176899999926],[-52.13488679999994,-29.287353],[-52.13660459999994,-29.29025289999993],[-52.14256169999993,-29.296499299999944],[-52.143235899999986,-29.296708699999947],[-52.14463049999995,-29.29668459999993],[-52.14815859999993,-29.297876599999938],[-52.14964549999996,-29.297594699999927],[-52.15079079999998,-29.296596],[-52.151779,-29.29618519999997],[-52.15300739999998,-29.29662009999998],[-52.15336759999996,-29.297425599999944],[-52.154281899999944,-29.297264499999986],[-52.154438899999946,-29.296829599999963],[-52.154254199999976,-29.29558919999993],[-52.15678479999997,-29.29192429999994],[-52.158059399999956,-29.291167099999946],[-52.15900139999996,-29.291296],[-52.159537099999966,-29.291602099999974],[-52.16061769999993,-29.291561799999958],[-52.16230779999995,-29.290372699999985],[-52.16275109999999,-29.287980299999962],[-52.163176,-29.287343899999936],[-52.16242789999996,-29.28578119999997],[-52.162584899999956,-29.28524959999994],[-52.163767099999966,-29.285708699999933],[-52.165346399999976,-29.28582149999995],[-52.16743369999995,-29.286393399999945],[-52.17088789999997,-29.28508039999997],[-52.17380639999993,-29.284814599999947],[-52.1760599,-29.28558789999994],[-52.17808249999997,-29.28498369999994],[-52.18159209999993,-29.285434799999965],[-52.182709699999975,-29.28521729999994],[-52.18387339999999,-29.284613199999953],[-52.18548969999995,-29.284379599999966],[-52.18770619999998,-29.28568449999994],[-52.18782479999992,-29.28654849999998],[-52.19371779999995,-29.28415169999994],[-52.19649489999995,-29.28090009999994],[-52.19796719999994,-29.280483699999934],[-52.199951099999964,-29.280300699999934],[-52.20085309999996,-29.27987179999996],[-52.20151029999994,-29.278973],[-52.20182639999996,-29.278295399999926],[-52.2000326,-29.276887399999964],[-52.199619699999964,-29.27618449999993],[-52.19931789999998,-29.274342099999963],[-52.198708199999935,-29.273594799999948],[-52.19881749999997,-29.27257219999995],[-52.19809249999997,-29.271430499999944],[-52.19829469999997,-29.27038129999994],[-52.19787469999994,-29.27006349999994],[-52.19699849999995,-29.26989909999998],[-52.196265,-29.26862609999994],[-52.195422299999954,-29.26809019999996],[-52.195297,-29.267483499999972],[-52.192573899999964,-29.266900399999948],[-52.19175629999995,-29.266982],[-52.190738299999964,-29.266304799999933],[-52.18967829999997,-29.265975899999948],[-52.188341299999934,-29.26646179999993],[-52.185504899999955,-29.26611489999993],[-52.183325199999956,-29.26650969999998],[-52.18306659999996,-29.26798409999998],[-52.18231849999996,-29.268354699999975],[-52.18117329999995,-29.268491699999963],[-52.17973249999994,-29.267637599999937],[-52.17754359999997,-29.26688839999998],[-52.176407599999955,-29.265687899999936],[-52.175179299999975,-29.265683899999946],[-52.17233459999994,-29.265027199999967],[-52.171438799999976,-29.26374609999993],[-52.17040429999997,-29.263810599999932],[-52.168898899999924,-29.264286],[-52.16770749999995,-29.264149],[-52.16732879999995,-29.263770299999976],[-52.16704249999998,-29.262876],[-52.16619169999996,-29.26223539999994],[-52.165121499999934,-29.26172379999997],[-52.16408249999996,-29.261715699999964]]]}},{"type":"Feature","properties":{"setor":"431205415000003","pop":270,"sigilo_pop":false,"dom":148,"sigilo_dom":0,"mulheres":133,"sigilo_mulheres":0,"c0_4":9,"sigilo_c0_4":0,"c5_9":11,"sigilo_c5_9":0,"i60_69":49,"sigilo_i60_69":0,"i70m":45,"sigilo_i70m":0,"indigenas":null,"sigilo_indigenas":1,"pretos_pardos":5,"sigilo_pretos_pardos":0,"dom_ocupados":96,"sigilo_dom_ocupados":0,"dom_agua":81,"sigilo_dom_agua":0,"dom_esgoto":0,"sigilo_dom_esgoto":0,"renda_resp":2649.59,"sigilo_renda_resp":0,"n_resp":96,"sigilo_n_resp":0,"dens":14.5,"sigilo_dens":false,"na_bacia":1,"area_pct_bacia":100.0,"metodo_recorte_bacia":"ponto_representativo_setor_2022; area_pct_geometrica","pop_n_validos":1,"pop_n_total":1,"pop_completude":1.0,"dom_n_validos":1,"dom_n_total":1,"dom_completude":1.0,"dom_ocupados_n_validos":1,"dom_ocupados_n_total":1,"dom_ocupados_completude":1.0,"mulheres_n_validos":1,"mulheres_n_total":1,"mulheres_completude":1.0,"c0_4_n_validos":1,"c0_4_n_total":1,"c0_4_completude":1.0,"c5_9_n_validos":1,"c5_9_n_total":1,"c5_9_completude":1.0,"i60_69_n_validos":1,"i60_69_n_total":1,"i60_69_completude":1.0,"i70m_n_validos":1,"i70m_n_total":1,"i70m_completude":1.0,"indigenas_n_validos":0,"indigenas_n_total":1,"indigenas_completude":0.0,"pretos_pardos_n_validos":1,"pretos_pardos_n_total":1,"pretos_pardos_completude":1.0,"dom_agua_n_validos":1,"dom_agua_n_total":1,"dom_agua_completude":1.0,"dom_esgoto_n_validos":1,"dom_esgoto_n_total":1,"dom_esgoto_completude":1.0,"n_resp_n_validos":1,"n_resp_n_total":1,"n_resp_completude":1.0,"renda_resp_n_validos":1,"renda_resp_n_total":1,"renda_resp_completude":1.0,"dens_n_validos":1,"dens_n_total":1,"dens_completude":1.0,"status_borda_bacia":"total","metodo_area_bacia":"interseção geométrica em EPSG:5880","metodo_na_bacia":"ponto_representativo_setor_2022_within_bacia","municipio":"Marques de Souza","cod_mun":"4312054","mun_pct_na_bacia":100.0,"mun_pop_total":3969,"mun_pop_na_bacia":3969.0,"mun_ubs_iede":2,"mun_hospitais_iede":1,"mun_escolas_iede":7,"mun_bombeiros_iede":1,"mun_servicos_cobertura":"cadastro_IEDE_parcial_nao_inventario","mun_icm_faixa":"C","mun_icm_pontos":13,"mun_icm_prioritario":"sim","mun_ubs_iede_status":"published","mun_hospitais_iede_status":"published","mun_escolas_iede_status":"published","mun_bombeiros_iede_status":"published"},"geometry":{"type":"Polygon","coordinates":[[[-52.13968579999993,-29.2632738],[-52.14118689999998,-29.263061299999947],[-52.142226,-29.26390319999996],[-52.143906899999934,-29.262964599999965],[-52.15082909999995,-29.26082139999994],[-52.152256,-29.261369299999956],[-52.15378449999997,-29.261570699999925],[-52.1544588,-29.260821399999948],[-52.156125799999984,-29.260519199999965],[-52.15722949999997,-29.26069649999993],[-52.15779749999996,-29.261474],[-52.16075759999995,-29.26061989999994],[-52.16247079999994,-29.26037019999995],[-52.16340359999998,-29.26057959999996],[-52.16376379999998,-29.261667399999965],[-52.165121499999934,-29.26172379999997],[-52.16683009999996,-29.262690599999917],[-52.16770749999995,-29.264149],[-52.168898899999924,-29.264286],[-52.17040429999997,-29.263810599999932],[-52.171438799999976,-29.26374609999993],[-52.17233459999994,-29.265027199999967],[-52.175179299999975,-29.265683899999946],[-52.176407599999955,-29.265687899999936],[-52.17754359999997,-29.26688839999998],[-52.17973249999994,-29.267637599999937],[-52.18117329999995,-29.268491699999963],[-52.18231849999996,-29.268354699999975],[-52.18306659999996,-29.26798409999998],[-52.183260599999976,-29.267686],[-52.18314969999995,-29.26676749999995],[-52.183436,-29.26646939999994],[-52.185504899999955,-29.26611489999993],[-52.188341299999934,-29.26646179999993],[-52.18962309999995,-29.26602549999995],[-52.19035579999996,-29.263710899999975],[-52.191195099999966,-29.26265979999993],[-52.19354359999994,-29.26117449999999],[-52.19546139999995,-29.26078279999996],[-52.19748219999997,-29.2599489],[-52.19811329999994,-29.258335299999935],[-52.19797109999996,-29.256397699999972],[-52.19841569999995,-29.254516599999942],[-52.19785059999998,-29.253404299999936],[-52.20329609999993,-29.24651649999992],[-52.20144029999994,-29.246256599999974],[-52.19920079999997,-29.246418499999933],[-52.200088199999975,-29.246150299999954],[-52.20044169999994,-29.245781799999975],[-52.19895269999996,-29.241228199999966],[-52.197522799999945,-29.23925339999994],[-52.198027,-29.23776159999994],[-52.198271299999924,-29.235484199999984],[-52.19930859999993,-29.233436],[-52.19720419999994,-29.230996599999983],[-52.19636849999995,-29.229167799999974],[-52.1963942,-29.228214099999946],[-52.193732899999986,-29.22714819999994],[-52.1908016,-29.224691],[-52.18933589999994,-29.223995399999982],[-52.18524749999995,-29.223636299999953],[-52.183139099999956,-29.224029099999925],[-52.18204949999995,-29.224037499999955],[-52.181069099999945,-29.223703699999927],[-52.17936559999998,-29.223860799999954],[-52.17809929999998,-29.223636299999946],[-52.17764289999997,-29.22312579999993],[-52.17678789999997,-29.22297439999994],[-52.17568869999997,-29.223866399999956],[-52.175714399999954,-29.224186099999947],[-52.17620929999998,-29.22447789999995],[-52.17568869999997,-29.22500519999994],[-52.17593289999997,-29.22521279999996],[-52.175678,-29.225930799999965],[-52.17595289999998,-29.22647589999997],[-52.17498779999994,-29.228049899999977],[-52.174091199999964,-29.228668],[-52.17138939999995,-29.229393399999932],[-52.16959949999995,-29.229180299999925],[-52.16769439999996,-29.22795259999998],[-52.166213599999935,-29.226566499999922],[-52.16307279999995,-29.225087099999936],[-52.15811569999993,-29.221683199999966],[-52.15492509999996,-29.222318699999967],[-52.15360339999995,-29.222811],[-52.15292069999999,-29.22387479999998],[-52.15167259999998,-29.228002],[-52.15105329999994,-29.233624099999926],[-52.151472799999965,-29.23593919999996],[-52.15666869999996,-29.241537199999975],[-52.158001799999965,-29.243696],[-52.15855639999995,-29.247351399999957],[-52.15726429999996,-29.25156869999995],[-52.157768199999964,-29.25360309999997],[-52.15814729999994,-29.25717179999998],[-52.15703859999997,-29.257970399999966],[-52.15433329999996,-29.25854319999996],[-52.148748799999964,-29.258775399999944],[-52.142024,-29.25830869999993],[-52.140976,-29.258852299999937],[-52.14089549999994,-29.26134679999995],[-52.13976549999995,-29.262777],[-52.13968579999993,-29.2632738]]]}}]}
