{"type":"FeatureCollection","name":"4312609","crs":{"type":"name","properties":{"name":"urn:ogc:def:crs:OGC:1.3:CRS84"}},"features":[{"type":"Feature","properties":{"setor":"431260905000001","pop":504,"sigilo_pop":false,"dom":255,"sigilo_dom":false,"mulheres":257,"sigilo_mulheres":false,"c0_4":20,"sigilo_c0_4":false,"c5_9":27,"sigilo_c5_9":false,"i60_69":72,"sigilo_i60_69":false,"i70m":87,"sigilo_i70m":false,"indigenas":0,"sigilo_indigenas":false,"pretos_pardos":60,"sigilo_pretos_pardos":false,"dom_ocupados":208,"sigilo_dom_ocupados":false,"dom_agua":208,"sigilo_dom_agua":false,"dom_esgoto":5,"sigilo_dom_esgoto":false,"renda_resp":3338.96,"sigilo_renda_resp":false,"n_resp":208,"sigilo_n_resp":false,"dens":1412.9,"sigilo_dens":false,"na_bacia":1,"area_pct_bacia":100.0,"metodo_recorte_bacia":"ponto_representativo_setor_2022; area_pct_geometrica"},"geometry":{"type":"Polygon","coordinates":[[[-51.86036279999996,-29.16432309999994],[-51.86832469999996,-29.169182599999946],[-51.870807799999966,-29.166256899999947],[-51.86815379999996,-29.16462239999992],[-51.86792179999998,-29.164888],[-51.864083,-29.162352599999966],[-51.863602499999956,-29.162894699999978],[-51.862238699999985,-29.161956],[-51.86036279999996,-29.16432309999994]]]}},{"type":"Feature","properties":{"setor":"431260905000002","pop":674,"sigilo_pop":false,"dom":351,"sigilo_dom":false,"mulheres":371,"sigilo_mulheres":false,"c0_4":26,"sigilo_c0_4":false,"c5_9":30,"sigilo_c5_9":false,"i60_69":89,"sigilo_i60_69":false,"i70m":116,"sigilo_i70m":false,"indigenas":null,"sigilo_indigenas":true,"pretos_pardos":63,"sigilo_pretos_pardos":false,"dom_ocupados":294,"sigilo_dom_ocupados":false,"dom_agua":294,"sigilo_dom_agua":false,"dom_esgoto":27,"sigilo_dom_esgoto":false,"renda_resp":3342.41,"sigilo_renda_resp":false,"n_resp":294,"sigilo_n_resp":false,"dens":1611.5,"sigilo_dens":false,"na_bacia":1,"area_pct_bacia":100.0,"metodo_recorte_bacia":"ponto_representativo_setor_2022; area_pct_geometrica"},"geometry":{"type":"Polygon","coordinates":[[[-51.87156379999993,-29.165392099999956],[-51.86832469999996,-29.169182599999946],[-51.87261079999996,-29.171798699999954],[-51.875800599999934,-29.171704299999917],[-51.87662609999995,-29.16535449999998],[-51.87317419999993,-29.16513219999997],[-51.87302109999997,-29.16546559999994],[-51.87156379999993,-29.165392099999956]]]}},{"type":"Feature","properties":{"setor":"431260905000003","pop":556,"sigilo_pop":false,"dom":247,"sigilo_dom":false,"mulheres":283,"sigilo_mulheres":false,"c0_4":33,"sigilo_c0_4":false,"c5_9":31,"sigilo_c5_9":false,"i60_69":67,"sigilo_i60_69":false,"i70m":79,"sigilo_i70m":false,"indigenas":0,"sigilo_indigenas":false,"pretos_pardos":70,"sigilo_pretos_pardos":false,"dom_ocupados":198,"sigilo_dom_ocupados":false,"dom_agua":198,"sigilo_dom_agua":false,"dom_esgoto":35,"sigilo_dom_esgoto":false,"renda_resp":2691.93,"sigilo_renda_resp":false,"n_resp":198,"sigilo_n_resp":false,"dens":2971.8,"sigilo_dens":false,"na_bacia":1,"area_pct_bacia":100.0,"metodo_recorte_bacia":"ponto_representativo_setor_2022; area_pct_geometrica"},"geometry":{"type":"Polygon","coordinates":[[[-51.87662609999995,-29.16535449999998],[-51.875800599999934,-29.171704299999917],[-51.879655899999925,-29.171590199999965],[-51.87773779999997,-29.164193799999946],[-51.877165099999964,-29.165397299999935],[-51.87662609999995,-29.16535449999998]]]}},{"type":"Feature","properties":{"setor":"431260905000004","pop":415,"sigilo_pop":false,"dom":168,"sigilo_dom":false,"mulheres":217,"sigilo_mulheres":false,"c0_4":27,"sigilo_c0_4":false,"c5_9":24,"sigilo_c5_9":false,"i60_69":55,"sigilo_i60_69":false,"i70m":44,"sigilo_i70m":false,"indigenas":0,"sigilo_indigenas":false,"pretos_pardos":80,"sigilo_pretos_pardos":false,"dom_ocupados":154,"sigilo_dom_ocupados":false,"dom_agua":147,"sigilo_dom_agua":false,"dom_esgoto":16,"sigilo_dom_esgoto":false,"renda_resp":2194.82,"sigilo_renda_resp":false,"n_resp":154,"sigilo_n_resp":false,"dens":840.0,"sigilo_dens":false,"na_bacia":1,"area_pct_bacia":100.0,"metodo_recorte_bacia":"ponto_representativo_setor_2022; area_pct_geometrica"},"geometry":{"type":"Polygon","coordinates":[[[-51.87773779999997,-29.164193799999946],[-51.879655899999925,-29.171590199999965],[-51.88612389999997,-29.171398399999934],[-51.88718329999994,-29.168250199999925],[-51.88208259999993,-29.166245799999963],[-51.87912939999995,-29.162739599999952],[-51.8781628,-29.162187699999954],[-51.87773779999997,-29.164193799999946]]]}},{"type":"Feature","properties":{"setor":"431260905000005","pop":427,"sigilo_pop":false,"dom":172,"sigilo_dom":false,"mulheres":232,"sigilo_mulheres":false,"c0_4":23,"sigilo_c0_4":false,"c5_9":26,"sigilo_c5_9":false,"i60_69":51,"sigilo_i60_69":false,"i70m":28,"sigilo_i70m":false,"indigenas":0,"sigilo_indigenas":false,"pretos_pardos":136,"sigilo_pretos_pardos":false,"dom_ocupados":158,"sigilo_dom_ocupados":false,"dom_agua":158,"sigilo_dom_agua":false,"dom_esgoto":null,"sigilo_dom_esgoto":true,"renda_resp":2040.07,"sigilo_renda_resp":false,"n_resp":158,"sigilo_n_resp":false,"dens":470.6,"sigilo_dens":false,"na_bacia":1,"area_pct_bacia":100.0,"metodo_recorte_bacia":"ponto_representativo_setor_2022; area_pct_geometrica"},"geometry":{"type":"Polygon","coordinates":[[[-51.88360049999994,-29.157212],[-51.87907759999996,-29.16098569999996],[-51.8781628,-29.162187699999954],[-51.87912939999995,-29.162739599999952],[-51.88208259999993,-29.166245799999963],[-51.88717219999996,-29.168287399999947],[-51.887083,-29.162119499999957],[-51.89256519999998,-29.159119599999933],[-51.89405949999997,-29.157655599999938],[-51.88471339999996,-29.15815119999996],[-51.88493479999994,-29.15742239999997],[-51.88636329999997,-29.157150299999962],[-51.88801179999996,-29.155491599999944],[-51.884683299999956,-29.15567619999996],[-51.88360049999994,-29.157212]]]}},{"type":"Feature","properties":{"setor":"431260905000006","pop":434,"sigilo_pop":false,"dom":188,"sigilo_dom":false,"mulheres":223,"sigilo_mulheres":false,"c0_4":20,"sigilo_c0_4":false,"c5_9":24,"sigilo_c5_9":false,"i60_69":59,"sigilo_i60_69":false,"i70m":82,"sigilo_i70m":false,"indigenas":0,"sigilo_indigenas":false,"pretos_pardos":57,"sigilo_pretos_pardos":false,"dom_ocupados":168,"sigilo_dom_ocupados":false,"dom_agua":163,"sigilo_dom_agua":false,"dom_esgoto":13,"sigilo_dom_esgoto":false,"renda_resp":2793.9,"sigilo_renda_resp":false,"n_resp":168,"sigilo_n_resp":false,"dens":1087.5,"sigilo_dens":false,"na_bacia":1,"area_pct_bacia":100.0,"metodo_recorte_bacia":"ponto_representativo_setor_2022; area_pct_geometrica"},"geometry":{"type":"Polygon","coordinates":[[[-51.86361169999998,-29.158843699999977],[-51.86148849999995,-29.160450599999926],[-51.862238699999985,-29.161956],[-51.863602499999956,-29.162894699999978],[-51.864083,-29.162352599999966],[-51.86792179999998,-29.164888],[-51.86815379999996,-29.16462239999992],[-51.870807799999966,-29.166256899999947],[-51.87156379999993,-29.165392099999956],[-51.87302109999997,-29.16546559999994],[-51.87317419999993,-29.16513219999997],[-51.877165099999964,-29.165397299999935],[-51.87773779999997,-29.164193799999946],[-51.8781628,-29.162187699999954],[-51.876912499999946,-29.162202],[-51.87504969999998,-29.163274099999978],[-51.873625,-29.163680199999927],[-51.869893099999956,-29.16344959999997],[-51.868674899999974,-29.163134299999967],[-51.86706139999996,-29.162258099999967],[-51.86361169999998,-29.158843699999977]]]}},{"type":"Feature","properties":{"setor":"431260905000009","pop":142,"sigilo_pop":false,"dom":97,"sigilo_dom":false,"mulheres":68,"sigilo_mulheres":false,"c0_4":null,"sigilo_c0_4":true,"c5_9":null,"sigilo_c5_9":true,"i60_69":27,"sigilo_i60_69":false,"i70m":21,"sigilo_i70m":false,"indigenas":0,"sigilo_indigenas":false,"pretos_pardos":39,"sigilo_pretos_pardos":false,"dom_ocupados":56,"sigilo_dom_ocupados":false,"dom_agua":18,"sigilo_dom_agua":false,"dom_esgoto":0,"sigilo_dom_esgoto":false,"renda_resp":3126.54,"sigilo_renda_resp":false,"n_resp":56,"sigilo_n_resp":false,"dens":7.8,"sigilo_dens":false,"na_bacia":1,"area_pct_bacia":100.0,"metodo_recorte_bacia":"ponto_representativo_setor_2022; area_pct_geometrica"},"geometry":{"type":"Polygon","coordinates":[[[-51.86268009999998,-29.11622979999992],[-51.86280009999996,-29.116889],[-51.863729,-29.117262],[-51.86394989999996,-29.11761639999998],[-51.86381929999993,-29.118701499999936],[-51.86424539999996,-29.120079699999962],[-51.86474839999994,-29.12021209999994],[-51.86548049999993,-29.119539],[-51.86603029999998,-29.119408],[-51.86641119999996,-29.119981299999946],[-51.86619449999995,-29.120431],[-51.867235499999936,-29.121386599999923],[-51.86792219999995,-29.122708599999946],[-51.86776439999994,-29.123783899999978],[-51.86822529999995,-29.125251499999933],[-51.86826219999995,-29.12704369999995],[-51.86894319999993,-29.128644399999924],[-51.868187699999964,-29.129494],[-51.86701689999995,-29.13192359999994],[-51.867142299999955,-29.13428889999994],[-51.865941299999974,-29.13605149999994],[-51.86573309999994,-29.14003289999994],[-51.864982399999974,-29.14158919999993],[-51.86703269999998,-29.14154459999998],[-51.86755579999993,-29.141925199999957],[-51.869438199999934,-29.14384439999997],[-51.87010249999997,-29.145247],[-51.87025009999997,-29.146206599999967],[-51.87013939999998,-29.147276899999955],[-51.86906909999993,-29.150045099999954],[-51.86630909999996,-29.154885299999926],[-51.86639169999995,-29.15582139999998],[-51.86672969999996,-29.156494599999967],[-51.869429699999955,-29.159179099999964],[-51.87140449999998,-29.159703599999943],[-51.87319419999994,-29.15962649999994],[-51.875743599999964,-29.158539299999966],[-51.877489699999956,-29.158165899999968],[-51.87969789999993,-29.15845329999997],[-51.88040059999997,-29.15876069999994],[-51.88100069999996,-29.159370299999978],[-51.88360049999994,-29.157212],[-51.884683299999956,-29.15567619999996],[-51.88801179999996,-29.155491599999944],[-51.88636329999997,-29.157150299999962],[-51.88493479999994,-29.15742239999997],[-51.88471339999996,-29.15815119999996],[-51.89405949999997,-29.157655599999938],[-51.897808,-29.15358829999997],[-51.89797539999995,-29.15276169999992],[-51.89709289999996,-29.14577209999992],[-51.89627669999993,-29.144581399999932],[-51.896414599999964,-29.143391599999973],[-51.89693809999995,-29.14270389999995],[-51.89785939999996,-29.142054799999986],[-51.903395299999936,-29.138700799999988],[-51.90506389999996,-29.136994],[-51.906696799999956,-29.134342599999968],[-51.90724329999995,-29.132687599999933],[-51.90747779999998,-29.127947599999967],[-51.90793629999997,-29.127223],[-51.91018769999994,-29.125056699999952],[-51.91085959999999,-29.123473599999944],[-51.91071969999996,-29.122802899999954],[-51.909415499999966,-29.12246089999995],[-51.90921789999993,-29.12181939999993],[-51.909408,-29.121118899999942],[-51.91038539999994,-29.120052499999936],[-51.91496169999994,-29.116302399999924],[-51.915468699999956,-29.115424299999972],[-51.91562859999993,-29.11459429999996],[-51.91543519999993,-29.112656],[-51.91480609999997,-29.11096249999997],[-51.91350859999994,-29.1094313],[-51.91264969999998,-29.10880059999993],[-51.912066799999934,-29.10856409999996],[-51.90846279999994,-29.108573],[-51.90771749999993,-29.10747709999998],[-51.893808899999954,-29.10671559999997],[-51.893673399999955,-29.11644219999993],[-51.86268009999998,-29.11622979999992]]]}},{"type":"Feature","properties":{"setor":"431260905000010","pop":225,"sigilo_pop":false,"dom":113,"sigilo_dom":false,"mulheres":110,"sigilo_mulheres":false,"c0_4":11,"sigilo_c0_4":false,"c5_9":22,"sigilo_c5_9":false,"i60_69":29,"sigilo_i60_69":false,"i70m":31,"sigilo_i70m":false,"indigenas":0,"sigilo_indigenas":false,"pretos_pardos":39,"sigilo_pretos_pardos":false,"dom_ocupados":83,"sigilo_dom_ocupados":false,"dom_agua":41,"sigilo_dom_agua":false,"dom_esgoto":null,"sigilo_dom_esgoto":true,"renda_resp":6169.71,"sigilo_renda_resp":false,"n_resp":83,"sigilo_n_resp":false,"dens":10.2,"sigilo_dens":false,"na_bacia":1,"area_pct_bacia":100.0,"metodo_recorte_bacia":"ponto_representativo_setor_2022; area_pct_geometrica"},"geometry":{"type":"Polygon","coordinates":[[[-51.80078019999996,-29.11583629999995],[-51.80139219999995,-29.117619799999947],[-51.80085829999996,-29.120500799999938],[-51.80127489999995,-29.120950399999966],[-51.80239,-29.121153799999938],[-51.801471,-29.121956599999976],[-51.801360699999975,-29.12284509999995],[-51.80177729999997,-29.12331609999995],[-51.80343149999993,-29.12355159999993],[-51.80398289999994,-29.12471829999998],[-51.80469359999995,-29.12532849999997],[-51.80480389999996,-29.125585399999984],[-51.804313799999925,-29.126623599999963],[-51.804228,-29.127554899999954],[-51.80468139999993,-29.128197099999962],[-51.80508569999995,-29.129759899999943],[-51.80618849999996,-29.12998459999995],[-51.80689919999998,-29.13037],[-51.80697279999998,-29.130915799999965],[-51.80612729999996,-29.131558],[-51.805943499999955,-29.133334799999943],[-51.80734039999999,-29.13498309999995],[-51.80763449999995,-29.135817899999942],[-51.808982299999975,-29.13622459999993],[-51.810599799999984,-29.13558239999998],[-51.810881599999966,-29.136331599999945],[-51.811837399999945,-29.13663129999997],[-51.81275639999996,-29.13643869999992],[-51.812854399999935,-29.135807199999938],[-51.81431259999994,-29.135657399999957],[-51.815819699999956,-29.13736979999994],[-51.815807499999956,-29.139060899999933],[-51.81534179999994,-29.139852799999964],[-51.81564819999994,-29.140270199999975],[-51.81709409999996,-29.140923099999945],[-51.81786609999995,-29.142228799999952],[-51.818846299999954,-29.14267829999994],[-51.81998589999995,-29.14261409999994],[-51.821395,-29.142057499999975],[-51.82255909999998,-29.142186],[-51.82295119999998,-29.14267829999994],[-51.82355159999997,-29.14465819999998],[-51.82406629999997,-29.145396599999962],[-51.82503429999997,-29.145974499999955],[-51.82622289999995,-29.146188599999945],[-51.827399199999945,-29.145589299999976],[-51.82771779999995,-29.14462609999999],[-51.82970279999995,-29.142967199999923],[-51.83108279999993,-29.141360299999977],[-51.82953809999998,-29.138907499999963],[-51.82976209999999,-29.137201099999974],[-51.833082599999955,-29.134919],[-51.83575619999994,-29.13441379999994],[-51.84290649999997,-29.135494],[-51.850624,-29.138125199999937],[-51.856740599999966,-29.14174239999994],[-51.864982399999974,-29.14158919999993],[-51.86545719999998,-29.14089989999996],[-51.86576409999998,-29.139773799999944],[-51.865851299999974,-29.136372699999985],[-51.867142299999955,-29.13428889999994],[-51.866944599999954,-29.132163],[-51.868187699999964,-29.129494],[-51.86894319999993,-29.128644399999924],[-51.86826219999995,-29.12704369999995],[-51.86822529999995,-29.125251499999933],[-51.86776439999994,-29.123783899999978],[-51.86792219999995,-29.122708599999946],[-51.867235499999936,-29.121386599999923],[-51.86619449999995,-29.120431],[-51.86641119999996,-29.119981299999946],[-51.86603029999998,-29.119408],[-51.86548049999993,-29.119539],[-51.86474839999994,-29.12021209999994],[-51.86424539999996,-29.120079699999962],[-51.86381929999993,-29.118701499999936],[-51.86394989999996,-29.11761639999998],[-51.863729,-29.117262],[-51.86280009999996,-29.116889],[-51.86265479999997,-29.116452299999924],[-51.862392399999976,-29.11245169999995],[-51.859943199999975,-29.108009699999972],[-51.86260519999996,-29.101714499999964],[-51.86046529999993,-29.097127699999927],[-51.83075039999994,-29.096832],[-51.831062399999944,-29.10615519999994],[-51.83229069999994,-29.107702],[-51.82932979999998,-29.112579199999974],[-51.82923159999996,-29.11529769999992],[-51.80078019999996,-29.11583629999995]]]}},{"type":"Feature","properties":{"setor":"431260905000011","pop":124,"sigilo_pop":false,"dom":98,"sigilo_dom":false,"mulheres":58,"sigilo_mulheres":false,"c0_4":null,"sigilo_c0_4":true,"c5_9":null,"sigilo_c5_9":true,"i60_69":32,"sigilo_i60_69":false,"i70m":26,"sigilo_i70m":false,"indigenas":0,"sigilo_indigenas":false,"pretos_pardos":10,"sigilo_pretos_pardos":false,"dom_ocupados":51,"sigilo_dom_ocupados":false,"dom_agua":40,"sigilo_dom_agua":false,"dom_esgoto":null,"sigilo_dom_esgoto":true,"renda_resp":3003.17,"sigilo_renda_resp":false,"n_resp":51,"sigilo_n_resp":false,"dens":4.4,"sigilo_dens":false,"na_bacia":1,"area_pct_bacia":100.0,"metodo_recorte_bacia":"ponto_representativo_setor_2022; area_pct_geometrica"},"geometry":{"type":"Polygon","coordinates":[[[-51.74697829999997,-29.114744599999938],[-51.74303809999998,-29.117755499999937],[-51.74216459999996,-29.11870339999996],[-51.74091929999997,-29.11892639999995],[-51.740008599999946,-29.118573299999976],[-51.73900489999995,-29.118833499999944],[-51.73710919999997,-29.120747899999973],[-51.736773599999935,-29.121517599999937],[-51.735733799999934,-29.122643599999943],[-51.73212809999995,-29.128981499999956],[-51.73309459999995,-29.130338199999983],[-51.73476729999993,-29.131527799999954],[-51.734916,-29.132141099999945],[-51.73588249999994,-29.132921699999933],[-51.73606829999994,-29.13411119999995],[-51.73716489999998,-29.136007],[-51.739129,-29.136753499999948],[-51.739347399999986,-29.137854699999934],[-51.748713599999974,-29.136653199999948],[-51.753395,-29.136811],[-51.756022799999975,-29.13862359999997],[-51.754598499999986,-29.13763949999998],[-51.755807799999964,-29.136891899999966],[-51.759182099999975,-29.13707059999996],[-51.760565,-29.136732599999952],[-51.7618763,-29.13606289999995],[-51.763775099999975,-29.13622559999993],[-51.765444699999925,-29.136751399999984],[-51.767389299999934,-29.13781769999996],[-51.769650799999965,-29.140556599999965],[-51.77091189999994,-29.14120749999996],[-51.774251,-29.142146199999956],[-51.77513949999997,-29.142008499999978],[-51.77651569999995,-29.141308],[-51.77819979999998,-29.14133069999997],[-51.77821939999995,-29.142615499999987],[-51.77978849999993,-29.14326649999999],[-51.78029849999996,-29.14456849999994],[-51.780718399999955,-29.144985599999977],[-51.782033799999965,-29.144705399999964],[-51.78492109999996,-29.144789499999938],[-51.78639689999994,-29.145546],[-51.78833779999997,-29.145728099999925],[-51.790407099999975,-29.146961],[-51.791177,-29.148474],[-51.791578,-29.148782199999964],[-51.792219699999976,-29.148852199999965],[-51.79306979999996,-29.14808169999998],[-51.79382369999997,-29.148333899999955],[-51.794802199999936,-29.15021109999997],[-51.795780699999966,-29.151065699999947],[-51.798154799999956,-29.149959],[-51.798812399999974,-29.149945],[-51.80025609999995,-29.150589399999955],[-51.80153939999997,-29.15173809999993],[-51.8026622,-29.152088399999965],[-51.804827699999976,-29.152130399999972],[-51.80521269999997,-29.15196229999996],[-51.80550139999997,-29.151443899999947],[-51.81092319999994,-29.150323199999942],[-51.81483719999994,-29.14831989999993],[-51.817179099999976,-29.145966299999944],[-51.81727539999998,-29.14505559999998],[-51.81876719999996,-29.145742099999943],[-51.81907189999998,-29.14619039999997],[-51.81916819999997,-29.14708709999997],[-51.819938099999945,-29.146947],[-51.82045149999994,-29.14638659999997],[-51.82046749999995,-29.145840199999952],[-51.81984189999997,-29.143668699999978],[-51.81923229999995,-29.14319279999995],[-51.82011789999995,-29.143203499999984],[-51.8217949,-29.144058799999986],[-51.82337179999996,-29.144328399999942],[-51.82295119999998,-29.14267829999994],[-51.82255909999998,-29.142186],[-51.821395,-29.142057499999975],[-51.81998589999995,-29.14261409999994],[-51.818846299999954,-29.14267829999994],[-51.81786609999995,-29.142228799999952],[-51.81709409999996,-29.140923099999945],[-51.81564819999994,-29.140270199999975],[-51.81534179999994,-29.139852799999964],[-51.815807499999956,-29.139060899999933],[-51.815819699999956,-29.13736979999994],[-51.81431259999994,-29.135657399999957],[-51.812854399999935,-29.135807199999938],[-51.81275639999996,-29.13643869999992],[-51.811837399999945,-29.13663129999997],[-51.810881599999966,-29.136331599999945],[-51.810599799999984,-29.13558239999998],[-51.808982299999975,-29.13622459999993],[-51.80763449999995,-29.135817899999942],[-51.80734039999999,-29.13498309999995],[-51.805943499999955,-29.133334799999943],[-51.80612729999996,-29.131558],[-51.80697279999998,-29.130915799999965],[-51.80689919999998,-29.13037],[-51.80618849999996,-29.12998459999995],[-51.80508569999995,-29.129759899999943],[-51.80468139999993,-29.128197099999962],[-51.804228,-29.127554899999954],[-51.804313799999925,-29.126623599999963],[-51.80480389999996,-29.125585399999984],[-51.80469359999995,-29.12532849999997],[-51.80398289999994,-29.12471829999998],[-51.80343149999993,-29.12355159999993],[-51.80177729999997,-29.12331609999995],[-51.801360699999975,-29.12284509999995],[-51.801471,-29.121956599999976],[-51.80239,-29.121153799999938],[-51.80127489999995,-29.120950399999966],[-51.80085829999996,-29.120500799999938],[-51.80139219999995,-29.117619799999947],[-51.80078019999996,-29.11583629999995],[-51.79548859999995,-29.112722799999972],[-51.795495,-29.10972509999994],[-51.794302,-29.108616899999962],[-51.791688299999976,-29.1027804],[-51.788330099999946,-29.102027899999925],[-51.78631759999996,-29.100574299999945],[-51.78341249999994,-29.09666279999994],[-51.77963429999994,-29.094241],[-51.75851139999998,-29.103653399999928],[-51.75508949999994,-29.10844639999993],[-51.75221609999994,-29.114374899999977],[-51.74697829999997,-29.114744599999938]]]}},{"type":"Feature","properties":{"setor":"431260905000012","pop":169,"sigilo_pop":false,"dom":182,"sigilo_dom":false,"mulheres":81,"sigilo_mulheres":false,"c0_4":null,"sigilo_c0_4":true,"c5_9":null,"sigilo_c5_9":true,"i60_69":37,"sigilo_i60_69":false,"i70m":73,"sigilo_i70m":false,"indigenas":0,"sigilo_indigenas":false,"pretos_pardos":null,"sigilo_pretos_pardos":true,"dom_ocupados":74,"sigilo_dom_ocupados":false,"dom_agua":52,"sigilo_dom_agua":false,"dom_esgoto":0,"sigilo_dom_esgoto":false,"renda_resp":2576.17,"sigilo_renda_resp":false,"n_resp":74,"sigilo_n_resp":false,"dens":4.5,"sigilo_dens":false,"na_bacia":1,"area_pct_bacia":100.0,"metodo_recorte_bacia":"ponto_representativo_setor_2022; area_pct_geometrica"},"geometry":{"type":"Polygon","coordinates":[[[-51.754598499999986,-29.13763949999998],[-51.75639239999998,-29.13887869999997],[-51.756492499999986,-29.140705699999963],[-51.74683159999995,-29.165045899999946],[-51.73842149999996,-29.17203689999997],[-51.73379649999998,-29.17775849999999],[-51.73351109999993,-29.180497099999968],[-51.735808099999986,-29.183733799999978],[-51.740051899999976,-29.186403699999964],[-51.754285599999946,-29.186608799999934],[-51.765229,-29.18239079999994],[-51.76980829999996,-29.182418399999957],[-51.789852,-29.186038799999956],[-51.7929367,-29.185284299999967],[-51.801619,-29.175187299999948],[-51.80453509999996,-29.17451],[-51.80675989999997,-29.175000099999984],[-51.81086589999995,-29.179387199999947],[-51.81636129999998,-29.183442399999937],[-51.822277,-29.18315],[-51.824909299999945,-29.181157199999983],[-51.82892209999994,-29.176055499999954],[-51.83380889999995,-29.165886599999965],[-51.84249149999994,-29.151226],[-51.84294289999997,-29.148461799999954],[-51.84001809999995,-29.145434899999948],[-51.83108279999993,-29.141360299999977],[-51.82970279999995,-29.142967199999923],[-51.82771779999995,-29.14462609999999],[-51.827399199999945,-29.145589299999976],[-51.82622289999995,-29.146188599999945],[-51.82503429999997,-29.145974499999955],[-51.82406629999997,-29.145396599999962],[-51.82337179999996,-29.144328399999942],[-51.8217949,-29.144058799999986],[-51.82011789999995,-29.143203499999984],[-51.81923229999995,-29.14319279999995],[-51.81984189999997,-29.143668699999978],[-51.82046749999995,-29.145840199999952],[-51.82045149999994,-29.14638659999997],[-51.819938099999945,-29.146947],[-51.81916819999997,-29.14708709999997],[-51.81907189999998,-29.14619039999997],[-51.81876719999996,-29.145742099999943],[-51.81727539999998,-29.14505559999998],[-51.817179099999976,-29.145966299999944],[-51.81543069999998,-29.147815599999948],[-51.81430779999994,-29.148670099999944],[-51.812607499999956,-29.149328599999933],[-51.81092319999994,-29.150323199999942],[-51.80550139999997,-29.151443899999947],[-51.804956,-29.152102399999936],[-51.803031199999964,-29.152116399999947],[-51.80153939999997,-29.15173809999993],[-51.80025609999995,-29.150589399999955],[-51.798812399999974,-29.149945],[-51.798154799999956,-29.149959],[-51.795780699999966,-29.151065699999947],[-51.794802199999936,-29.15021109999997],[-51.79382369999997,-29.148333899999955],[-51.79306979999996,-29.14808169999998],[-51.792219699999976,-29.148852199999965],[-51.791578,-29.148782199999964],[-51.791177,-29.148474],[-51.790407099999975,-29.146961],[-51.78833779999997,-29.145728099999925],[-51.78639689999994,-29.145546],[-51.78492109999996,-29.144789499999938],[-51.782033799999965,-29.144705399999964],[-51.780718399999955,-29.144985599999977],[-51.78029849999996,-29.14456849999994],[-51.77978849999993,-29.14326649999999],[-51.77821939999995,-29.142615499999987],[-51.77819979999998,-29.14133069999997],[-51.77651569999995,-29.141308],[-51.77513949999997,-29.142008499999978],[-51.774251,-29.142146199999956],[-51.77091189999994,-29.14120749999996],[-51.769650799999965,-29.140556599999965],[-51.767389299999934,-29.13781769999996],[-51.764362699999936,-29.136375799999925],[-51.7618763,-29.13606289999995],[-51.760565,-29.136732599999952],[-51.759182099999975,-29.13707059999996],[-51.755807799999964,-29.136891899999966],[-51.754598499999986,-29.13763949999998]]]}},{"type":"Feature","properties":{"setor":"431260905000015","pop":409,"sigilo_pop":false,"dom":162,"sigilo_dom":false,"mulheres":217,"sigilo_mulheres":false,"c0_4":29,"sigilo_c0_4":false,"c5_9":42,"sigilo_c5_9":false,"i60_69":40,"sigilo_i60_69":false,"i70m":22,"sigilo_i70m":false,"indigenas":0,"sigilo_indigenas":false,"pretos_pardos":92,"sigilo_pretos_pardos":false,"dom_ocupados":141,"sigilo_dom_ocupados":false,"dom_agua":130,"sigilo_dom_agua":false,"dom_esgoto":44,"sigilo_dom_esgoto":false,"renda_resp":2195.64,"sigilo_renda_resp":false,"n_resp":141,"sigilo_n_resp":false,"dens":274.1,"sigilo_dens":false,"na_bacia":1,"area_pct_bacia":100.0,"metodo_recorte_bacia":"ponto_representativo_setor_2022; area_pct_geometrica"},"geometry":{"type":"Polygon","coordinates":[[[-51.864982399999974,-29.14158919999993],[-51.86424589999996,-29.144196299999983],[-51.865985499999965,-29.145542799999937],[-51.866209899999944,-29.146341],[-51.864190399999984,-29.15085319999998],[-51.86111429999994,-29.155536699999967],[-51.86110619999994,-29.15649539999998],[-51.86186349999997,-29.15808389999996],[-51.86301419999996,-29.159293799999947],[-51.86361169999998,-29.158843699999977],[-51.86674619999997,-29.162007],[-51.869011499999935,-29.163251899999977],[-51.873625,-29.163680199999927],[-51.87504969999998,-29.163274099999978],[-51.876912499999946,-29.162202],[-51.8781628,-29.162187699999954],[-51.87907759999996,-29.16098569999996],[-51.88100069999996,-29.159370299999978],[-51.88040059999997,-29.15876069999994],[-51.878993399999956,-29.158286799999928],[-51.877489699999956,-29.158165899999968],[-51.875743599999964,-29.158539299999966],[-51.87319419999994,-29.15962649999994],[-51.870663899999954,-29.159611099999942],[-51.86999809999998,-29.15946319999995],[-51.86893829999997,-29.158823699999974],[-51.86672969999996,-29.156494599999967],[-51.86639169999995,-29.15582139999998],[-51.86630909999996,-29.154885299999926],[-51.86906909999993,-29.150045099999954],[-51.87013939999998,-29.147276899999955],[-51.87025009999997,-29.146206599999967],[-51.87010249999997,-29.145247],[-51.869438199999934,-29.14384439999997],[-51.86755579999993,-29.141925199999957],[-51.86703269999998,-29.14154459999998],[-51.864982399999974,-29.14158919999993]]]}},{"type":"Feature","properties":{"setor":"431260905000016","pop":522,"sigilo_pop":false,"dom":240,"sigilo_dom":false,"mulheres":273,"sigilo_mulheres":false,"c0_4":25,"sigilo_c0_4":false,"c5_9":35,"sigilo_c5_9":false,"i60_69":62,"sigilo_i60_69":false,"i70m":89,"sigilo_i70m":false,"indigenas":0,"sigilo_indigenas":false,"pretos_pardos":59,"sigilo_pretos_pardos":false,"dom_ocupados":200,"sigilo_dom_ocupados":false,"dom_agua":200,"sigilo_dom_agua":false,"dom_esgoto":3,"sigilo_dom_esgoto":false,"renda_resp":3754.9,"sigilo_renda_resp":false,"n_resp":200,"sigilo_n_resp":false,"dens":324.3,"sigilo_dens":false,"na_bacia":1,"area_pct_bacia":100.0,"metodo_recorte_bacia":"ponto_representativo_setor_2022; area_pct_geometrica"},"geometry":{"type":"Polygon","coordinates":[[[-51.85985709999994,-29.145604299999945],[-51.85855819999995,-29.1481611],[-51.85508519999996,-29.150619099999957],[-51.85390719999998,-29.15778639999997],[-51.86036279999996,-29.16432309999994],[-51.862238699999985,-29.161956],[-51.86148849999995,-29.160450599999926],[-51.86301419999996,-29.159293799999947],[-51.8614836,-29.157371699999945],[-51.86110619999994,-29.15649539999998],[-51.86111429999994,-29.155536699999967],[-51.864190399999984,-29.15085319999998],[-51.866209899999944,-29.146341],[-51.865985499999965,-29.145542799999937],[-51.86424589999996,-29.144196299999983],[-51.864982399999974,-29.14158919999993],[-51.856740599999966,-29.14174239999994],[-51.85985709999994,-29.145604299999945]]]}}]}