{"type":"FeatureCollection","name":"4312625","crs":{"type":"name","properties":{"name":"urn:ogc:def:crs:OGC:1.3:CRS84"}},"features":[{"type":"Feature","properties":{"setor":"431262505000001","pop":578,"sigilo_pop":false,"dom":239,"sigilo_dom":false,"mulheres":299,"sigilo_mulheres":false,"c0_4":28,"sigilo_c0_4":false,"c5_9":29,"sigilo_c5_9":false,"i60_69":78,"sigilo_i60_69":false,"i70m":73,"sigilo_i70m":false,"indigenas":0,"sigilo_indigenas":false,"pretos_pardos":73,"sigilo_pretos_pardos":false,"dom_ocupados":218,"sigilo_dom_ocupados":false,"dom_agua":205,"sigilo_dom_agua":false,"dom_esgoto":9,"sigilo_dom_esgoto":false,"renda_resp":2866.08,"sigilo_renda_resp":false,"n_resp":218,"sigilo_n_resp":false,"dens":946.4,"sigilo_dens":false,"na_bacia":1,"area_pct_bacia":100.0,"metodo_recorte_bacia":"ponto_representativo_setor_2022; area_pct_geometrica"},"geometry":{"type":"Polygon","coordinates":[[[-51.77616689999996,-28.332264199999937],[-51.76413919999993,-28.32523369999996],[-51.76049859999995,-28.33005119999996],[-51.764307499999966,-28.330453599999938],[-51.7650685,-28.331054399999978],[-51.76766749999996,-28.331365099999978],[-51.774034,-28.335123399999937],[-51.77616689999996,-28.332264199999937]]]}},{"type":"Feature","properties":{"setor":"431262505000003","pop":227,"sigilo_pop":false,"dom":91,"sigilo_dom":false,"mulheres":99,"sigilo_mulheres":false,"c0_4":null,"sigilo_c0_4":true,"c5_9":null,"sigilo_c5_9":true,"i60_69":43,"sigilo_i60_69":false,"i70m":26,"sigilo_i70m":false,"indigenas":0,"sigilo_indigenas":false,"pretos_pardos":24,"sigilo_pretos_pardos":false,"dom_ocupados":82,"sigilo_dom_ocupados":false,"dom_agua":0,"sigilo_dom_agua":false,"dom_esgoto":0,"sigilo_dom_esgoto":false,"renda_resp":3596.66,"sigilo_renda_resp":false,"n_resp":82,"sigilo_n_resp":false,"dens":9.6,"sigilo_dens":false,"na_bacia":1,"area_pct_bacia":100.0,"metodo_recorte_bacia":"ponto_representativo_setor_2022; area_pct_geometrica"},"geometry":{"type":"Polygon","coordinates":[[[-51.72869009999993,-28.349541699999964],[-51.729021899999964,-28.349886699999963],[-51.730028199999936,-28.349823699999952],[-51.73059549999994,-28.350039],[-51.73117059999998,-28.350823699999978],[-51.73053709999994,-28.35279819999993],[-51.72978859999995,-28.353218699999957],[-51.72881559999997,-28.354431099999953],[-51.7285806,-28.35552689999997],[-51.728942,-28.355668],[-51.72887449999996,-28.35638109999997],[-51.72926929999994,-28.356703299999932],[-51.728702,-28.357667299999946],[-51.72774279999993,-28.358609199999936],[-51.727827599999955,-28.35912549999994],[-51.728203399999984,-28.359505199999948],[-51.729584699999975,-28.35990979999996],[-51.729691499999944,-28.360128899999953],[-51.72856119999994,-28.361183799999928],[-51.72864949999997,-28.362359599999923],[-51.72770909999997,-28.362161199999942],[-51.72707,-28.362356399999946],[-51.72653779999997,-28.362861],[-51.72637559999998,-28.363500699999975],[-51.725954499999936,-28.363681399999965],[-51.725085699999966,-28.364663499999942],[-51.72457179999998,-28.36481059999993],[-51.72378249999998,-28.36459019999994],[-51.72284929999994,-28.365311799999976],[-51.72254119999996,-28.36591729999998],[-51.72243559999998,-28.367041599999936],[-51.72310229999994,-28.367757699999967],[-51.73106469999994,-28.371362899999955],[-51.73384349999998,-28.37177609999997],[-51.736064899999974,-28.37018679999993],[-51.738770699999975,-28.37029129999997],[-51.74068919999996,-28.36922],[-51.75052119999998,-28.372597899999953],[-51.75601679999994,-28.374053],[-51.75739059999995,-28.372774099999955],[-51.75863719999995,-28.370654299999952],[-51.76067969999997,-28.36983739999994],[-51.75017489999994,-28.34151679999996],[-51.74805419999996,-28.325026],[-51.74526149999997,-28.318902599999934],[-51.7399559,-28.31038269999993],[-51.70533429999995,-28.311399199999983],[-51.70521789999998,-28.312733899999955],[-51.70593449999995,-28.31426749999998],[-51.703604,-28.318693699999972],[-51.70512919999993,-28.32255979999997],[-51.70397029999998,-28.32940389999993],[-51.70452049999994,-28.331992699999944],[-51.70242949999994,-28.334224899999985],[-51.70344069999993,-28.334681199999977],[-51.704605399999934,-28.337959],[-51.727328399999976,-28.347487],[-51.72808319999996,-28.34744639999997],[-51.72809349999994,-28.34833949999995],[-51.72866229999993,-28.348603],[-51.72869009999993,-28.349541699999964]]]}},{"type":"Feature","properties":{"setor":"431262505000004","pop":113,"sigilo_pop":false,"dom":48,"sigilo_dom":false,"mulheres":59,"sigilo_mulheres":false,"c0_4":null,"sigilo_c0_4":true,"c5_9":null,"sigilo_c5_9":true,"i60_69":34,"sigilo_i60_69":false,"i70m":16,"sigilo_i70m":false,"indigenas":0,"sigilo_indigenas":false,"pretos_pardos":null,"sigilo_pretos_pardos":true,"dom_ocupados":39,"sigilo_dom_ocupados":false,"dom_agua":null,"sigilo_dom_agua":true,"dom_esgoto":0,"sigilo_dom_esgoto":false,"renda_resp":10178.67,"sigilo_renda_resp":false,"n_resp":39,"sigilo_n_resp":false,"dens":9.3,"sigilo_dens":false,"na_bacia":1,"area_pct_bacia":100.0,"metodo_recorte_bacia":"ponto_representativo_setor_2022; area_pct_geometrica"},"geometry":{"type":"Polygon","coordinates":[[[-51.76256819999998,-28.36909659999997],[-51.75863719999995,-28.370654299999952],[-51.75739059999995,-28.372774099999955],[-51.75601679999994,-28.374053],[-51.785676199999955,-28.3819013],[-51.79419,-28.37858849999998],[-51.79587189999995,-28.376156],[-51.8085028,-28.372706699999974],[-51.81696939999995,-28.366941799999953],[-51.82117379999994,-28.3661044],[-51.82300869999995,-28.362937199999966],[-51.82692179999998,-28.360664399999955],[-51.826597499999934,-28.359556099999956],[-51.83160009999994,-28.357526899999986],[-51.832331299999964,-28.356537399999976],[-51.83344349999994,-28.35688059999995],[-51.83218439999996,-28.354779799999957],[-51.82890029999999,-28.35543739999997],[-51.82765519999999,-28.354961199999938],[-51.82986659999994,-28.35091679999994],[-51.829483699999976,-28.35018009999993],[-51.82575949999995,-28.34776039999997],[-51.82234569999997,-28.347687],[-51.82310029999997,-28.345451399999945],[-51.8215168,-28.344523399999957],[-51.81779829999994,-28.347312199999966],[-51.81531629999994,-28.348503599999965],[-51.814902,-28.349006699999965],[-51.813602,-28.349308499999932],[-51.812320399999976,-28.349991499999934],[-51.81091529999997,-28.350994799999977],[-51.80866109999994,-28.35055539999996],[-51.80383289999997,-28.352909099999977],[-51.80250819999997,-28.35400729999999],[-51.80035849999996,-28.354513499999943],[-51.79833359999997,-28.355326499999933],[-51.79717469999998,-28.35503109999998],[-51.795001,-28.35599849999994],[-51.795336599999985,-28.356831799999956],[-51.79174939999995,-28.359364399999954],[-51.791365499999976,-28.360138199999945],[-51.791506,-28.36136629999995],[-51.791853199999935,-28.36201229999995],[-51.78772429999998,-28.36434929999995],[-51.77929919999997,-28.366975099999912],[-51.777498599999944,-28.367994699999937],[-51.77447679999994,-28.368464899999946],[-51.771101,-28.367496199999938],[-51.76781119999998,-28.368552799999975],[-51.76385739999995,-28.369206299999977],[-51.76256819999998,-28.36909659999997]]]}},{"type":"Feature","properties":{"setor":"431262505000005","pop":6,"sigilo_pop":false,"dom":4,"sigilo_dom":false,"mulheres":null,"sigilo_mulheres":true,"c0_4":null,"sigilo_c0_4":true,"c5_9":null,"sigilo_c5_9":true,"i60_69":null,"sigilo_i60_69":true,"i70m":null,"sigilo_i70m":true,"indigenas":null,"sigilo_indigenas":true,"pretos_pardos":null,"sigilo_pretos_pardos":true,"dom_ocupados":null,"sigilo_dom_ocupados":true,"dom_agua":null,"sigilo_dom_agua":true,"dom_esgoto":null,"sigilo_dom_esgoto":true,"renda_resp":null,"sigilo_renda_resp":true,"n_resp":null,"sigilo_n_resp":true,"dens":287.5,"sigilo_dens":false,"na_bacia":1,"area_pct_bacia":100.0,"metodo_recorte_bacia":"ponto_representativo_setor_2022; area_pct_geometrica"},"geometry":{"type":"Polygon","coordinates":[[[-51.76968619999996,-28.328555499999936],[-51.77072139999996,-28.329157799999965],[-51.771637699999985,-28.327775899999953],[-51.77065079999994,-28.327219299999964],[-51.76968619999996,-28.328555499999936]]]}},{"type":"Feature","properties":{"setor":"431262505000007","pop":53,"sigilo_pop":false,"dom":27,"sigilo_dom":false,"mulheres":22,"sigilo_mulheres":false,"c0_4":null,"sigilo_c0_4":true,"c5_9":0,"sigilo_c5_9":false,"i60_69":9,"sigilo_i60_69":false,"i70m":null,"sigilo_i70m":true,"indigenas":0,"sigilo_indigenas":false,"pretos_pardos":7,"sigilo_pretos_pardos":false,"dom_ocupados":26,"sigilo_dom_ocupados":false,"dom_agua":25,"sigilo_dom_agua":false,"dom_esgoto":0,"sigilo_dom_esgoto":false,"renda_resp":2144.0,"sigilo_renda_resp":false,"n_resp":26,"sigilo_n_resp":false,"dens":251.5,"sigilo_dens":false,"na_bacia":1,"area_pct_bacia":100.0,"metodo_recorte_bacia":"ponto_representativo_setor_2022; area_pct_geometrica"},"geometry":{"type":"Polygon","coordinates":[[[-51.771637699999985,-28.327775899999953],[-51.77072139999996,-28.329157799999965],[-51.77616689999996,-28.332264199999937],[-51.77854589999998,-28.3290593],[-51.775085,-28.32712259999994],[-51.773861899999986,-28.329018499999968],[-51.771637699999985,-28.327775899999953]]]}},{"type":"Feature","properties":{"setor":"431262505000008","pop":429,"sigilo_pop":false,"dom":186,"sigilo_dom":false,"mulheres":195,"sigilo_mulheres":false,"c0_4":16,"sigilo_c0_4":false,"c5_9":17,"sigilo_c5_9":false,"i60_69":60,"sigilo_i60_69":false,"i70m":57,"sigilo_i70m":false,"indigenas":null,"sigilo_indigenas":true,"pretos_pardos":38,"sigilo_pretos_pardos":false,"dom_ocupados":157,"sigilo_dom_ocupados":false,"dom_agua":null,"sigilo_dom_agua":true,"dom_esgoto":0,"sigilo_dom_esgoto":false,"renda_resp":5053.29,"sigilo_renda_resp":false,"n_resp":157,"sigilo_n_resp":false,"dens":6.3,"sigilo_dens":false,"na_bacia":1,"area_pct_bacia":80.2765,"metodo_recorte_bacia":"ponto_representativo_setor_2022; area_pct_geometrica"},"geometry":{"type":"Polygon","coordinates":[[[-51.740354899999936,-28.310371299999925],[-51.7399559,-28.31038269999993],[-51.74526149999997,-28.318902599999934],[-51.74805419999996,-28.325026],[-51.75017489999994,-28.34151679999996],[-51.76067969999997,-28.36983739999994],[-51.76256819999998,-28.36909659999997],[-51.76385739999995,-28.369206299999977],[-51.76781119999998,-28.368552799999975],[-51.771101,-28.367496199999938],[-51.77447679999994,-28.368464899999946],[-51.777498599999944,-28.367994699999937],[-51.77929919999997,-28.366975099999912],[-51.78772429999998,-28.36434929999995],[-51.791853199999935,-28.36201229999995],[-51.791506,-28.36136629999995],[-51.791365499999976,-28.360138199999945],[-51.79174939999995,-28.359364399999954],[-51.795336599999985,-28.356831799999956],[-51.795001,-28.35599849999994],[-51.79717469999998,-28.35503109999998],[-51.79833359999997,-28.355326499999933],[-51.80035849999996,-28.354513499999943],[-51.80250819999997,-28.35400729999999],[-51.80383289999997,-28.352909099999977],[-51.80866109999994,-28.35055539999996],[-51.81091529999997,-28.350994799999977],[-51.812320399999976,-28.349991499999934],[-51.813602,-28.349308499999932],[-51.814902,-28.349006699999965],[-51.81531629999994,-28.348503599999965],[-51.81779829999994,-28.347312199999966],[-51.8215168,-28.344523399999957],[-51.82310029999997,-28.345451399999945],[-51.82358559999994,-28.34401509999997],[-51.820613,-28.34177049999994],[-51.81755449999997,-28.338495299999973],[-51.820862199999965,-28.33630679999993],[-51.82110069999993,-28.334517499999947],[-51.81961289999999,-28.333799199999927],[-51.81985849999995,-28.33291469999995],[-51.82159189999993,-28.330691],[-51.82440779999996,-28.32889589999996],[-51.82623579999995,-28.325727599999937],[-51.82632729999995,-28.322831899999986],[-51.82997529999994,-28.32063049999993],[-51.83033829999994,-28.31827039999996],[-51.83383729999998,-28.314097599999972],[-51.834066199999945,-28.310153299999957],[-51.83338909999997,-28.30813839999996],[-51.83805789999997,-28.296921399999967],[-51.83780579999995,-28.295371499999924],[-51.83505549999996,-28.29368],[-51.83209159999995,-28.289499299999925],[-51.83447909999995,-28.281811699999935],[-51.83694389999993,-28.277489699999936],[-51.841255599999954,-28.272713399999923],[-51.84540219999997,-28.269688599999938],[-51.84579749999995,-28.265139],[-51.84478459999997,-28.263553599999955],[-51.84539729999994,-28.261068299999973],[-51.84835,-28.259301799999943],[-51.85073969999996,-28.255360799999952],[-51.857546899999925,-28.252314299999966],[-51.855451399999936,-28.25038369999993],[-51.844376,-28.249518599999927],[-51.84100689999997,-28.249807299999915],[-51.83583239999996,-28.252638899999965],[-51.82809579999998,-28.25117229999995],[-51.82438,-28.248002399999955],[-51.81944819999995,-28.247258199999962],[-51.81041069999998,-28.242401],[-51.808343599999944,-28.249892099999943],[-51.809637899999984,-28.253980799999972],[-51.812304799999936,-28.257643],[-51.81188229999998,-28.259767599999982],[-51.81246089999996,-28.261277799999952],[-51.81346169999995,-28.26253669999993],[-51.81615569999997,-28.263284199999934],[-51.81548689999994,-28.264439699999958],[-51.81606649999998,-28.265358199999977],[-51.81569059999998,-28.267297699999972],[-51.81901469999997,-28.272300799999986],[-51.818197,-28.274209],[-51.82008009999998,-28.277896499999933],[-51.81810139999993,-28.28114719999995],[-51.8214225,-28.292029199999952],[-51.821549499999946,-28.297956199999923],[-51.77461459999995,-28.29118289999997],[-51.76942829999996,-28.294054],[-51.7652217,-28.291943199999935],[-51.76429409999998,-28.288075799999948],[-51.75829869999996,-28.288243699999956],[-51.75429029999999,-28.28987169999992],[-51.751614,-28.289481399999943],[-51.751015799999955,-28.29150269999997],[-51.746905699999964,-28.295864399999967],[-51.748256799999986,-28.304138599999934],[-51.747840199999985,-28.306731099999975],[-51.74882859999997,-28.30802729999993],[-51.742487099999956,-28.308251799999944],[-51.740354899999936,-28.310371299999925]],[[-51.76507979999997,-28.323992199999967],[-51.773861899999986,-28.329018499999968],[-51.775085,-28.32712259999994],[-51.77854589999998,-28.3290593],[-51.774034,-28.335123399999937],[-51.76766749999996,-28.331365099999978],[-51.7650685,-28.331054399999978],[-51.764307499999966,-28.330453599999938],[-51.76049859999995,-28.33005119999996],[-51.76507979999997,-28.323992199999967]]]}},{"type":"Feature","properties":{"setor":"431262505000009","pop":41,"sigilo_pop":false,"dom":15,"sigilo_dom":false,"mulheres":23,"sigilo_mulheres":false,"c0_4":null,"sigilo_c0_4":true,"c5_9":null,"sigilo_c5_9":true,"i60_69":null,"sigilo_i60_69":true,"i70m":null,"sigilo_i70m":true,"indigenas":0,"sigilo_indigenas":false,"pretos_pardos":0,"sigilo_pretos_pardos":false,"dom_ocupados":15,"sigilo_dom_ocupados":false,"dom_agua":15,"sigilo_dom_agua":false,"dom_esgoto":null,"sigilo_dom_esgoto":true,"renda_resp":4163.85,"sigilo_renda_resp":false,"n_resp":15,"sigilo_n_resp":false,"dens":365.0,"sigilo_dens":false,"na_bacia":1,"area_pct_bacia":100.0,"metodo_recorte_bacia":"ponto_representativo_setor_2022; area_pct_geometrica"},"geometry":{"type":"Polygon","coordinates":[[[-51.76413919999993,-28.32523369999996],[-51.76968619999996,-28.328555499999936],[-51.77065079999994,-28.327219299999964],[-51.76507979999997,-28.323992199999967],[-51.76413919999993,-28.32523369999996]]]}},{"type":"Feature","properties":{"setor":"431262505000010","pop":34,"sigilo_pop":false,"dom":8,"sigilo_dom":false,"mulheres":17,"sigilo_mulheres":false,"c0_4":3,"sigilo_c0_4":false,"c5_9":null,"sigilo_c5_9":true,"i60_69":null,"sigilo_i60_69":true,"i70m":0,"sigilo_i70m":false,"indigenas":27,"sigilo_indigenas":false,"pretos_pardos":0,"sigilo_pretos_pardos":false,"dom_ocupados":8,"sigilo_dom_ocupados":false,"dom_agua":0,"sigilo_dom_agua":false,"dom_esgoto":0,"sigilo_dom_esgoto":false,"renda_resp":825.0,"sigilo_renda_resp":false,"n_resp":8,"sigilo_n_resp":false,"dens":5.9,"sigilo_dens":false,"na_bacia":1,"area_pct_bacia":100.0,"metodo_recorte_bacia":"ponto_representativo_setor_2022; area_pct_geometrica"},"geometry":{"type":"Polygon","coordinates":[[[-51.72869009999993,-28.349541699999964],[-51.72866229999993,-28.348603],[-51.72809349999994,-28.34833949999995],[-51.72808319999996,-28.34744639999997],[-51.727328399999976,-28.347487],[-51.704605399999934,-28.337959],[-51.70397779999996,-28.339585],[-51.70578829999994,-28.34105939999995],[-51.7030362,-28.344094099999946],[-51.70417139999996,-28.349362299999942],[-51.70209669999997,-28.351291799999956],[-51.700852,-28.35115539999997],[-51.69931419999995,-28.352164899999927],[-51.69885069999998,-28.353979799999934],[-51.69637449999994,-28.357199399999953],[-51.70209539999996,-28.35603949999995],[-51.708049399999936,-28.360831399999935],[-51.71414219999997,-28.36107889999994],[-51.71539039999993,-28.36296319999997],[-51.71660629999997,-28.36969289999996],[-51.7196168,-28.368379599999976],[-51.72210909999996,-28.369641499999947],[-51.72310229999994,-28.367757699999967],[-51.72243559999998,-28.367041599999936],[-51.72254119999996,-28.36591729999998],[-51.72284929999994,-28.365311799999976],[-51.72378249999998,-28.36459019999994],[-51.72457179999998,-28.36481059999993],[-51.725085699999966,-28.364663499999942],[-51.725954499999936,-28.363681399999965],[-51.72637559999998,-28.363500699999975],[-51.72653779999997,-28.362861],[-51.72707,-28.362356399999946],[-51.72770909999997,-28.362161199999942],[-51.72864949999997,-28.362359599999923],[-51.72856119999994,-28.361183799999928],[-51.729691499999944,-28.360128899999953],[-51.729584699999975,-28.35990979999996],[-51.728203399999984,-28.359505199999948],[-51.727827599999955,-28.35912549999994],[-51.72774279999993,-28.358609199999936],[-51.728702,-28.357667299999946],[-51.72926929999994,-28.356703299999932],[-51.72887449999996,-28.35638109999997],[-51.728942,-28.355668],[-51.7285806,-28.35552689999997],[-51.72881559999997,-28.354431099999953],[-51.72978859999995,-28.353218699999957],[-51.73053709999994,-28.35279819999993],[-51.73117059999998,-28.350823699999978],[-51.73059549999994,-28.350039],[-51.730028199999936,-28.349823699999952],[-51.729021899999964,-28.349886699999963],[-51.72869009999993,-28.349541699999964]],[[-51.71752189999995,-28.356829499999943],[-51.718851899999954,-28.35926369999993],[-51.717174,-28.359577699999925],[-51.71033389999997,-28.359905199999957],[-51.71006209999996,-28.358721899999985],[-51.71011089999996,-28.35739949999991],[-51.71752189999995,-28.356829499999943]]]}},{"type":"Feature","properties":{"setor":"431262505000011","pop":240,"sigilo_pop":false,"dom":57,"sigilo_dom":false,"mulheres":116,"sigilo_mulheres":false,"c0_4":30,"sigilo_c0_4":false,"c5_9":40,"sigilo_c5_9":false,"i60_69":3,"sigilo_i60_69":false,"i70m":0,"sigilo_i70m":false,"indigenas":237,"sigilo_indigenas":false,"pretos_pardos":null,"sigilo_pretos_pardos":true,"dom_ocupados":57,"sigilo_dom_ocupados":false,"dom_agua":32,"sigilo_dom_agua":false,"dom_esgoto":null,"sigilo_dom_esgoto":true,"renda_resp":1057.7,"sigilo_renda_resp":false,"n_resp":57,"sigilo_n_resp":false,"dens":1036.4,"sigilo_dens":false,"na_bacia":1,"area_pct_bacia":100.0,"metodo_recorte_bacia":"ponto_representativo_setor_2022; area_pct_geometrica"},"geometry":{"type":"Polygon","coordinates":[[[-51.717174,-28.359577699999925],[-51.718851899999954,-28.35926369999993],[-51.71752189999995,-28.356829499999943],[-51.71011089999996,-28.35739949999991],[-51.71006209999996,-28.358721899999985],[-51.71033389999997,-28.359905199999957],[-51.717174,-28.359577699999925]]]}}]}