{"type":"FeatureCollection","name":"4312807","crs":{"type":"name","properties":{"name":"urn:ogc:def:crs:OGC:1.3:CRS84"}},"features":[{"type":"Feature","properties":{"setor":"431280705000002","pop":336,"sigilo_pop":false,"dom":119,"sigilo_dom":0,"mulheres":176,"sigilo_mulheres":0,"c0_4":32,"sigilo_c0_4":0,"c5_9":19,"sigilo_c5_9":0,"i60_69":25,"sigilo_i60_69":0,"i70m":12,"sigilo_i70m":0,"indigenas":0,"sigilo_indigenas":0,"pretos_pardos":140,"sigilo_pretos_pardos":0,"dom_ocupados":110,"sigilo_dom_ocupados":0,"dom_agua":110,"sigilo_dom_agua":0,"dom_esgoto":4,"sigilo_dom_esgoto":0,"renda_resp":3565.99,"sigilo_renda_resp":0,"n_resp":110,"sigilo_n_resp":0,"dens":512.9,"sigilo_dens":false,"na_bacia":1,"area_pct_bacia":100.0,"metodo_recorte_bacia":"ponto_representativo_setor_2022; area_pct_geometrica","pop_n_validos":1,"pop_n_total":1,"pop_completude":1.0,"dom_n_validos":1,"dom_n_total":1,"dom_completude":1.0,"dom_ocupados_n_validos":1,"dom_ocupados_n_total":1,"dom_ocupados_completude":1.0,"mulheres_n_validos":1,"mulheres_n_total":1,"mulheres_completude":1.0,"c0_4_n_validos":1,"c0_4_n_total":1,"c0_4_completude":1.0,"c5_9_n_validos":1,"c5_9_n_total":1,"c5_9_completude":1.0,"i60_69_n_validos":1,"i60_69_n_total":1,"i60_69_completude":1.0,"i70m_n_validos":1,"i70m_n_total":1,"i70m_completude":1.0,"indigenas_n_validos":1,"indigenas_n_total":1,"indigenas_completude":1.0,"pretos_pardos_n_validos":1,"pretos_pardos_n_total":1,"pretos_pardos_completude":1.0,"dom_agua_n_validos":1,"dom_agua_n_total":1,"dom_agua_completude":1.0,"dom_esgoto_n_validos":1,"dom_esgoto_n_total":1,"dom_esgoto_completude":1.0,"n_resp_n_validos":1,"n_resp_n_total":1,"n_resp_completude":1.0,"renda_resp_n_validos":1,"renda_resp_n_total":1,"renda_resp_completude":1.0,"dens_n_validos":1,"dens_n_total":1,"dens_completude":1.0,"status_borda_bacia":"total","metodo_area_bacia":"interseção geométrica em EPSG:5880","metodo_na_bacia":"ponto_representativo_setor_2022_within_bacia","municipio":"Nova Araçá","cod_mun":"4312807","mun_pct_na_bacia":100.0,"mun_pop_total":4954,"mun_pop_na_bacia":4954.0,"mun_ubs_iede":1,"mun_hospitais_iede":null,"mun_escolas_iede":5,"mun_bombeiros_iede":null,"mun_servicos_cobertura":"cadastro_IEDE_parcial_nao_inventario","mun_icm_faixa":"B","mun_icm_pontos":10,"mun_icm_prioritario":"não","mun_ubs_iede_status":"published","mun_hospitais_iede_status":"unknown","mun_escolas_iede_status":"published","mun_bombeiros_iede_status":"unknown"},"geometry":{"type":"Polygon","coordinates":[[[-51.737881199999954,-28.663151399999943],[-51.738043,-28.66640259999997],[-51.750732599999935,-28.66678309999997],[-51.755545,-28.665040699999956],[-51.75574539999997,-28.663910199999965],[-51.75564169999996,-28.663390599999953],[-51.752269099999985,-28.66362729999997],[-51.747283599999946,-28.663058],[-51.74412689999997,-28.66221549999995],[-51.74144959999995,-28.662389699999952],[-51.737881199999954,-28.663151399999943]]]}},{"type":"Feature","properties":{"setor":"431280705000003","pop":682,"sigilo_pop":false,"dom":299,"sigilo_dom":0,"mulheres":320,"sigilo_mulheres":0,"c0_4":45,"sigilo_c0_4":0,"c5_9":37,"sigilo_c5_9":0,"i60_69":52,"sigilo_i60_69":0,"i70m":49,"sigilo_i70m":0,"indigenas":0,"sigilo_indigenas":0,"pretos_pardos":229,"sigilo_pretos_pardos":0,"dom_ocupados":267,"sigilo_dom_ocupados":0,"dom_agua":265,"sigilo_dom_agua":0,"dom_esgoto":48,"sigilo_dom_esgoto":0,"renda_resp":2323.52,"sigilo_renda_resp":0,"n_resp":267,"sigilo_n_resp":0,"dens":1084.1,"sigilo_dens":false,"na_bacia":1,"area_pct_bacia":100.0,"metodo_recorte_bacia":"ponto_representativo_setor_2022; area_pct_geometrica","pop_n_validos":1,"pop_n_total":1,"pop_completude":1.0,"dom_n_validos":1,"dom_n_total":1,"dom_completude":1.0,"dom_ocupados_n_validos":1,"dom_ocupados_n_total":1,"dom_ocupados_completude":1.0,"mulheres_n_validos":1,"mulheres_n_total":1,"mulheres_completude":1.0,"c0_4_n_validos":1,"c0_4_n_total":1,"c0_4_completude":1.0,"c5_9_n_validos":1,"c5_9_n_total":1,"c5_9_completude":1.0,"i60_69_n_validos":1,"i60_69_n_total":1,"i60_69_completude":1.0,"i70m_n_validos":1,"i70m_n_total":1,"i70m_completude":1.0,"indigenas_n_validos":1,"indigenas_n_total":1,"indigenas_completude":1.0,"pretos_pardos_n_validos":1,"pretos_pardos_n_total":1,"pretos_pardos_completude":1.0,"dom_agua_n_validos":1,"dom_agua_n_total":1,"dom_agua_completude":1.0,"dom_esgoto_n_validos":1,"dom_esgoto_n_total":1,"dom_esgoto_completude":1.0,"n_resp_n_validos":1,"n_resp_n_total":1,"n_resp_completude":1.0,"renda_resp_n_validos":1,"renda_resp_n_total":1,"renda_resp_completude":1.0,"dens_n_validos":1,"dens_n_total":1,"dens_completude":1.0,"status_borda_bacia":"total","metodo_area_bacia":"interseção geométrica em EPSG:5880","metodo_na_bacia":"ponto_representativo_setor_2022_within_bacia","municipio":"Nova Araçá","cod_mun":"4312807","mun_pct_na_bacia":100.0,"mun_pop_total":4954,"mun_pop_na_bacia":4954.0,"mun_ubs_iede":1,"mun_hospitais_iede":null,"mun_escolas_iede":5,"mun_bombeiros_iede":null,"mun_servicos_cobertura":"cadastro_IEDE_parcial_nao_inventario","mun_icm_faixa":"B","mun_icm_pontos":10,"mun_icm_prioritario":"não","mun_ubs_iede_status":"published","mun_hospitais_iede_status":"unknown","mun_escolas_iede_status":"published","mun_bombeiros_iede_status":"unknown"},"geometry":{"type":"Polygon","coordinates":[[[-51.756745,-28.656157099999973],[-51.75660309999995,-28.663288299999977],[-51.75564169999996,-28.663390599999953],[-51.755545,-28.665040699999956],[-51.76186879999994,-28.664939],[-51.76197489999998,-28.66099149999997],[-51.76540789999996,-28.659404399999968],[-51.77083049999993,-28.65997469999997],[-51.772538,-28.65957669999995],[-51.771965,-28.659387899999953],[-51.770469899999966,-28.657959399999974],[-51.76986749999997,-28.657733299999954],[-51.7684627,-28.65867679999997],[-51.76789869999993,-28.658644299999928],[-51.767508299999974,-28.658275499999935],[-51.767020299999956,-28.65713689999996],[-51.766369699999984,-28.656822399999957],[-51.76481269999994,-28.657579499999937],[-51.76227389999997,-28.658162399999974],[-51.76152989999998,-28.658753],[-51.759666,-28.659558399999973],[-51.75889129999996,-28.660923699999962],[-51.75899349999997,-28.65618119999993],[-51.756745,-28.656157099999973]]]}},{"type":"Feature","properties":{"setor":"431280705000004","pop":347,"sigilo_pop":false,"dom":149,"sigilo_dom":0,"mulheres":180,"sigilo_mulheres":0,"c0_4":12,"sigilo_c0_4":0,"c5_9":11,"sigilo_c5_9":0,"i60_69":60,"sigilo_i60_69":0,"i70m":70,"sigilo_i70m":0,"indigenas":0,"sigilo_indigenas":0,"pretos_pardos":null,"sigilo_pretos_pardos":1,"dom_ocupados":128,"sigilo_dom_ocupados":0,"dom_agua":0,"sigilo_dom_agua":0,"dom_esgoto":0,"sigilo_dom_esgoto":0,"renda_resp":6480.28,"sigilo_renda_resp":0,"n_resp":128,"sigilo_n_resp":0,"dens":13.0,"sigilo_dens":false,"na_bacia":1,"area_pct_bacia":100.0,"metodo_recorte_bacia":"ponto_representativo_setor_2022; area_pct_geometrica","pop_n_validos":1,"pop_n_total":1,"pop_completude":1.0,"dom_n_validos":1,"dom_n_total":1,"dom_completude":1.0,"dom_ocupados_n_validos":1,"dom_ocupados_n_total":1,"dom_ocupados_completude":1.0,"mulheres_n_validos":1,"mulheres_n_total":1,"mulheres_completude":1.0,"c0_4_n_validos":1,"c0_4_n_total":1,"c0_4_completude":1.0,"c5_9_n_validos":1,"c5_9_n_total":1,"c5_9_completude":1.0,"i60_69_n_validos":1,"i60_69_n_total":1,"i60_69_completude":1.0,"i70m_n_validos":1,"i70m_n_total":1,"i70m_completude":1.0,"indigenas_n_validos":1,"indigenas_n_total":1,"indigenas_completude":1.0,"pretos_pardos_n_validos":0,"pretos_pardos_n_total":1,"pretos_pardos_completude":0.0,"dom_agua_n_validos":1,"dom_agua_n_total":1,"dom_agua_completude":1.0,"dom_esgoto_n_validos":1,"dom_esgoto_n_total":1,"dom_esgoto_completude":1.0,"n_resp_n_validos":1,"n_resp_n_total":1,"n_resp_completude":1.0,"renda_resp_n_validos":1,"renda_resp_n_total":1,"renda_resp_completude":1.0,"dens_n_validos":1,"dens_n_total":1,"dens_completude":1.0,"status_borda_bacia":"total","metodo_area_bacia":"interseção geométrica em EPSG:5880","metodo_na_bacia":"ponto_representativo_setor_2022_within_bacia","municipio":"Nova Araçá","cod_mun":"4312807","mun_pct_na_bacia":100.0,"mun_pop_total":4954,"mun_pop_na_bacia":4954.0,"mun_ubs_iede":1,"mun_hospitais_iede":null,"mun_escolas_iede":5,"mun_bombeiros_iede":null,"mun_servicos_cobertura":"cadastro_IEDE_parcial_nao_inventario","mun_icm_faixa":"B","mun_icm_pontos":10,"mun_icm_prioritario":"não","mun_ubs_iede_status":"published","mun_hospitais_iede_status":"unknown","mun_escolas_iede_status":"published","mun_bombeiros_iede_status":"unknown"},"geometry":{"type":"Polygon","coordinates":[[[-51.70658989999998,-28.609647799999948],[-51.706133199999954,-28.61014889999996],[-51.705953299999976,-28.61088959999995],[-51.706024,-28.61188849999996],[-51.70657559999995,-28.61246849999998],[-51.706449899999946,-28.613564899999968],[-51.706159199999945,-28.613865199999967],[-51.70540479999994,-28.613717099999977],[-51.703575199999925,-28.614351299999957],[-51.70243379999993,-28.61417919999995],[-51.701286,-28.614962199999987],[-51.69800859999997,-28.620321399999956],[-51.697483199999965,-28.622742199999937],[-51.69800209999994,-28.625727199999968],[-51.69782029999993,-28.635831599999953],[-51.69915569999995,-28.636748],[-51.70169269999997,-28.63716169999998],[-51.70385679999998,-28.637790899999963],[-51.7048607,-28.63871249999994],[-51.707562,-28.64488569999998],[-51.708986,-28.646298699999925],[-51.71462089999994,-28.65011229999994],[-51.718719799999974,-28.654003599999957],[-51.72626839999998,-28.657876],[-51.72834709999995,-28.658362699999937],[-51.734579199999985,-28.657688699999937],[-51.73640919999997,-28.657891499999945],[-51.73767419999996,-28.658873],[-51.748427,-28.65240919999996],[-51.74844169999995,-28.65457189999995],[-51.75428019999998,-28.65450429999992],[-51.768740899999955,-28.656878499999944],[-51.770469899999966,-28.657959399999974],[-51.77082229999996,-28.65848319999997],[-51.772135299999945,-28.659451299999933],[-51.773257399999984,-28.65899679999996],[-51.77412279999999,-28.65804639999992],[-51.77515729999993,-28.657359899999964],[-51.775301199999944,-28.658090799999968],[-51.779258,-28.655718899999957],[-51.78407649999996,-28.654323099999935],[-51.78603889999993,-28.65300139999994],[-51.78909569999996,-28.65013],[-51.79055009999996,-28.649221199999943],[-51.79298869999997,-28.64609609999996],[-51.793801,-28.644191499999973],[-51.79217109999997,-28.643058299999954],[-51.791851,-28.641434399999973],[-51.79210449999994,-28.64117729999998],[-51.793298099999966,-28.64087579999995],[-51.79360539999994,-28.639815799999955],[-51.79295749999994,-28.6391551],[-51.79254069999996,-28.638117799999975],[-51.79185009999997,-28.63818349999996],[-51.79119379999998,-28.63871219999992],[-51.79034329999996,-28.638673799999925],[-51.78967409999996,-28.638913],[-51.788019899999945,-28.637424499999945],[-51.7863091,-28.636914299999937],[-51.78484649999996,-28.636923399999947],[-51.784606199999985,-28.636256699999937],[-51.78512129999996,-28.633882799999988],[-51.784871599999974,-28.633282599999966],[-51.783464199999976,-28.6320717],[-51.782867,-28.631851499999975],[-51.78240019999998,-28.631996199999943],[-51.78154409999996,-28.632847499999976],[-51.78126649999996,-28.63284059999996],[-51.78089949999998,-28.632372499999967],[-51.78091279999996,-28.631092299999967],[-51.78038309999994,-28.630596],[-51.77859989999996,-28.630911499999968],[-51.77621589999995,-28.632557099999936],[-51.77473709999998,-28.63301179999996],[-51.77416219999998,-28.633590499999972],[-51.77399759999997,-28.634737899999944],[-51.77366109999997,-28.635082899999926],[-51.77201349999996,-28.635761399999982],[-51.77048759999997,-28.63514579999998],[-51.76756379999995,-28.635540499999937],[-51.76717089999994,-28.63528289999994],[-51.76697819999998,-28.634375099999943],[-51.765804,-28.63412409999995],[-51.76524869999997,-28.634154899999945],[-51.764994,-28.63448059999996],[-51.76412019999998,-28.63478069999996],[-51.762971099999966,-28.635549499999957],[-51.76224419999994,-28.635101099999936],[-51.76045409999995,-28.635130299999958],[-51.759744299999966,-28.635377],[-51.75920819999994,-28.634613099999967],[-51.75859759999997,-28.63468289999997],[-51.758031899999935,-28.634953599999964],[-51.75767109999998,-28.63623],[-51.75642369999997,-28.636044099999943],[-51.755627499999946,-28.63655559999995],[-51.75492,-28.63587209999997],[-51.754326399999975,-28.635643699999942],[-51.75351579999994,-28.63572039999997],[-51.75249379999997,-28.635340699999972],[-51.75206769999994,-28.63441459999995],[-51.750702399999966,-28.63486809999995],[-51.74987139999997,-28.63472329999996],[-51.74972679999996,-28.634167],[-51.749215,-28.633893899999975],[-51.74810569999995,-28.634086699999944],[-51.747514499999966,-28.63387809999994],[-51.746749,-28.634003799999963],[-51.74478639999996,-28.633407599999938],[-51.74399389999996,-28.633447199999974],[-51.74160079999996,-28.632859899999964],[-51.74109129999993,-28.633060299999954],[-51.740281,-28.63298659999998],[-51.739931899999924,-28.632527299999943],[-51.73913829999998,-28.63230509999993],[-51.73729859999998,-28.63059219999996],[-51.736616899999945,-28.630331199999933],[-51.734609699999965,-28.62889269999993],[-51.73216969999998,-28.628485],[-51.731464,-28.628672599999955],[-51.730860199999945,-28.62831519999997],[-51.73014589999997,-28.628422099999963],[-51.729955,-28.628254],[-51.72989569999998,-28.62783159999997],[-51.72910919999998,-28.627275299999948],[-51.728956299999936,-28.625969299999948],[-51.727872599999955,-28.624283599999952],[-51.72772089999996,-28.62245739999997],[-51.725838299999964,-28.621342],[-51.725282,-28.62040209999999],[-51.723597,-28.61929059999994],[-51.72312,-28.618668299999968],[-51.72279409999993,-28.615967099999978],[-51.721032599999944,-28.615249],[-51.720987,-28.61482969999997],[-51.719531899999936,-28.61333259999998],[-51.720203899999944,-28.612175],[-51.72074519999995,-28.611969799999926],[-51.71878369999996,-28.611040599999974],[-51.71780759999995,-28.609735499999932],[-51.71586179999998,-28.60853609999997],[-51.71496789999998,-28.60855309999994],[-51.713971199999946,-28.608012599999938],[-51.71155659999994,-28.608637599999945],[-51.708674,-28.609778899999977],[-51.70658989999998,-28.609647799999948]]]}},{"type":"Feature","properties":{"setor":"431280705000005","pop":291,"sigilo_pop":false,"dom":130,"sigilo_dom":0,"mulheres":137,"sigilo_mulheres":0,"c0_4":9,"sigilo_c0_4":0,"c5_9":10,"sigilo_c5_9":0,"i60_69":49,"sigilo_i60_69":0,"i70m":56,"sigilo_i70m":0,"indigenas":0,"sigilo_indigenas":0,"pretos_pardos":4,"sigilo_pretos_pardos":0,"dom_ocupados":100,"sigilo_dom_ocupados":0,"dom_agua":null,"sigilo_dom_agua":1,"dom_esgoto":0,"sigilo_dom_esgoto":0,"renda_resp":5572.08,"sigilo_renda_resp":0,"n_resp":100,"sigilo_n_resp":0,"dens":12.0,"sigilo_dens":false,"na_bacia":1,"area_pct_bacia":100.0,"metodo_recorte_bacia":"ponto_representativo_setor_2022; area_pct_geometrica","pop_n_validos":1,"pop_n_total":1,"pop_completude":1.0,"dom_n_validos":1,"dom_n_total":1,"dom_completude":1.0,"dom_ocupados_n_validos":1,"dom_ocupados_n_total":1,"dom_ocupados_completude":1.0,"mulheres_n_validos":1,"mulheres_n_total":1,"mulheres_completude":1.0,"c0_4_n_validos":1,"c0_4_n_total":1,"c0_4_completude":1.0,"c5_9_n_validos":1,"c5_9_n_total":1,"c5_9_completude":1.0,"i60_69_n_validos":1,"i60_69_n_total":1,"i60_69_completude":1.0,"i70m_n_validos":1,"i70m_n_total":1,"i70m_completude":1.0,"indigenas_n_validos":1,"indigenas_n_total":1,"indigenas_completude":1.0,"pretos_pardos_n_validos":1,"pretos_pardos_n_total":1,"pretos_pardos_completude":1.0,"dom_agua_n_validos":0,"dom_agua_n_total":1,"dom_agua_completude":0.0,"dom_esgoto_n_validos":1,"dom_esgoto_n_total":1,"dom_esgoto_completude":1.0,"n_resp_n_validos":1,"n_resp_n_total":1,"n_resp_completude":1.0,"renda_resp_n_validos":1,"renda_resp_n_total":1,"renda_resp_completude":1.0,"dens_n_validos":1,"dens_n_total":1,"dens_completude":1.0,"status_borda_bacia":"total","metodo_area_bacia":"interseção geométrica em EPSG:5880","metodo_na_bacia":"ponto_representativo_setor_2022_within_bacia","municipio":"Nova Araçá","cod_mun":"4312807","mun_pct_na_bacia":100.0,"mun_pop_total":4954,"mun_pop_na_bacia":4954.0,"mun_ubs_iede":1,"mun_hospitais_iede":null,"mun_escolas_iede":5,"mun_bombeiros_iede":null,"mun_servicos_cobertura":"cadastro_IEDE_parcial_nao_inventario","mun_icm_faixa":"B","mun_icm_pontos":10,"mun_icm_prioritario":"não","mun_ubs_iede_status":"published","mun_hospitais_iede_status":"unknown","mun_escolas_iede_status":"published","mun_bombeiros_iede_status":"unknown"},"geometry":{"type":"Polygon","coordinates":[[[-51.69819949999993,-28.61810609999997],[-51.69762309999994,-28.618284],[-51.696455599999986,-28.61945179999997],[-51.693907699999954,-28.619348799999955],[-51.69272189999998,-28.61965109999994],[-51.69238469999994,-28.620009099999937],[-51.69167319999996,-28.619932799999965],[-51.690154799999966,-28.620466699999945],[-51.689473,-28.620407499999946],[-51.68900879999996,-28.61991649999993],[-51.68859069999997,-28.619803899999965],[-51.68631449999998,-28.62043479999995],[-51.68497689999999,-28.620355799999967],[-51.6843224,-28.62007],[-51.68281159999998,-28.62056849999994],[-51.681946799999935,-28.620547399999964],[-51.681310799999956,-28.621129299999946],[-51.67975169999994,-28.621803799999952],[-51.67858359999997,-28.621272599999937],[-51.677307799999944,-28.621189099999967],[-51.67642269999994,-28.622108199999953],[-51.67453349999994,-28.622565],[-51.67354179999995,-28.625216299999963],[-51.673256799999926,-28.62551729999995],[-51.67186159999994,-28.625918299999956],[-51.67095189999998,-28.626870099999962],[-51.67091859999994,-28.62737329999993],[-51.67042839999994,-28.627521299999945],[-51.67053869999995,-28.62785649999995],[-51.67114889999994,-28.628223399999957],[-51.67113089999998,-28.628458099999936],[-51.67024869999995,-28.628736399999976],[-51.668723899999975,-28.65773429999995],[-51.67896709999997,-28.66025769999993],[-51.682393799999936,-28.663688499999985],[-51.68281419999994,-28.661697099999977],[-51.686866399999985,-28.664515299999945],[-51.69119159999996,-28.663856699999943],[-51.69278749999995,-28.66438],[-51.696865299999956,-28.670913099999943],[-51.69737919999994,-28.67319459999993],[-51.703469199999965,-28.673638899999954],[-51.70788169999997,-28.674994299999973],[-51.71187749999996,-28.67344569999995],[-51.718194299999944,-28.678395399999932],[-51.7216653,-28.682700799999974],[-51.723952699999984,-28.683405799999953],[-51.72883349999995,-28.68243879999995],[-51.73405739999998,-28.679508599999973],[-51.73555609999993,-28.67771449999998],[-51.736362199999974,-28.675980699999972],[-51.735973599999966,-28.67108889999997],[-51.73495759999998,-28.669396299999956],[-51.734819899999934,-28.66876989999996],[-51.73603159999993,-28.658189399999973],[-51.73640919999997,-28.657891499999945],[-51.734579199999985,-28.657688699999937],[-51.72834709999995,-28.658362699999937],[-51.72626839999998,-28.657876],[-51.718719799999974,-28.654003599999957],[-51.71462089999994,-28.65011229999994],[-51.708986,-28.646298699999925],[-51.707562,-28.64488569999998],[-51.7048607,-28.63871249999994],[-51.70385679999998,-28.637790899999963],[-51.70169269999997,-28.63716169999998],[-51.69915569999995,-28.636748],[-51.69782029999993,-28.635831599999953],[-51.69800209999994,-28.625727199999968],[-51.697483199999965,-28.622742199999937],[-51.69800859999997,-28.620321399999956],[-51.701286,-28.614962199999987],[-51.70243379999993,-28.61417919999995],[-51.701469299999985,-28.61440849999997],[-51.70038779999992,-28.615200699999942],[-51.699937,-28.616278],[-51.69819949999993,-28.61810609999997]]]}},{"type":"Feature","properties":{"setor":"431280705000006","pop":287,"sigilo_pop":false,"dom":138,"sigilo_dom":0,"mulheres":145,"sigilo_mulheres":0,"c0_4":18,"sigilo_c0_4":0,"c5_9":13,"sigilo_c5_9":0,"i60_69":50,"sigilo_i60_69":0,"i70m":27,"sigilo_i70m":0,"indigenas":0,"sigilo_indigenas":0,"pretos_pardos":null,"sigilo_pretos_pardos":1,"dom_ocupados":100,"sigilo_dom_ocupados":0,"dom_agua":0,"sigilo_dom_agua":0,"dom_esgoto":9,"sigilo_dom_esgoto":0,"renda_resp":3470.74,"sigilo_renda_resp":0,"n_resp":100,"sigilo_n_resp":0,"dens":15.1,"sigilo_dens":false,"na_bacia":1,"area_pct_bacia":100.0,"metodo_recorte_bacia":"ponto_representativo_setor_2022; area_pct_geometrica","pop_n_validos":1,"pop_n_total":1,"pop_completude":1.0,"dom_n_validos":1,"dom_n_total":1,"dom_completude":1.0,"dom_ocupados_n_validos":1,"dom_ocupados_n_total":1,"dom_ocupados_completude":1.0,"mulheres_n_validos":1,"mulheres_n_total":1,"mulheres_completude":1.0,"c0_4_n_validos":1,"c0_4_n_total":1,"c0_4_completude":1.0,"c5_9_n_validos":1,"c5_9_n_total":1,"c5_9_completude":1.0,"i60_69_n_validos":1,"i60_69_n_total":1,"i60_69_completude":1.0,"i70m_n_validos":1,"i70m_n_total":1,"i70m_completude":1.0,"indigenas_n_validos":1,"indigenas_n_total":1,"indigenas_completude":1.0,"pretos_pardos_n_validos":0,"pretos_pardos_n_total":1,"pretos_pardos_completude":0.0,"dom_agua_n_validos":1,"dom_agua_n_total":1,"dom_agua_completude":1.0,"dom_esgoto_n_validos":1,"dom_esgoto_n_total":1,"dom_esgoto_completude":1.0,"n_resp_n_validos":1,"n_resp_n_total":1,"n_resp_completude":1.0,"renda_resp_n_validos":1,"renda_resp_n_total":1,"renda_resp_completude":1.0,"dens_n_validos":1,"dens_n_total":1,"dens_completude":1.0,"status_borda_bacia":"total","metodo_area_bacia":"interseção geométrica em EPSG:5880","metodo_na_bacia":"ponto_representativo_setor_2022_within_bacia","municipio":"Nova Araçá","cod_mun":"4312807","mun_pct_na_bacia":100.0,"mun_pop_total":4954,"mun_pop_na_bacia":4954.0,"mun_ubs_iede":1,"mun_hospitais_iede":null,"mun_escolas_iede":5,"mun_bombeiros_iede":null,"mun_servicos_cobertura":"cadastro_IEDE_parcial_nao_inventario","mun_icm_faixa":"B","mun_icm_pontos":10,"mun_icm_prioritario":"não","mun_ubs_iede_status":"published","mun_hospitais_iede_status":"unknown","mun_escolas_iede_status":"published","mun_bombeiros_iede_status":"unknown"},"geometry":{"type":"Polygon","coordinates":[[[-51.778651099999934,-28.656107399999932],[-51.78044989999995,-28.661223799999952],[-51.771296399999976,-28.666138099999955],[-51.76854349999997,-28.66731029999994],[-51.765412699999956,-28.66825239999997],[-51.75771709999999,-28.669479299999985],[-51.74755959999993,-28.671622199999938],[-51.73523149999994,-28.666502],[-51.734819899999934,-28.66876989999996],[-51.73495759999998,-28.669396299999956],[-51.735973599999966,-28.67108889999997],[-51.736362199999974,-28.675980699999972],[-51.73555609999993,-28.67771449999998],[-51.73405739999998,-28.679508599999973],[-51.74018,-28.676073599999945],[-51.74322409999996,-28.676084699999944],[-51.74687289999997,-28.677337699999956],[-51.751721799999984,-28.675398899999948],[-51.75321249999996,-28.676082099999974],[-51.753405199999975,-28.674866799999965],[-51.758742,-28.6748037],[-51.76023029999993,-28.671317199999972],[-51.77000629999998,-28.670599099999947],[-51.77321149999995,-28.66786669999993],[-51.783111,-28.665827499999967],[-51.78582189999997,-28.667266199999972],[-51.796451299999944,-28.667590099999988],[-51.79891879999997,-28.670451399999926],[-51.80299229999997,-28.670350699999975],[-51.80657809999996,-28.673524],[-51.808982299999975,-28.673644099999926],[-51.81043719999997,-28.670453199999933],[-51.81278379999998,-28.66866379999993],[-51.816313699999974,-28.66857189999995],[-51.824266,-28.674519099999944],[-51.82735879999996,-28.675832299999968],[-51.82839459999997,-28.676813099999958],[-51.829346499999986,-28.68032239999997],[-51.836403,-28.679542399999946],[-51.83605269999998,-28.67851489999998],[-51.83699679999995,-28.67758569999995],[-51.839435399999964,-28.676882299999928],[-51.846794099999954,-28.67657379999997],[-51.85684949999995,-28.678649],[-51.860184699999934,-28.676573099999924],[-51.86304529999996,-28.67670129999993],[-51.863759,-28.67576819999994],[-51.85652129999994,-28.66904],[-51.84757769999993,-28.67107809999993],[-51.846094599999965,-28.670551299999932],[-51.8462555,-28.667584699999953],[-51.84815369999996,-28.663472199999937],[-51.85050049999995,-28.661833699999935],[-51.85680949999995,-28.661967],[-51.86047439999999,-28.658090699999942],[-51.86007019999993,-28.657138199999963],[-51.85371539999995,-28.654542899999964],[-51.849316399999964,-28.648923499999967],[-51.84583909999998,-28.64957449999997],[-51.84230459999998,-28.652673299999943],[-51.839585,-28.651963199999965],[-51.83564439999998,-28.655270499999975],[-51.83347529999998,-28.655869],[-51.831314599999985,-28.65843959999995],[-51.83041529999997,-28.65842709999998],[-51.82974819999998,-28.658164],[-51.82883829999997,-28.658269899999933],[-51.827813,-28.65762509999997],[-51.827994899999965,-28.656281299999936],[-51.827639899999944,-28.655750399999928],[-51.827013799999975,-28.65573869999997],[-51.82471389999995,-28.654523399999956],[-51.82164249999994,-28.653599699999965],[-51.82093579999997,-28.653023299999973],[-51.81966819999997,-28.65256789999995],[-51.81912879999994,-28.652031899999937],[-51.81920179999997,-28.650258799999946],[-51.81872819999995,-28.649883499999934],[-51.815584299999955,-28.65006959999995],[-51.813945,-28.649950799999935],[-51.81284869999996,-28.650270299999928],[-51.81319589999998,-28.65325719999992],[-51.812671099999925,-28.654155899999964],[-51.81101829999995,-28.65311419999994],[-51.81049889999998,-28.652222899999973],[-51.809763799999985,-28.65167189999995],[-51.80654839999994,-28.651990899999934],[-51.80564519999996,-28.652266499999946],[-51.804321,-28.652155199999974],[-51.80312649999996,-28.652356499999954],[-51.80122609999995,-28.653449599999934],[-51.80042219999996,-28.653185299999947],[-51.80034169999994,-28.65296659999996],[-51.79907459999998,-28.65290969999995],[-51.798360099999975,-28.652174099999975],[-51.79830679999998,-28.651442599999932],[-51.797238,-28.65063369999995],[-51.796033,-28.648574699999987],[-51.79542309999993,-28.64823319999993],[-51.7951978,-28.64700069999997],[-51.79473929999995,-28.646682599999956],[-51.79481839999994,-28.646211499999932],[-51.794353,-28.64585429999994],[-51.793801,-28.644191499999973],[-51.79298869999997,-28.64609609999996],[-51.79204089999996,-28.647531299999965],[-51.79055009999996,-28.649221199999943],[-51.78909569999996,-28.65013],[-51.78603889999993,-28.65300139999994],[-51.78407649999996,-28.654323099999935],[-51.779258,-28.655718899999957],[-51.778651099999934,-28.656107399999932]]]}},{"type":"Feature","properties":{"setor":"431280705000007","pop":822,"sigilo_pop":false,"dom":367,"sigilo_dom":0,"mulheres":419,"sigilo_mulheres":0,"c0_4":36,"sigilo_c0_4":0,"c5_9":43,"sigilo_c5_9":0,"i60_69":94,"sigilo_i60_69":0,"i70m":99,"sigilo_i70m":0,"indigenas":0,"sigilo_indigenas":0,"pretos_pardos":143,"sigilo_pretos_pardos":0,"dom_ocupados":349,"sigilo_dom_ocupados":0,"dom_agua":347,"sigilo_dom_agua":0,"dom_esgoto":293,"sigilo_dom_esgoto":0,"renda_resp":2851.59,"sigilo_renda_resp":0,"n_resp":349,"sigilo_n_resp":0,"dens":1252.4,"sigilo_dens":false,"na_bacia":1,"area_pct_bacia":100.0,"metodo_recorte_bacia":"ponto_representativo_setor_2022; area_pct_geometrica","pop_n_validos":1,"pop_n_total":1,"pop_completude":1.0,"dom_n_validos":1,"dom_n_total":1,"dom_completude":1.0,"dom_ocupados_n_validos":1,"dom_ocupados_n_total":1,"dom_ocupados_completude":1.0,"mulheres_n_validos":1,"mulheres_n_total":1,"mulheres_completude":1.0,"c0_4_n_validos":1,"c0_4_n_total":1,"c0_4_completude":1.0,"c5_9_n_validos":1,"c5_9_n_total":1,"c5_9_completude":1.0,"i60_69_n_validos":1,"i60_69_n_total":1,"i60_69_completude":1.0,"i70m_n_validos":1,"i70m_n_total":1,"i70m_completude":1.0,"indigenas_n_validos":1,"indigenas_n_total":1,"indigenas_completude":1.0,"pretos_pardos_n_validos":1,"pretos_pardos_n_total":1,"pretos_pardos_completude":1.0,"dom_agua_n_validos":1,"dom_agua_n_total":1,"dom_agua_completude":1.0,"dom_esgoto_n_validos":1,"dom_esgoto_n_total":1,"dom_esgoto_completude":1.0,"n_resp_n_validos":1,"n_resp_n_total":1,"n_resp_completude":1.0,"renda_resp_n_validos":1,"renda_resp_n_total":1,"renda_resp_completude":1.0,"dens_n_validos":1,"dens_n_total":1,"dens_completude":1.0,"status_borda_bacia":"total","metodo_area_bacia":"interseção geométrica em EPSG:5880","metodo_na_bacia":"ponto_representativo_setor_2022_within_bacia","municipio":"Nova Araçá","cod_mun":"4312807","mun_pct_na_bacia":100.0,"mun_pop_total":4954,"mun_pop_na_bacia":4954.0,"mun_ubs_iede":1,"mun_hospitais_iede":null,"mun_escolas_iede":5,"mun_bombeiros_iede":null,"mun_servicos_cobertura":"cadastro_IEDE_parcial_nao_inventario","mun_icm_faixa":"B","mun_icm_pontos":10,"mun_icm_prioritario":"não","mun_ubs_iede_status":"published","mun_hospitais_iede_status":"unknown","mun_escolas_iede_status":"published","mun_bombeiros_iede_status":"unknown"},"geometry":{"type":"Polygon","coordinates":[[[-51.74705769999998,-28.65321729999994],[-51.74653009999997,-28.655784599999944],[-51.745539,-28.65744079999996],[-51.745406499999945,-28.659825899999923],[-51.74432409999997,-28.65977459999993],[-51.74426319999998,-28.66187879999995],[-51.745354,-28.661855],[-51.74532119999998,-28.662454899999936],[-51.74783189999994,-28.663138799999967],[-51.753001,-28.663658099999964],[-51.75660309999995,-28.663288299999977],[-51.756593,-28.662253599999936],[-51.75577849999996,-28.661629],[-51.754924099999975,-28.66041],[-51.75441719999998,-28.660224599999943],[-51.75364779999995,-28.661087499999955],[-51.75108789999996,-28.65908849999994],[-51.74966969999998,-28.658964499999975],[-51.74979589999998,-28.65455619999995],[-51.74844169999995,-28.65457189999995],[-51.748427,-28.65240919999996],[-51.74705769999998,-28.65321729999994]]]}},{"type":"Feature","properties":{"setor":"431280705000008","pop":1179,"sigilo_pop":false,"dom":373,"sigilo_dom":0,"mulheres":541,"sigilo_mulheres":0,"c0_4":101,"sigilo_c0_4":0,"c5_9":76,"sigilo_c5_9":0,"i60_69":99,"sigilo_i60_69":0,"i70m":47,"sigilo_i70m":0,"indigenas":null,"sigilo_indigenas":1,"pretos_pardos":514,"sigilo_pretos_pardos":0,"dom_ocupados":362,"sigilo_dom_ocupados":0,"dom_agua":359,"sigilo_dom_agua":0,"dom_esgoto":41,"sigilo_dom_esgoto":0,"renda_resp":3978.63,"sigilo_renda_resp":0,"n_resp":362,"sigilo_n_resp":0,"dens":2371.9,"sigilo_dens":false,"na_bacia":1,"area_pct_bacia":100.0,"metodo_recorte_bacia":"ponto_representativo_setor_2022; area_pct_geometrica","pop_n_validos":1,"pop_n_total":1,"pop_completude":1.0,"dom_n_validos":1,"dom_n_total":1,"dom_completude":1.0,"dom_ocupados_n_validos":1,"dom_ocupados_n_total":1,"dom_ocupados_completude":1.0,"mulheres_n_validos":1,"mulheres_n_total":1,"mulheres_completude":1.0,"c0_4_n_validos":1,"c0_4_n_total":1,"c0_4_completude":1.0,"c5_9_n_validos":1,"c5_9_n_total":1,"c5_9_completude":1.0,"i60_69_n_validos":1,"i60_69_n_total":1,"i60_69_completude":1.0,"i70m_n_validos":1,"i70m_n_total":1,"i70m_completude":1.0,"indigenas_n_validos":0,"indigenas_n_total":1,"indigenas_completude":0.0,"pretos_pardos_n_validos":1,"pretos_pardos_n_total":1,"pretos_pardos_completude":1.0,"dom_agua_n_validos":1,"dom_agua_n_total":1,"dom_agua_completude":1.0,"dom_esgoto_n_validos":1,"dom_esgoto_n_total":1,"dom_esgoto_completude":1.0,"n_resp_n_validos":1,"n_resp_n_total":1,"n_resp_completude":1.0,"renda_resp_n_validos":1,"renda_resp_n_total":1,"renda_resp_completude":1.0,"dens_n_validos":1,"dens_n_total":1,"dens_completude":1.0,"status_borda_bacia":"total","metodo_area_bacia":"interseção geométrica em EPSG:5880","metodo_na_bacia":"ponto_representativo_setor_2022_within_bacia","municipio":"Nova Araçá","cod_mun":"4312807","mun_pct_na_bacia":100.0,"mun_pop_total":4954,"mun_pop_na_bacia":4954.0,"mun_ubs_iede":1,"mun_hospitais_iede":null,"mun_escolas_iede":5,"mun_bombeiros_iede":null,"mun_servicos_cobertura":"cadastro_IEDE_parcial_nao_inventario","mun_icm_faixa":"B","mun_icm_pontos":10,"mun_icm_prioritario":"não","mun_ubs_iede_status":"published","mun_hospitais_iede_status":"unknown","mun_escolas_iede_status":"published","mun_bombeiros_iede_status":"unknown"},"geometry":{"type":"Polygon","coordinates":[[[-51.76186879999994,-28.664939],[-51.768757799999946,-28.663542399999976],[-51.77036779999997,-28.663682799999947],[-51.77302009999994,-28.662858699999962],[-51.77407759999994,-28.662270199999963],[-51.772538,-28.65957669999995],[-51.77083049999993,-28.65997469999997],[-51.76540789999996,-28.659404399999968],[-51.76197489999998,-28.66099149999997],[-51.76186879999994,-28.664939]]]}},{"type":"Feature","properties":{"setor":"431280705000009","pop":77,"sigilo_pop":false,"dom":24,"sigilo_dom":0,"mulheres":35,"sigilo_mulheres":0,"c0_4":null,"sigilo_c0_4":1,"c5_9":null,"sigilo_c5_9":1,"i60_69":0,"sigilo_i60_69":0,"i70m":0,"sigilo_i70m":0,"indigenas":0,"sigilo_indigenas":0,"pretos_pardos":42,"sigilo_pretos_pardos":0,"dom_ocupados":22,"sigilo_dom_ocupados":0,"dom_agua":20,"sigilo_dom_agua":0,"dom_esgoto":3,"sigilo_dom_esgoto":0,"renda_resp":4795.45,"sigilo_renda_resp":0,"n_resp":22,"sigilo_n_resp":0,"dens":110.8,"sigilo_dens":false,"na_bacia":1,"area_pct_bacia":100.0,"metodo_recorte_bacia":"ponto_representativo_setor_2022; area_pct_geometrica","pop_n_validos":1,"pop_n_total":1,"pop_completude":1.0,"dom_n_validos":1,"dom_n_total":1,"dom_completude":1.0,"dom_ocupados_n_validos":1,"dom_ocupados_n_total":1,"dom_ocupados_completude":1.0,"mulheres_n_validos":1,"mulheres_n_total":1,"mulheres_completude":1.0,"c0_4_n_validos":0,"c0_4_n_total":1,"c0_4_completude":0.0,"c5_9_n_validos":0,"c5_9_n_total":1,"c5_9_completude":0.0,"i60_69_n_validos":1,"i60_69_n_total":1,"i60_69_completude":1.0,"i70m_n_validos":1,"i70m_n_total":1,"i70m_completude":1.0,"indigenas_n_validos":1,"indigenas_n_total":1,"indigenas_completude":1.0,"pretos_pardos_n_validos":1,"pretos_pardos_n_total":1,"pretos_pardos_completude":1.0,"dom_agua_n_validos":1,"dom_agua_n_total":1,"dom_agua_completude":1.0,"dom_esgoto_n_validos":1,"dom_esgoto_n_total":1,"dom_esgoto_completude":1.0,"n_resp_n_validos":1,"n_resp_n_total":1,"n_resp_completude":1.0,"renda_resp_n_validos":1,"renda_resp_n_total":1,"renda_resp_completude":1.0,"dens_n_validos":1,"dens_n_total":1,"dens_completude":1.0,"status_borda_bacia":"total","metodo_area_bacia":"interseção geométrica em EPSG:5880","metodo_na_bacia":"ponto_representativo_setor_2022_within_bacia","municipio":"Nova Araçá","cod_mun":"4312807","mun_pct_na_bacia":100.0,"mun_pop_total":4954,"mun_pop_na_bacia":4954.0,"mun_ubs_iede":1,"mun_hospitais_iede":null,"mun_escolas_iede":5,"mun_bombeiros_iede":null,"mun_servicos_cobertura":"cadastro_IEDE_parcial_nao_inventario","mun_icm_faixa":"B","mun_icm_pontos":10,"mun_icm_prioritario":"não","mun_ubs_iede_status":"published","mun_hospitais_iede_status":"unknown","mun_escolas_iede_status":"published","mun_bombeiros_iede_status":"unknown"},"geometry":{"type":"Polygon","coordinates":[[[-51.74979589999998,-28.65455619999995],[-51.74966969999998,-28.658964499999975],[-51.75108789999996,-28.65908849999994],[-51.75364779999995,-28.661087499999955],[-51.75428059999996,-28.660303699999915],[-51.75475049999994,-28.660305599999944],[-51.75577849999996,-28.661629],[-51.756593,-28.662253599999936],[-51.756745,-28.656157099999973],[-51.75899349999997,-28.65618119999993],[-51.75889129999996,-28.660923699999962],[-51.759666,-28.659558399999973],[-51.76152989999998,-28.658753],[-51.76227389999997,-28.658162399999974],[-51.76481269999994,-28.657579499999937],[-51.76616659999996,-28.656875899999925],[-51.76651069999997,-28.656822399999957],[-51.767020299999956,-28.65713689999996],[-51.767508299999974,-28.658275499999935],[-51.76813729999998,-28.658709299999952],[-51.768679599999984,-28.658546699999935],[-51.76947119999994,-28.65783089999997],[-51.770329,-28.65787129999995],[-51.768740899999955,-28.656878499999944],[-51.75428019999998,-28.65450429999992],[-51.74979589999998,-28.65455619999995]]]}},{"type":"Feature","properties":{"setor":"431280705000011","pop":361,"sigilo_pop":false,"dom":176,"sigilo_dom":0,"mulheres":181,"sigilo_mulheres":0,"c0_4":33,"sigilo_c0_4":0,"c5_9":26,"sigilo_c5_9":0,"i60_69":29,"sigilo_i60_69":0,"i70m":12,"sigilo_i70m":0,"indigenas":0,"sigilo_indigenas":0,"pretos_pardos":137,"sigilo_pretos_pardos":0,"dom_ocupados":137,"sigilo_dom_ocupados":0,"dom_agua":126,"sigilo_dom_agua":0,"dom_esgoto":44,"sigilo_dom_esgoto":0,"renda_resp":2004.43,"sigilo_renda_resp":0,"n_resp":137,"sigilo_n_resp":0,"dens":183.9,"sigilo_dens":false,"na_bacia":1,"area_pct_bacia":100.0,"metodo_recorte_bacia":"ponto_representativo_setor_2022; area_pct_geometrica","pop_n_validos":1,"pop_n_total":1,"pop_completude":1.0,"dom_n_validos":1,"dom_n_total":1,"dom_completude":1.0,"dom_ocupados_n_validos":1,"dom_ocupados_n_total":1,"dom_ocupados_completude":1.0,"mulheres_n_validos":1,"mulheres_n_total":1,"mulheres_completude":1.0,"c0_4_n_validos":1,"c0_4_n_total":1,"c0_4_completude":1.0,"c5_9_n_validos":1,"c5_9_n_total":1,"c5_9_completude":1.0,"i60_69_n_validos":1,"i60_69_n_total":1,"i60_69_completude":1.0,"i70m_n_validos":1,"i70m_n_total":1,"i70m_completude":1.0,"indigenas_n_validos":1,"indigenas_n_total":1,"indigenas_completude":1.0,"pretos_pardos_n_validos":1,"pretos_pardos_n_total":1,"pretos_pardos_completude":1.0,"dom_agua_n_validos":1,"dom_agua_n_total":1,"dom_agua_completude":1.0,"dom_esgoto_n_validos":1,"dom_esgoto_n_total":1,"dom_esgoto_completude":1.0,"n_resp_n_validos":1,"n_resp_n_total":1,"n_resp_completude":1.0,"renda_resp_n_validos":1,"renda_resp_n_total":1,"renda_resp_completude":1.0,"dens_n_validos":1,"dens_n_total":1,"dens_completude":1.0,"status_borda_bacia":"total","metodo_area_bacia":"interseção geométrica em EPSG:5880","metodo_na_bacia":"ponto_representativo_setor_2022_within_bacia","municipio":"Nova Araçá","cod_mun":"4312807","mun_pct_na_bacia":100.0,"mun_pop_total":4954,"mun_pop_na_bacia":4954.0,"mun_ubs_iede":1,"mun_hospitais_iede":null,"mun_escolas_iede":5,"mun_bombeiros_iede":null,"mun_servicos_cobertura":"cadastro_IEDE_parcial_nao_inventario","mun_icm_faixa":"B","mun_icm_pontos":10,"mun_icm_prioritario":"não","mun_ubs_iede_status":"published","mun_hospitais_iede_status":"unknown","mun_escolas_iede_status":"published","mun_bombeiros_iede_status":"unknown"},"geometry":{"type":"Polygon","coordinates":[[[-51.772135299999945,-28.659451299999933],[-51.772538,-28.65957669999995],[-51.77407759999994,-28.662270199999963],[-51.77302009999994,-28.662858699999962],[-51.77036779999997,-28.663682799999947],[-51.768757799999946,-28.663542399999976],[-51.76186879999994,-28.664939],[-51.755973099999956,-28.664964799999954],[-51.750732599999935,-28.66678309999997],[-51.738043,-28.66640259999997],[-51.737881199999954,-28.663151399999943],[-51.73687639999997,-28.663528699999965],[-51.73620509999996,-28.664058899999937],[-51.73567149999997,-28.664916],[-51.73523149999994,-28.666502],[-51.74755959999993,-28.671622199999938],[-51.75771709999999,-28.669479299999985],[-51.765412699999956,-28.66825239999997],[-51.76854349999997,-28.66731029999994],[-51.77316849999994,-28.665251],[-51.78044989999995,-28.661223799999952],[-51.778651099999934,-28.656107399999932],[-51.775301199999944,-28.658090799999968],[-51.77515729999993,-28.657359899999964],[-51.77412279999999,-28.65804639999992],[-51.773257399999984,-28.65899679999996],[-51.772135299999945,-28.659451299999933]]]}},{"type":"Feature","properties":{"setor":"431280705000012","pop":572,"sigilo_pop":false,"dom":277,"sigilo_dom":0,"mulheres":305,"sigilo_mulheres":0,"c0_4":25,"sigilo_c0_4":0,"c5_9":31,"sigilo_c5_9":0,"i60_69":81,"sigilo_i60_69":0,"i70m":61,"sigilo_i70m":0,"indigenas":0,"sigilo_indigenas":0,"pretos_pardos":78,"sigilo_pretos_pardos":0,"dom_ocupados":236,"sigilo_dom_ocupados":0,"dom_agua":235,"sigilo_dom_agua":0,"dom_esgoto":5,"sigilo_dom_esgoto":0,"renda_resp":2688.73,"sigilo_renda_resp":0,"n_resp":236,"sigilo_n_resp":0,"dens":885.8,"sigilo_dens":false,"na_bacia":1,"area_pct_bacia":100.0,"metodo_recorte_bacia":"ponto_representativo_setor_2022; area_pct_geometrica","pop_n_validos":1,"pop_n_total":1,"pop_completude":1.0,"dom_n_validos":1,"dom_n_total":1,"dom_completude":1.0,"dom_ocupados_n_validos":1,"dom_ocupados_n_total":1,"dom_ocupados_completude":1.0,"mulheres_n_validos":1,"mulheres_n_total":1,"mulheres_completude":1.0,"c0_4_n_validos":1,"c0_4_n_total":1,"c0_4_completude":1.0,"c5_9_n_validos":1,"c5_9_n_total":1,"c5_9_completude":1.0,"i60_69_n_validos":1,"i60_69_n_total":1,"i60_69_completude":1.0,"i70m_n_validos":1,"i70m_n_total":1,"i70m_completude":1.0,"indigenas_n_validos":1,"indigenas_n_total":1,"indigenas_completude":1.0,"pretos_pardos_n_validos":1,"pretos_pardos_n_total":1,"pretos_pardos_completude":1.0,"dom_agua_n_validos":1,"dom_agua_n_total":1,"dom_agua_completude":1.0,"dom_esgoto_n_validos":1,"dom_esgoto_n_total":1,"dom_esgoto_completude":1.0,"n_resp_n_validos":1,"n_resp_n_total":1,"n_resp_completude":1.0,"renda_resp_n_validos":1,"renda_resp_n_total":1,"renda_resp_completude":1.0,"dens_n_validos":1,"dens_n_total":1,"dens_completude":1.0,"status_borda_bacia":"total","metodo_area_bacia":"interseção geométrica em EPSG:5880","metodo_na_bacia":"ponto_representativo_setor_2022_within_bacia","municipio":"Nova Araçá","cod_mun":"4312807","mun_pct_na_bacia":100.0,"mun_pop_total":4954,"mun_pop_na_bacia":4954.0,"mun_ubs_iede":1,"mun_hospitais_iede":null,"mun_escolas_iede":5,"mun_bombeiros_iede":null,"mun_servicos_cobertura":"cadastro_IEDE_parcial_nao_inventario","mun_icm_faixa":"B","mun_icm_pontos":10,"mun_icm_prioritario":"não","mun_ubs_iede_status":"published","mun_hospitais_iede_status":"unknown","mun_escolas_iede_status":"published","mun_bombeiros_iede_status":"unknown"},"geometry":{"type":"Polygon","coordinates":[[[-51.73640919999997,-28.657891499999945],[-51.73603159999993,-28.658189399999973],[-51.73523149999994,-28.666502],[-51.73589969999995,-28.66447269999997],[-51.736659,-28.663663399999958],[-51.73752809999996,-28.66323629999993],[-51.742128399999956,-28.662302599999986],[-51.74412689999997,-28.66221549999995],[-51.74532119999998,-28.662454899999936],[-51.745354,-28.661855],[-51.74426319999998,-28.66187879999995],[-51.74432409999997,-28.65977459999993],[-51.745406499999945,-28.659825899999923],[-51.745539,-28.65744079999996],[-51.74653009999997,-28.655784599999944],[-51.74705769999998,-28.65321729999994],[-51.73767419999996,-28.658873],[-51.73640919999997,-28.657891499999945]]]}}]}
