{"type":"FeatureCollection","name":"4312153","crs":{"type":"name","properties":{"name":"urn:ogc:def:crs:OGC:1.3:CRS84"}},"features":[{"type":"Feature","properties":{"setor":"431215305000001","pop":611,"sigilo_pop":false,"dom":283,"sigilo_dom":0,"mulheres":323,"sigilo_mulheres":0,"c0_4":33,"sigilo_c0_4":0,"c5_9":29,"sigilo_c5_9":0,"i60_69":78,"sigilo_i60_69":0,"i70m":59,"sigilo_i70m":0,"indigenas":0,"sigilo_indigenas":0,"pretos_pardos":31,"sigilo_pretos_pardos":0,"dom_ocupados":249,"sigilo_dom_ocupados":0,"dom_agua":249,"sigilo_dom_agua":0,"dom_esgoto":0,"sigilo_dom_esgoto":0,"renda_resp":2669.4,"sigilo_renda_resp":0,"n_resp":249,"sigilo_n_resp":0,"dens":350.8,"sigilo_dens":false,"na_bacia":1,"area_pct_bacia":100.0,"metodo_recorte_bacia":"ponto_representativo_setor_2022; area_pct_geometrica","pop_n_validos":1,"pop_n_total":1,"pop_completude":1.0,"dom_n_validos":1,"dom_n_total":1,"dom_completude":1.0,"dom_ocupados_n_validos":1,"dom_ocupados_n_total":1,"dom_ocupados_completude":1.0,"mulheres_n_validos":1,"mulheres_n_total":1,"mulheres_completude":1.0,"c0_4_n_validos":1,"c0_4_n_total":1,"c0_4_completude":1.0,"c5_9_n_validos":1,"c5_9_n_total":1,"c5_9_completude":1.0,"i60_69_n_validos":1,"i60_69_n_total":1,"i60_69_completude":1.0,"i70m_n_validos":1,"i70m_n_total":1,"i70m_completude":1.0,"indigenas_n_validos":1,"indigenas_n_total":1,"indigenas_completude":1.0,"pretos_pardos_n_validos":1,"pretos_pardos_n_total":1,"pretos_pardos_completude":1.0,"dom_agua_n_validos":1,"dom_agua_n_total":1,"dom_agua_completude":1.0,"dom_esgoto_n_validos":1,"dom_esgoto_n_total":1,"dom_esgoto_completude":1.0,"n_resp_n_validos":1,"n_resp_n_total":1,"n_resp_completude":1.0,"renda_resp_n_validos":1,"renda_resp_n_total":1,"renda_resp_completude":1.0,"dens_n_validos":1,"dens_n_total":1,"dens_completude":1.0,"status_borda_bacia":"total","metodo_area_bacia":"interseção geométrica em EPSG:5880","metodo_na_bacia":"ponto_representativo_setor_2022_within_bacia","municipio":"Mato Leitão","cod_mun":"4312153","mun_pct_na_bacia":100.0,"mun_pop_total":4859,"mun_pop_na_bacia":4859.0,"mun_ubs_iede":2,"mun_hospitais_iede":null,"mun_escolas_iede":4,"mun_bombeiros_iede":null,"mun_servicos_cobertura":"cadastro_IEDE_parcial_nao_inventario","mun_icm_faixa":"A","mun_icm_pontos":11,"mun_icm_prioritario":"não","mun_ubs_iede_status":"published","mun_hospitais_iede_status":"unknown","mun_escolas_iede_status":"published","mun_bombeiros_iede_status":"unknown"},"geometry":{"type":"Polygon","coordinates":[[[-52.1287832,-29.533072199999943],[-52.13615289999995,-29.53298289999998],[-52.1354401,-29.52606879999996],[-52.13799149999994,-29.525752],[-52.13853659999996,-29.525328],[-52.13806089999997,-29.521743199999957],[-52.137328,-29.522567399999954],[-52.13433979999996,-29.522991399999977],[-52.13366219999994,-29.515253499999975],[-52.119708199999934,-29.515046099999946],[-52.1199367,-29.517414599999935],[-52.12568439999995,-29.51754049999994],[-52.126441299999954,-29.52356079999992],[-52.12765039999993,-29.523445399999957],[-52.1287832,-29.533072199999943]]]}},{"type":"Feature","properties":{"setor":"431215305000002","pop":1045,"sigilo_pop":false,"dom":449,"sigilo_dom":0,"mulheres":549,"sigilo_mulheres":0,"c0_4":49,"sigilo_c0_4":0,"c5_9":61,"sigilo_c5_9":0,"i60_69":97,"sigilo_i60_69":0,"i70m":89,"sigilo_i70m":0,"indigenas":0,"sigilo_indigenas":0,"pretos_pardos":67,"sigilo_pretos_pardos":0,"dom_ocupados":406,"sigilo_dom_ocupados":0,"dom_agua":405,"sigilo_dom_agua":0,"dom_esgoto":0,"sigilo_dom_esgoto":0,"renda_resp":2942.88,"sigilo_renda_resp":0,"n_resp":406,"sigilo_n_resp":0,"dens":516.6,"sigilo_dens":false,"na_bacia":1,"area_pct_bacia":100.0,"metodo_recorte_bacia":"ponto_representativo_setor_2022; area_pct_geometrica","pop_n_validos":1,"pop_n_total":1,"pop_completude":1.0,"dom_n_validos":1,"dom_n_total":1,"dom_completude":1.0,"dom_ocupados_n_validos":1,"dom_ocupados_n_total":1,"dom_ocupados_completude":1.0,"mulheres_n_validos":1,"mulheres_n_total":1,"mulheres_completude":1.0,"c0_4_n_validos":1,"c0_4_n_total":1,"c0_4_completude":1.0,"c5_9_n_validos":1,"c5_9_n_total":1,"c5_9_completude":1.0,"i60_69_n_validos":1,"i60_69_n_total":1,"i60_69_completude":1.0,"i70m_n_validos":1,"i70m_n_total":1,"i70m_completude":1.0,"indigenas_n_validos":1,"indigenas_n_total":1,"indigenas_completude":1.0,"pretos_pardos_n_validos":1,"pretos_pardos_n_total":1,"pretos_pardos_completude":1.0,"dom_agua_n_validos":1,"dom_agua_n_total":1,"dom_agua_completude":1.0,"dom_esgoto_n_validos":1,"dom_esgoto_n_total":1,"dom_esgoto_completude":1.0,"n_resp_n_validos":1,"n_resp_n_total":1,"n_resp_completude":1.0,"renda_resp_n_validos":1,"renda_resp_n_total":1,"renda_resp_completude":1.0,"dens_n_validos":1,"dens_n_total":1,"dens_completude":1.0,"status_borda_bacia":"total","metodo_area_bacia":"interseção geométrica em EPSG:5880","metodo_na_bacia":"ponto_representativo_setor_2022_within_bacia","municipio":"Mato Leitão","cod_mun":"4312153","mun_pct_na_bacia":100.0,"mun_pop_total":4859,"mun_pop_na_bacia":4859.0,"mun_ubs_iede":2,"mun_hospitais_iede":null,"mun_escolas_iede":4,"mun_bombeiros_iede":null,"mun_servicos_cobertura":"cadastro_IEDE_parcial_nao_inventario","mun_icm_faixa":"A","mun_icm_pontos":11,"mun_icm_prioritario":"não","mun_ubs_iede_status":"published","mun_hospitais_iede_status":"unknown","mun_escolas_iede_status":"published","mun_bombeiros_iede_status":"unknown"},"geometry":{"type":"Polygon","coordinates":[[[-52.11657859999997,-29.544204699999963],[-52.117361199999955,-29.54391889999994],[-52.11924049999993,-29.542155299999934],[-52.12004989999997,-29.5412497],[-52.12084689999995,-29.539697199999974],[-52.122085899999945,-29.536345199999978],[-52.121823,-29.533041799999978],[-52.1287832,-29.533072199999943],[-52.12765039999993,-29.523445399999957],[-52.126441299999954,-29.52356079999992],[-52.12568439999995,-29.51754049999994],[-52.1199367,-29.517414599999935],[-52.119708199999934,-29.515046099999946],[-52.1170264,-29.515016499999952],[-52.11703159999996,-29.517352799999973],[-52.11740669999995,-29.51735559999997],[-52.119743,-29.52039959999995],[-52.120399,-29.525954],[-52.11927849999995,-29.52660589999993],[-52.11855469999995,-29.52835419999996],[-52.11786289999998,-29.529319399999967],[-52.11816649999998,-29.53403629999997],[-52.116925899999956,-29.53738839999993],[-52.116128899999985,-29.538940899999943],[-52.11531949999994,-29.539846499999953],[-52.11278069999997,-29.541427],[-52.11657859999997,-29.544204699999963]]]}},{"type":"Feature","properties":{"setor":"431215305000003","pop":64,"sigilo_pop":false,"dom":28,"sigilo_dom":0,"mulheres":32,"sigilo_mulheres":0,"c0_4":null,"sigilo_c0_4":1,"c5_9":null,"sigilo_c5_9":1,"i60_69":null,"sigilo_i60_69":1,"i70m":null,"sigilo_i70m":1,"indigenas":0,"sigilo_indigenas":0,"pretos_pardos":null,"sigilo_pretos_pardos":1,"dom_ocupados":24,"sigilo_dom_ocupados":0,"dom_agua":23,"sigilo_dom_agua":0,"dom_esgoto":0,"sigilo_dom_esgoto":0,"renda_resp":2391.48,"sigilo_renda_resp":0,"n_resp":24,"sigilo_n_resp":0,"dens":170.0,"sigilo_dens":false,"na_bacia":1,"area_pct_bacia":100.0,"metodo_recorte_bacia":"ponto_representativo_setor_2022; area_pct_geometrica","pop_n_validos":1,"pop_n_total":1,"pop_completude":1.0,"dom_n_validos":1,"dom_n_total":1,"dom_completude":1.0,"dom_ocupados_n_validos":1,"dom_ocupados_n_total":1,"dom_ocupados_completude":1.0,"mulheres_n_validos":1,"mulheres_n_total":1,"mulheres_completude":1.0,"c0_4_n_validos":0,"c0_4_n_total":1,"c0_4_completude":0.0,"c5_9_n_validos":0,"c5_9_n_total":1,"c5_9_completude":0.0,"i60_69_n_validos":0,"i60_69_n_total":1,"i60_69_completude":0.0,"i70m_n_validos":0,"i70m_n_total":1,"i70m_completude":0.0,"indigenas_n_validos":1,"indigenas_n_total":1,"indigenas_completude":1.0,"pretos_pardos_n_validos":0,"pretos_pardos_n_total":1,"pretos_pardos_completude":0.0,"dom_agua_n_validos":1,"dom_agua_n_total":1,"dom_agua_completude":1.0,"dom_esgoto_n_validos":1,"dom_esgoto_n_total":1,"dom_esgoto_completude":1.0,"n_resp_n_validos":1,"n_resp_n_total":1,"n_resp_completude":1.0,"renda_resp_n_validos":1,"renda_resp_n_total":1,"renda_resp_completude":1.0,"dens_n_validos":1,"dens_n_total":1,"dens_completude":1.0,"status_borda_bacia":"total","metodo_area_bacia":"interseção geométrica em EPSG:5880","metodo_na_bacia":"ponto_representativo_setor_2022_within_bacia","municipio":"Mato Leitão","cod_mun":"4312153","mun_pct_na_bacia":100.0,"mun_pop_total":4859,"mun_pop_na_bacia":4859.0,"mun_ubs_iede":2,"mun_hospitais_iede":null,"mun_escolas_iede":4,"mun_bombeiros_iede":null,"mun_servicos_cobertura":"cadastro_IEDE_parcial_nao_inventario","mun_icm_faixa":"A","mun_icm_pontos":11,"mun_icm_prioritario":"não","mun_ubs_iede_status":"published","mun_hospitais_iede_status":"unknown","mun_escolas_iede_status":"published","mun_bombeiros_iede_status":"unknown"},"geometry":{"type":"Polygon","coordinates":[[[-52.13806089999997,-29.521743199999957],[-52.13766579999997,-29.518717299999942],[-52.13972039999993,-29.51870449999995],[-52.13950719999997,-29.515360599999944],[-52.13366219999994,-29.515253499999975],[-52.13433979999996,-29.522991399999977],[-52.137328,-29.522567399999954],[-52.13806089999997,-29.521743199999957]]]}},{"type":"Feature","properties":{"setor":"431215305000005","pop":140,"sigilo_pop":false,"dom":64,"sigilo_dom":0,"mulheres":69,"sigilo_mulheres":0,"c0_4":null,"sigilo_c0_4":1,"c5_9":10,"sigilo_c5_9":0,"i60_69":16,"sigilo_i60_69":0,"i70m":13,"sigilo_i70m":0,"indigenas":0,"sigilo_indigenas":0,"pretos_pardos":26,"sigilo_pretos_pardos":0,"dom_ocupados":53,"sigilo_dom_ocupados":0,"dom_agua":53,"sigilo_dom_agua":0,"dom_esgoto":null,"sigilo_dom_esgoto":1,"renda_resp":1958.58,"sigilo_renda_resp":0,"n_resp":53,"sigilo_n_resp":0,"dens":52.1,"sigilo_dens":false,"na_bacia":1,"area_pct_bacia":100.0,"metodo_recorte_bacia":"ponto_representativo_setor_2022; area_pct_geometrica","pop_n_validos":1,"pop_n_total":1,"pop_completude":1.0,"dom_n_validos":1,"dom_n_total":1,"dom_completude":1.0,"dom_ocupados_n_validos":1,"dom_ocupados_n_total":1,"dom_ocupados_completude":1.0,"mulheres_n_validos":1,"mulheres_n_total":1,"mulheres_completude":1.0,"c0_4_n_validos":0,"c0_4_n_total":1,"c0_4_completude":0.0,"c5_9_n_validos":1,"c5_9_n_total":1,"c5_9_completude":1.0,"i60_69_n_validos":1,"i60_69_n_total":1,"i60_69_completude":1.0,"i70m_n_validos":1,"i70m_n_total":1,"i70m_completude":1.0,"indigenas_n_validos":1,"indigenas_n_total":1,"indigenas_completude":1.0,"pretos_pardos_n_validos":1,"pretos_pardos_n_total":1,"pretos_pardos_completude":1.0,"dom_agua_n_validos":1,"dom_agua_n_total":1,"dom_agua_completude":1.0,"dom_esgoto_n_validos":0,"dom_esgoto_n_total":1,"dom_esgoto_completude":0.0,"n_resp_n_validos":1,"n_resp_n_total":1,"n_resp_completude":1.0,"renda_resp_n_validos":1,"renda_resp_n_total":1,"renda_resp_completude":1.0,"dens_n_validos":1,"dens_n_total":1,"dens_completude":1.0,"status_borda_bacia":"total","metodo_area_bacia":"interseção geométrica em EPSG:5880","metodo_na_bacia":"ponto_representativo_setor_2022_within_bacia","municipio":"Mato Leitão","cod_mun":"4312153","mun_pct_na_bacia":100.0,"mun_pop_total":4859,"mun_pop_na_bacia":4859.0,"mun_ubs_iede":2,"mun_hospitais_iede":null,"mun_escolas_iede":4,"mun_bombeiros_iede":null,"mun_servicos_cobertura":"cadastro_IEDE_parcial_nao_inventario","mun_icm_faixa":"A","mun_icm_pontos":11,"mun_icm_prioritario":"não","mun_ubs_iede_status":"published","mun_hospitais_iede_status":"unknown","mun_escolas_iede_status":"published","mun_bombeiros_iede_status":"unknown"},"geometry":{"type":"Polygon","coordinates":[[[-52.13766579999997,-29.518717299999942],[-52.13853659999996,-29.525328],[-52.13799149999994,-29.525752],[-52.1354401,-29.52606879999996],[-52.13615289999995,-29.53298289999998],[-52.121823,-29.533041799999978],[-52.122085899999945,-29.536345199999978],[-52.12059029999995,-29.54018449999995],[-52.122785,-29.540567399999944],[-52.12367159999997,-29.540355299999927],[-52.12368339999995,-29.539328199999936],[-52.12427619999993,-29.53843059999997],[-52.1240198,-29.53633239999995],[-52.124379699999956,-29.53569649999997],[-52.124706099999976,-29.535561499999964],[-52.12719579999998,-29.535803299999937],[-52.127948,-29.537023199999968],[-52.12792449999994,-29.537730299999957],[-52.12825419999996,-29.538426799999968],[-52.128659399999954,-29.538813299999966],[-52.13089169999996,-29.539731099999983],[-52.130973,-29.540444199999964],[-52.13028979999996,-29.54106509999996],[-52.13055869999994,-29.541685],[-52.13137729999995,-29.542145899999984],[-52.13363429999998,-29.54208259999995],[-52.134019199999955,-29.5422526],[-52.134962199999954,-29.54199649999999],[-52.13583219999999,-29.54205019999994],[-52.13624919999995,-29.54169039999994],[-52.13727289999997,-29.54147839999996],[-52.13915049999997,-29.539800899999936],[-52.13925479999995,-29.539423899999978],[-52.140719,-29.538590799999955],[-52.14083159999996,-29.538134499999966],[-52.14266059999995,-29.537675899999954],[-52.146064699999954,-29.53758029999994],[-52.148416,-29.53812],[-52.150663899999984,-29.537869699999924],[-52.152223099999965,-29.53813859999996],[-52.15244479999996,-29.538362699999922],[-52.15174189999994,-29.533655299999975],[-52.152157099999954,-29.53270369999995],[-52.15106889999998,-29.532991899999956],[-52.14945249999993,-29.532715],[-52.14733129999996,-29.53054479999996],[-52.146591,-29.530133599999942],[-52.14511559999995,-29.530331099999948],[-52.14387519999996,-29.530984499999917],[-52.14141979999994,-29.531588199999927],[-52.14091639999998,-29.529782799999968],[-52.13972039999993,-29.51870449999995],[-52.13766579999997,-29.518717299999942]]]}},{"type":"Feature","properties":{"setor":"431215305000006","pop":443,"sigilo_pop":false,"dom":190,"sigilo_dom":0,"mulheres":218,"sigilo_mulheres":0,"c0_4":22,"sigilo_c0_4":0,"c5_9":23,"sigilo_c5_9":0,"i60_69":54,"sigilo_i60_69":0,"i70m":46,"sigilo_i70m":0,"indigenas":0,"sigilo_indigenas":0,"pretos_pardos":68,"sigilo_pretos_pardos":0,"dom_ocupados":169,"sigilo_dom_ocupados":0,"dom_agua":164,"sigilo_dom_agua":0,"dom_esgoto":3,"sigilo_dom_esgoto":0,"renda_resp":1814.43,"sigilo_renda_resp":0,"n_resp":169,"sigilo_n_resp":0,"dens":62.0,"sigilo_dens":false,"na_bacia":1,"area_pct_bacia":100.0,"metodo_recorte_bacia":"ponto_representativo_setor_2022; area_pct_geometrica","pop_n_validos":1,"pop_n_total":1,"pop_completude":1.0,"dom_n_validos":1,"dom_n_total":1,"dom_completude":1.0,"dom_ocupados_n_validos":1,"dom_ocupados_n_total":1,"dom_ocupados_completude":1.0,"mulheres_n_validos":1,"mulheres_n_total":1,"mulheres_completude":1.0,"c0_4_n_validos":1,"c0_4_n_total":1,"c0_4_completude":1.0,"c5_9_n_validos":1,"c5_9_n_total":1,"c5_9_completude":1.0,"i60_69_n_validos":1,"i60_69_n_total":1,"i60_69_completude":1.0,"i70m_n_validos":1,"i70m_n_total":1,"i70m_completude":1.0,"indigenas_n_validos":1,"indigenas_n_total":1,"indigenas_completude":1.0,"pretos_pardos_n_validos":1,"pretos_pardos_n_total":1,"pretos_pardos_completude":1.0,"dom_agua_n_validos":1,"dom_agua_n_total":1,"dom_agua_completude":1.0,"dom_esgoto_n_validos":1,"dom_esgoto_n_total":1,"dom_esgoto_completude":1.0,"n_resp_n_validos":1,"n_resp_n_total":1,"n_resp_completude":1.0,"renda_resp_n_validos":1,"renda_resp_n_total":1,"renda_resp_completude":1.0,"dens_n_validos":1,"dens_n_total":1,"dens_completude":1.0,"status_borda_bacia":"total","metodo_area_bacia":"interseção geométrica em EPSG:5880","metodo_na_bacia":"ponto_representativo_setor_2022_within_bacia","municipio":"Mato Leitão","cod_mun":"4312153","mun_pct_na_bacia":100.0,"mun_pop_total":4859,"mun_pop_na_bacia":4859.0,"mun_ubs_iede":2,"mun_hospitais_iede":null,"mun_escolas_iede":4,"mun_bombeiros_iede":null,"mun_servicos_cobertura":"cadastro_IEDE_parcial_nao_inventario","mun_icm_faixa":"A","mun_icm_pontos":11,"mun_icm_prioritario":"não","mun_ubs_iede_status":"published","mun_hospitais_iede_status":"unknown","mun_escolas_iede_status":"published","mun_bombeiros_iede_status":"unknown"},"geometry":{"type":"Polygon","coordinates":[[[-52.098678699999944,-29.534116299999923],[-52.096938199999954,-29.53428819999993],[-52.097546299999976,-29.546276299999917],[-52.098679,-29.547315699999952],[-52.10141079999994,-29.54850539999994],[-52.101548099999945,-29.54921319999993],[-52.10240179999994,-29.549675099999952],[-52.10249849999996,-29.55028349999997],[-52.10365329999996,-29.549679299999966],[-52.10381049999995,-29.54978429999995],[-52.10392539999998,-29.550498],[-52.10371729999997,-29.55072679999994],[-52.10443139999995,-29.551459799999982],[-52.105039399999946,-29.55170239999996],[-52.10569739999994,-29.55017959999997],[-52.10693429999998,-29.55024219999996],[-52.10776419999996,-29.54980379999995],[-52.10805829999998,-29.549106],[-52.10777829999995,-29.548357599999974],[-52.1079716,-29.54824219999994],[-52.109119799999974,-29.548464799999977],[-52.10944459999997,-29.548919599999977],[-52.109389799999974,-29.549248699999964],[-52.110891799999926,-29.549897699999974],[-52.11123729999998,-29.550465699999947],[-52.11147729999993,-29.550349899999954],[-52.112039699999976,-29.54827609999995],[-52.11286709999997,-29.54797429999996],[-52.11355289999994,-29.548429],[-52.11427,-29.54839209999995],[-52.11640889999995,-29.54514589999997],[-52.11657859999997,-29.544204699999963],[-52.11278069999997,-29.541427],[-52.11531949999994,-29.539846499999953],[-52.116128899999985,-29.538940899999943],[-52.116925899999956,-29.53738839999993],[-52.11816649999998,-29.53403629999997],[-52.11786289999998,-29.529319399999967],[-52.11855469999995,-29.52835419999996],[-52.11927849999995,-29.52660589999993],[-52.120399,-29.525954],[-52.119743,-29.52039959999995],[-52.11740669999995,-29.51735559999997],[-52.11703159999996,-29.517352799999973],[-52.1170264,-29.515016499999952],[-52.13950719999997,-29.515360599999944],[-52.139356099999986,-29.512722],[-52.10799609999999,-29.512317],[-52.108869199999965,-29.51937679999997],[-52.1089674,-29.52254079999994],[-52.092362599999944,-29.53011749999997],[-52.09456529999994,-29.532018],[-52.098678699999944,-29.534116299999923]]]}},{"type":"Feature","properties":{"setor":"431215315000001","pop":21,"sigilo_pop":false,"dom":8,"sigilo_dom":0,"mulheres":9,"sigilo_mulheres":0,"c0_4":0,"sigilo_c0_4":0,"c5_9":null,"sigilo_c5_9":1,"i60_69":0,"sigilo_i60_69":0,"i70m":6,"sigilo_i70m":0,"indigenas":0,"sigilo_indigenas":0,"pretos_pardos":0,"sigilo_pretos_pardos":0,"dom_ocupados":8,"sigilo_dom_ocupados":0,"dom_agua":8,"sigilo_dom_agua":0,"dom_esgoto":0,"sigilo_dom_esgoto":0,"renda_resp":1559.0,"sigilo_renda_resp":0,"n_resp":8,"sigilo_n_resp":0,"dens":201.9,"sigilo_dens":false,"na_bacia":1,"area_pct_bacia":100.0,"metodo_recorte_bacia":"ponto_representativo_setor_2022; area_pct_geometrica","pop_n_validos":1,"pop_n_total":1,"pop_completude":1.0,"dom_n_validos":1,"dom_n_total":1,"dom_completude":1.0,"dom_ocupados_n_validos":1,"dom_ocupados_n_total":1,"dom_ocupados_completude":1.0,"mulheres_n_validos":1,"mulheres_n_total":1,"mulheres_completude":1.0,"c0_4_n_validos":1,"c0_4_n_total":1,"c0_4_completude":1.0,"c5_9_n_validos":0,"c5_9_n_total":1,"c5_9_completude":0.0,"i60_69_n_validos":1,"i60_69_n_total":1,"i60_69_completude":1.0,"i70m_n_validos":1,"i70m_n_total":1,"i70m_completude":1.0,"indigenas_n_validos":1,"indigenas_n_total":1,"indigenas_completude":1.0,"pretos_pardos_n_validos":1,"pretos_pardos_n_total":1,"pretos_pardos_completude":1.0,"dom_agua_n_validos":1,"dom_agua_n_total":1,"dom_agua_completude":1.0,"dom_esgoto_n_validos":1,"dom_esgoto_n_total":1,"dom_esgoto_completude":1.0,"n_resp_n_validos":1,"n_resp_n_total":1,"n_resp_completude":1.0,"renda_resp_n_validos":1,"renda_resp_n_total":1,"renda_resp_completude":1.0,"dens_n_validos":1,"dens_n_total":1,"dens_completude":1.0,"status_borda_bacia":"total","metodo_area_bacia":"interseção geométrica em EPSG:5880","metodo_na_bacia":"ponto_representativo_setor_2022_within_bacia","municipio":"Mato Leitão","cod_mun":"4312153","mun_pct_na_bacia":100.0,"mun_pop_total":4859,"mun_pop_na_bacia":4859.0,"mun_ubs_iede":2,"mun_hospitais_iede":null,"mun_escolas_iede":4,"mun_bombeiros_iede":null,"mun_servicos_cobertura":"cadastro_IEDE_parcial_nao_inventario","mun_icm_faixa":"A","mun_icm_pontos":11,"mun_icm_prioritario":"não","mun_ubs_iede_status":"published","mun_hospitais_iede_status":"unknown","mun_escolas_iede_status":"published","mun_bombeiros_iede_status":"unknown"},"geometry":{"type":"Polygon","coordinates":[[[-52.154116399999964,-29.516386499999957],[-52.15849139999995,-29.516372299999937],[-52.158388499999944,-29.51417389999994],[-52.153741799999985,-29.51430329999993],[-52.15412849999996,-29.51508689999996],[-52.153706399999976,-29.51525009999994],[-52.15415189999993,-29.515975699999956],[-52.154116399999964,-29.516386499999957]]]}},{"type":"Feature","properties":{"setor":"431215315000002","pop":383,"sigilo_pop":false,"dom":183,"sigilo_dom":0,"mulheres":191,"sigilo_mulheres":0,"c0_4":19,"sigilo_c0_4":0,"c5_9":20,"sigilo_c5_9":0,"i60_69":55,"sigilo_i60_69":0,"i70m":65,"sigilo_i70m":0,"indigenas":0,"sigilo_indigenas":0,"pretos_pardos":null,"sigilo_pretos_pardos":1,"dom_ocupados":143,"sigilo_dom_ocupados":0,"dom_agua":136,"sigilo_dom_agua":0,"dom_esgoto":4,"sigilo_dom_esgoto":0,"renda_resp":1894.76,"sigilo_renda_resp":0,"n_resp":143,"sigilo_n_resp":0,"dens":35.6,"sigilo_dens":false,"na_bacia":1,"area_pct_bacia":100.0,"metodo_recorte_bacia":"ponto_representativo_setor_2022; area_pct_geometrica","pop_n_validos":1,"pop_n_total":1,"pop_completude":1.0,"dom_n_validos":1,"dom_n_total":1,"dom_completude":1.0,"dom_ocupados_n_validos":1,"dom_ocupados_n_total":1,"dom_ocupados_completude":1.0,"mulheres_n_validos":1,"mulheres_n_total":1,"mulheres_completude":1.0,"c0_4_n_validos":1,"c0_4_n_total":1,"c0_4_completude":1.0,"c5_9_n_validos":1,"c5_9_n_total":1,"c5_9_completude":1.0,"i60_69_n_validos":1,"i60_69_n_total":1,"i60_69_completude":1.0,"i70m_n_validos":1,"i70m_n_total":1,"i70m_completude":1.0,"indigenas_n_validos":1,"indigenas_n_total":1,"indigenas_completude":1.0,"pretos_pardos_n_validos":0,"pretos_pardos_n_total":1,"pretos_pardos_completude":0.0,"dom_agua_n_validos":1,"dom_agua_n_total":1,"dom_agua_completude":1.0,"dom_esgoto_n_validos":1,"dom_esgoto_n_total":1,"dom_esgoto_completude":1.0,"n_resp_n_validos":1,"n_resp_n_total":1,"n_resp_completude":1.0,"renda_resp_n_validos":1,"renda_resp_n_total":1,"renda_resp_completude":1.0,"dens_n_validos":1,"dens_n_total":1,"dens_completude":1.0,"status_borda_bacia":"total","metodo_area_bacia":"interseção geométrica em EPSG:5880","metodo_na_bacia":"ponto_representativo_setor_2022_within_bacia","municipio":"Mato Leitão","cod_mun":"4312153","mun_pct_na_bacia":100.0,"mun_pop_total":4859,"mun_pop_na_bacia":4859.0,"mun_ubs_iede":2,"mun_hospitais_iede":null,"mun_escolas_iede":4,"mun_bombeiros_iede":null,"mun_servicos_cobertura":"cadastro_IEDE_parcial_nao_inventario","mun_icm_faixa":"A","mun_icm_pontos":11,"mun_icm_prioritario":"não","mun_ubs_iede_status":"published","mun_hospitais_iede_status":"unknown","mun_escolas_iede_status":"published","mun_bombeiros_iede_status":"unknown"},"geometry":{"type":"Polygon","coordinates":[[[-52.15630339999996,-29.500373099999937],[-52.139356099999986,-29.512722],[-52.13955649999997,-29.517703099999956],[-52.14091639999998,-29.529782799999968],[-52.14120969999994,-29.530320899999932],[-52.14131119999996,-29.531367799999938],[-52.14160719999996,-29.531657599999956],[-52.14387519999996,-29.530984499999917],[-52.14511559999995,-29.530331099999948],[-52.146591,-29.530133599999942],[-52.14733129999996,-29.53054479999996],[-52.14945249999993,-29.532715],[-52.15106889999998,-29.532991899999956],[-52.152157099999954,-29.53270369999995],[-52.15174189999994,-29.533655299999975],[-52.15244479999996,-29.538362699999922],[-52.161611,-29.53780109999996],[-52.162290199999966,-29.538554299999937],[-52.16280839999996,-29.53971029999996],[-52.163832799999966,-29.54000969999992],[-52.16458089999998,-29.539975199999947],[-52.16528569999997,-29.540658299999958],[-52.166038699999945,-29.53981779999998],[-52.166837799999946,-29.539631899999954],[-52.167267,-29.538948699999928],[-52.168280799999934,-29.51660489999995],[-52.17499769999995,-29.51447009999998],[-52.174416699999945,-29.506392099999964],[-52.17999819999994,-29.503937199999935],[-52.180066599999975,-29.500215799999978],[-52.15630339999996,-29.500373099999937]],[[-52.154116399999964,-29.516386499999957],[-52.15415189999993,-29.515975699999956],[-52.153706399999976,-29.51525009999994],[-52.15412849999996,-29.51508689999996],[-52.153741799999985,-29.51430329999993],[-52.158388499999944,-29.51417389999994],[-52.15849139999995,-29.516372299999937],[-52.154116399999964,-29.516386499999957]]]}},{"type":"Feature","properties":{"setor":"431215340000001","pop":179,"sigilo_pop":false,"dom":88,"sigilo_dom":0,"mulheres":85,"sigilo_mulheres":0,"c0_4":null,"sigilo_c0_4":1,"c5_9":7,"sigilo_c5_9":0,"i60_69":38,"sigilo_i60_69":0,"i70m":32,"sigilo_i70m":0,"indigenas":0,"sigilo_indigenas":0,"pretos_pardos":null,"sigilo_pretos_pardos":1,"dom_ocupados":70,"sigilo_dom_ocupados":0,"dom_agua":69,"sigilo_dom_agua":0,"dom_esgoto":6,"sigilo_dom_esgoto":0,"renda_resp":1832.73,"sigilo_renda_resp":0,"n_resp":70,"sigilo_n_resp":0,"dens":91.1,"sigilo_dens":false,"na_bacia":1,"area_pct_bacia":100.0,"metodo_recorte_bacia":"ponto_representativo_setor_2022; area_pct_geometrica","pop_n_validos":1,"pop_n_total":1,"pop_completude":1.0,"dom_n_validos":1,"dom_n_total":1,"dom_completude":1.0,"dom_ocupados_n_validos":1,"dom_ocupados_n_total":1,"dom_ocupados_completude":1.0,"mulheres_n_validos":1,"mulheres_n_total":1,"mulheres_completude":1.0,"c0_4_n_validos":0,"c0_4_n_total":1,"c0_4_completude":0.0,"c5_9_n_validos":1,"c5_9_n_total":1,"c5_9_completude":1.0,"i60_69_n_validos":1,"i60_69_n_total":1,"i60_69_completude":1.0,"i70m_n_validos":1,"i70m_n_total":1,"i70m_completude":1.0,"indigenas_n_validos":1,"indigenas_n_total":1,"indigenas_completude":1.0,"pretos_pardos_n_validos":0,"pretos_pardos_n_total":1,"pretos_pardos_completude":0.0,"dom_agua_n_validos":1,"dom_agua_n_total":1,"dom_agua_completude":1.0,"dom_esgoto_n_validos":1,"dom_esgoto_n_total":1,"dom_esgoto_completude":1.0,"n_resp_n_validos":1,"n_resp_n_total":1,"n_resp_completude":1.0,"renda_resp_n_validos":1,"renda_resp_n_total":1,"renda_resp_completude":1.0,"dens_n_validos":1,"dens_n_total":1,"dens_completude":1.0,"status_borda_bacia":"total","metodo_area_bacia":"interseção geométrica em EPSG:5880","metodo_na_bacia":"ponto_representativo_setor_2022_within_bacia","municipio":"Mato Leitão","cod_mun":"4312153","mun_pct_na_bacia":100.0,"mun_pop_total":4859,"mun_pop_na_bacia":4859.0,"mun_ubs_iede":2,"mun_hospitais_iede":null,"mun_escolas_iede":4,"mun_bombeiros_iede":null,"mun_servicos_cobertura":"cadastro_IEDE_parcial_nao_inventario","mun_icm_faixa":"A","mun_icm_pontos":11,"mun_icm_prioritario":"não","mun_ubs_iede_status":"published","mun_hospitais_iede_status":"unknown","mun_escolas_iede_status":"published","mun_bombeiros_iede_status":"unknown"},"geometry":{"type":"Polygon","coordinates":[[[-52.15580069999998,-29.476902199999977],[-52.153981499999986,-29.479427199999968],[-52.151002,-29.480164499999937],[-52.15001259999997,-29.480162699999944],[-52.14959289999996,-29.480406499999944],[-52.14850979999995,-29.48191329999996],[-52.147897299999954,-29.483414299999946],[-52.1469393,-29.483206299999953],[-52.14708089999994,-29.482089399999953],[-52.14684589999995,-29.481391599999938],[-52.14471869999995,-29.48138319999998],[-52.143522099999984,-29.48195669999995],[-52.14266889999993,-29.483086],[-52.14206329999997,-29.484475099999944],[-52.141480599999966,-29.487104199999973],[-52.139203,-29.488752899999962],[-52.13664369999998,-29.489985399999956],[-52.13513059999997,-29.491132899999975],[-52.133649899999966,-29.491271699999952],[-52.13329939999994,-29.492417],[-52.13231439999998,-29.492428499999964],[-52.130115,-29.491435599999928],[-52.12904869999994,-29.49189029999995],[-52.12887589999996,-29.492190699999973],[-52.129270899999945,-29.493028799999923],[-52.13087369999993,-29.4940774],[-52.131035299999944,-29.494416199999936],[-52.130265299999955,-29.495358499999952],[-52.12896519999999,-29.496080799999955],[-52.126889,-29.49645],[-52.12469129999993,-29.494383299999974],[-52.123495,-29.49409389999993],[-52.123009,-29.494234699999936],[-52.12223439999997,-29.49541079999995],[-52.1214126,-29.494940899999964],[-52.12079209999997,-29.494908599999963],[-52.11759159999997,-29.496001899999968],[-52.11590649999994,-29.49634],[-52.115556799999986,-29.496200399999964],[-52.11571909999998,-29.495212699999968],[-52.11540949999995,-29.494863499999955],[-52.11408849999999,-29.49487569999995],[-52.11316339999996,-29.49427879999996],[-52.11080959999999,-29.49575649999996],[-52.10826279999997,-29.49647349999998],[-52.10659979999997,-29.496357],[-52.106578,-29.496665199999942],[-52.10806519999994,-29.496677],[-52.10906269999998,-29.498161899999946],[-52.10953539999997,-29.498163],[-52.11146039999994,-29.49908719999997],[-52.11294419999995,-29.499343599999968],[-52.11399469999998,-29.499891099999953],[-52.11665689999996,-29.49940759999998],[-52.11935379999995,-29.499374],[-52.12065159999997,-29.498272599999964],[-52.121253299999985,-29.49808949999993],[-52.127312,-29.49922319999996],[-52.129650899999945,-29.499026399999934],[-52.13029129999995,-29.497584],[-52.13143629999996,-29.49689789999996],[-52.13304409999995,-29.49523859999994],[-52.136097,-29.49436769999995],[-52.13720009999997,-29.49425379999997],[-52.13899129999999,-29.493614699999952],[-52.139601099999936,-29.492747099999967],[-52.140317799999934,-29.49028009999994],[-52.14130449999994,-29.48931559999994],[-52.142112199999985,-29.48887239999993],[-52.142867599999924,-29.487639],[-52.14632629999994,-29.48663039999997],[-52.147672499999935,-29.485548899999976],[-52.155790099999926,-29.481619499999965],[-52.15580069999998,-29.476902199999977]]]}},{"type":"Feature","properties":{"setor":"431215340000002","pop":144,"sigilo_pop":false,"dom":63,"sigilo_dom":0,"mulheres":65,"sigilo_mulheres":0,"c0_4":13,"sigilo_c0_4":0,"c5_9":null,"sigilo_c5_9":1,"i60_69":18,"sigilo_i60_69":0,"i70m":20,"sigilo_i70m":0,"indigenas":0,"sigilo_indigenas":0,"pretos_pardos":null,"sigilo_pretos_pardos":1,"dom_ocupados":56,"sigilo_dom_ocupados":0,"dom_agua":50,"sigilo_dom_agua":0,"dom_esgoto":3,"sigilo_dom_esgoto":0,"renda_resp":1622.04,"sigilo_renda_resp":0,"n_resp":56,"sigilo_n_resp":0,"dens":16.3,"sigilo_dens":false,"na_bacia":1,"area_pct_bacia":100.0,"metodo_recorte_bacia":"ponto_representativo_setor_2022; area_pct_geometrica","pop_n_validos":1,"pop_n_total":1,"pop_completude":1.0,"dom_n_validos":1,"dom_n_total":1,"dom_completude":1.0,"dom_ocupados_n_validos":1,"dom_ocupados_n_total":1,"dom_ocupados_completude":1.0,"mulheres_n_validos":1,"mulheres_n_total":1,"mulheres_completude":1.0,"c0_4_n_validos":1,"c0_4_n_total":1,"c0_4_completude":1.0,"c5_9_n_validos":0,"c5_9_n_total":1,"c5_9_completude":0.0,"i60_69_n_validos":1,"i60_69_n_total":1,"i60_69_completude":1.0,"i70m_n_validos":1,"i70m_n_total":1,"i70m_completude":1.0,"indigenas_n_validos":1,"indigenas_n_total":1,"indigenas_completude":1.0,"pretos_pardos_n_validos":0,"pretos_pardos_n_total":1,"pretos_pardos_completude":0.0,"dom_agua_n_validos":1,"dom_agua_n_total":1,"dom_agua_completude":1.0,"dom_esgoto_n_validos":1,"dom_esgoto_n_total":1,"dom_esgoto_completude":1.0,"n_resp_n_validos":1,"n_resp_n_total":1,"n_resp_completude":1.0,"renda_resp_n_validos":1,"renda_resp_n_total":1,"renda_resp_completude":1.0,"dens_n_validos":1,"dens_n_total":1,"dens_completude":1.0,"status_borda_bacia":"total","metodo_area_bacia":"interseção geométrica em EPSG:5880","metodo_na_bacia":"ponto_representativo_setor_2022_within_bacia","municipio":"Mato Leitão","cod_mun":"4312153","mun_pct_na_bacia":100.0,"mun_pop_total":4859,"mun_pop_na_bacia":4859.0,"mun_ubs_iede":2,"mun_hospitais_iede":null,"mun_escolas_iede":4,"mun_bombeiros_iede":null,"mun_servicos_cobertura":"cadastro_IEDE_parcial_nao_inventario","mun_icm_faixa":"A","mun_icm_pontos":11,"mun_icm_prioritario":"não","mun_ubs_iede_status":"published","mun_hospitais_iede_status":"unknown","mun_escolas_iede_status":"published","mun_bombeiros_iede_status":"unknown"},"geometry":{"type":"Polygon","coordinates":[[[-52.10708289999996,-29.503741],[-52.10799609999999,-29.512317],[-52.139356099999986,-29.512722],[-52.15630339999996,-29.500373099999937],[-52.155790099999926,-29.481619499999965],[-52.147672499999935,-29.485548899999976],[-52.14632629999994,-29.48663039999997],[-52.142867599999924,-29.487639],[-52.142112199999985,-29.48887239999993],[-52.14130449999994,-29.48931559999994],[-52.140317799999934,-29.49028009999994],[-52.139601099999936,-29.492747099999967],[-52.13899129999999,-29.493614699999952],[-52.13720009999997,-29.49425379999997],[-52.136097,-29.49436769999995],[-52.13304409999995,-29.49523859999994],[-52.13143629999996,-29.49689789999996],[-52.13029129999995,-29.497584],[-52.129650899999945,-29.499026399999934],[-52.127312,-29.49922319999996],[-52.121253299999985,-29.49808949999993],[-52.12065159999997,-29.498272599999964],[-52.11935379999995,-29.499374],[-52.11665689999996,-29.49940759999998],[-52.11399469999998,-29.499891099999953],[-52.11294419999995,-29.499343599999968],[-52.11146039999994,-29.49908719999997],[-52.10953539999997,-29.498163],[-52.10906269999998,-29.498161899999946],[-52.10806519999994,-29.496677],[-52.106578,-29.496665199999942],[-52.106903599999946,-29.49799179999997],[-52.10708289999996,-29.503741]]]}},{"type":"Feature","properties":{"setor":"431215345000001","pop":94,"sigilo_pop":false,"dom":42,"sigilo_dom":0,"mulheres":49,"sigilo_mulheres":0,"c0_4":null,"sigilo_c0_4":1,"c5_9":7,"sigilo_c5_9":0,"i60_69":10,"sigilo_i60_69":0,"i70m":7,"sigilo_i70m":0,"indigenas":0,"sigilo_indigenas":0,"pretos_pardos":28,"sigilo_pretos_pardos":0,"dom_ocupados":34,"sigilo_dom_ocupados":0,"dom_agua":33,"sigilo_dom_agua":0,"dom_esgoto":0,"sigilo_dom_esgoto":0,"renda_resp":2059.29,"sigilo_renda_resp":0,"n_resp":34,"sigilo_n_resp":0,"dens":499.7,"sigilo_dens":false,"na_bacia":1,"area_pct_bacia":100.0,"metodo_recorte_bacia":"ponto_representativo_setor_2022; area_pct_geometrica","pop_n_validos":1,"pop_n_total":1,"pop_completude":1.0,"dom_n_validos":1,"dom_n_total":1,"dom_completude":1.0,"dom_ocupados_n_validos":1,"dom_ocupados_n_total":1,"dom_ocupados_completude":1.0,"mulheres_n_validos":1,"mulheres_n_total":1,"mulheres_completude":1.0,"c0_4_n_validos":0,"c0_4_n_total":1,"c0_4_completude":0.0,"c5_9_n_validos":1,"c5_9_n_total":1,"c5_9_completude":1.0,"i60_69_n_validos":1,"i60_69_n_total":1,"i60_69_completude":1.0,"i70m_n_validos":1,"i70m_n_total":1,"i70m_completude":1.0,"indigenas_n_validos":1,"indigenas_n_total":1,"indigenas_completude":1.0,"pretos_pardos_n_validos":1,"pretos_pardos_n_total":1,"pretos_pardos_completude":1.0,"dom_agua_n_validos":1,"dom_agua_n_total":1,"dom_agua_completude":1.0,"dom_esgoto_n_validos":1,"dom_esgoto_n_total":1,"dom_esgoto_completude":1.0,"n_resp_n_validos":1,"n_resp_n_total":1,"n_resp_completude":1.0,"renda_resp_n_validos":1,"renda_resp_n_total":1,"renda_resp_completude":1.0,"dens_n_validos":1,"dens_n_total":1,"dens_completude":1.0,"status_borda_bacia":"total","metodo_area_bacia":"interseção geométrica em EPSG:5880","metodo_na_bacia":"ponto_representativo_setor_2022_within_bacia","municipio":"Mato Leitão","cod_mun":"4312153","mun_pct_na_bacia":100.0,"mun_pop_total":4859,"mun_pop_na_bacia":4859.0,"mun_ubs_iede":2,"mun_hospitais_iede":null,"mun_escolas_iede":4,"mun_bombeiros_iede":null,"mun_servicos_cobertura":"cadastro_IEDE_parcial_nao_inventario","mun_icm_faixa":"A","mun_icm_pontos":11,"mun_icm_prioritario":"não","mun_ubs_iede_status":"published","mun_hospitais_iede_status":"unknown","mun_escolas_iede_status":"published","mun_bombeiros_iede_status":"unknown"},"geometry":{"type":"Polygon","coordinates":[[[-52.15128539999995,-29.545144399999977],[-52.14926779999997,-29.547912799999946],[-52.15162939999993,-29.549675199999978],[-52.153306099999945,-29.547321399999927],[-52.15573139999998,-29.54582589999996],[-52.15368159999997,-29.543654699999944],[-52.15128539999995,-29.545144399999977]]]}},{"type":"Feature","properties":{"setor":"431215345000002","pop":1022,"sigilo_pop":false,"dom":436,"sigilo_dom":0,"mulheres":519,"sigilo_mulheres":0,"c0_4":56,"sigilo_c0_4":0,"c5_9":77,"sigilo_c5_9":0,"i60_69":110,"sigilo_i60_69":0,"i70m":71,"sigilo_i70m":0,"indigenas":null,"sigilo_indigenas":1,"pretos_pardos":212,"sigilo_pretos_pardos":0,"dom_ocupados":385,"sigilo_dom_ocupados":0,"dom_agua":378,"sigilo_dom_agua":0,"dom_esgoto":12,"sigilo_dom_esgoto":0,"renda_resp":1791.08,"sigilo_renda_resp":0,"n_resp":385,"sigilo_n_resp":0,"dens":180.7,"sigilo_dens":false,"na_bacia":1,"area_pct_bacia":100.0,"metodo_recorte_bacia":"ponto_representativo_setor_2022; area_pct_geometrica","pop_n_validos":1,"pop_n_total":1,"pop_completude":1.0,"dom_n_validos":1,"dom_n_total":1,"dom_completude":1.0,"dom_ocupados_n_validos":1,"dom_ocupados_n_total":1,"dom_ocupados_completude":1.0,"mulheres_n_validos":1,"mulheres_n_total":1,"mulheres_completude":1.0,"c0_4_n_validos":1,"c0_4_n_total":1,"c0_4_completude":1.0,"c5_9_n_validos":1,"c5_9_n_total":1,"c5_9_completude":1.0,"i60_69_n_validos":1,"i60_69_n_total":1,"i60_69_completude":1.0,"i70m_n_validos":1,"i70m_n_total":1,"i70m_completude":1.0,"indigenas_n_validos":0,"indigenas_n_total":1,"indigenas_completude":0.0,"pretos_pardos_n_validos":1,"pretos_pardos_n_total":1,"pretos_pardos_completude":1.0,"dom_agua_n_validos":1,"dom_agua_n_total":1,"dom_agua_completude":1.0,"dom_esgoto_n_validos":1,"dom_esgoto_n_total":1,"dom_esgoto_completude":1.0,"n_resp_n_validos":1,"n_resp_n_total":1,"n_resp_completude":1.0,"renda_resp_n_validos":1,"renda_resp_n_total":1,"renda_resp_completude":1.0,"dens_n_validos":1,"dens_n_total":1,"dens_completude":1.0,"status_borda_bacia":"total","metodo_area_bacia":"interseção geométrica em EPSG:5880","metodo_na_bacia":"ponto_representativo_setor_2022_within_bacia","municipio":"Mato Leitão","cod_mun":"4312153","mun_pct_na_bacia":100.0,"mun_pop_total":4859,"mun_pop_na_bacia":4859.0,"mun_ubs_iede":2,"mun_hospitais_iede":null,"mun_escolas_iede":4,"mun_bombeiros_iede":null,"mun_servicos_cobertura":"cadastro_IEDE_parcial_nao_inventario","mun_icm_faixa":"A","mun_icm_pontos":11,"mun_icm_prioritario":"não","mun_ubs_iede_status":"published","mun_hospitais_iede_status":"unknown","mun_escolas_iede_status":"published","mun_bombeiros_iede_status":"unknown"},"geometry":{"type":"Polygon","coordinates":[[[-52.134019199999955,-29.5422526],[-52.13687309999995,-29.5438238],[-52.13935719999995,-29.54399659999996],[-52.14294569999998,-29.54371849999995],[-52.145017199999984,-29.542511],[-52.14729859999994,-29.542182799999974],[-52.150118299999974,-29.543057299999937],[-52.150617,-29.543580299999977],[-52.15128539999995,-29.545144399999977],[-52.15368159999997,-29.543654699999944],[-52.15573139999998,-29.54582589999996],[-52.153306099999945,-29.547321399999927],[-52.15162939999993,-29.549675199999978],[-52.150606,-29.5489866],[-52.15021489999997,-29.54974839999994],[-52.14897769999993,-29.54987379999995],[-52.14813939999994,-29.54975549999996],[-52.145073799999984,-29.548606399999983],[-52.14274359999995,-29.54869119999996],[-52.14046759999997,-29.54836989999996],[-52.137987099999975,-29.54833779999996],[-52.13585249999995,-29.54762859999994],[-52.135041099999974,-29.546896],[-52.13401319999997,-29.546467599999982],[-52.13302079999994,-29.546344699999956],[-52.131595199999936,-29.546523699999966],[-52.13251359999998,-29.555301499999928],[-52.13112149999995,-29.554635299999976],[-52.14071869999998,-29.559796],[-52.145917,-29.56281139999993],[-52.148223099999946,-29.564497499999952],[-52.167518,-29.54553519999996],[-52.167267,-29.538948699999928],[-52.166837799999946,-29.539631899999954],[-52.166038699999945,-29.53981779999998],[-52.16528569999997,-29.540658299999958],[-52.16458089999998,-29.539975199999947],[-52.163832799999966,-29.54000969999992],[-52.16280839999996,-29.53971029999996],[-52.162290199999966,-29.538554299999937],[-52.161611,-29.53780109999996],[-52.15244479999996,-29.538362699999922],[-52.152223099999965,-29.53813859999996],[-52.150663899999984,-29.537869699999924],[-52.148416,-29.53812],[-52.146064699999954,-29.53758029999994],[-52.14266059999995,-29.537675899999954],[-52.14083159999996,-29.538134499999966],[-52.140719,-29.538590799999955],[-52.13925479999995,-29.539423899999978],[-52.13915049999997,-29.539800899999936],[-52.13727289999997,-29.54147839999996],[-52.13624919999995,-29.54169039999994],[-52.13583219999999,-29.54205019999994],[-52.134962199999954,-29.54199649999999],[-52.134019199999955,-29.5422526]],[[-52.13501409999997,-29.552031299999953],[-52.1348761,-29.55100579999993],[-52.13581849999998,-29.550923099999963],[-52.135798199999954,-29.551932499999964],[-52.13501409999997,-29.552031299999953]]]}},{"type":"Feature","properties":{"setor":"431215345000003","pop":59,"sigilo_pop":false,"dom":26,"sigilo_dom":0,"mulheres":23,"sigilo_mulheres":0,"c0_4":null,"sigilo_c0_4":1,"c5_9":null,"sigilo_c5_9":1,"i60_69":7,"sigilo_i60_69":0,"i70m":null,"sigilo_i70m":1,"indigenas":0,"sigilo_indigenas":0,"pretos_pardos":null,"sigilo_pretos_pardos":1,"dom_ocupados":25,"sigilo_dom_ocupados":0,"dom_agua":25,"sigilo_dom_agua":0,"dom_esgoto":0,"sigilo_dom_esgoto":0,"renda_resp":1531.14,"sigilo_renda_resp":0,"n_resp":25,"sigilo_n_resp":0,"dens":5832.8,"sigilo_dens":false,"na_bacia":1,"area_pct_bacia":100.0,"metodo_recorte_bacia":"ponto_representativo_setor_2022; area_pct_geometrica","pop_n_validos":1,"pop_n_total":1,"pop_completude":1.0,"dom_n_validos":1,"dom_n_total":1,"dom_completude":1.0,"dom_ocupados_n_validos":1,"dom_ocupados_n_total":1,"dom_ocupados_completude":1.0,"mulheres_n_validos":1,"mulheres_n_total":1,"mulheres_completude":1.0,"c0_4_n_validos":0,"c0_4_n_total":1,"c0_4_completude":0.0,"c5_9_n_validos":0,"c5_9_n_total":1,"c5_9_completude":0.0,"i60_69_n_validos":1,"i60_69_n_total":1,"i60_69_completude":1.0,"i70m_n_validos":0,"i70m_n_total":1,"i70m_completude":0.0,"indigenas_n_validos":1,"indigenas_n_total":1,"indigenas_completude":1.0,"pretos_pardos_n_validos":0,"pretos_pardos_n_total":1,"pretos_pardos_completude":0.0,"dom_agua_n_validos":1,"dom_agua_n_total":1,"dom_agua_completude":1.0,"dom_esgoto_n_validos":1,"dom_esgoto_n_total":1,"dom_esgoto_completude":1.0,"n_resp_n_validos":1,"n_resp_n_total":1,"n_resp_completude":1.0,"renda_resp_n_validos":1,"renda_resp_n_total":1,"renda_resp_completude":1.0,"dens_n_validos":1,"dens_n_total":1,"dens_completude":1.0,"status_borda_bacia":"total","metodo_area_bacia":"interseção geométrica em EPSG:5880","metodo_na_bacia":"ponto_representativo_setor_2022_within_bacia","municipio":"Mato Leitão","cod_mun":"4312153","mun_pct_na_bacia":100.0,"mun_pop_total":4859,"mun_pop_na_bacia":4859.0,"mun_ubs_iede":2,"mun_hospitais_iede":null,"mun_escolas_iede":4,"mun_bombeiros_iede":null,"mun_servicos_cobertura":"cadastro_IEDE_parcial_nao_inventario","mun_icm_faixa":"A","mun_icm_pontos":11,"mun_icm_prioritario":"não","mun_ubs_iede_status":"published","mun_hospitais_iede_status":"unknown","mun_escolas_iede_status":"published","mun_bombeiros_iede_status":"unknown"},"geometry":{"type":"Polygon","coordinates":[[[-52.1348761,-29.55100579999993],[-52.13501409999997,-29.552031299999953],[-52.135798199999954,-29.551932499999964],[-52.13581849999998,-29.550923099999963],[-52.1348761,-29.55100579999993]]]}},{"type":"Feature","properties":{"setor":"431215345000004","pop":654,"sigilo_pop":false,"dom":308,"sigilo_dom":0,"mulheres":332,"sigilo_mulheres":0,"c0_4":30,"sigilo_c0_4":0,"c5_9":44,"sigilo_c5_9":0,"i60_69":77,"sigilo_i60_69":0,"i70m":64,"sigilo_i70m":0,"indigenas":0,"sigilo_indigenas":0,"pretos_pardos":81,"sigilo_pretos_pardos":0,"dom_ocupados":261,"sigilo_dom_ocupados":0,"dom_agua":255,"sigilo_dom_agua":0,"dom_esgoto":null,"sigilo_dom_esgoto":1,"renda_resp":2336.49,"sigilo_renda_resp":0,"n_resp":261,"sigilo_n_resp":0,"dens":122.4,"sigilo_dens":false,"na_bacia":1,"area_pct_bacia":100.0,"metodo_recorte_bacia":"ponto_representativo_setor_2022; area_pct_geometrica","pop_n_validos":1,"pop_n_total":1,"pop_completude":1.0,"dom_n_validos":1,"dom_n_total":1,"dom_completude":1.0,"dom_ocupados_n_validos":1,"dom_ocupados_n_total":1,"dom_ocupados_completude":1.0,"mulheres_n_validos":1,"mulheres_n_total":1,"mulheres_completude":1.0,"c0_4_n_validos":1,"c0_4_n_total":1,"c0_4_completude":1.0,"c5_9_n_validos":1,"c5_9_n_total":1,"c5_9_completude":1.0,"i60_69_n_validos":1,"i60_69_n_total":1,"i60_69_completude":1.0,"i70m_n_validos":1,"i70m_n_total":1,"i70m_completude":1.0,"indigenas_n_validos":1,"indigenas_n_total":1,"indigenas_completude":1.0,"pretos_pardos_n_validos":1,"pretos_pardos_n_total":1,"pretos_pardos_completude":1.0,"dom_agua_n_validos":1,"dom_agua_n_total":1,"dom_agua_completude":1.0,"dom_esgoto_n_validos":0,"dom_esgoto_n_total":1,"dom_esgoto_completude":0.0,"n_resp_n_validos":1,"n_resp_n_total":1,"n_resp_completude":1.0,"renda_resp_n_validos":1,"renda_resp_n_total":1,"renda_resp_completude":1.0,"dens_n_validos":1,"dens_n_total":1,"dens_completude":1.0,"status_borda_bacia":"total","metodo_area_bacia":"interseção geométrica em EPSG:5880","metodo_na_bacia":"ponto_representativo_setor_2022_within_bacia","municipio":"Mato Leitão","cod_mun":"4312153","mun_pct_na_bacia":100.0,"mun_pop_total":4859,"mun_pop_na_bacia":4859.0,"mun_ubs_iede":2,"mun_hospitais_iede":null,"mun_escolas_iede":4,"mun_bombeiros_iede":null,"mun_servicos_cobertura":"cadastro_IEDE_parcial_nao_inventario","mun_icm_faixa":"A","mun_icm_pontos":11,"mun_icm_prioritario":"não","mun_ubs_iede_status":"published","mun_hospitais_iede_status":"unknown","mun_escolas_iede_status":"published","mun_bombeiros_iede_status":"unknown"},"geometry":{"type":"Polygon","coordinates":[[[-52.12059029999995,-29.54018449999995],[-52.12004989999997,-29.5412497],[-52.11924049999993,-29.542155299999934],[-52.117361199999955,-29.54391889999994],[-52.11657859999997,-29.544204699999963],[-52.11640889999995,-29.54514589999997],[-52.11427,-29.54839209999995],[-52.11355289999994,-29.548429],[-52.11286709999997,-29.54797429999996],[-52.112039699999976,-29.54827609999995],[-52.11147729999993,-29.550349899999954],[-52.11123729999998,-29.550465699999947],[-52.110891799999926,-29.549897699999974],[-52.109389799999974,-29.549248699999964],[-52.10944459999997,-29.548919599999977],[-52.109119799999974,-29.548464799999977],[-52.1079716,-29.54824219999994],[-52.10777829999995,-29.548357599999974],[-52.10805829999998,-29.549106],[-52.10776419999996,-29.54980379999995],[-52.10693429999998,-29.55024219999996],[-52.10569739999994,-29.55017959999997],[-52.105039399999946,-29.55170239999996],[-52.10443139999995,-29.551459799999982],[-52.10371729999997,-29.55072679999994],[-52.10392539999998,-29.550498],[-52.10381049999995,-29.54978429999995],[-52.10365329999996,-29.549679299999966],[-52.10249849999996,-29.55028349999997],[-52.10240179999994,-29.549675099999952],[-52.10173889999998,-29.54942859999993],[-52.10141079999994,-29.54850539999994],[-52.101184899999964,-29.548547899999953],[-52.102088599999945,-29.55165409999997],[-52.101921199999936,-29.552463899999967],[-52.102178199999976,-29.55386949999997],[-52.10475289999994,-29.556556099999973],[-52.10513259999993,-29.558582499999936],[-52.106119099999944,-29.55992849999996],[-52.10745029999998,-29.56026689999993],[-52.10994659999995,-29.56133139999997],[-52.110653,-29.561217599999956],[-52.111655,-29.561416699999942],[-52.11283709999998,-29.559988799999918],[-52.11486749999995,-29.558313399999975],[-52.11840129999996,-29.557604299999973],[-52.11868939999994,-29.55719839999994],[-52.12041069999998,-29.55707009999997],[-52.12244179999993,-29.55760949999995],[-52.123232299999984,-29.55745849999993],[-52.12390659999994,-29.557057599999947],[-52.12402189999994,-29.556354299999953],[-52.12474259999994,-29.555666],[-52.12725279999995,-29.556263699999942],[-52.127799099999955,-29.556054499999966],[-52.12865289999996,-29.556201399999964],[-52.12828049999996,-29.553162199999967],[-52.13251359999998,-29.555301499999928],[-52.131595199999936,-29.546523699999966],[-52.13302079999994,-29.546344699999956],[-52.13401319999997,-29.546467599999982],[-52.135041099999974,-29.546896],[-52.13585249999995,-29.54762859999994],[-52.137987099999975,-29.54833779999996],[-52.14046759999997,-29.54836989999996],[-52.14274359999995,-29.54869119999996],[-52.145073799999984,-29.548606399999983],[-52.14849559999993,-29.54985639999995],[-52.15021489999997,-29.54974839999994],[-52.150606,-29.5489866],[-52.14926779999997,-29.547912799999946],[-52.15128539999995,-29.545144399999977],[-52.15043879999996,-29.543302799999942],[-52.14984009999994,-29.542898099999945],[-52.14729859999994,-29.542182799999974],[-52.14580019999993,-29.54229239999996],[-52.145017199999984,-29.542511],[-52.14294569999998,-29.54371849999995],[-52.13877119999996,-29.543993799999953],[-52.13651039999996,-29.543701499999948],[-52.13363429999998,-29.54208259999995],[-52.13095759999993,-29.54204709999992],[-52.13028979999996,-29.54106509999996],[-52.130973,-29.540444199999964],[-52.13089169999996,-29.539731099999983],[-52.128659399999954,-29.538813299999966],[-52.12825419999996,-29.538426799999968],[-52.12792449999994,-29.537730299999957],[-52.127948,-29.537023199999968],[-52.12719579999998,-29.535803299999937],[-52.124706099999976,-29.535561499999964],[-52.124379699999956,-29.53569649999997],[-52.123996499999976,-29.53666559999994],[-52.12427619999993,-29.53843059999997],[-52.12368339999995,-29.539328199999936],[-52.12367159999997,-29.540355299999927],[-52.122785,-29.540567399999944],[-52.12059029999995,-29.54018449999995]]]}}]}
