{"type":"FeatureCollection","name":"4313359","crs":{"type":"name","properties":{"name":"urn:ogc:def:crs:OGC:1.3:CRS84"}},"features":[{"type":"Feature","properties":{"setor":"431335905000001","pop":317,"sigilo_pop":false,"dom":143,"sigilo_dom":0,"mulheres":169,"sigilo_mulheres":0,"c0_4":18,"sigilo_c0_4":0,"c5_9":14,"sigilo_c5_9":0,"i60_69":33,"sigilo_i60_69":0,"i70m":42,"sigilo_i70m":0,"indigenas":0,"sigilo_indigenas":0,"pretos_pardos":24,"sigilo_pretos_pardos":0,"dom_ocupados":128,"sigilo_dom_ocupados":0,"dom_agua":121,"sigilo_dom_agua":0,"dom_esgoto":null,"sigilo_dom_esgoto":1,"renda_resp":3463.81,"sigilo_renda_resp":0,"n_resp":128,"sigilo_n_resp":0,"dens":540.8,"sigilo_dens":false,"na_bacia":1,"area_pct_bacia":100.0,"metodo_recorte_bacia":"ponto_representativo_setor_2022; area_pct_geometrica","pop_n_validos":1,"pop_n_total":1,"pop_completude":1.0,"dom_n_validos":1,"dom_n_total":1,"dom_completude":1.0,"dom_ocupados_n_validos":1,"dom_ocupados_n_total":1,"dom_ocupados_completude":1.0,"mulheres_n_validos":1,"mulheres_n_total":1,"mulheres_completude":1.0,"c0_4_n_validos":1,"c0_4_n_total":1,"c0_4_completude":1.0,"c5_9_n_validos":1,"c5_9_n_total":1,"c5_9_completude":1.0,"i60_69_n_validos":1,"i60_69_n_total":1,"i60_69_completude":1.0,"i70m_n_validos":1,"i70m_n_total":1,"i70m_completude":1.0,"indigenas_n_validos":1,"indigenas_n_total":1,"indigenas_completude":1.0,"pretos_pardos_n_validos":1,"pretos_pardos_n_total":1,"pretos_pardos_completude":1.0,"dom_agua_n_validos":1,"dom_agua_n_total":1,"dom_agua_completude":1.0,"dom_esgoto_n_validos":0,"dom_esgoto_n_total":1,"dom_esgoto_completude":0.0,"n_resp_n_validos":1,"n_resp_n_total":1,"n_resp_completude":1.0,"renda_resp_n_validos":1,"renda_resp_n_total":1,"renda_resp_completude":1.0,"dens_n_validos":1,"dens_n_total":1,"dens_completude":1.0,"status_borda_bacia":"total","metodo_area_bacia":"interse??o geom?trica em EPSG:5880","metodo_na_bacia":"ponto_representativo_setor_2022_within_bacia","municipio":"Nova Roma do Sul","cod_mun":"4313359","mun_pct_na_bacia":100.0,"mun_pop_total":3466,"mun_pop_na_bacia":3466.0,"mun_ubs_iede":2,"mun_hospitais_iede":null,"mun_escolas_iede":3,"mun_bombeiros_iede":null,"mun_servicos_cobertura":"cadastro_IEDE_parcial_nao_inventario","mun_icm_faixa":"B","mun_icm_pontos":9,"mun_icm_prioritario":"não","mun_ubs_iede_status":"published","mun_hospitais_iede_status":"unknown","mun_escolas_iede_status":"published","mun_bombeiros_iede_status":"unknown"},"geometry":{"type":"Polygon","coordinates":[[[-51.40163029999997,-28.98950259999998],[-51.403231299999966,-28.990089],[-51.40433439999998,-28.989545199999956],[-51.405140299999964,-28.990273599999977],[-51.40608409999999,-28.990268],[-51.406205899999975,-28.989020299999932],[-51.408547599999956,-28.98922909999993],[-51.40878779999997,-28.98869],[-51.408596599999946,-28.988265299999973],[-51.40776649999999,-28.98822319999994],[-51.406459799999936,-28.986834899999966],[-51.40591539999997,-28.985873599999938],[-51.406051,-28.985456099999954],[-51.40693229999993,-28.98494079999994],[-51.407158399999965,-28.981879899999953],[-51.407432399999955,-28.981010899999944],[-51.40723479999997,-28.98042219999995],[-51.406559399999935,-28.980242499999978],[-51.40270489999995,-28.98070729999994],[-51.40090459999993,-28.978984799999985],[-51.40163029999997,-28.98950259999998]]]}},{"type":"Feature","properties":{"setor":"431335905000002","pop":523,"sigilo_pop":false,"dom":237,"sigilo_dom":0,"mulheres":256,"sigilo_mulheres":0,"c0_4":25,"sigilo_c0_4":0,"c5_9":18,"sigilo_c5_9":0,"i60_69":56,"sigilo_i60_69":0,"i70m":41,"sigilo_i70m":0,"indigenas":0,"sigilo_indigenas":0,"pretos_pardos":61,"sigilo_pretos_pardos":0,"dom_ocupados":209,"sigilo_dom_ocupados":0,"dom_agua":199,"sigilo_dom_agua":0,"dom_esgoto":0,"sigilo_dom_esgoto":0,"renda_resp":2677.13,"sigilo_renda_resp":0,"n_resp":209,"sigilo_n_resp":0,"dens":456.5,"sigilo_dens":false,"na_bacia":1,"area_pct_bacia":100.0,"metodo_recorte_bacia":"ponto_representativo_setor_2022; area_pct_geometrica","pop_n_validos":1,"pop_n_total":1,"pop_completude":1.0,"dom_n_validos":1,"dom_n_total":1,"dom_completude":1.0,"dom_ocupados_n_validos":1,"dom_ocupados_n_total":1,"dom_ocupados_completude":1.0,"mulheres_n_validos":1,"mulheres_n_total":1,"mulheres_completude":1.0,"c0_4_n_validos":1,"c0_4_n_total":1,"c0_4_completude":1.0,"c5_9_n_validos":1,"c5_9_n_total":1,"c5_9_completude":1.0,"i60_69_n_validos":1,"i60_69_n_total":1,"i60_69_completude":1.0,"i70m_n_validos":1,"i70m_n_total":1,"i70m_completude":1.0,"indigenas_n_validos":1,"indigenas_n_total":1,"indigenas_completude":1.0,"pretos_pardos_n_validos":1,"pretos_pardos_n_total":1,"pretos_pardos_completude":1.0,"dom_agua_n_validos":1,"dom_agua_n_total":1,"dom_agua_completude":1.0,"dom_esgoto_n_validos":1,"dom_esgoto_n_total":1,"dom_esgoto_completude":1.0,"n_resp_n_validos":1,"n_resp_n_total":1,"n_resp_completude":1.0,"renda_resp_n_validos":1,"renda_resp_n_total":1,"renda_resp_completude":1.0,"dens_n_validos":1,"dens_n_total":1,"dens_completude":1.0,"status_borda_bacia":"total","metodo_area_bacia":"interse??o geom?trica em EPSG:5880","metodo_na_bacia":"ponto_representativo_setor_2022_within_bacia","municipio":"Nova Roma do Sul","cod_mun":"4313359","mun_pct_na_bacia":100.0,"mun_pop_total":3466,"mun_pop_na_bacia":3466.0,"mun_ubs_iede":2,"mun_hospitais_iede":null,"mun_escolas_iede":3,"mun_bombeiros_iede":null,"mun_servicos_cobertura":"cadastro_IEDE_parcial_nao_inventario","mun_icm_faixa":"B","mun_icm_pontos":9,"mun_icm_prioritario":"não","mun_ubs_iede_status":"published","mun_hospitais_iede_status":"unknown","mun_escolas_iede_status":"published","mun_bombeiros_iede_status":"unknown"},"geometry":{"type":"Polygon","coordinates":[[[-51.40090459999993,-28.978984799999985],[-51.40270489999995,-28.98070729999994],[-51.406559399999935,-28.980242499999978],[-51.40732649999996,-28.980537299999984],[-51.40693229999993,-28.98494079999994],[-51.407596199999944,-28.98495279999998],[-51.407848299999955,-28.98530039999998],[-51.40788189999994,-28.986067199999976],[-51.40902849999998,-28.98633019999994],[-51.40908479999997,-28.987769799999967],[-51.41000819999994,-28.988694599999967],[-51.408622299999934,-28.990471699999947],[-51.40851019999997,-28.99099329999996],[-51.410061,-28.99087839999992],[-51.41134439999996,-28.991257199999943],[-51.41363889999997,-28.99153819999998],[-51.41552909999995,-28.991239499999935],[-51.41565159999993,-28.986076],[-51.41315659999998,-28.979974199999965],[-51.40984439999994,-28.976874699999925],[-51.40201069999995,-28.97781589999994],[-51.40090459999993,-28.978984799999985]]]}},{"type":"Feature","properties":{"setor":"431335905000005","pop":337,"sigilo_pop":false,"dom":164,"sigilo_dom":0,"mulheres":167,"sigilo_mulheres":0,"c0_4":11,"sigilo_c0_4":0,"c5_9":15,"sigilo_c5_9":0,"i60_69":61,"sigilo_i60_69":0,"i70m":47,"sigilo_i70m":0,"indigenas":0,"sigilo_indigenas":0,"pretos_pardos":null,"sigilo_pretos_pardos":1,"dom_ocupados":114,"sigilo_dom_ocupados":0,"dom_agua":17,"sigilo_dom_agua":0,"dom_esgoto":0,"sigilo_dom_esgoto":0,"renda_resp":1801.91,"sigilo_renda_resp":0,"n_resp":114,"sigilo_n_resp":0,"dens":10.8,"sigilo_dens":false,"na_bacia":1,"area_pct_bacia":100.0,"metodo_recorte_bacia":"ponto_representativo_setor_2022; area_pct_geometrica","pop_n_validos":1,"pop_n_total":1,"pop_completude":1.0,"dom_n_validos":1,"dom_n_total":1,"dom_completude":1.0,"dom_ocupados_n_validos":1,"dom_ocupados_n_total":1,"dom_ocupados_completude":1.0,"mulheres_n_validos":1,"mulheres_n_total":1,"mulheres_completude":1.0,"c0_4_n_validos":1,"c0_4_n_total":1,"c0_4_completude":1.0,"c5_9_n_validos":1,"c5_9_n_total":1,"c5_9_completude":1.0,"i60_69_n_validos":1,"i60_69_n_total":1,"i60_69_completude":1.0,"i70m_n_validos":1,"i70m_n_total":1,"i70m_completude":1.0,"indigenas_n_validos":1,"indigenas_n_total":1,"indigenas_completude":1.0,"pretos_pardos_n_validos":0,"pretos_pardos_n_total":1,"pretos_pardos_completude":0.0,"dom_agua_n_validos":1,"dom_agua_n_total":1,"dom_agua_completude":1.0,"dom_esgoto_n_validos":1,"dom_esgoto_n_total":1,"dom_esgoto_completude":1.0,"n_resp_n_validos":1,"n_resp_n_total":1,"n_resp_completude":1.0,"renda_resp_n_validos":1,"renda_resp_n_total":1,"renda_resp_completude":1.0,"dens_n_validos":1,"dens_n_total":1,"dens_completude":1.0,"status_borda_bacia":"total","metodo_area_bacia":"interse??o geom?trica em EPSG:5880","metodo_na_bacia":"ponto_representativo_setor_2022_within_bacia","municipio":"Nova Roma do Sul","cod_mun":"4313359","mun_pct_na_bacia":100.0,"mun_pop_total":3466,"mun_pop_na_bacia":3466.0,"mun_ubs_iede":2,"mun_hospitais_iede":null,"mun_escolas_iede":3,"mun_bombeiros_iede":null,"mun_servicos_cobertura":"cadastro_IEDE_parcial_nao_inventario","mun_icm_faixa":"B","mun_icm_pontos":9,"mun_icm_prioritario":"não","mun_ubs_iede_status":"published","mun_hospitais_iede_status":"unknown","mun_escolas_iede_status":"published","mun_bombeiros_iede_status":"unknown"},"geometry":{"type":"Polygon","coordinates":[[[-51.377044,-29.01013259999997],[-51.37207709999996,-29.012153099999978],[-51.371105599999964,-29.01220139999998],[-51.36738719999993,-29.01313829999998],[-51.367481,-29.013772699999954],[-51.366435,-29.014051699999982],[-51.36577,-29.01451719999995],[-51.368520199999985,-29.013866199999935],[-51.37050379999994,-29.01411229999995],[-51.373632499999985,-29.012798499999974],[-51.37902239999993,-29.011338],[-51.380799,-29.01194959999998],[-51.38111519999995,-29.011849499999986],[-51.381382,-29.01166379999995],[-51.381366699999944,-29.01038279999995],[-51.38349609999995,-29.00907339999998],[-51.38620709999998,-29.00680419999998],[-51.388315499999976,-29.002734099999934],[-51.38876179999994,-29.00052249999993],[-51.38760839999997,-28.998787399999962],[-51.384779099999946,-28.995580899999936],[-51.385710499999966,-28.99399259999994],[-51.386449099999936,-28.993335499999937],[-51.388637,-28.99248219999998],[-51.39040719999997,-28.99119369999994],[-51.39121759999995,-28.990967599999973],[-51.393240899999974,-28.99175029999997],[-51.39371229999995,-28.991633599999947],[-51.39450549999998,-28.990407399999988],[-51.396167299999945,-28.990564699999936],[-51.398095799999965,-28.989549499999953],[-51.40163149999995,-28.989663099999973],[-51.40090459999993,-28.978984799999985],[-51.399774899999954,-28.97827989999996],[-51.39865059999995,-28.977906699999934],[-51.398220299999934,-28.977276399999937],[-51.398368,-28.976864099999943],[-51.40036,-28.975035699999967],[-51.401223899999934,-28.974650799999964],[-51.402228,-28.974628599999956],[-51.40333279999992,-28.973693099999934],[-51.403516399999944,-28.971760599999985],[-51.40437979999996,-28.968836299999957],[-51.404323,-28.968339199999946],[-51.40195629999994,-28.966131799999975],[-51.400606799999935,-28.964225399999986],[-51.40080239999998,-28.963119799999962],[-51.40159529999994,-28.961851199999952],[-51.4016362,-28.96140759999997],[-51.401512899999936,-28.96099169999995],[-51.399862,-28.959636699999976],[-51.39886559999997,-28.957249099999952],[-51.398218,-28.956462799999937],[-51.3984751,-28.955090399999946],[-51.398342,-28.954801],[-51.396429399999924,-28.953998799999965],[-51.3924454,-28.954131799999963],[-51.391779,-28.95378789999995],[-51.39040669999997,-28.952221599999966],[-51.38982979999997,-28.951164699999925],[-51.38987129999998,-28.949722],[-51.38946159999995,-28.949394699999967],[-51.38908369999995,-28.948191899999976],[-51.39054759999993,-28.946422099999946],[-51.39058239999997,-28.94583019999994],[-51.390188,-28.945554699999942],[-51.38978949999996,-28.945568099999942],[-51.38761969999996,-28.94596169999994],[-51.386909799999955,-28.945591399999962],[-51.38701679999998,-28.94515249999995],[-51.38833839999996,-28.943670899999976],[-51.38854719999995,-28.942618799999927],[-51.386505899999975,-28.941741299999933],[-51.38513809999995,-28.9414],[-51.38334859999998,-28.939696399999946],[-51.383062,-28.938908],[-51.383368,-28.93761289999998],[-51.38344079999996,-28.934561299999924],[-51.38305089999995,-28.93361549999997],[-51.38033869999998,-28.930747399999987],[-51.37970089999993,-28.92951119999998],[-51.37983859999997,-28.92828719999994],[-51.37859829999996,-28.92779629999996],[-51.37789619999995,-28.927241],[-51.37669219999998,-28.925196],[-51.37509319999999,-28.924490199999973],[-51.375213299999984,-28.924012599999962],[-51.375964099999976,-28.923164399999973],[-51.37887039999998,-28.921439199999956],[-51.37946869999997,-28.92057069999993],[-51.3546123,-28.919300699999948],[-51.354450499999984,-28.919549099999976],[-51.354684299999974,-28.920016699999955],[-51.354807499999936,-28.922230199999948],[-51.35544729999997,-28.922888899999965],[-51.35523169999993,-28.924503399999942],[-51.35629309999997,-28.925078],[-51.356730599999935,-28.927622599999943],[-51.356457,-28.92956469999996],[-51.35501239999997,-28.93158829999995],[-51.355041399999955,-28.932925799999964],[-51.35439659999997,-28.933978199999963],[-51.354156899999964,-28.935311],[-51.35437619999993,-28.936964],[-51.35364759999994,-28.937806699999953],[-51.353501,-28.938608299999927],[-51.35439069999996,-28.940633599999966],[-51.355180899999944,-28.941139799999977],[-51.355166699999984,-28.941919899999967],[-51.354507799999965,-28.943133],[-51.35180349999996,-28.94595439999994],[-51.349692699999935,-28.947124399999947],[-51.34898239999996,-28.947893],[-51.347649,-28.94835209999996],[-51.34524319999997,-28.95146029999995],[-51.34359039999998,-28.9531545],[-51.34350679999994,-28.95450669999997],[-51.342943299999945,-28.95594379999995],[-51.344316499999934,-28.957067099999957],[-51.344761199999944,-28.958513899999954],[-51.34314449999994,-28.960679699999957],[-51.3428239,-28.963079299999947],[-51.34116839999996,-28.963852899999956],[-51.3401679,-28.964606799999945],[-51.34068809999997,-28.96933789999997],[-51.34107849999998,-28.971309799999965],[-51.34258989999996,-28.97416259999993],[-51.34434159999994,-28.97522359999994],[-51.34519249999994,-28.975403799999984],[-51.34700419999996,-28.975303699999984],[-51.35027739999999,-28.974603],[-51.356863799999985,-28.97265109999995],[-51.35891079999993,-28.972300699999955],[-51.36040729999997,-28.972320799999963],[-51.36162349999994,-28.972921299999946],[-51.362294099999986,-28.973542],[-51.367416299999945,-28.97889339999995],[-51.36915619999996,-28.981329399999925],[-51.371723299999985,-28.98641449999996],[-51.374906399999986,-28.99179969999995],[-51.376568,-28.993921799999963],[-51.38087219999994,-28.99786559999995],[-51.38247379999996,-28.999847599999946],[-51.38381509999994,-29.00221989999994],[-51.38399529999998,-29.002940599999924],[-51.38409539999998,-29.00524279999997],[-51.38386509999997,-29.006163699999956],[-51.38289419999995,-29.007875399999932],[-51.382043399999986,-29.008536],[-51.38095229999993,-29.00900649999995],[-51.377044,-29.01013259999997]]]}},{"type":"Feature","properties":{"setor":"431335905000006","pop":567,"sigilo_pop":false,"dom":227,"sigilo_dom":0,"mulheres":273,"sigilo_mulheres":0,"c0_4":18,"sigilo_c0_4":0,"c5_9":22,"sigilo_c5_9":0,"i60_69":84,"sigilo_i60_69":0,"i70m":95,"sigilo_i70m":0,"indigenas":0,"sigilo_indigenas":0,"pretos_pardos":35,"sigilo_pretos_pardos":0,"dom_ocupados":181,"sigilo_dom_ocupados":0,"dom_agua":102,"sigilo_dom_agua":0,"dom_esgoto":null,"sigilo_dom_esgoto":1,"renda_resp":4503.73,"sigilo_renda_resp":0,"n_resp":181,"sigilo_n_resp":0,"dens":15.5,"sigilo_dens":false,"na_bacia":1,"area_pct_bacia":100.0,"metodo_recorte_bacia":"ponto_representativo_setor_2022; area_pct_geometrica","pop_n_validos":1,"pop_n_total":1,"pop_completude":1.0,"dom_n_validos":1,"dom_n_total":1,"dom_completude":1.0,"dom_ocupados_n_validos":1,"dom_ocupados_n_total":1,"dom_ocupados_completude":1.0,"mulheres_n_validos":1,"mulheres_n_total":1,"mulheres_completude":1.0,"c0_4_n_validos":1,"c0_4_n_total":1,"c0_4_completude":1.0,"c5_9_n_validos":1,"c5_9_n_total":1,"c5_9_completude":1.0,"i60_69_n_validos":1,"i60_69_n_total":1,"i60_69_completude":1.0,"i70m_n_validos":1,"i70m_n_total":1,"i70m_completude":1.0,"indigenas_n_validos":1,"indigenas_n_total":1,"indigenas_completude":1.0,"pretos_pardos_n_validos":1,"pretos_pardos_n_total":1,"pretos_pardos_completude":1.0,"dom_agua_n_validos":1,"dom_agua_n_total":1,"dom_agua_completude":1.0,"dom_esgoto_n_validos":0,"dom_esgoto_n_total":1,"dom_esgoto_completude":0.0,"n_resp_n_validos":1,"n_resp_n_total":1,"n_resp_completude":1.0,"renda_resp_n_validos":1,"renda_resp_n_total":1,"renda_resp_completude":1.0,"dens_n_validos":1,"dens_n_total":1,"dens_completude":1.0,"status_borda_bacia":"total","metodo_area_bacia":"interse??o geom?trica em EPSG:5880","metodo_na_bacia":"ponto_representativo_setor_2022_within_bacia","municipio":"Nova Roma do Sul","cod_mun":"4313359","mun_pct_na_bacia":100.0,"mun_pop_total":3466,"mun_pop_na_bacia":3466.0,"mun_ubs_iede":2,"mun_hospitais_iede":null,"mun_escolas_iede":3,"mun_bombeiros_iede":null,"mun_servicos_cobertura":"cadastro_IEDE_parcial_nao_inventario","mun_icm_faixa":"B","mun_icm_pontos":9,"mun_icm_prioritario":"não","mun_ubs_iede_status":"published","mun_hospitais_iede_status":"unknown","mun_escolas_iede_status":"published","mun_bombeiros_iede_status":"unknown"},"geometry":{"type":"Polygon","coordinates":[[[-51.39642979999997,-29.05821539999993],[-51.39614969999997,-29.057308699999965],[-51.401233,-29.055095199999975],[-51.40333529999998,-29.054360799999984],[-51.40574629999998,-29.0544824],[-51.406496199999935,-29.05413609999994],[-51.40725,-29.054635099999935],[-51.41244679999995,-29.05584059999996],[-51.41334959999994,-29.055741],[-51.413813699999935,-29.05600089999995],[-51.41755459999996,-29.056523899999938],[-51.41868969999996,-29.056149],[-51.41982549999995,-29.056607],[-51.42072829999995,-29.056695],[-51.421393,-29.056476299999925],[-51.42242579999998,-29.056816],[-51.422999699999934,-29.05669369999997],[-51.424035,-29.05708819999995],[-51.42666429999997,-29.057193499999975],[-51.42759479999996,-29.05769639999992],[-51.429174199999984,-29.057588],[-51.43039689999995,-29.058441299999966],[-51.431799299999966,-29.05903389999996],[-51.43399759999994,-29.059798899999976],[-51.43458479999999,-29.05981269999996],[-51.43494209999995,-29.059494299999983],[-51.434990099999936,-29.05845349999992],[-51.43632409999998,-29.057968899999935],[-51.436888,-29.057292099999984],[-51.43687669999997,-29.055453399999962],[-51.43717439999994,-29.05476059999996],[-51.437031299999944,-29.054306099999955],[-51.437513299999985,-29.05368139999996],[-51.43781579999995,-29.052497099999986],[-51.437733,-29.05123979999996],[-51.43854079999995,-29.050816699999924],[-51.43827969999995,-29.049719],[-51.43559879999997,-29.050065699999955],[-51.43420709999998,-29.050698],[-51.43326889999998,-29.050660799999946],[-51.43175219999995,-29.05041979999993],[-51.430494,-29.04980459999997],[-51.42919429999995,-29.049751499999953],[-51.42809569999997,-29.048729899999962],[-51.427438,-29.04882409999994],[-51.42636189999997,-29.049414699999947],[-51.42418309999994,-29.04853569999995],[-51.421964899999985,-29.048162699999974],[-51.42070709999996,-29.047321099999984],[-51.41948839999998,-29.045586],[-51.41767569999997,-29.045471399999933],[-51.41738359999993,-29.045284499999973],[-51.41720209999994,-29.044148],[-51.415814599999976,-29.042943099999942],[-51.41394669999994,-29.04252749999994],[-51.41184339999995,-29.042822299999955],[-51.40953319999994,-29.04083559999998],[-51.40813139999994,-29.040255499999937],[-51.407569699999954,-29.039482499999963],[-51.40848809999994,-29.038278699999978],[-51.40848689999996,-29.03767109999996],[-51.40779439999995,-29.036673799999946],[-51.40770329999999,-29.03616369999997],[-51.40868789999996,-29.034159299999946],[-51.40921119999996,-29.034003899999952],[-51.41288369999995,-29.034121599999935],[-51.41492719999997,-29.03264859999995],[-51.41488569999996,-29.031460299999928],[-51.41556989999998,-29.03086239999993],[-51.41690079999995,-29.030721099999944],[-51.418404099999975,-29.030932399999987],[-51.41930449999995,-29.030652699999955],[-51.42065709999997,-29.028680799999954],[-51.42097819999998,-29.02747549999997],[-51.42067179999997,-29.02667029999998],[-51.41867179999997,-29.02463959999994],[-51.41697519999996,-29.023541599999927],[-51.41320379999996,-29.020166199999935],[-51.41331729999996,-29.016686199999967],[-51.41300129999997,-29.014221299999967],[-51.414354499999945,-29.012718099999972],[-51.41447619999996,-29.011772],[-51.413469,-29.010527099999933],[-51.41253569999998,-29.01042969999998],[-51.41211819999996,-29.01001],[-51.410464099999956,-29.005709599999935],[-51.41033249999998,-29.00478549999997],[-51.41068759999996,-29.002411],[-51.405949799999966,-29.002311099999933],[-51.40587549999998,-28.997781299999925],[-51.40302889999998,-28.996518799999926],[-51.403087199999966,-28.992404799999974],[-51.40176649999995,-28.992286],[-51.40184079999995,-28.991692],[-51.40062389999997,-28.991640899999947],[-51.40066019999995,-28.990551],[-51.40163309999997,-28.98986949999994],[-51.40163149999995,-28.989663099999973],[-51.398095799999965,-28.989549499999953],[-51.396167299999945,-28.990564699999936],[-51.39450549999998,-28.990407399999988],[-51.39371229999995,-28.991633599999947],[-51.393240899999974,-28.99175029999997],[-51.39121759999995,-28.990967599999973],[-51.39040719999997,-28.99119369999994],[-51.388637,-28.99248219999998],[-51.386449099999936,-28.993335499999937],[-51.385710499999966,-28.99399259999994],[-51.384779099999946,-28.995580899999936],[-51.38760839999997,-28.998787399999962],[-51.38876179999994,-29.00052249999993],[-51.388315499999976,-29.002734099999934],[-51.38620709999998,-29.00680419999998],[-51.38349609999995,-29.00907339999998],[-51.381366699999944,-29.01038279999995],[-51.381382,-29.01166379999995],[-51.38111519999995,-29.011849499999986],[-51.380799,-29.01194959999998],[-51.37902239999993,-29.011338],[-51.373632499999985,-29.012798499999974],[-51.37050379999994,-29.01411229999995],[-51.368520199999985,-29.013866199999935],[-51.366745299999934,-29.01414809999994],[-51.365783499999964,-29.014533799999988],[-51.366435,-29.014051699999982],[-51.367481,-29.013772699999954],[-51.36738719999993,-29.01313829999998],[-51.36501489999995,-29.013989199999983],[-51.36367359999997,-29.014729899999974],[-51.36251249999998,-29.01572079999995],[-51.36112609999998,-29.016066199999944],[-51.358919,-29.017692799999956],[-51.35753759999995,-29.019174199999938],[-51.356636699999974,-29.020875899999957],[-51.355876,-29.024579499999973],[-51.355911,-29.02652639999996],[-51.35660929999995,-29.03025069999995],[-51.35719229999995,-29.03149119999995],[-51.360055099999954,-29.03509469999995],[-51.36237039999998,-29.038520199999933],[-51.362872799999934,-29.04102549999994],[-51.362157,-29.045088699999944],[-51.361341299999935,-29.048082399999938],[-51.35845479999995,-29.0543201],[-51.35728979999993,-29.058097],[-51.357555599999955,-29.059057299999935],[-51.35829069999994,-29.060317899999973],[-51.36018009999998,-29.061281299999955],[-51.363773499999986,-29.06517759999998],[-51.366824,-29.067062],[-51.369179599999946,-29.068225099999943],[-51.37035,-29.06855359999997],[-51.37169849999998,-29.068326399999936],[-51.37407159999998,-29.06840379999993],[-51.37751919999994,-29.067427699999943],[-51.38146789999996,-29.066985399999957],[-51.3849752,-29.065871199999947],[-51.389118799999956,-29.063684399999932],[-51.39132039999998,-29.06229],[-51.394598899999956,-29.059546199999936],[-51.395105499999936,-29.05886789999994],[-51.39642979999997,-29.05821539999993]]]}},{"type":"Feature","properties":{"setor":"431335905000007","pop":394,"sigilo_pop":false,"dom":153,"sigilo_dom":0,"mulheres":185,"sigilo_mulheres":0,"c0_4":16,"sigilo_c0_4":0,"c5_9":24,"sigilo_c5_9":0,"i60_69":59,"sigilo_i60_69":0,"i70m":57,"sigilo_i70m":0,"indigenas":0,"sigilo_indigenas":0,"pretos_pardos":14,"sigilo_pretos_pardos":0,"dom_ocupados":128,"sigilo_dom_ocupados":0,"dom_agua":70,"sigilo_dom_agua":0,"dom_esgoto":0,"sigilo_dom_esgoto":0,"renda_resp":3530.67,"sigilo_renda_resp":0,"n_resp":128,"sigilo_n_resp":0,"dens":13.2,"sigilo_dens":false,"na_bacia":1,"area_pct_bacia":100.0,"metodo_recorte_bacia":"ponto_representativo_setor_2022; area_pct_geometrica","pop_n_validos":1,"pop_n_total":1,"pop_completude":1.0,"dom_n_validos":1,"dom_n_total":1,"dom_completude":1.0,"dom_ocupados_n_validos":1,"dom_ocupados_n_total":1,"dom_ocupados_completude":1.0,"mulheres_n_validos":1,"mulheres_n_total":1,"mulheres_completude":1.0,"c0_4_n_validos":1,"c0_4_n_total":1,"c0_4_completude":1.0,"c5_9_n_validos":1,"c5_9_n_total":1,"c5_9_completude":1.0,"i60_69_n_validos":1,"i60_69_n_total":1,"i60_69_completude":1.0,"i70m_n_validos":1,"i70m_n_total":1,"i70m_completude":1.0,"indigenas_n_validos":1,"indigenas_n_total":1,"indigenas_completude":1.0,"pretos_pardos_n_validos":1,"pretos_pardos_n_total":1,"pretos_pardos_completude":1.0,"dom_agua_n_validos":1,"dom_agua_n_total":1,"dom_agua_completude":1.0,"dom_esgoto_n_validos":1,"dom_esgoto_n_total":1,"dom_esgoto_completude":1.0,"n_resp_n_validos":1,"n_resp_n_total":1,"n_resp_completude":1.0,"renda_resp_n_validos":1,"renda_resp_n_total":1,"renda_resp_completude":1.0,"dens_n_validos":1,"dens_n_total":1,"dens_completude":1.0,"status_borda_bacia":"total","metodo_area_bacia":"interse??o geom?trica em EPSG:5880","metodo_na_bacia":"ponto_representativo_setor_2022_within_bacia","municipio":"Nova Roma do Sul","cod_mun":"4313359","mun_pct_na_bacia":100.0,"mun_pop_total":3466,"mun_pop_na_bacia":3466.0,"mun_ubs_iede":2,"mun_hospitais_iede":null,"mun_escolas_iede":3,"mun_bombeiros_iede":null,"mun_servicos_cobertura":"cadastro_IEDE_parcial_nao_inventario","mun_icm_faixa":"B","mun_icm_pontos":9,"mun_icm_prioritario":"não","mun_ubs_iede_status":"published","mun_hospitais_iede_status":"unknown","mun_escolas_iede_status":"published","mun_bombeiros_iede_status":"unknown"},"geometry":{"type":"Polygon","coordinates":[[[-51.458992799999976,-28.994826],[-51.45610259999995,-28.98837849999994],[-51.45418009999998,-28.987710799999938],[-51.45285679999996,-28.987892799999933],[-51.45111549999996,-28.98880939999998],[-51.44968329999995,-28.98863519999997],[-51.44915039999996,-28.988888499999966],[-51.44862529999995,-28.989672599999952],[-51.448911899999985,-28.990756499999968],[-51.44888259999993,-28.992088199999955],[-51.44861279999997,-28.992391099999953],[-51.44670729999996,-28.992392799999948],[-51.44129309999994,-28.993846899999937],[-51.44037249999997,-28.993609699999983],[-51.43879529999998,-28.992255399999966],[-51.43784009999997,-28.992461399999968],[-51.43620189999996,-28.991645],[-51.435330499999964,-28.99198879999994],[-51.434374799999944,-28.991683399999925],[-51.43309379999994,-28.991993299999937],[-51.429223199999974,-28.99150809999998],[-51.42878359999998,-28.992958699999974],[-51.42843849999997,-28.99324539999998],[-51.427877499999965,-28.993561199999938],[-51.42613689999996,-28.993796099999948],[-51.42525009999997,-28.99351449999996],[-51.424581,-28.99264789999994],[-51.42282049999994,-28.991299799999975],[-51.421201199999985,-28.990546899999966],[-51.42099889999998,-28.991174499999946],[-51.42067749999996,-28.99141479999998],[-51.41890959999995,-28.991294699999965],[-51.418059199999966,-28.991464299999958],[-51.41552909999995,-28.991239499999935],[-51.41200209999994,-29.002417399999953],[-51.41068759999996,-29.002411],[-51.41033249999998,-29.00478549999997],[-51.410464099999956,-29.005709599999935],[-51.412243599999954,-29.010283699999956],[-51.413469,-29.010527099999933],[-51.41447619999996,-29.011772],[-51.414555399999976,-29.012182599999953],[-51.41377739999995,-29.013541499999967],[-51.41300129999997,-29.014221299999967],[-51.41331729999996,-29.016686199999967],[-51.41320379999996,-29.020166199999935],[-51.41697519999996,-29.023541599999927],[-51.41867179999997,-29.02463959999994],[-51.42067179999997,-29.02667029999998],[-51.42097819999998,-29.02747549999997],[-51.42090339999998,-29.02803769999997],[-51.41930449999995,-29.030652699999955],[-51.418404099999975,-29.030932399999987],[-51.41690079999995,-29.030721099999944],[-51.41556989999998,-29.03086239999993],[-51.41488569999996,-29.031460299999928],[-51.41492719999997,-29.03264859999995],[-51.41288369999995,-29.034121599999935],[-51.40921119999996,-29.034003899999952],[-51.40868789999996,-29.034159299999946],[-51.40770329999999,-29.03616369999997],[-51.40779439999995,-29.036673799999946],[-51.40848689999996,-29.03767109999996],[-51.40848809999994,-29.038278699999978],[-51.407569699999954,-29.039482499999963],[-51.40813139999994,-29.040255499999937],[-51.40953319999994,-29.04083559999998],[-51.41184339999995,-29.042822299999955],[-51.41394669999994,-29.04252749999994],[-51.415814599999976,-29.042943099999942],[-51.41720209999994,-29.044148],[-51.41738359999993,-29.045284499999973],[-51.41767569999997,-29.045471399999933],[-51.41948839999998,-29.045586],[-51.42070709999996,-29.047321099999984],[-51.42134559999994,-29.047846499999945],[-51.42261619999994,-29.04839789999994],[-51.42418309999994,-29.04853569999995],[-51.42636189999997,-29.049414699999947],[-51.427438,-29.04882409999994],[-51.42809569999997,-29.048729899999962],[-51.42919429999995,-29.049751499999953],[-51.430494,-29.04980459999997],[-51.43175219999995,-29.05041979999993],[-51.43326889999998,-29.050660799999946],[-51.43420709999998,-29.050698],[-51.43559879999997,-29.050065699999955],[-51.43827969999995,-29.049719],[-51.43854079999995,-29.050816699999924],[-51.437733,-29.05123979999996],[-51.43781579999995,-29.052497099999986],[-51.437513299999985,-29.05368139999996],[-51.437031299999944,-29.054306099999955],[-51.43717439999994,-29.05476059999996],[-51.43687669999997,-29.055453399999962],[-51.436888,-29.057292099999984],[-51.43632409999998,-29.057968899999935],[-51.434990099999936,-29.05845349999992],[-51.43494209999995,-29.059494299999983],[-51.43458479999999,-29.05981269999996],[-51.43399759999994,-29.059798899999976],[-51.43039689999995,-29.058441299999966],[-51.429174199999984,-29.057588],[-51.42759479999996,-29.05769639999992],[-51.42666429999997,-29.057193499999975],[-51.424035,-29.05708819999995],[-51.422999699999934,-29.05669369999997],[-51.42242579999998,-29.056816],[-51.421393,-29.056476299999925],[-51.42072829999995,-29.056695],[-51.41982549999995,-29.056607],[-51.41868969999996,-29.056149],[-51.41755459999996,-29.056523899999938],[-51.413813699999935,-29.05600089999995],[-51.41334959999994,-29.055741],[-51.41244679999995,-29.05584059999996],[-51.40725,-29.054635099999935],[-51.406496199999935,-29.05413609999994],[-51.40574629999998,-29.0544824],[-51.40333529999998,-29.054360799999984],[-51.401233,-29.055095199999975],[-51.39614969999997,-29.057308699999965],[-51.39642979999997,-29.05821539999993],[-51.40152159999997,-29.05604049999994],[-51.4044239,-29.05563449999995],[-51.40567569999996,-29.056204799999932],[-51.408483699999984,-29.05655279999996],[-51.42209109999993,-29.05983529999997],[-51.42782039999997,-29.061821199999937],[-51.428961099999974,-29.061971],[-51.43298549999998,-29.06337729999995],[-51.43423249999995,-29.063512599999967],[-51.43640739999994,-29.063135599999946],[-51.437229,-29.06276829999996],[-51.439935599999956,-29.060574],[-51.440911899999946,-29.05943339999993],[-51.44533889999996,-29.050085],[-51.44625919999998,-29.047103299999936],[-51.45015209999996,-29.038220799999962],[-51.45404659999998,-29.033683499999942],[-51.45504329999994,-29.031831399999923],[-51.45629989999998,-29.03050709999997],[-51.458147,-29.02764079999998],[-51.45880189999997,-29.026075899999963],[-51.45919249999997,-29.02300919999993],[-51.45989259999993,-29.020681899999953],[-51.460653399999956,-29.019415799999937],[-51.462020499999944,-29.01822],[-51.463989199999965,-29.01719939999998],[-51.46577039999995,-29.01647429999997],[-51.46786139999995,-29.01610719999996],[-51.46966929999997,-29.01613789999993],[-51.474908399999954,-29.017297799999927],[-51.47639679999998,-29.017975399999955],[-51.47698669999994,-29.018709099999963],[-51.477363699999955,-29.017752099999946],[-51.47904559999996,-29.01553849999993],[-51.47916159999995,-29.013402299999928],[-51.478552699999966,-29.010879399999958],[-51.47751839999995,-29.009535699999955],[-51.47580739999996,-29.008462799999972],[-51.47371949999996,-29.007795799999943],[-51.47082919999997,-29.007476799999946],[-51.466866,-29.007844099999936],[-51.464826399999936,-29.00777649999997],[-51.46323149999995,-29.007370499999972],[-51.45886229999996,-29.005669199999947],[-51.45653759999993,-29.004402899999945],[-51.45483139999993,-29.002433399999966],[-51.454684,-29.000086899999935],[-51.45611469999995,-28.997641299999938],[-51.458992799999976,-28.994826]]]}},{"type":"Feature","properties":{"setor":"431335905000008","pop":375,"sigilo_pop":false,"dom":158,"sigilo_dom":0,"mulheres":180,"sigilo_mulheres":0,"c0_4":21,"sigilo_c0_4":0,"c5_9":21,"sigilo_c5_9":0,"i60_69":40,"sigilo_i60_69":0,"i70m":29,"sigilo_i70m":0,"indigenas":3,"sigilo_indigenas":0,"pretos_pardos":66,"sigilo_pretos_pardos":0,"dom_ocupados":139,"sigilo_dom_ocupados":0,"dom_agua":131,"sigilo_dom_agua":0,"dom_esgoto":66,"sigilo_dom_esgoto":0,"renda_resp":3217.82,"sigilo_renda_resp":0,"n_resp":139,"sigilo_n_resp":0,"dens":562.7,"sigilo_dens":false,"na_bacia":1,"area_pct_bacia":100.0,"metodo_recorte_bacia":"ponto_representativo_setor_2022; area_pct_geometrica","pop_n_validos":1,"pop_n_total":1,"pop_completude":1.0,"dom_n_validos":1,"dom_n_total":1,"dom_completude":1.0,"dom_ocupados_n_validos":1,"dom_ocupados_n_total":1,"dom_ocupados_completude":1.0,"mulheres_n_validos":1,"mulheres_n_total":1,"mulheres_completude":1.0,"c0_4_n_validos":1,"c0_4_n_total":1,"c0_4_completude":1.0,"c5_9_n_validos":1,"c5_9_n_total":1,"c5_9_completude":1.0,"i60_69_n_validos":1,"i60_69_n_total":1,"i60_69_completude":1.0,"i70m_n_validos":1,"i70m_n_total":1,"i70m_completude":1.0,"indigenas_n_validos":1,"indigenas_n_total":1,"indigenas_completude":1.0,"pretos_pardos_n_validos":1,"pretos_pardos_n_total":1,"pretos_pardos_completude":1.0,"dom_agua_n_validos":1,"dom_agua_n_total":1,"dom_agua_completude":1.0,"dom_esgoto_n_validos":1,"dom_esgoto_n_total":1,"dom_esgoto_completude":1.0,"n_resp_n_validos":1,"n_resp_n_total":1,"n_resp_completude":1.0,"renda_resp_n_validos":1,"renda_resp_n_total":1,"renda_resp_completude":1.0,"dens_n_validos":1,"dens_n_total":1,"dens_completude":1.0,"status_borda_bacia":"total","metodo_area_bacia":"interse??o geom?trica em EPSG:5880","metodo_na_bacia":"ponto_representativo_setor_2022_within_bacia","municipio":"Nova Roma do Sul","cod_mun":"4313359","mun_pct_na_bacia":100.0,"mun_pop_total":3466,"mun_pop_na_bacia":3466.0,"mun_ubs_iede":2,"mun_hospitais_iede":null,"mun_escolas_iede":3,"mun_bombeiros_iede":null,"mun_servicos_cobertura":"cadastro_IEDE_parcial_nao_inventario","mun_icm_faixa":"B","mun_icm_pontos":9,"mun_icm_prioritario":"não","mun_ubs_iede_status":"published","mun_hospitais_iede_status":"unknown","mun_escolas_iede_status":"published","mun_bombeiros_iede_status":"unknown"},"geometry":{"type":"Polygon","coordinates":[[[-51.40163029999997,-28.98950259999998],[-51.40163309999997,-28.98986949999994],[-51.40066019999995,-28.990551],[-51.40062389999997,-28.991640899999947],[-51.40184079999995,-28.991692],[-51.40176649999995,-28.992286],[-51.403087199999966,-28.992404799999974],[-51.40302889999998,-28.996518799999926],[-51.40587549999998,-28.997781299999925],[-51.405949799999966,-29.002311099999933],[-51.41068759999996,-29.002411],[-51.40964919999993,-28.999664799999962],[-51.409508,-28.99757919999996],[-51.40812269999997,-28.996358899999965],[-51.40826629999999,-28.99593209999994],[-51.40755909999996,-28.993472599999954],[-51.40772529999998,-28.99225959999994],[-51.40718839999994,-28.99190009999995],[-51.407834399999956,-28.990117399999967],[-51.408547599999956,-28.98922909999993],[-51.406205899999975,-28.989020299999932],[-51.40608409999999,-28.990268],[-51.405140299999964,-28.990273599999977],[-51.40433439999998,-28.989545199999956],[-51.403231299999966,-28.990089],[-51.40163029999997,-28.98950259999998]]]}},{"type":"Feature","properties":{"setor":"431335905000009","pop":478,"sigilo_pop":false,"dom":213,"sigilo_dom":0,"mulheres":249,"sigilo_mulheres":0,"c0_4":19,"sigilo_c0_4":0,"c5_9":24,"sigilo_c5_9":0,"i60_69":57,"sigilo_i60_69":0,"i70m":65,"sigilo_i70m":0,"indigenas":6,"sigilo_indigenas":0,"pretos_pardos":null,"sigilo_pretos_pardos":1,"dom_ocupados":191,"sigilo_dom_ocupados":0,"dom_agua":189,"sigilo_dom_agua":0,"dom_esgoto":95,"sigilo_dom_esgoto":0,"renda_resp":2833.2,"sigilo_renda_resp":0,"n_resp":191,"sigilo_n_resp":0,"dens":676.5,"sigilo_dens":false,"na_bacia":1,"area_pct_bacia":100.0,"metodo_recorte_bacia":"ponto_representativo_setor_2022; area_pct_geometrica","pop_n_validos":1,"pop_n_total":1,"pop_completude":1.0,"dom_n_validos":1,"dom_n_total":1,"dom_completude":1.0,"dom_ocupados_n_validos":1,"dom_ocupados_n_total":1,"dom_ocupados_completude":1.0,"mulheres_n_validos":1,"mulheres_n_total":1,"mulheres_completude":1.0,"c0_4_n_validos":1,"c0_4_n_total":1,"c0_4_completude":1.0,"c5_9_n_validos":1,"c5_9_n_total":1,"c5_9_completude":1.0,"i60_69_n_validos":1,"i60_69_n_total":1,"i60_69_completude":1.0,"i70m_n_validos":1,"i70m_n_total":1,"i70m_completude":1.0,"indigenas_n_validos":1,"indigenas_n_total":1,"indigenas_completude":1.0,"pretos_pardos_n_validos":0,"pretos_pardos_n_total":1,"pretos_pardos_completude":0.0,"dom_agua_n_validos":1,"dom_agua_n_total":1,"dom_agua_completude":1.0,"dom_esgoto_n_validos":1,"dom_esgoto_n_total":1,"dom_esgoto_completude":1.0,"n_resp_n_validos":1,"n_resp_n_total":1,"n_resp_completude":1.0,"renda_resp_n_validos":1,"renda_resp_n_total":1,"renda_resp_completude":1.0,"dens_n_validos":1,"dens_n_total":1,"dens_completude":1.0,"status_borda_bacia":"total","metodo_area_bacia":"interse??o geom?trica em EPSG:5880","metodo_na_bacia":"ponto_representativo_setor_2022_within_bacia","municipio":"Nova Roma do Sul","cod_mun":"4313359","mun_pct_na_bacia":100.0,"mun_pop_total":3466,"mun_pop_na_bacia":3466.0,"mun_ubs_iede":2,"mun_hospitais_iede":null,"mun_escolas_iede":3,"mun_bombeiros_iede":null,"mun_servicos_cobertura":"cadastro_IEDE_parcial_nao_inventario","mun_icm_faixa":"B","mun_icm_pontos":9,"mun_icm_prioritario":"não","mun_ubs_iede_status":"published","mun_hospitais_iede_status":"unknown","mun_escolas_iede_status":"published","mun_bombeiros_iede_status":"unknown"},"geometry":{"type":"Polygon","coordinates":[[[-51.40693229999993,-28.98494079999994],[-51.406051,-28.985456099999954],[-51.40591539999997,-28.985873599999938],[-51.406459799999936,-28.986834899999966],[-51.40776649999999,-28.98822319999994],[-51.40840769999995,-28.98818959999994],[-51.408770199999935,-28.9885197],[-51.40869749999996,-28.989040899999974],[-51.407834399999956,-28.990117399999967],[-51.40718839999994,-28.99190009999995],[-51.40772529999998,-28.99225959999994],[-51.40755909999996,-28.993472599999954],[-51.40826629999999,-28.99593209999994],[-51.40812269999997,-28.996358899999965],[-51.409508,-28.99757919999996],[-51.40964919999993,-28.999664799999962],[-51.41068759999996,-29.002411],[-51.41200209999994,-29.002417399999953],[-51.41552909999995,-28.991239499999935],[-51.41363889999997,-28.99153819999998],[-51.41134439999996,-28.991257199999943],[-51.410061,-28.99087839999992],[-51.40851019999997,-28.99099329999996],[-51.408622299999934,-28.990471699999947],[-51.41000819999994,-28.988694599999967],[-51.40908479999997,-28.987769799999967],[-51.40902849999998,-28.98633019999994],[-51.40788189999994,-28.986067199999976],[-51.407848299999955,-28.98530039999998],[-51.407596199999944,-28.98495279999998],[-51.40693229999993,-28.98494079999994]]]}},{"type":"Feature","properties":{"setor":"431335905000010","pop":475,"sigilo_pop":false,"dom":211,"sigilo_dom":0,"mulheres":219,"sigilo_mulheres":0,"c0_4":17,"sigilo_c0_4":0,"c5_9":22,"sigilo_c5_9":0,"i60_69":82,"sigilo_i60_69":0,"i70m":70,"sigilo_i70m":0,"indigenas":0,"sigilo_indigenas":0,"pretos_pardos":23,"sigilo_pretos_pardos":0,"dom_ocupados":156,"sigilo_dom_ocupados":0,"dom_agua":11,"sigilo_dom_agua":0,"dom_esgoto":0,"sigilo_dom_esgoto":0,"renda_resp":2986.1,"sigilo_renda_resp":0,"n_resp":156,"sigilo_n_resp":0,"dens":9.7,"sigilo_dens":false,"na_bacia":1,"area_pct_bacia":100.0,"metodo_recorte_bacia":"ponto_representativo_setor_2022; area_pct_geometrica","pop_n_validos":1,"pop_n_total":1,"pop_completude":1.0,"dom_n_validos":1,"dom_n_total":1,"dom_completude":1.0,"dom_ocupados_n_validos":1,"dom_ocupados_n_total":1,"dom_ocupados_completude":1.0,"mulheres_n_validos":1,"mulheres_n_total":1,"mulheres_completude":1.0,"c0_4_n_validos":1,"c0_4_n_total":1,"c0_4_completude":1.0,"c5_9_n_validos":1,"c5_9_n_total":1,"c5_9_completude":1.0,"i60_69_n_validos":1,"i60_69_n_total":1,"i60_69_completude":1.0,"i70m_n_validos":1,"i70m_n_total":1,"i70m_completude":1.0,"indigenas_n_validos":1,"indigenas_n_total":1,"indigenas_completude":1.0,"pretos_pardos_n_validos":1,"pretos_pardos_n_total":1,"pretos_pardos_completude":1.0,"dom_agua_n_validos":1,"dom_agua_n_total":1,"dom_agua_completude":1.0,"dom_esgoto_n_validos":1,"dom_esgoto_n_total":1,"dom_esgoto_completude":1.0,"n_resp_n_validos":1,"n_resp_n_total":1,"n_resp_completude":1.0,"renda_resp_n_validos":1,"renda_resp_n_total":1,"renda_resp_completude":1.0,"dens_n_validos":1,"dens_n_total":1,"dens_completude":1.0,"status_borda_bacia":"total","metodo_area_bacia":"interse??o geom?trica em EPSG:5880","metodo_na_bacia":"ponto_representativo_setor_2022_within_bacia","municipio":"Nova Roma do Sul","cod_mun":"4313359","mun_pct_na_bacia":100.0,"mun_pop_total":3466,"mun_pop_na_bacia":3466.0,"mun_ubs_iede":2,"mun_hospitais_iede":null,"mun_escolas_iede":3,"mun_bombeiros_iede":null,"mun_servicos_cobertura":"cadastro_IEDE_parcial_nao_inventario","mun_icm_faixa":"B","mun_icm_pontos":9,"mun_icm_prioritario":"não","mun_ubs_iede_status":"published","mun_hospitais_iede_status":"unknown","mun_escolas_iede_status":"published","mun_bombeiros_iede_status":"unknown"},"geometry":{"type":"Polygon","coordinates":[[[-51.46616769999997,-28.933575199999954],[-51.46358669999995,-28.93279219999994],[-51.46300679999996,-28.932192899999954],[-51.462349399999944,-28.930801],[-51.46218429999993,-28.929269099999953],[-51.462438899999945,-28.92799049999995],[-51.46283519999998,-28.92683049999993],[-51.46424579999996,-28.924885599999985],[-51.37946869999997,-28.92057069999993],[-51.37887039999998,-28.921439199999956],[-51.375964099999976,-28.923164399999973],[-51.37512859999998,-28.924199299999938],[-51.37525549999998,-28.92464969999998],[-51.37693209999997,-28.92539379999994],[-51.37751609999999,-28.926785099999965],[-51.378199,-28.927529],[-51.37983859999997,-28.92828719999994],[-51.37970089999993,-28.92951119999998],[-51.38033869999998,-28.930747399999987],[-51.38305089999995,-28.93361549999997],[-51.38344079999996,-28.934561299999924],[-51.383368,-28.93761289999998],[-51.383062,-28.938908],[-51.38334859999998,-28.939696399999946],[-51.38513809999995,-28.9414],[-51.386505899999975,-28.941741299999933],[-51.38854719999995,-28.942618799999927],[-51.38833839999996,-28.943670899999976],[-51.38701679999998,-28.94515249999995],[-51.386909799999955,-28.945591399999962],[-51.38761969999996,-28.94596169999994],[-51.38978949999996,-28.945568099999942],[-51.390188,-28.945554699999942],[-51.39058239999997,-28.94583019999994],[-51.39054759999993,-28.946422099999946],[-51.38908369999995,-28.948191899999976],[-51.38946159999995,-28.949394699999967],[-51.38987129999998,-28.949722],[-51.38982979999997,-28.951164699999925],[-51.39040669999997,-28.952221599999966],[-51.391779,-28.95378789999995],[-51.3924454,-28.954131799999963],[-51.396429399999924,-28.953998799999965],[-51.398342,-28.954801],[-51.3984751,-28.955090399999946],[-51.398218,-28.956462799999937],[-51.39886559999997,-28.957249099999952],[-51.399862,-28.959636699999976],[-51.401512899999936,-28.96099169999995],[-51.40159529999994,-28.961851199999952],[-51.40098249999994,-28.962637399999945],[-51.400606799999935,-28.964225399999986],[-51.40195629999994,-28.966131799999975],[-51.404323,-28.968339199999946],[-51.40437979999996,-28.968836299999957],[-51.403516399999944,-28.971760599999985],[-51.40333279999992,-28.973693099999934],[-51.402228,-28.974628599999956],[-51.401223899999934,-28.974650799999964],[-51.40036,-28.975035699999967],[-51.398368,-28.976864099999943],[-51.39833369999996,-28.97758439999996],[-51.40090459999993,-28.978984799999985],[-51.40201069999995,-28.97781589999994],[-51.40984439999994,-28.976874699999925],[-51.41315659999998,-28.979974199999965],[-51.41565159999993,-28.986076],[-51.41552909999995,-28.991239499999935],[-51.418059199999966,-28.991464299999958],[-51.41890959999995,-28.991294699999965],[-51.42067749999996,-28.99141479999998],[-51.42099889999998,-28.991174499999946],[-51.421201199999985,-28.990546899999966],[-51.42282049999994,-28.991299799999975],[-51.424581,-28.99264789999994],[-51.42525009999997,-28.99351449999996],[-51.42613689999996,-28.993796099999948],[-51.427877499999965,-28.993561199999938],[-51.42843849999997,-28.99324539999998],[-51.42878359999998,-28.992958699999974],[-51.429223199999974,-28.99150809999998],[-51.43309379999994,-28.991993299999937],[-51.434374799999944,-28.991683399999925],[-51.435330499999964,-28.99198879999994],[-51.43620189999996,-28.991645],[-51.43784009999997,-28.992461399999968],[-51.43879529999998,-28.992255399999966],[-51.44037249999997,-28.993609699999983],[-51.44129309999994,-28.993846899999937],[-51.44670729999996,-28.992392799999948],[-51.44861279999997,-28.992391099999953],[-51.44888259999993,-28.992088199999955],[-51.448911899999985,-28.990756499999968],[-51.44862529999995,-28.989672599999952],[-51.44915039999996,-28.988888499999966],[-51.44968329999995,-28.98863519999997],[-51.45111549999996,-28.98880939999998],[-51.45285679999996,-28.987892799999933],[-51.45375519999994,-28.98768529999996],[-51.45468119999998,-28.987795899999988],[-51.45610259999995,-28.98837849999994],[-51.458992799999976,-28.994826],[-51.46355529999994,-28.992781599999944],[-51.46854229999997,-28.992155899999936],[-51.47095009999998,-28.99158779999993],[-51.47252569999995,-28.991650599999964],[-51.47341979999993,-28.991056099999984],[-51.47452659999993,-28.988886],[-51.47472959999993,-28.987929],[-51.474681299999986,-28.987010699999928],[-51.474343,-28.986305099999978],[-51.473212,-28.98518379999996],[-51.47087269999997,-28.98452649999996],[-51.46293669999994,-28.983550199999964],[-51.45331869999996,-28.97780839999996],[-51.452671,-28.977315399999952],[-51.452381,-28.97662909999996],[-51.452787,-28.974541199999987],[-51.452579199999946,-28.97334249999995],[-51.45363519999995,-28.97243149999997],[-51.45882119999993,-28.971447899999923],[-51.460069199999964,-28.971585299999962],[-51.46293429999997,-28.971329499999968],[-51.46828449999998,-28.969948199999973],[-51.46972969999995,-28.96903859999998],[-51.4708462,-28.967794099999942],[-51.47163549999994,-28.961216399999962],[-51.47129959999995,-28.960203799999924],[-51.47022849999997,-28.95844939999994],[-51.46886939999997,-28.954991],[-51.468395699999974,-28.954343299999945],[-51.468279699999975,-28.95226509999997],[-51.46745809999993,-28.94893019999995],[-51.466984499999974,-28.94812789999996],[-51.46631749999995,-28.947615599999953],[-51.46564569999998,-28.947417399999942],[-51.46355289999997,-28.947364199999978],[-51.46130549999998,-28.947978099999936],[-51.45362069999994,-28.951158299999967],[-51.45056049999994,-28.952014],[-51.4490598,-28.951963199999966],[-51.447530899999954,-28.95092629999992],[-51.44329709999994,-28.94529079999994],[-51.44108749999998,-28.943212799999962],[-51.440455199999974,-28.941762599999944],[-51.44053249999996,-28.94097],[-51.44091919999994,-28.94025459999995],[-51.44220479999996,-28.939317],[-51.44689209999996,-28.938104099999975],[-51.460135899999955,-28.93746109999995],[-51.464882,-28.937905699999938],[-51.466854,-28.93772209999998],[-51.46812029999995,-28.936852099999953],[-51.46826519999996,-28.93546979999996],[-51.46716329999998,-28.934155199999967],[-51.46616769999997,-28.933575199999954]]]}}]}
