{"type":"FeatureCollection","name":"4314076","crs":{"type":"name","properties":{"name":"urn:ogc:def:crs:OGC:1.3:CRS84"}},"features":[{"type":"Feature","properties":{"setor":"431407605000001","pop":842,"sigilo_pop":false,"dom":388,"sigilo_dom":0,"mulheres":472,"sigilo_mulheres":0,"c0_4":53,"sigilo_c0_4":0,"c5_9":50,"sigilo_c5_9":0,"i60_69":103,"sigilo_i60_69":0,"i70m":104,"sigilo_i70m":0,"indigenas":0,"sigilo_indigenas":0,"pretos_pardos":124,"sigilo_pretos_pardos":0,"dom_ocupados":343,"sigilo_dom_ocupados":0,"dom_agua":341,"sigilo_dom_agua":0,"dom_esgoto":16,"sigilo_dom_esgoto":0,"renda_resp":2695.79,"sigilo_renda_resp":0,"n_resp":343,"sigilo_n_resp":0,"dens":426.0,"sigilo_dens":false,"na_bacia":1,"area_pct_bacia":100.0,"metodo_recorte_bacia":"ponto_representativo_setor_2022; area_pct_geometrica","pop_n_validos":1,"pop_n_total":1,"pop_completude":1.0,"dom_n_validos":1,"dom_n_total":1,"dom_completude":1.0,"dom_ocupados_n_validos":1,"dom_ocupados_n_total":1,"dom_ocupados_completude":1.0,"mulheres_n_validos":1,"mulheres_n_total":1,"mulheres_completude":1.0,"c0_4_n_validos":1,"c0_4_n_total":1,"c0_4_completude":1.0,"c5_9_n_validos":1,"c5_9_n_total":1,"c5_9_completude":1.0,"i60_69_n_validos":1,"i60_69_n_total":1,"i60_69_completude":1.0,"i70m_n_validos":1,"i70m_n_total":1,"i70m_completude":1.0,"indigenas_n_validos":1,"indigenas_n_total":1,"indigenas_completude":1.0,"pretos_pardos_n_validos":1,"pretos_pardos_n_total":1,"pretos_pardos_completude":1.0,"dom_agua_n_validos":1,"dom_agua_n_total":1,"dom_agua_completude":1.0,"dom_esgoto_n_validos":1,"dom_esgoto_n_total":1,"dom_esgoto_completude":1.0,"n_resp_n_validos":1,"n_resp_n_total":1,"n_resp_completude":1.0,"renda_resp_n_validos":1,"renda_resp_n_total":1,"renda_resp_completude":1.0,"dens_n_validos":1,"dens_n_total":1,"dens_completude":1.0,"status_borda_bacia":"total","metodo_area_bacia":"interseção geométrica em EPSG:5880","metodo_na_bacia":"ponto_representativo_setor_2022_within_bacia","municipio":"Passo do Sobrado","cod_mun":"4314076","mun_pct_na_bacia":62.6,"mun_pop_total":6025,"mun_pop_na_bacia":4128.0,"mun_ubs_iede":2,"mun_hospitais_iede":null,"mun_escolas_iede":1,"mun_bombeiros_iede":1,"mun_servicos_cobertura":"cadastro_IEDE_parcial_nao_inventario","mun_icm_faixa":"B","mun_icm_pontos":8,"mun_icm_prioritario":"não","mun_ubs_iede_status":"published","mun_hospitais_iede_status":"unknown","mun_escolas_iede_status":"published","mun_bombeiros_iede_status":"published"},"geometry":{"type":"Polygon","coordinates":[[[-52.27230719999994,-29.732432399999933],[-52.27230359999999,-29.735899799999956],[-52.27082369999994,-29.739855499999983],[-52.276329499999974,-29.746274199999963],[-52.275010899999984,-29.748033299999978],[-52.27457469999997,-29.75128149999994],[-52.27426269999995,-29.755114799999937],[-52.27513529999993,-29.75663429999998],[-52.275279,-29.758710099999966],[-52.282368199999944,-29.758628299999938],[-52.28214109999993,-29.747294699999934],[-52.28098289999997,-29.740452099999974],[-52.27575819999998,-29.733319399999974],[-52.27230719999994,-29.732432399999933]]]}},{"type":"Feature","properties":{"setor":"431407605000002","pop":606,"sigilo_pop":false,"dom":278,"sigilo_dom":0,"mulheres":305,"sigilo_mulheres":0,"c0_4":32,"sigilo_c0_4":0,"c5_9":29,"sigilo_c5_9":0,"i60_69":77,"sigilo_i60_69":0,"i70m":63,"sigilo_i70m":0,"indigenas":0,"sigilo_indigenas":0,"pretos_pardos":53,"sigilo_pretos_pardos":0,"dom_ocupados":223,"sigilo_dom_ocupados":0,"dom_agua":149,"sigilo_dom_agua":0,"dom_esgoto":0,"sigilo_dom_esgoto":0,"renda_resp":1238.34,"sigilo_renda_resp":0,"n_resp":223,"sigilo_n_resp":0,"dens":34.5,"sigilo_dens":false,"na_bacia":1,"area_pct_bacia":51.8119,"metodo_recorte_bacia":"ponto_representativo_setor_2022; area_pct_geometrica","pop_n_validos":1,"pop_n_total":1,"pop_completude":1.0,"dom_n_validos":1,"dom_n_total":1,"dom_completude":1.0,"dom_ocupados_n_validos":1,"dom_ocupados_n_total":1,"dom_ocupados_completude":1.0,"mulheres_n_validos":1,"mulheres_n_total":1,"mulheres_completude":1.0,"c0_4_n_validos":1,"c0_4_n_total":1,"c0_4_completude":1.0,"c5_9_n_validos":1,"c5_9_n_total":1,"c5_9_completude":1.0,"i60_69_n_validos":1,"i60_69_n_total":1,"i60_69_completude":1.0,"i70m_n_validos":1,"i70m_n_total":1,"i70m_completude":1.0,"indigenas_n_validos":1,"indigenas_n_total":1,"indigenas_completude":1.0,"pretos_pardos_n_validos":1,"pretos_pardos_n_total":1,"pretos_pardos_completude":1.0,"dom_agua_n_validos":1,"dom_agua_n_total":1,"dom_agua_completude":1.0,"dom_esgoto_n_validos":1,"dom_esgoto_n_total":1,"dom_esgoto_completude":1.0,"n_resp_n_validos":1,"n_resp_n_total":1,"n_resp_completude":1.0,"renda_resp_n_validos":1,"renda_resp_n_total":1,"renda_resp_completude":1.0,"dens_n_validos":1,"dens_n_total":1,"dens_completude":1.0,"status_borda_bacia":"parcial","metodo_area_bacia":"interseção geométrica em EPSG:5880","metodo_na_bacia":"ponto_representativo_setor_2022_within_bacia","municipio":"Passo do Sobrado","cod_mun":"4314076","mun_pct_na_bacia":62.6,"mun_pop_total":6025,"mun_pop_na_bacia":4128.0,"mun_ubs_iede":2,"mun_hospitais_iede":null,"mun_escolas_iede":1,"mun_bombeiros_iede":1,"mun_servicos_cobertura":"cadastro_IEDE_parcial_nao_inventario","mun_icm_faixa":"B","mun_icm_pontos":8,"mun_icm_prioritario":"não","mun_ubs_iede_status":"published","mun_hospitais_iede_status":"unknown","mun_escolas_iede_status":"published","mun_bombeiros_iede_status":"published"},"geometry":{"type":"Polygon","coordinates":[[[-52.275279,-29.758710099999966],[-52.276278199999986,-29.76570279999992],[-52.27580889999996,-29.77157819999995],[-52.27647549999995,-29.77301369999997],[-52.276634899999976,-29.775184599999918],[-52.276311,-29.775860499999965],[-52.273346,-29.778573299999948],[-52.271504099999966,-29.779679899999955],[-52.276523399999974,-29.783814],[-52.27701959999997,-29.78480849999994],[-52.27751519999998,-29.786956199999956],[-52.27751259999997,-29.78850829999994],[-52.27840159999994,-29.789077899999924],[-52.278799,-29.788785699999956],[-52.27995349999998,-29.78889779999997],[-52.28127909999995,-29.78853029999994],[-52.28271819999998,-29.788903299999962],[-52.283047099999976,-29.78852579999995],[-52.28331019999996,-29.78872239999998],[-52.28327859999997,-29.789099399999944],[-52.28472909999994,-29.789221399999974],[-52.28600019999994,-29.790075599999962],[-52.288203899999985,-29.790555499999982],[-52.28894659999998,-29.79036389999993],[-52.28855309999995,-29.78982369999995],[-52.288575599999945,-29.78933849999993],[-52.28883179999997,-29.789181099999958],[-52.288554499999975,-29.788908499999938],[-52.289057499999956,-29.788461599999938],[-52.289637599999935,-29.788782],[-52.290761499999974,-29.788596199999965],[-52.29127049999994,-29.789475399999954],[-52.29195749999997,-29.789900699999976],[-52.292770299999965,-29.789433399999954],[-52.29318149999995,-29.790071599999965],[-52.29377649999998,-29.790286599999945],[-52.29401249999995,-29.790796699999923],[-52.29435089999998,-29.790919],[-52.294714699999986,-29.790893399999966],[-52.29485579999994,-29.790372],[-52.29606819999998,-29.790576699999978],[-52.296774099999936,-29.790462],[-52.29753469999997,-29.789919899999976],[-52.29808009999993,-29.790091],[-52.298531099999934,-29.78938319999997],[-52.29917849999998,-29.789479599999922],[-52.29964019999994,-29.789213899999925],[-52.301659,-29.78955369999994],[-52.301700899999965,-29.790138899999928],[-52.30206919999995,-29.790330599999937],[-52.302612599999975,-29.790172699999957],[-52.30356659999996,-29.790450399999944],[-52.30438819999995,-29.789786899999967],[-52.30496039999997,-29.789757399999917],[-52.30601539999998,-29.790256899999974],[-52.307748499999946,-29.78962919999998],[-52.308175699999936,-29.789880599999943],[-52.30864589999993,-29.789703899999957],[-52.310481,-29.789990499999924],[-52.312387299999955,-29.788827],[-52.312772,-29.786365099999955],[-52.31544969999993,-29.784349199999944],[-52.31645579999998,-29.78400619999997],[-52.31751929999995,-29.783287799999982],[-52.31759469999997,-29.78273],[-52.31639169999994,-29.781060799999974],[-52.316387099999986,-29.77979639999994],[-52.31669739999995,-29.77888429999997],[-52.31621989999996,-29.778043499999967],[-52.317287599999986,-29.778019],[-52.319550799999945,-29.773474099999923],[-52.319931,-29.772273099999953],[-52.320280699999955,-29.772082099999984],[-52.32003949999995,-29.768445099999962],[-52.32201209999994,-29.76791639999993],[-52.32204639999998,-29.76616879999995],[-52.31927269999995,-29.763890499999953],[-52.31913429999997,-29.76171329999993],[-52.319955,-29.760305],[-52.32323929999995,-29.75918229999997],[-52.324900699999944,-29.757520299999946],[-52.328405,-29.755903199999977],[-52.327079799999986,-29.75301379999995],[-52.323596099999975,-29.7511009],[-52.32269019999996,-29.748438699999955],[-52.32326309999996,-29.747858],[-52.322095299999944,-29.74807969999995],[-52.32057649999996,-29.748015199999934],[-52.32006159999998,-29.749034699999978],[-52.319250899999986,-29.74907309999998],[-52.31820819999996,-29.749915399999956],[-52.317951499999936,-29.750224299999957],[-52.31842129999996,-29.750964599999975],[-52.318564899999956,-29.751896799999944],[-52.317923699999945,-29.75315459999996],[-52.31351669999998,-29.752036899999947],[-52.31165249999997,-29.752359],[-52.30953019999998,-29.753030299999963],[-52.307106199999964,-29.753128299999958],[-52.306240199999934,-29.75335],[-52.30505189999997,-29.753086099999955],[-52.303968699999984,-29.75256109999998],[-52.302282899999966,-29.752515],[-52.30042339999994,-29.75180559999996],[-52.295841799999955,-29.752329899999946],[-52.29206009999996,-29.75127919999994],[-52.29112879999996,-29.75064229999999],[-52.28909549999998,-29.74983019999996],[-52.286367,-29.749983499999935],[-52.28526179999994,-29.74983979999997],[-52.28387939999993,-29.749333699999962],[-52.28339189999997,-29.747878699999948],[-52.28214109999993,-29.747294699999934],[-52.282368199999944,-29.758628299999938],[-52.275279,-29.758710099999966]]]}},{"type":"Feature","properties":{"setor":"431407605000003","pop":342,"sigilo_pop":false,"dom":151,"sigilo_dom":0,"mulheres":166,"sigilo_mulheres":0,"c0_4":16,"sigilo_c0_4":0,"c5_9":10,"sigilo_c5_9":0,"i60_69":61,"sigilo_i60_69":0,"i70m":48,"sigilo_i70m":0,"indigenas":0,"sigilo_indigenas":0,"pretos_pardos":30,"sigilo_pretos_pardos":0,"dom_ocupados":131,"sigilo_dom_ocupados":0,"dom_agua":78,"sigilo_dom_agua":0,"dom_esgoto":null,"sigilo_dom_esgoto":1,"renda_resp":1451.86,"sigilo_renda_resp":0,"n_resp":131,"sigilo_n_resp":0,"dens":27.2,"sigilo_dens":false,"na_bacia":1,"area_pct_bacia":100.0,"metodo_recorte_bacia":"ponto_representativo_setor_2022; area_pct_geometrica","pop_n_validos":1,"pop_n_total":1,"pop_completude":1.0,"dom_n_validos":1,"dom_n_total":1,"dom_completude":1.0,"dom_ocupados_n_validos":1,"dom_ocupados_n_total":1,"dom_ocupados_completude":1.0,"mulheres_n_validos":1,"mulheres_n_total":1,"mulheres_completude":1.0,"c0_4_n_validos":1,"c0_4_n_total":1,"c0_4_completude":1.0,"c5_9_n_validos":1,"c5_9_n_total":1,"c5_9_completude":1.0,"i60_69_n_validos":1,"i60_69_n_total":1,"i60_69_completude":1.0,"i70m_n_validos":1,"i70m_n_total":1,"i70m_completude":1.0,"indigenas_n_validos":1,"indigenas_n_total":1,"indigenas_completude":1.0,"pretos_pardos_n_validos":1,"pretos_pardos_n_total":1,"pretos_pardos_completude":1.0,"dom_agua_n_validos":1,"dom_agua_n_total":1,"dom_agua_completude":1.0,"dom_esgoto_n_validos":0,"dom_esgoto_n_total":1,"dom_esgoto_completude":0.0,"n_resp_n_validos":1,"n_resp_n_total":1,"n_resp_completude":1.0,"renda_resp_n_validos":1,"renda_resp_n_total":1,"renda_resp_completude":1.0,"dens_n_validos":1,"dens_n_total":1,"dens_completude":1.0,"status_borda_bacia":"total","metodo_area_bacia":"interseção geométrica em EPSG:5880","metodo_na_bacia":"ponto_representativo_setor_2022_within_bacia","municipio":"Passo do Sobrado","cod_mun":"4314076","mun_pct_na_bacia":62.6,"mun_pop_total":6025,"mun_pop_na_bacia":4128.0,"mun_ubs_iede":2,"mun_hospitais_iede":null,"mun_escolas_iede":1,"mun_bombeiros_iede":1,"mun_servicos_cobertura":"cadastro_IEDE_parcial_nao_inventario","mun_icm_faixa":"B","mun_icm_pontos":8,"mun_icm_prioritario":"não","mun_ubs_iede_status":"published","mun_hospitais_iede_status":"unknown","mun_escolas_iede_status":"published","mun_bombeiros_iede_status":"published"},"geometry":{"type":"Polygon","coordinates":[[[-52.32667159999994,-29.714341599999955],[-52.317601699999955,-29.720890799999943],[-52.317737199999954,-29.72215509999996],[-52.309649099999945,-29.725281599999963],[-52.30930739999997,-29.725989499999965],[-52.30847249999994,-29.726790199999982],[-52.304466199999986,-29.72725729999997],[-52.30247159999993,-29.728099299999933],[-52.30192389999996,-29.729021099999944],[-52.301128799999965,-29.729540099999937],[-52.300260299999934,-29.730812],[-52.297562,-29.73171219999996],[-52.28848389999997,-29.73644379999997],[-52.287769,-29.73742009999995],[-52.287871,-29.73884549999998],[-52.28758159999995,-29.73947459999993],[-52.28474319999998,-29.742193099999948],[-52.281625899999945,-29.74404459999995],[-52.28214109999993,-29.747294699999934],[-52.28339189999997,-29.747878699999948],[-52.28387939999993,-29.749333699999962],[-52.28605779999998,-29.749978899999984],[-52.28909549999998,-29.74983019999996],[-52.29112879999996,-29.75064229999999],[-52.29206009999996,-29.75127919999994],[-52.295841799999955,-29.752329899999946],[-52.30042339999994,-29.75180559999996],[-52.302282899999966,-29.752515],[-52.303968699999984,-29.75256109999998],[-52.30505189999997,-29.753086099999955],[-52.306240199999934,-29.75335],[-52.307106199999964,-29.753128299999958],[-52.30953019999998,-29.753030299999963],[-52.31165249999997,-29.752359],[-52.31351669999998,-29.752036899999947],[-52.317923699999945,-29.75315459999996],[-52.318564899999956,-29.751896799999944],[-52.31842129999996,-29.750964599999975],[-52.317951499999936,-29.750224299999957],[-52.31820819999996,-29.749915399999956],[-52.319250899999986,-29.74907309999998],[-52.32006159999998,-29.749034699999978],[-52.32057649999996,-29.748015199999934],[-52.322095299999944,-29.74807969999995],[-52.32326309999996,-29.747858],[-52.3308,-29.740153],[-52.331654199999946,-29.739035299999966],[-52.33275829999996,-29.738209899999962],[-52.334429199999924,-29.73516429999995],[-52.33445819999997,-29.73455929999995],[-52.33394869999995,-29.733502],[-52.33378739999995,-29.732475299999972],[-52.33421559999994,-29.73129769999997],[-52.33489479999997,-29.73053319999996],[-52.33498579999997,-29.729744299999933],[-52.33539229999997,-29.72910559999996],[-52.335078599999974,-29.728532099999946],[-52.33500139999995,-29.726942499999943],[-52.334338299999956,-29.72591889999995],[-52.33436549999993,-29.72453579999996],[-52.333559599999944,-29.72356349999996],[-52.33268929999997,-29.72305019999994],[-52.33232869999994,-29.722109099999937],[-52.33183219999995,-29.721592799999932],[-52.331426299999976,-29.72015339999995],[-52.331622099999954,-29.718533299999933],[-52.330924599999946,-29.717563799999937],[-52.32995009999996,-29.717495799999934],[-52.328465799999954,-29.716678299999966],[-52.32667159999994,-29.714341599999955]]]}},{"type":"Feature","properties":{"setor":"431407605000004","pop":630,"sigilo_pop":false,"dom":289,"sigilo_dom":0,"mulheres":330,"sigilo_mulheres":0,"c0_4":27,"sigilo_c0_4":0,"c5_9":35,"sigilo_c5_9":0,"i60_69":82,"sigilo_i60_69":0,"i70m":67,"sigilo_i70m":0,"indigenas":0,"sigilo_indigenas":0,"pretos_pardos":65,"sigilo_pretos_pardos":0,"dom_ocupados":250,"sigilo_dom_ocupados":0,"dom_agua":182,"sigilo_dom_agua":0,"dom_esgoto":null,"sigilo_dom_esgoto":1,"renda_resp":2445.71,"sigilo_renda_resp":0,"n_resp":250,"sigilo_n_resp":0,"dens":44.3,"sigilo_dens":false,"na_bacia":1,"area_pct_bacia":100.0,"metodo_recorte_bacia":"ponto_representativo_setor_2022; area_pct_geometrica","pop_n_validos":1,"pop_n_total":1,"pop_completude":1.0,"dom_n_validos":1,"dom_n_total":1,"dom_completude":1.0,"dom_ocupados_n_validos":1,"dom_ocupados_n_total":1,"dom_ocupados_completude":1.0,"mulheres_n_validos":1,"mulheres_n_total":1,"mulheres_completude":1.0,"c0_4_n_validos":1,"c0_4_n_total":1,"c0_4_completude":1.0,"c5_9_n_validos":1,"c5_9_n_total":1,"c5_9_completude":1.0,"i60_69_n_validos":1,"i60_69_n_total":1,"i60_69_completude":1.0,"i70m_n_validos":1,"i70m_n_total":1,"i70m_completude":1.0,"indigenas_n_validos":1,"indigenas_n_total":1,"indigenas_completude":1.0,"pretos_pardos_n_validos":1,"pretos_pardos_n_total":1,"pretos_pardos_completude":1.0,"dom_agua_n_validos":1,"dom_agua_n_total":1,"dom_agua_completude":1.0,"dom_esgoto_n_validos":0,"dom_esgoto_n_total":1,"dom_esgoto_completude":0.0,"n_resp_n_validos":1,"n_resp_n_total":1,"n_resp_completude":1.0,"renda_resp_n_validos":1,"renda_resp_n_total":1,"renda_resp_completude":1.0,"dens_n_validos":1,"dens_n_total":1,"dens_completude":1.0,"status_borda_bacia":"total","metodo_area_bacia":"interseção geométrica em EPSG:5880","metodo_na_bacia":"ponto_representativo_setor_2022_within_bacia","municipio":"Passo do Sobrado","cod_mun":"4314076","mun_pct_na_bacia":62.6,"mun_pop_total":6025,"mun_pop_na_bacia":4128.0,"mun_ubs_iede":2,"mun_hospitais_iede":null,"mun_escolas_iede":1,"mun_bombeiros_iede":1,"mun_servicos_cobertura":"cadastro_IEDE_parcial_nao_inventario","mun_icm_faixa":"B","mun_icm_pontos":8,"mun_icm_prioritario":"não","mun_ubs_iede_status":"published","mun_hospitais_iede_status":"unknown","mun_escolas_iede_status":"published","mun_bombeiros_iede_status":"published"},"geometry":{"type":"Polygon","coordinates":[[[-52.298846499999975,-29.67456679999997],[-52.295516799999966,-29.677218399999955],[-52.29404809999994,-29.67694159999995],[-52.293802599999935,-29.677773599999966],[-52.29243089999994,-29.67695679999996],[-52.29213569999997,-29.678039899999934],[-52.28826589999994,-29.67977039999993],[-52.288462899999956,-29.681317899999947],[-52.28653839999998,-29.68031449999996],[-52.284798,-29.680890899999948],[-52.28478519999993,-29.681948699999964],[-52.28319349999998,-29.68118939999995],[-52.2808697,-29.68221989999995],[-52.28167819999993,-29.683221599999968],[-52.28121929999997,-29.684385499999966],[-52.27790249999998,-29.684261299999953],[-52.278452899999934,-29.68512889999994],[-52.27711859999994,-29.685209799999935],[-52.27681689999997,-29.686842899999935],[-52.275225199999966,-29.68699089999995],[-52.27453509999999,-29.689220499999976],[-52.275892099999965,-29.68987129999994],[-52.275053499999956,-29.69075329999998],[-52.27603579999993,-29.691257599999968],[-52.27624059999994,-29.693122799999983],[-52.274638299999935,-29.695457799999925],[-52.27380939999995,-29.69479759999995],[-52.273206799999976,-29.69565019999993],[-52.27338829999997,-29.6954431],[-52.274916899999944,-29.69623889999997],[-52.278541,-29.69945409999997],[-52.28099529999998,-29.701151899999957],[-52.279991299999956,-29.70254009999997],[-52.28481659999994,-29.708340799999974],[-52.285711,-29.708718399999956],[-52.28625619999996,-29.71048249999995],[-52.28769279999994,-29.712092799999944],[-52.289379599999954,-29.712772],[-52.29008109999995,-29.71414049999994],[-52.291477499999985,-29.71454569999997],[-52.29232749999994,-29.71447579999994],[-52.292828,-29.713871699999956],[-52.29500359999997,-29.713517399999937],[-52.29585509999998,-29.713630199999958],[-52.296549899999945,-29.712850099999955],[-52.297033,-29.71278639999998],[-52.29810649999996,-29.714239199999955],[-52.30111979999999,-29.71343909999996],[-52.30169779999994,-29.713751099999968],[-52.30206549999997,-29.714370399999954],[-52.312291699999946,-29.710111199999968],[-52.323508,-29.716641299999928],[-52.32667159999994,-29.714341599999955],[-52.32680229999994,-29.714485799999977],[-52.32598139999993,-29.71316129999997],[-52.324935899999964,-29.71299479999994],[-52.32392609999994,-29.713348599999954],[-52.322872,-29.71189839999995],[-52.32084659999998,-29.711471599999978],[-52.3202146,-29.711081699999962],[-52.319445599999945,-29.70972809999995],[-52.31798689999994,-29.709512099999987],[-52.31453179999994,-29.707874799999963],[-52.31359679999998,-29.70482],[-52.313754199999956,-29.704305499999972],[-52.31422109999994,-29.70427819999998],[-52.314677899999936,-29.70385809999993],[-52.314613,-29.703106499999926],[-52.31486229999996,-29.702917099999983],[-52.31509459999996,-29.70188259999997],[-52.31702169999994,-29.70004459999995],[-52.3173384,-29.699323299999946],[-52.31723869999996,-29.69896819999997],[-52.31761669999997,-29.698584199999967],[-52.31759129999995,-29.698064199999973],[-52.31849519999997,-29.696298799999962],[-52.31838859999994,-29.69210059999995],[-52.31769049999996,-29.691364799999967],[-52.31763759999996,-29.690768499999926],[-52.317281199999975,-29.690428199999932],[-52.317741799999965,-29.687892099999942],[-52.31745609999996,-29.687114],[-52.31816989999999,-29.685823399999943],[-52.318813199999965,-29.68535359999994],[-52.318779,-29.684045199999957],[-52.317145899999964,-29.682650799999976],[-52.31636919999993,-29.682531599999948],[-52.31521589999995,-29.680416699999967],[-52.314297099999976,-29.680162599999946],[-52.31381239999997,-29.68024],[-52.31185709999995,-29.678104499999957],[-52.31139309999997,-29.67808089999993],[-52.30930179999996,-29.6770155],[-52.30794059999994,-29.67671609999996],[-52.306126899999974,-29.676759099999966],[-52.30392329999995,-29.67551079999997],[-52.302191,-29.67504439999993],[-52.301663,-29.674641399999924],[-52.300924799999954,-29.674549299999963],[-52.30052969999997,-29.67418329999999],[-52.29950629999996,-29.674764499999984],[-52.298846499999975,-29.67456679999997]]]}},{"type":"Feature","properties":{"setor":"431407605000005","pop":304,"sigilo_pop":false,"dom":170,"sigilo_dom":0,"mulheres":152,"sigilo_mulheres":0,"c0_4":18,"sigilo_c0_4":0,"c5_9":12,"sigilo_c5_9":0,"i60_69":50,"sigilo_i60_69":0,"i70m":24,"sigilo_i70m":0,"indigenas":0,"sigilo_indigenas":0,"pretos_pardos":20,"sigilo_pretos_pardos":0,"dom_ocupados":119,"sigilo_dom_ocupados":0,"dom_agua":47,"sigilo_dom_agua":0,"dom_esgoto":3,"sigilo_dom_esgoto":0,"renda_resp":2746.98,"sigilo_renda_resp":0,"n_resp":119,"sigilo_n_resp":0,"dens":7.5,"sigilo_dens":false,"na_bacia":1,"area_pct_bacia":100.0,"metodo_recorte_bacia":"ponto_representativo_setor_2022; area_pct_geometrica","pop_n_validos":1,"pop_n_total":1,"pop_completude":1.0,"dom_n_validos":1,"dom_n_total":1,"dom_completude":1.0,"dom_ocupados_n_validos":1,"dom_ocupados_n_total":1,"dom_ocupados_completude":1.0,"mulheres_n_validos":1,"mulheres_n_total":1,"mulheres_completude":1.0,"c0_4_n_validos":1,"c0_4_n_total":1,"c0_4_completude":1.0,"c5_9_n_validos":1,"c5_9_n_total":1,"c5_9_completude":1.0,"i60_69_n_validos":1,"i60_69_n_total":1,"i60_69_completude":1.0,"i70m_n_validos":1,"i70m_n_total":1,"i70m_completude":1.0,"indigenas_n_validos":1,"indigenas_n_total":1,"indigenas_completude":1.0,"pretos_pardos_n_validos":1,"pretos_pardos_n_total":1,"pretos_pardos_completude":1.0,"dom_agua_n_validos":1,"dom_agua_n_total":1,"dom_agua_completude":1.0,"dom_esgoto_n_validos":1,"dom_esgoto_n_total":1,"dom_esgoto_completude":1.0,"n_resp_n_validos":1,"n_resp_n_total":1,"n_resp_completude":1.0,"renda_resp_n_validos":1,"renda_resp_n_total":1,"renda_resp_completude":1.0,"dens_n_validos":1,"dens_n_total":1,"dens_completude":1.0,"status_borda_bacia":"total","metodo_area_bacia":"interseção geométrica em EPSG:5880","metodo_na_bacia":"ponto_representativo_setor_2022_within_bacia","municipio":"Passo do Sobrado","cod_mun":"4314076","mun_pct_na_bacia":62.6,"mun_pop_total":6025,"mun_pop_na_bacia":4128.0,"mun_ubs_iede":2,"mun_hospitais_iede":null,"mun_escolas_iede":1,"mun_bombeiros_iede":1,"mun_servicos_cobertura":"cadastro_IEDE_parcial_nao_inventario","mun_icm_faixa":"B","mun_icm_pontos":8,"mun_icm_prioritario":"não","mun_ubs_iede_status":"published","mun_hospitais_iede_status":"unknown","mun_escolas_iede_status":"published","mun_bombeiros_iede_status":"published"},"geometry":{"type":"Polygon","coordinates":[[[-52.194924499999956,-29.66907469999996],[-52.191341499999965,-29.670004399999982],[-52.188837699999965,-29.668128499999966],[-52.18857509999998,-29.669925199999966],[-52.191341099999924,-29.670126299999936],[-52.196567699999946,-29.669979],[-52.19900709999997,-29.66979809999998],[-52.199994299999965,-29.6739],[-52.199698299999966,-29.67801],[-52.199998299999955,-29.68024409999998],[-52.209482399999956,-29.704220699999944],[-52.20383879999997,-29.70598119999994],[-52.216675,-29.729211399999947],[-52.22421349999996,-29.725249799999958],[-52.23121569999996,-29.737906399999925],[-52.23837779999997,-29.743960699999946],[-52.24135629999996,-29.74842439999997],[-52.25063369999999,-29.754916399999953],[-52.25197559999998,-29.758006699999957],[-52.25329689999995,-29.75807459999993],[-52.25573689999994,-29.757559],[-52.270469,-29.755647599999982],[-52.26564319999994,-29.743868599999928],[-52.26857149999995,-29.741683899999945],[-52.27223249999997,-29.73285369999997],[-52.272266299999956,-29.722561599999946],[-52.273337399999946,-29.707529699999956],[-52.27392359999994,-29.706642699999975],[-52.27577539999998,-29.705268299999943],[-52.27894759999998,-29.703922899999945],[-52.28099529999998,-29.701151899999957],[-52.278541,-29.69945409999997],[-52.274916899999944,-29.69623889999997],[-52.27338829999997,-29.6954431],[-52.272896599999974,-29.696088099999947],[-52.271095799999955,-29.696785199999958],[-52.27201089999994,-29.69807969999993],[-52.26928209999994,-29.697634599999954],[-52.269934399999954,-29.698527],[-52.268226399999946,-29.69850919999992],[-52.26913149999996,-29.69906129999998],[-52.26885679999998,-29.699713399999947],[-52.26738469999999,-29.69907909999995],[-52.26662459999994,-29.699892599999938],[-52.26554489999995,-29.698860199999963],[-52.26307829999996,-29.70094919999997],[-52.262422899999926,-29.702100499999965],[-52.2601,-29.702380299999962],[-52.25426179999994,-29.69701639999994],[-52.249753699999985,-29.696977699999945],[-52.249473,-29.695162899999957],[-52.24708839999994,-29.69674579999996],[-52.24385529999995,-29.696955499999937],[-52.2424721,-29.694195399999966],[-52.240227499999946,-29.69360819999997],[-52.23948579999996,-29.691753899999977],[-52.235411099999965,-29.689580199999963],[-52.234765399999965,-29.68720489999998],[-52.23318629999994,-29.686333399999967],[-52.233071199999976,-29.684112199999962],[-52.231877,-29.68326919999998],[-52.233169199999956,-29.681755],[-52.231152099999974,-29.679584199999958],[-52.230304099999955,-29.67650369999996],[-52.22403949999995,-29.67599059999998],[-52.223951599999964,-29.674936],[-52.22209049999998,-29.67389629999996],[-52.22274279999994,-29.672702799999968],[-52.220707,-29.671204499999927],[-52.22046369999998,-29.670174799999984],[-52.21834279999996,-29.66940859999993],[-52.216392499999984,-29.670268],[-52.21418859999994,-29.668761899999936],[-52.21190489999998,-29.668962],[-52.21003549999994,-29.666363599999958],[-52.207187,-29.66672649999998],[-52.20618459999998,-29.66773479999995],[-52.20415429999997,-29.66739619999992],[-52.204511199999956,-29.669524099999933],[-52.202950099999946,-29.668943799999976],[-52.201018799999986,-29.670416599999957],[-52.19963689999997,-29.669060299999952],[-52.197593899999966,-29.66891259999994],[-52.19655119999993,-29.669910299999966],[-52.194924499999956,-29.66907469999996]]]}},{"type":"Feature","properties":{"setor":"431407605000006","pop":276,"sigilo_pop":false,"dom":150,"sigilo_dom":false,"mulheres":136,"sigilo_mulheres":false,"c0_4":14,"sigilo_c0_4":false,"c5_9":16,"sigilo_c5_9":false,"i60_69":38,"sigilo_i60_69":false,"i70m":20,"sigilo_i70m":false,"indigenas":0,"sigilo_indigenas":false,"pretos_pardos":21,"sigilo_pretos_pardos":false,"dom_ocupados":109,"sigilo_dom_ocupados":false,"dom_agua":46,"sigilo_dom_agua":false,"dom_esgoto":0,"sigilo_dom_esgoto":false,"renda_resp":3038.3,"sigilo_renda_resp":false,"n_resp":109,"sigilo_n_resp":false,"dens":11.7,"sigilo_dens":false,"na_bacia":0,"area_pct_bacia":7.9363,"metodo_recorte_bacia":"ponto_representativo_setor_2022; area_pct_geometrica","status_borda_bacia":"parcial","metodo_area_bacia":"interseção geométrica em EPSG:5880","metodo_na_bacia":"ponto_representativo_setor_2022_within_bacia","pop_n_validos":1,"pop_n_total":1,"pop_completude":1.0,"dom_n_validos":1,"dom_n_total":1,"dom_completude":1.0,"dom_ocupados_n_validos":1,"dom_ocupados_n_total":1,"dom_ocupados_completude":1.0,"mulheres_n_validos":1,"mulheres_n_total":1,"mulheres_completude":1.0,"c0_4_n_validos":1,"c0_4_n_total":1,"c0_4_completude":1.0,"c5_9_n_validos":1,"c5_9_n_total":1,"c5_9_completude":1.0,"i60_69_n_validos":1,"i60_69_n_total":1,"i60_69_completude":1.0,"i70m_n_validos":1,"i70m_n_total":1,"i70m_completude":1.0,"indigenas_n_validos":1,"indigenas_n_total":1,"indigenas_completude":1.0,"pretos_pardos_n_validos":1,"pretos_pardos_n_total":1,"pretos_pardos_completude":1.0,"dom_agua_n_validos":1,"dom_agua_n_total":1,"dom_agua_completude":1.0,"dom_esgoto_n_validos":1,"dom_esgoto_n_total":1,"dom_esgoto_completude":1.0,"n_resp_n_validos":1,"n_resp_n_total":1,"n_resp_completude":1.0,"renda_resp_n_validos":1,"renda_resp_n_total":1,"renda_resp_completude":1.0,"dens_n_validos":1,"dens_n_total":1,"dens_completude":1.0},"geometry":{"type":"Polygon","coordinates":[[[-52.224347199999954,-29.772441],[-52.23261219999995,-29.775400799999947],[-52.22832969999996,-29.784139899999953],[-52.222192,-29.785200199999963],[-52.223355899999945,-29.786064599999964],[-52.224331199999945,-29.78744009999997],[-52.224288299999955,-29.788985],[-52.224604599999964,-29.790943199999962],[-52.22691339999994,-29.79671489999998],[-52.22849949999994,-29.806191899999924],[-52.225574,-29.806778899999973],[-52.22222549999998,-29.80863849999996],[-52.221699099999974,-29.809051],[-52.22161219999999,-29.809446299999937],[-52.222707299999975,-29.811924599999944],[-52.22427579999999,-29.817428699999933],[-52.22434889999994,-29.818432499999968],[-52.22752579999997,-29.82076029999996],[-52.230085199999955,-29.82298749999995],[-52.230881899999986,-29.824173299999984],[-52.23065639999999,-29.826427],[-52.23084809999995,-29.828049],[-52.23001809999994,-29.831949],[-52.229998499999965,-29.834697699999932],[-52.228247599999975,-29.840587399999947],[-52.22954459999994,-29.840643399999976],[-52.24312119999996,-29.84809489999998],[-52.253622099999966,-29.850344599999975],[-52.261247399999945,-29.85801309999995],[-52.261909599999974,-29.857178799999932],[-52.26146919999996,-29.856929599999944],[-52.261528699999985,-29.85535169999996],[-52.26128979999998,-29.855072099999965],[-52.26142609999994,-29.854853499999937],[-52.26189559999995,-29.854892399999983],[-52.26208679999996,-29.854615399999947],[-52.26228759999998,-29.854285399999977],[-52.26208649999996,-29.853791],[-52.26240359999998,-29.85338879999996],[-52.26221739999994,-29.85258129999994],[-52.26169669999995,-29.852137299999978],[-52.26205369999997,-29.851638799999932],[-52.261561899999954,-29.851724599999955],[-52.261607599999934,-29.851415599999935],[-52.26218239999997,-29.851168199999957],[-52.26280689999999,-29.850156699999946],[-52.26252969999995,-29.849336299999933],[-52.26299679999995,-29.84857559999994],[-52.26347,-29.84883009999994],[-52.26362829999993,-29.84739319999995],[-52.26387489999996,-29.847255399999934],[-52.264203899999984,-29.847447799999944],[-52.26438559999997,-29.847258099999983],[-52.264476,-29.846427],[-52.26541679999997,-29.84531549999997],[-52.265449399999966,-29.84417019999994],[-52.264842699999974,-29.84268979999995],[-52.26512519999995,-29.842059299999956],[-52.26596719999997,-29.84136529999994],[-52.26526,-29.84133109999993],[-52.263409699999954,-29.842041199999983],[-52.263294,-29.841350599999952],[-52.26295669999996,-29.841351699999947],[-52.26286479999993,-29.841808599999982],[-52.262621199999955,-29.841831099999975],[-52.26242579999995,-29.841513599999928],[-52.2618978,-29.841563599999972],[-52.26222469999993,-29.840543899999936],[-52.26143149999996,-29.83968959999993],[-52.260606,-29.839489699999937],[-52.26056169999998,-29.83881509999997],[-52.26004569999998,-29.83845669999993],[-52.25988069999994,-29.837584299999946],[-52.25881389999994,-29.83729419999997],[-52.25836639999994,-29.83747139999996],[-52.256749799999966,-29.837405599999958],[-52.25665429999998,-29.836987399999938],[-52.25646219999993,-29.836976],[-52.25657059999998,-29.836601299999966],[-52.25518239999996,-29.836337199999942],[-52.25454849999995,-29.835994899999942],[-52.25427129999997,-29.835238299999958],[-52.25388909999998,-29.83497829999994],[-52.253565099999946,-29.835043199999976],[-52.25345949999996,-29.834692],[-52.25295269999998,-29.834691199999945],[-52.253432499999974,-29.834307499999955],[-52.25555459999999,-29.834008199999975],[-52.25599289999997,-29.833645099999952],[-52.25757889999995,-29.82976789999998],[-52.258310499999936,-29.825448199999983],[-52.25802759999994,-29.825110799999948],[-52.255765199999985,-29.82438],[-52.255199499999954,-29.823898899999946],[-52.255138,-29.818712499999958],[-52.25492569999994,-29.818233699999954],[-52.25352849999996,-29.81768709999994],[-52.250271899999966,-29.817896199999943],[-52.249522,-29.817714499999973],[-52.249534299999944,-29.80711629999996],[-52.249033499999946,-29.80271069999998],[-52.24824619999998,-29.79876419999994],[-52.24785869999994,-29.798880299999944],[-52.24626169999994,-29.795949499999953],[-52.247283799999934,-29.794104299999947],[-52.246564199999966,-29.787440699999937],[-52.24702279999997,-29.786475899999985],[-52.24686239999995,-29.784507199999954],[-52.247085099999936,-29.784103199999947],[-52.24762339999995,-29.783902499999957],[-52.24987619999997,-29.784280399999943],[-52.252706599999954,-29.785238],[-52.25432809999995,-29.784994799999925],[-52.255659099999946,-29.784506799999974],[-52.261945399999945,-29.784308299999967],[-52.262982,-29.782634299999973],[-52.258243,-29.779260199999957],[-52.25211279999996,-29.77533319999997],[-52.24774469999994,-29.774134599999986],[-52.246960399999985,-29.77124309999994],[-52.24598769999994,-29.769248099999963],[-52.246014799999955,-29.766451799999963],[-52.24628039999993,-29.76606119999996],[-52.247651099999985,-29.765280099999977],[-52.24795349999994,-29.76484009999995],[-52.24626859999996,-29.76344109999996],[-52.25293329999994,-29.759504899999953],[-52.252434799999946,-29.758074399999934],[-52.25176049999994,-29.75776489999998],[-52.250765599999966,-29.75504859999994],[-52.24999319999995,-29.754474099999975],[-52.23712389999997,-29.763232],[-52.23484619999994,-29.765576799999963],[-52.23370179999995,-29.766020399999945],[-52.23178739999997,-29.76605919999998],[-52.23083089999994,-29.76639879999993],[-52.227584,-29.770584899999967],[-52.224347199999954,-29.772441]]]}},{"type":"Feature","properties":{"setor":"431407605000007","pop":423,"sigilo_pop":false,"dom":196,"sigilo_dom":false,"mulheres":220,"sigilo_mulheres":false,"c0_4":21,"sigilo_c0_4":false,"c5_9":20,"sigilo_c5_9":false,"i60_69":55,"sigilo_i60_69":false,"i70m":39,"sigilo_i70m":false,"indigenas":0,"sigilo_indigenas":false,"pretos_pardos":26,"sigilo_pretos_pardos":false,"dom_ocupados":166,"sigilo_dom_ocupados":false,"dom_agua":131,"sigilo_dom_agua":false,"dom_esgoto":null,"sigilo_dom_esgoto":true,"renda_resp":2724.55,"sigilo_renda_resp":false,"n_resp":166,"sigilo_n_resp":false,"dens":27.2,"sigilo_dens":false,"na_bacia":0,"area_pct_bacia":23.4785,"metodo_recorte_bacia":"ponto_representativo_setor_2022; area_pct_geometrica","status_borda_bacia":"parcial","metodo_area_bacia":"interseção geométrica em EPSG:5880","metodo_na_bacia":"ponto_representativo_setor_2022_within_bacia","pop_n_validos":1,"pop_n_total":1,"pop_completude":1.0,"dom_n_validos":1,"dom_n_total":1,"dom_completude":1.0,"dom_ocupados_n_validos":1,"dom_ocupados_n_total":1,"dom_ocupados_completude":1.0,"mulheres_n_validos":1,"mulheres_n_total":1,"mulheres_completude":1.0,"c0_4_n_validos":1,"c0_4_n_total":1,"c0_4_completude":1.0,"c5_9_n_validos":1,"c5_9_n_total":1,"c5_9_completude":1.0,"i60_69_n_validos":1,"i60_69_n_total":1,"i60_69_completude":1.0,"i70m_n_validos":1,"i70m_n_total":1,"i70m_completude":1.0,"indigenas_n_validos":1,"indigenas_n_total":1,"indigenas_completude":1.0,"pretos_pardos_n_validos":1,"pretos_pardos_n_total":1,"pretos_pardos_completude":1.0,"dom_agua_n_validos":1,"dom_agua_n_total":1,"dom_agua_completude":1.0,"dom_esgoto_n_validos":0,"dom_esgoto_n_total":1,"dom_esgoto_completude":0.0,"n_resp_n_validos":1,"n_resp_n_total":1,"n_resp_completude":1.0,"renda_resp_n_validos":1,"renda_resp_n_total":1,"renda_resp_completude":1.0,"dens_n_validos":1,"dens_n_total":1,"dens_completude":1.0},"geometry":{"type":"Polygon","coordinates":[[[-52.252434799999946,-29.758074399999934],[-52.25286689999996,-29.75961349999994],[-52.24626859999996,-29.76344109999996],[-52.24795349999994,-29.76484009999995],[-52.247651099999985,-29.765280099999977],[-52.24628039999993,-29.76606119999996],[-52.246014799999955,-29.766451799999963],[-52.24598769999994,-29.769248099999963],[-52.246960399999985,-29.77124309999994],[-52.24774469999994,-29.774134599999986],[-52.25211279999996,-29.77533319999997],[-52.258243,-29.779260199999957],[-52.262982,-29.782634299999973],[-52.261945399999945,-29.784308299999967],[-52.255659099999946,-29.784506799999974],[-52.25432809999995,-29.784994799999925],[-52.252706599999954,-29.785238],[-52.24987619999997,-29.784280399999943],[-52.24762339999995,-29.783902499999957],[-52.247085099999936,-29.784103199999947],[-52.24686239999995,-29.784507199999954],[-52.24702279999997,-29.786475899999985],[-52.246564199999966,-29.787440699999937],[-52.247283799999934,-29.794104299999947],[-52.246298099999926,-29.795682799999962],[-52.24628139999999,-29.796120499999976],[-52.24785869999994,-29.798880299999944],[-52.24824619999998,-29.79876419999994],[-52.249033499999946,-29.80271069999998],[-52.249534299999944,-29.80711629999996],[-52.249522,-29.817714499999973],[-52.250271899999966,-29.817896199999943],[-52.25352849999996,-29.81768709999994],[-52.25492569999994,-29.818233699999954],[-52.255138,-29.818712499999958],[-52.255199499999954,-29.823898899999946],[-52.255765199999985,-29.82438],[-52.25802759999994,-29.825110799999948],[-52.258310499999936,-29.825448199999983],[-52.25757889999995,-29.82976789999998],[-52.25599289999997,-29.833645099999952],[-52.25555459999999,-29.834008199999975],[-52.253432499999974,-29.834307499999955],[-52.25295269999998,-29.834691199999945],[-52.25345949999996,-29.834692],[-52.253565099999946,-29.835043199999976],[-52.25388909999998,-29.83497829999994],[-52.25427129999997,-29.835238299999958],[-52.25454849999995,-29.835994899999942],[-52.25518239999996,-29.836337199999942],[-52.25657059999998,-29.836601299999966],[-52.25646219999993,-29.836976],[-52.25665429999998,-29.836987399999938],[-52.256749799999966,-29.837405599999958],[-52.25836639999994,-29.83747139999996],[-52.25881389999994,-29.83729419999997],[-52.25988069999994,-29.837584299999946],[-52.26004569999998,-29.83845669999993],[-52.26056169999998,-29.83881509999997],[-52.260606,-29.839489699999937],[-52.26143149999996,-29.83968959999993],[-52.26222469999993,-29.840543899999936],[-52.2618978,-29.841563599999972],[-52.26242579999995,-29.841513599999928],[-52.262621199999955,-29.841831099999975],[-52.26286479999993,-29.841808599999982],[-52.26295669999996,-29.841351699999947],[-52.263294,-29.841350599999952],[-52.263409699999954,-29.842041199999983],[-52.26526,-29.84133109999993],[-52.26596719999997,-29.84136529999994],[-52.26613469999995,-29.840862899999916],[-52.26583439999996,-29.8405425],[-52.26630589999996,-29.840602699999963],[-52.2662246,-29.84008649999998],[-52.26555829999995,-29.839900899999975],[-52.265502099999935,-29.83866489999996],[-52.26557089999994,-29.838401299999934],[-52.26593459999999,-29.838548299999967],[-52.266279699999984,-29.838412399999967],[-52.266028,-29.83756859999992],[-52.266408,-29.83715239999998],[-52.26647889999999,-29.83630619999997],[-52.26628089999997,-29.83498409999993],[-52.26581259999995,-29.834937399999934],[-52.26560909999995,-29.834313399999925],[-52.265847899999976,-29.83345849999995],[-52.266939699999966,-29.832669899999924],[-52.266968,-29.83236009999996],[-52.26558159999996,-29.83193919999997],[-52.26559139999994,-29.831654],[-52.26610819999997,-29.831458899999966],[-52.266093699999935,-29.83118329999996],[-52.265236399999935,-29.830605699999982],[-52.26551879999994,-29.82971609999992],[-52.265313499999934,-29.82906409999999],[-52.26504259999996,-29.829025599999976],[-52.26494089999994,-29.828135699999947],[-52.26462249999997,-29.827960499999953],[-52.265429,-29.82765019999994],[-52.26507479999998,-29.82750529999992],[-52.264940399999944,-29.82686029999997],[-52.26477019999998,-29.826763699999955],[-52.26399559999994,-29.82724569999993],[-52.263584,-29.827232399999957],[-52.263468,-29.827019199999942],[-52.26408319999996,-29.82651069999998],[-52.26368219999995,-29.826422799999932],[-52.26394959999993,-29.82587529999994],[-52.263769399999944,-29.825415499999966],[-52.26468559999995,-29.825391],[-52.264547499999935,-29.824916899999955],[-52.26524429999995,-29.825012599999965],[-52.26541149999997,-29.82482919999994],[-52.26496819999994,-29.824645799999924],[-52.26529769999996,-29.82438279999997],[-52.26504969999996,-29.823804],[-52.265355,-29.823516799999936],[-52.26450229999995,-29.82302209999994],[-52.264064799999964,-29.82305689999998],[-52.26399219999996,-29.82252409999995],[-52.26462069999997,-29.821371699999933],[-52.26410819999995,-29.821131099999942],[-52.264098099999956,-29.820850699999927],[-52.263586499999974,-29.820943199999924],[-52.26395649999995,-29.820502499999968],[-52.26344439999997,-29.820419299999966],[-52.26361049999998,-29.819813],[-52.262964,-29.819744699999955],[-52.26289869999994,-29.819147399999956],[-52.263144799999964,-29.81876419999998],[-52.26281469999998,-29.81765069999995],[-52.263832399999956,-29.814767299999964],[-52.26364579999995,-29.81438909999997],[-52.26380659999996,-29.813924099999944],[-52.26439989999995,-29.81367789999997],[-52.264447,-29.813136],[-52.26494479999997,-29.812504],[-52.26537369999995,-29.812675199999948],[-52.265321,-29.81224389999994],[-52.26498879999997,-29.811945399999956],[-52.265342299999986,-29.811486799999948],[-52.26553929999994,-29.81054779999994],[-52.266127299999944,-29.809860399999938],[-52.267065,-29.80971709999995],[-52.26633179999993,-29.809360799999986],[-52.26699759999997,-29.808855699999977],[-52.26717879999996,-29.80697929999996],[-52.26675759999995,-29.806542699999973],[-52.26702279999995,-29.806062699999988],[-52.26658639999993,-29.805389],[-52.26609149999996,-29.80568],[-52.26547839999996,-29.805185099999957],[-52.26582909999996,-29.804951199999945],[-52.26521509999998,-29.80445739999993],[-52.265215,-29.803706199999965],[-52.26431219999996,-29.803890799999973],[-52.26442579999997,-29.80348329999998],[-52.26405609999995,-29.803363799999946],[-52.264108599999986,-29.802738099999942],[-52.264469599999984,-29.802770499999955],[-52.26503909999997,-29.80230079999994],[-52.26495529999994,-29.801171],[-52.26441909999994,-29.80032239999996],[-52.26469269999996,-29.800105599999934],[-52.26516579999998,-29.80013049999996],[-52.26492179999997,-29.799215199999935],[-52.265128699999934,-29.79855809999997],[-52.26495339999997,-29.798041899999916],[-52.264219099999934,-29.79769469999997],[-52.26432029999995,-29.797382899999945],[-52.26410189999996,-29.797167299999952],[-52.26363349999997,-29.797169399999973],[-52.26342379999995,-29.79678709999995],[-52.26342519999997,-29.796465],[-52.263697099999945,-29.796385599999958],[-52.263033,-29.795641099999962],[-52.26326969999996,-29.795248899999933],[-52.26364159999997,-29.795204599999984],[-52.263735199999985,-29.794277199999947],[-52.26269369999994,-29.792446],[-52.26248179999993,-29.791596],[-52.26262529999997,-29.791468599999963],[-52.26288119999998,-29.791651299999955],[-52.26315779999993,-29.791307399999948],[-52.26344679999994,-29.791292899999974],[-52.263655899999954,-29.790657499999952],[-52.26424229999997,-29.790642099999957],[-52.26440409999998,-29.790956899999962],[-52.26465619999993,-29.79078709999992],[-52.26472589999997,-29.79064229999994],[-52.26429349999995,-29.79038629999996],[-52.26451079999998,-29.7900011],[-52.264991,-29.789900099999958],[-52.26477619999997,-29.78955189999994],[-52.265159799999935,-29.789619299999966],[-52.265898199999974,-29.789161699999955],[-52.26674189999994,-29.789556499999943],[-52.26741169999997,-29.789115099999943],[-52.26793019999997,-29.789721099999955],[-52.2682645,-29.789453099999946],[-52.26921379999993,-29.789428499999925],[-52.27006439999997,-29.789941499999937],[-52.27041429999998,-29.790584499999962],[-52.27212979999996,-29.791089699999926],[-52.27371249999994,-29.790810799999978],[-52.273933599999964,-29.79059439999997],[-52.275325399999986,-29.79088019999995],[-52.277482,-29.789341199999978],[-52.27755,-29.787194599999964],[-52.276752699999975,-29.784162499999983],[-52.271504099999966,-29.779679899999955],[-52.273346,-29.778573299999948],[-52.27656909999996,-29.775473099999946],[-52.27653139999995,-29.773267099999945],[-52.27580889999996,-29.77157819999995],[-52.27628019999998,-29.765917599999963],[-52.276120599999956,-29.76424929999995],[-52.275279,-29.758710099999966],[-52.271045,-29.75922],[-52.270469,-29.755647599999982],[-52.252434799999946,-29.758074399999934]]]}},{"type":"Feature","properties":{"setor":"431407605000008","pop":365,"sigilo_pop":false,"dom":165,"sigilo_dom":false,"mulheres":184,"sigilo_mulheres":false,"c0_4":14,"sigilo_c0_4":false,"c5_9":30,"sigilo_c5_9":false,"i60_69":52,"sigilo_i60_69":false,"i70m":40,"sigilo_i70m":false,"indigenas":0,"sigilo_indigenas":false,"pretos_pardos":38,"sigilo_pretos_pardos":false,"dom_ocupados":137,"sigilo_dom_ocupados":false,"dom_agua":104,"sigilo_dom_agua":false,"dom_esgoto":0,"sigilo_dom_esgoto":false,"renda_resp":2008.44,"sigilo_renda_resp":false,"n_resp":137,"sigilo_n_resp":false,"dens":34.4,"sigilo_dens":false,"na_bacia":0,"area_pct_bacia":0.0,"metodo_recorte_bacia":"ponto_representativo_setor_2022; area_pct_geometrica","status_borda_bacia":"total","metodo_area_bacia":"interseção geométrica em EPSG:5880","metodo_na_bacia":"ponto_representativo_setor_2022_within_bacia","pop_n_validos":1,"pop_n_total":1,"pop_completude":1.0,"dom_n_validos":1,"dom_n_total":1,"dom_completude":1.0,"dom_ocupados_n_validos":1,"dom_ocupados_n_total":1,"dom_ocupados_completude":1.0,"mulheres_n_validos":1,"mulheres_n_total":1,"mulheres_completude":1.0,"c0_4_n_validos":1,"c0_4_n_total":1,"c0_4_completude":1.0,"c5_9_n_validos":1,"c5_9_n_total":1,"c5_9_completude":1.0,"i60_69_n_validos":1,"i60_69_n_total":1,"i60_69_completude":1.0,"i70m_n_validos":1,"i70m_n_total":1,"i70m_completude":1.0,"indigenas_n_validos":1,"indigenas_n_total":1,"indigenas_completude":1.0,"pretos_pardos_n_validos":1,"pretos_pardos_n_total":1,"pretos_pardos_completude":1.0,"dom_agua_n_validos":1,"dom_agua_n_total":1,"dom_agua_completude":1.0,"dom_esgoto_n_validos":1,"dom_esgoto_n_total":1,"dom_esgoto_completude":1.0,"n_resp_n_validos":1,"n_resp_n_total":1,"n_resp_completude":1.0,"renda_resp_n_validos":1,"renda_resp_n_total":1,"renda_resp_completude":1.0,"dens_n_validos":1,"dens_n_total":1,"dens_completude":1.0},"geometry":{"type":"Polygon","coordinates":[[[-52.26435539999994,-29.82163109999993],[-52.278300299999955,-29.822492299999965],[-52.27859589999998,-29.820214399999944],[-52.289468399999976,-29.820617799999983],[-52.29238669999995,-29.818921199999973],[-52.29413889999995,-29.821110699999963],[-52.295781699999964,-29.8220032],[-52.29759969999997,-29.822433399999976],[-52.29839789999994,-29.82299569999997],[-52.29890529999995,-29.825259399999943],[-52.30222429999998,-29.825190299999978],[-52.30337189999995,-29.826061399999958],[-52.30506159999993,-29.826876499999962],[-52.30670409999993,-29.82979309999995],[-52.309104799999936,-29.830281799999955],[-52.31007409999995,-29.829877799999963],[-52.314342199999935,-29.83107209999997],[-52.31408979999998,-29.829337699999936],[-52.313084799999956,-29.82734209999995],[-52.31409579999997,-29.824355399999938],[-52.31393249999997,-29.82146889999995],[-52.315337699999986,-29.816558399999945],[-52.310567499999934,-29.81528189999994],[-52.30841429999999,-29.81434909999996],[-52.302247,-29.813290299999952],[-52.29992809999994,-29.81310249999995],[-52.291616099999935,-29.808284499999957],[-52.28728579999995,-29.80421409999997],[-52.28557639999997,-29.800968],[-52.28313239999994,-29.79860949999995],[-52.28225149999998,-29.796773099999953],[-52.28069229999995,-29.79466009999993],[-52.276214,-29.79202239999995],[-52.27623889999996,-29.791177799999954],[-52.277482,-29.789341199999978],[-52.275325399999986,-29.79088019999995],[-52.273933599999964,-29.79059439999997],[-52.27371249999994,-29.790810799999978],[-52.27212979999996,-29.791089699999926],[-52.27041429999998,-29.790584499999962],[-52.27006439999997,-29.789941499999937],[-52.26921379999993,-29.789428499999925],[-52.2682645,-29.789453099999946],[-52.26793019999997,-29.789721099999955],[-52.26741169999997,-29.789115099999943],[-52.26674189999994,-29.789556499999943],[-52.265898199999974,-29.789161699999955],[-52.265159799999935,-29.789619299999966],[-52.26477619999997,-29.78955189999994],[-52.264991,-29.789900099999958],[-52.26451079999998,-29.7900011],[-52.26429349999995,-29.79038629999996],[-52.26472589999997,-29.79064229999994],[-52.26465619999993,-29.79078709999992],[-52.26440409999998,-29.790956899999962],[-52.26424229999997,-29.790642099999957],[-52.263655899999954,-29.790657499999952],[-52.26344679999994,-29.791292899999974],[-52.26315779999993,-29.791307399999948],[-52.26288119999998,-29.791651299999955],[-52.26262529999997,-29.791468599999963],[-52.26248179999993,-29.791596],[-52.26269369999994,-29.792446],[-52.263735199999985,-29.794277199999947],[-52.26364159999997,-29.795204599999984],[-52.26326969999996,-29.795248899999933],[-52.263033,-29.795641099999962],[-52.263697099999945,-29.796385599999958],[-52.26342519999997,-29.796465],[-52.26342379999995,-29.79678709999995],[-52.26363349999997,-29.797169399999973],[-52.26410189999996,-29.797167299999952],[-52.26432029999995,-29.797382899999945],[-52.264219099999934,-29.79769469999997],[-52.26495339999997,-29.798041899999916],[-52.265128699999934,-29.79855809999997],[-52.26492179999997,-29.799215199999935],[-52.26516579999998,-29.80013049999996],[-52.26469269999996,-29.800105599999934],[-52.26441909999994,-29.80032239999996],[-52.26495529999994,-29.801171],[-52.26503909999997,-29.80230079999994],[-52.264469599999984,-29.802770499999955],[-52.264108599999986,-29.802738099999942],[-52.26405609999995,-29.803363799999946],[-52.26442579999997,-29.80348329999998],[-52.26431219999996,-29.803890799999973],[-52.265215,-29.803706199999965],[-52.26521509999998,-29.80445739999993],[-52.26582909999996,-29.804951199999945],[-52.26547839999996,-29.805185099999957],[-52.26609149999996,-29.80568],[-52.26658639999993,-29.805389],[-52.26702279999995,-29.806062699999988],[-52.26675759999995,-29.806542699999973],[-52.26717879999996,-29.80697929999996],[-52.26699759999997,-29.808855699999977],[-52.26633179999993,-29.809360799999986],[-52.267065,-29.80971709999995],[-52.266127299999944,-29.809860399999938],[-52.26553929999994,-29.81054779999994],[-52.265342299999986,-29.811486799999948],[-52.26498879999997,-29.811945399999956],[-52.265321,-29.81224389999994],[-52.26537369999995,-29.812675199999948],[-52.26494479999997,-29.812504],[-52.264447,-29.813136],[-52.26439989999995,-29.81367789999997],[-52.26380659999996,-29.813924099999944],[-52.26364579999995,-29.81438909999997],[-52.263832399999956,-29.814767299999964],[-52.26281469999998,-29.81765069999995],[-52.263144799999964,-29.81876419999998],[-52.26289869999994,-29.819147399999956],[-52.262964,-29.819744699999955],[-52.26361049999998,-29.819813],[-52.26344439999997,-29.820419299999966],[-52.26395649999995,-29.820502499999968],[-52.263586499999974,-29.820943199999924],[-52.26417509999994,-29.82088349999998],[-52.26410819999995,-29.821131099999942],[-52.26462069999997,-29.821371699999933],[-52.26435539999994,-29.82163109999993]]]}},{"type":"Feature","properties":{"setor":"431407605000009","pop":369,"sigilo_pop":false,"dom":172,"sigilo_dom":false,"mulheres":181,"sigilo_mulheres":false,"c0_4":21,"sigilo_c0_4":false,"c5_9":18,"sigilo_c5_9":false,"i60_69":58,"sigilo_i60_69":false,"i70m":37,"sigilo_i70m":false,"indigenas":0,"sigilo_indigenas":false,"pretos_pardos":13,"sigilo_pretos_pardos":false,"dom_ocupados":141,"sigilo_dom_ocupados":false,"dom_agua":85,"sigilo_dom_agua":false,"dom_esgoto":null,"sigilo_dom_esgoto":true,"renda_resp":1361.97,"sigilo_renda_resp":false,"n_resp":141,"sigilo_n_resp":false,"dens":15.3,"sigilo_dens":false,"na_bacia":0,"area_pct_bacia":0.0,"metodo_recorte_bacia":"ponto_representativo_setor_2022; area_pct_geometrica","status_borda_bacia":"total","metodo_area_bacia":"interseção geométrica em EPSG:5880","metodo_na_bacia":"ponto_representativo_setor_2022_within_bacia","pop_n_validos":1,"pop_n_total":1,"pop_completude":1.0,"dom_n_validos":1,"dom_n_total":1,"dom_completude":1.0,"dom_ocupados_n_validos":1,"dom_ocupados_n_total":1,"dom_ocupados_completude":1.0,"mulheres_n_validos":1,"mulheres_n_total":1,"mulheres_completude":1.0,"c0_4_n_validos":1,"c0_4_n_total":1,"c0_4_completude":1.0,"c5_9_n_validos":1,"c5_9_n_total":1,"c5_9_completude":1.0,"i60_69_n_validos":1,"i60_69_n_total":1,"i60_69_completude":1.0,"i70m_n_validos":1,"i70m_n_total":1,"i70m_completude":1.0,"indigenas_n_validos":1,"indigenas_n_total":1,"indigenas_completude":1.0,"pretos_pardos_n_validos":1,"pretos_pardos_n_total":1,"pretos_pardos_completude":1.0,"dom_agua_n_validos":1,"dom_agua_n_total":1,"dom_agua_completude":1.0,"dom_esgoto_n_validos":0,"dom_esgoto_n_total":1,"dom_esgoto_completude":0.0,"n_resp_n_validos":1,"n_resp_n_total":1,"n_resp_completude":1.0,"renda_resp_n_validos":1,"renda_resp_n_total":1,"renda_resp_completude":1.0,"dens_n_validos":1,"dens_n_total":1,"dens_completude":1.0},"geometry":{"type":"Polygon","coordinates":[[[-52.26435539999994,-29.82163109999993],[-52.263993899999946,-29.82288609999994],[-52.26416619999998,-29.82316689999994],[-52.26450229999995,-29.82302209999994],[-52.265355,-29.823516799999936],[-52.26504969999996,-29.823804],[-52.26529769999996,-29.82438279999997],[-52.26496819999994,-29.824645799999924],[-52.26541149999997,-29.82482919999994],[-52.26524429999995,-29.825012599999965],[-52.264547499999935,-29.824916899999955],[-52.26468559999995,-29.825391],[-52.263769399999944,-29.825415499999966],[-52.26394959999993,-29.82587529999994],[-52.26368219999995,-29.826422799999932],[-52.26408319999996,-29.82651069999998],[-52.263468,-29.827019199999942],[-52.263584,-29.827232399999957],[-52.26399559999994,-29.82724569999993],[-52.26477019999998,-29.826763699999955],[-52.264940399999944,-29.82686029999997],[-52.26507479999998,-29.82750529999992],[-52.265429,-29.82765019999994],[-52.26462249999997,-29.827960499999953],[-52.26494089999994,-29.828135699999947],[-52.26504259999996,-29.829025599999976],[-52.265313499999934,-29.82906409999999],[-52.26551879999994,-29.82971609999992],[-52.265236399999935,-29.830605699999982],[-52.266093699999935,-29.83118329999996],[-52.26610819999997,-29.831458899999966],[-52.26559139999994,-29.831654],[-52.26558159999996,-29.83193919999997],[-52.266968,-29.83236009999996],[-52.266939699999966,-29.832669899999924],[-52.265847899999976,-29.83345849999995],[-52.26560909999995,-29.834313399999925],[-52.26581259999995,-29.834937399999934],[-52.26628089999997,-29.83498409999993],[-52.26647889999999,-29.83630619999997],[-52.266408,-29.83715239999998],[-52.266028,-29.83756859999992],[-52.266279699999984,-29.838412399999967],[-52.26593459999999,-29.838548299999967],[-52.26557089999994,-29.838401299999934],[-52.265502099999935,-29.83866489999996],[-52.26555829999995,-29.839900899999975],[-52.266383,-29.840311299999932],[-52.26630589999996,-29.840602699999963],[-52.26583439999996,-29.8405425],[-52.26613469999995,-29.840862899999916],[-52.26596719999997,-29.84136529999994],[-52.26512519999995,-29.842059299999956],[-52.264842699999974,-29.84268979999995],[-52.265449399999966,-29.84417019999994],[-52.26541679999997,-29.84531549999997],[-52.264476,-29.846427],[-52.26438559999997,-29.847258099999983],[-52.264203899999984,-29.847447799999944],[-52.26387489999996,-29.847255399999934],[-52.26362829999993,-29.84739319999995],[-52.26347,-29.84883009999994],[-52.26299679999995,-29.84857559999994],[-52.26252969999995,-29.849336299999933],[-52.26280689999999,-29.850156699999946],[-52.26218239999997,-29.851168199999957],[-52.261607599999934,-29.851415599999935],[-52.261561899999954,-29.851724599999955],[-52.26205369999997,-29.851638799999932],[-52.26169669999995,-29.852137299999978],[-52.26221739999994,-29.85258129999994],[-52.26240359999998,-29.85338879999996],[-52.26208649999996,-29.853791],[-52.26228759999998,-29.854285399999977],[-52.26208679999996,-29.854615399999947],[-52.26189559999995,-29.854892399999983],[-52.26142609999994,-29.854853499999937],[-52.26128979999998,-29.855072099999965],[-52.261528699999985,-29.85535169999996],[-52.26146919999996,-29.856929599999944],[-52.261909599999974,-29.857178799999932],[-52.261247399999945,-29.85801309999995],[-52.26958709999997,-29.86639859999998],[-52.27386029999997,-29.86849909999996],[-52.28665079999996,-29.86892729999995],[-52.29699459999994,-29.872804],[-52.30636449999997,-29.872487099999933],[-52.30753139999997,-29.869166799999967],[-52.311559,-29.86518229999996],[-52.31350309999993,-29.860071599999962],[-52.312488899999956,-29.85587459999994],[-52.31383779999993,-29.84755089999993],[-52.31414969999997,-29.835499799999972],[-52.31448949999998,-29.832499499999976],[-52.314342199999935,-29.83107209999997],[-52.31007409999995,-29.829877799999963],[-52.309104799999936,-29.830281799999955],[-52.30670409999993,-29.82979309999995],[-52.30506159999993,-29.826876499999962],[-52.30337189999995,-29.826061399999958],[-52.30222429999998,-29.825190299999978],[-52.29890529999995,-29.825259399999943],[-52.29839789999994,-29.82299569999997],[-52.29759969999997,-29.822433399999976],[-52.295781699999964,-29.8220032],[-52.29413889999995,-29.821110699999963],[-52.29238669999995,-29.818921199999973],[-52.289468399999976,-29.820617799999983],[-52.27859589999998,-29.820214399999944],[-52.278300299999955,-29.822492299999965],[-52.26435539999994,-29.82163109999993]]]}},{"type":"Feature","properties":{"setor":"431407605000010","pop":813,"sigilo_pop":false,"dom":428,"sigilo_dom":0,"mulheres":425,"sigilo_mulheres":0,"c0_4":61,"sigilo_c0_4":0,"c5_9":58,"sigilo_c5_9":0,"i60_69":94,"sigilo_i60_69":0,"i70m":82,"sigilo_i70m":0,"indigenas":0,"sigilo_indigenas":0,"pretos_pardos":124,"sigilo_pretos_pardos":0,"dom_ocupados":340,"sigilo_dom_ocupados":0,"dom_agua":337,"sigilo_dom_agua":0,"dom_esgoto":22,"sigilo_dom_esgoto":0,"renda_resp":2442.27,"sigilo_renda_resp":0,"n_resp":340,"sigilo_n_resp":0,"dens":621.7,"sigilo_dens":false,"na_bacia":1,"area_pct_bacia":100.0,"metodo_recorte_bacia":"ponto_representativo_setor_2022; area_pct_geometrica","pop_n_validos":1,"pop_n_total":1,"pop_completude":1.0,"dom_n_validos":1,"dom_n_total":1,"dom_completude":1.0,"dom_ocupados_n_validos":1,"dom_ocupados_n_total":1,"dom_ocupados_completude":1.0,"mulheres_n_validos":1,"mulheres_n_total":1,"mulheres_completude":1.0,"c0_4_n_validos":1,"c0_4_n_total":1,"c0_4_completude":1.0,"c5_9_n_validos":1,"c5_9_n_total":1,"c5_9_completude":1.0,"i60_69_n_validos":1,"i60_69_n_total":1,"i60_69_completude":1.0,"i70m_n_validos":1,"i70m_n_total":1,"i70m_completude":1.0,"indigenas_n_validos":1,"indigenas_n_total":1,"indigenas_completude":1.0,"pretos_pardos_n_validos":1,"pretos_pardos_n_total":1,"pretos_pardos_completude":1.0,"dom_agua_n_validos":1,"dom_agua_n_total":1,"dom_agua_completude":1.0,"dom_esgoto_n_validos":1,"dom_esgoto_n_total":1,"dom_esgoto_completude":1.0,"n_resp_n_validos":1,"n_resp_n_total":1,"n_resp_completude":1.0,"renda_resp_n_validos":1,"renda_resp_n_total":1,"renda_resp_completude":1.0,"dens_n_validos":1,"dens_n_total":1,"dens_completude":1.0,"status_borda_bacia":"total","metodo_area_bacia":"interseção geométrica em EPSG:5880","metodo_na_bacia":"ponto_representativo_setor_2022_within_bacia","municipio":"Passo do Sobrado","cod_mun":"4314076","mun_pct_na_bacia":62.6,"mun_pop_total":6025,"mun_pop_na_bacia":4128.0,"mun_ubs_iede":2,"mun_hospitais_iede":null,"mun_escolas_iede":1,"mun_bombeiros_iede":1,"mun_servicos_cobertura":"cadastro_IEDE_parcial_nao_inventario","mun_icm_faixa":"B","mun_icm_pontos":8,"mun_icm_prioritario":"não","mun_ubs_iede_status":"published","mun_hospitais_iede_status":"unknown","mun_escolas_iede_status":"published","mun_bombeiros_iede_status":"published"},"geometry":{"type":"Polygon","coordinates":[[[-52.270469,-29.755647599999982],[-52.271045,-29.75922],[-52.275279,-29.758710099999966],[-52.27513529999993,-29.75663429999998],[-52.27426269999995,-29.755114799999937],[-52.27457469999997,-29.75128149999994],[-52.275010899999984,-29.748033299999978],[-52.276329499999974,-29.746274199999963],[-52.27082369999994,-29.739855499999983],[-52.27230359999999,-29.735899799999956],[-52.27223249999997,-29.73285369999997],[-52.26857149999995,-29.741683899999945],[-52.26564319999994,-29.743868599999928],[-52.270469,-29.755647599999982]]]}},{"type":"Feature","properties":{"setor":"431407605000011","pop":416,"sigilo_pop":false,"dom":205,"sigilo_dom":0,"mulheres":201,"sigilo_mulheres":0,"c0_4":18,"sigilo_c0_4":0,"c5_9":13,"sigilo_c5_9":0,"i60_69":55,"sigilo_i60_69":0,"i70m":41,"sigilo_i70m":0,"indigenas":0,"sigilo_indigenas":0,"pretos_pardos":117,"sigilo_pretos_pardos":0,"dom_ocupados":163,"sigilo_dom_ocupados":0,"dom_agua":89,"sigilo_dom_agua":0,"dom_esgoto":0,"sigilo_dom_esgoto":0,"renda_resp":2059.85,"sigilo_renda_resp":0,"n_resp":163,"sigilo_n_resp":0,"dens":38.9,"sigilo_dens":false,"na_bacia":1,"area_pct_bacia":100.0,"metodo_recorte_bacia":"ponto_representativo_setor_2022; area_pct_geometrica","pop_n_validos":1,"pop_n_total":1,"pop_completude":1.0,"dom_n_validos":1,"dom_n_total":1,"dom_completude":1.0,"dom_ocupados_n_validos":1,"dom_ocupados_n_total":1,"dom_ocupados_completude":1.0,"mulheres_n_validos":1,"mulheres_n_total":1,"mulheres_completude":1.0,"c0_4_n_validos":1,"c0_4_n_total":1,"c0_4_completude":1.0,"c5_9_n_validos":1,"c5_9_n_total":1,"c5_9_completude":1.0,"i60_69_n_validos":1,"i60_69_n_total":1,"i60_69_completude":1.0,"i70m_n_validos":1,"i70m_n_total":1,"i70m_completude":1.0,"indigenas_n_validos":1,"indigenas_n_total":1,"indigenas_completude":1.0,"pretos_pardos_n_validos":1,"pretos_pardos_n_total":1,"pretos_pardos_completude":1.0,"dom_agua_n_validos":1,"dom_agua_n_total":1,"dom_agua_completude":1.0,"dom_esgoto_n_validos":1,"dom_esgoto_n_total":1,"dom_esgoto_completude":1.0,"n_resp_n_validos":1,"n_resp_n_total":1,"n_resp_completude":1.0,"renda_resp_n_validos":1,"renda_resp_n_total":1,"renda_resp_completude":1.0,"dens_n_validos":1,"dens_n_total":1,"dens_completude":1.0,"status_borda_bacia":"total","metodo_area_bacia":"interseção geométrica em EPSG:5880","metodo_na_bacia":"ponto_representativo_setor_2022_within_bacia","municipio":"Passo do Sobrado","cod_mun":"4314076","mun_pct_na_bacia":62.6,"mun_pop_total":6025,"mun_pop_na_bacia":4128.0,"mun_ubs_iede":2,"mun_hospitais_iede":null,"mun_escolas_iede":1,"mun_bombeiros_iede":1,"mun_servicos_cobertura":"cadastro_IEDE_parcial_nao_inventario","mun_icm_faixa":"B","mun_icm_pontos":8,"mun_icm_prioritario":"não","mun_ubs_iede_status":"published","mun_hospitais_iede_status":"unknown","mun_escolas_iede_status":"published","mun_bombeiros_iede_status":"published"},"geometry":{"type":"Polygon","coordinates":[[[-52.27230719999994,-29.732432399999933],[-52.27575819999998,-29.733319399999974],[-52.28098289999997,-29.740452099999974],[-52.281625899999945,-29.74404459999995],[-52.28474319999998,-29.742193099999948],[-52.28758159999995,-29.73947459999993],[-52.287871,-29.73884549999998],[-52.287769,-29.73742009999995],[-52.288683,-29.73630369999996],[-52.297562,-29.73171219999996],[-52.300260299999934,-29.730812],[-52.301128799999965,-29.729540099999937],[-52.30192389999996,-29.729021099999944],[-52.30247159999993,-29.728099299999933],[-52.304466199999986,-29.72725729999997],[-52.30847249999994,-29.726790199999982],[-52.30930739999997,-29.725989499999965],[-52.309649099999945,-29.725281599999963],[-52.317737199999954,-29.72215509999996],[-52.317601699999955,-29.720890799999943],[-52.323508,-29.716641299999928],[-52.312291699999946,-29.710111199999968],[-52.30206549999997,-29.714370399999954],[-52.30169779999994,-29.713751099999968],[-52.30111979999999,-29.71343909999996],[-52.29810649999996,-29.714239199999955],[-52.297033,-29.71278639999998],[-52.296549899999945,-29.712850099999955],[-52.29585509999998,-29.713630199999958],[-52.29500359999997,-29.713517399999937],[-52.292828,-29.713871699999956],[-52.29232749999994,-29.71447579999994],[-52.291477499999985,-29.71454569999997],[-52.290234099999964,-29.714203299999944],[-52.289379599999954,-29.712772],[-52.28769279999994,-29.712092799999944],[-52.28625619999996,-29.71048249999995],[-52.285711,-29.708718399999956],[-52.28481659999994,-29.708340799999974],[-52.279991299999956,-29.70254009999997],[-52.27894759999998,-29.703922899999945],[-52.27577539999998,-29.705268299999943],[-52.27392359999994,-29.706642699999975],[-52.273337399999946,-29.707529699999956],[-52.272266299999956,-29.722561599999946],[-52.27230719999994,-29.732432399999933]]]}},{"type":"Feature","properties":{"setor":"431407605000012","pop":175,"sigilo_pop":false,"dom":111,"sigilo_dom":0,"mulheres":81,"sigilo_mulheres":0,"c0_4":6,"sigilo_c0_4":0,"c5_9":14,"sigilo_c5_9":0,"i60_69":27,"sigilo_i60_69":0,"i70m":11,"sigilo_i70m":0,"indigenas":0,"sigilo_indigenas":0,"pretos_pardos":25,"sigilo_pretos_pardos":0,"dom_ocupados":78,"sigilo_dom_ocupados":0,"dom_agua":32,"sigilo_dom_agua":0,"dom_esgoto":0,"sigilo_dom_esgoto":0,"renda_resp":1992.82,"sigilo_renda_resp":0,"n_resp":78,"sigilo_n_resp":0,"dens":2.5,"sigilo_dens":false,"na_bacia":1,"area_pct_bacia":100.0,"metodo_recorte_bacia":"ponto_representativo_setor_2022; area_pct_geometrica","pop_n_validos":1,"pop_n_total":1,"pop_completude":1.0,"dom_n_validos":1,"dom_n_total":1,"dom_completude":1.0,"dom_ocupados_n_validos":1,"dom_ocupados_n_total":1,"dom_ocupados_completude":1.0,"mulheres_n_validos":1,"mulheres_n_total":1,"mulheres_completude":1.0,"c0_4_n_validos":1,"c0_4_n_total":1,"c0_4_completude":1.0,"c5_9_n_validos":1,"c5_9_n_total":1,"c5_9_completude":1.0,"i60_69_n_validos":1,"i60_69_n_total":1,"i60_69_completude":1.0,"i70m_n_validos":1,"i70m_n_total":1,"i70m_completude":1.0,"indigenas_n_validos":1,"indigenas_n_total":1,"indigenas_completude":1.0,"pretos_pardos_n_validos":1,"pretos_pardos_n_total":1,"pretos_pardos_completude":1.0,"dom_agua_n_validos":1,"dom_agua_n_total":1,"dom_agua_completude":1.0,"dom_esgoto_n_validos":1,"dom_esgoto_n_total":1,"dom_esgoto_completude":1.0,"n_resp_n_validos":1,"n_resp_n_total":1,"n_resp_completude":1.0,"renda_resp_n_validos":1,"renda_resp_n_total":1,"renda_resp_completude":1.0,"dens_n_validos":1,"dens_n_total":1,"dens_completude":1.0,"status_borda_bacia":"total","metodo_area_bacia":"interseção geométrica em EPSG:5880","metodo_na_bacia":"ponto_representativo_setor_2022_within_bacia","municipio":"Passo do Sobrado","cod_mun":"4314076","mun_pct_na_bacia":62.6,"mun_pop_total":6025,"mun_pop_na_bacia":4128.0,"mun_ubs_iede":2,"mun_hospitais_iede":null,"mun_escolas_iede":1,"mun_bombeiros_iede":1,"mun_servicos_cobertura":"cadastro_IEDE_parcial_nao_inventario","mun_icm_faixa":"B","mun_icm_pontos":8,"mun_icm_prioritario":"não","mun_ubs_iede_status":"published","mun_hospitais_iede_status":"unknown","mun_escolas_iede_status":"published","mun_bombeiros_iede_status":"published"},"geometry":{"type":"Polygon","coordinates":[[[-52.16978069999993,-29.682217099999953],[-52.17035769999996,-29.683445299999963],[-52.168722,-29.684246199999972],[-52.16914769999993,-29.685387599999956],[-52.16740669999995,-29.684920699999953],[-52.16608709999997,-29.686236299999955],[-52.16723889999997,-29.688133699999966],[-52.16596439999996,-29.689974799999966],[-52.16518519999995,-29.689352599999953],[-52.16562129999995,-29.691571],[-52.165683899999976,-29.693758099999968],[-52.164323199999956,-29.696015599999946],[-52.16224109999996,-29.697078099999935],[-52.16071809999994,-29.696553699999985],[-52.16075719999998,-29.697698699999926],[-52.15936819999997,-29.697531499999968],[-52.15909069999998,-29.699429799999955],[-52.15723939999998,-29.698773599999967],[-52.158135399999935,-29.70121129999995],[-52.15625929999993,-29.704451],[-52.15668219999998,-29.705346099999932],[-52.152196,-29.704880499999938],[-52.1515644,-29.70618669999994],[-52.14919539999994,-29.70591639999998],[-52.14787559999996,-29.707602499999943],[-52.14558309999995,-29.70800159999993],[-52.14518769999995,-29.709441799999983],[-52.141625099999935,-29.710897099999954],[-52.140840499999975,-29.712700699999978],[-52.13725109999995,-29.712516799999946],[-52.13505489999994,-29.713793699999954],[-52.13411819999993,-29.714925899999955],[-52.13453019999997,-29.716234899999957],[-52.13219419999996,-29.71645809999995],[-52.13000669999997,-29.719766099999973],[-52.127609,-29.721357399999935],[-52.127748,-29.722164699999944],[-52.126091299999985,-29.72125929999993],[-52.12552519999998,-29.722465199999924],[-52.123443099999974,-29.722145299999955],[-52.122069899999985,-29.723837599999978],[-52.12037149999998,-29.72378109999994],[-52.12213059999994,-29.725569199999946],[-52.12590089999997,-29.726054599999927],[-52.13593179999997,-29.734067],[-52.13771369999994,-29.738675499999935],[-52.13626109999996,-29.748905],[-52.136954099999976,-29.75006559999997],[-52.141886699999986,-29.753175199999923],[-52.14890189999995,-29.753878699999976],[-52.154386599999945,-29.755777099999936],[-52.16272909999998,-29.761051099999975],[-52.16771819999996,-29.760894799999974],[-52.17792489999994,-29.76647689999994],[-52.17927709999998,-29.768043199999973],[-52.18563789999996,-29.757613499999934],[-52.20395759999997,-29.76499839999997],[-52.203647,-29.766000699999957],[-52.20524969999996,-29.769784299999966],[-52.20722289999997,-29.770479299999977],[-52.21370879999995,-29.769279099999945],[-52.21639,-29.769591299999952],[-52.224347199999954,-29.772441],[-52.227584,-29.770584899999967],[-52.23083089999994,-29.76639879999993],[-52.23178739999997,-29.76605919999998],[-52.23370179999995,-29.766020399999945],[-52.23484619999994,-29.765576799999963],[-52.23712389999997,-29.763232],[-52.24999319999995,-29.754474099999975],[-52.24135629999996,-29.74842439999997],[-52.23837779999997,-29.743960699999946],[-52.23140929999994,-29.738133],[-52.22421349999996,-29.725249799999958],[-52.21686159999996,-29.72918259999994],[-52.216574699999974,-29.729095],[-52.20383879999997,-29.70598119999994],[-52.209482399999956,-29.704220699999944],[-52.199998299999955,-29.68024409999998],[-52.199698299999966,-29.67801],[-52.199994299999965,-29.6739],[-52.19900709999997,-29.66979809999998],[-52.191341099999924,-29.670126299999936],[-52.18857509999998,-29.669925199999966],[-52.18741559999995,-29.670979899999956],[-52.18567279999997,-29.671085],[-52.183445,-29.669781899999986],[-52.17980749999998,-29.67092079999998],[-52.17914349999995,-29.672050699999943],[-52.17747959999997,-29.672650199999957],[-52.17774679999997,-29.674793199999957],[-52.176676199999974,-29.675318699999924],[-52.17543169999994,-29.674545799999983],[-52.175087,-29.67578209999992],[-52.17200649999996,-29.677011299999947],[-52.17145529999994,-29.67829529999994],[-52.17032369999998,-29.678192199999955],[-52.171018499999946,-29.679478],[-52.16982,-29.680274],[-52.17176519999998,-29.681783599999964],[-52.16978069999993,-29.682217099999953]]]}},{"type":"Feature","properties":{"setor":"431407605000013","pop":269,"sigilo_pop":false,"dom":147,"sigilo_dom":false,"mulheres":134,"sigilo_mulheres":false,"c0_4":21,"sigilo_c0_4":false,"c5_9":12,"sigilo_c5_9":false,"i60_69":25,"sigilo_i60_69":false,"i70m":19,"sigilo_i70m":false,"indigenas":0,"sigilo_indigenas":false,"pretos_pardos":15,"sigilo_pretos_pardos":false,"dom_ocupados":109,"sigilo_dom_ocupados":false,"dom_agua":27,"sigilo_dom_agua":false,"dom_esgoto":0,"sigilo_dom_esgoto":false,"renda_resp":1778.53,"sigilo_renda_resp":false,"n_resp":109,"sigilo_n_resp":false,"dens":16.1,"sigilo_dens":false,"na_bacia":0,"area_pct_bacia":1.103,"metodo_recorte_bacia":"ponto_representativo_setor_2022; area_pct_geometrica","status_borda_bacia":"parcial","metodo_area_bacia":"interseção geométrica em EPSG:5880","metodo_na_bacia":"ponto_representativo_setor_2022_within_bacia","pop_n_validos":1,"pop_n_total":1,"pop_completude":1.0,"dom_n_validos":1,"dom_n_total":1,"dom_completude":1.0,"dom_ocupados_n_validos":1,"dom_ocupados_n_total":1,"dom_ocupados_completude":1.0,"mulheres_n_validos":1,"mulheres_n_total":1,"mulheres_completude":1.0,"c0_4_n_validos":1,"c0_4_n_total":1,"c0_4_completude":1.0,"c5_9_n_validos":1,"c5_9_n_total":1,"c5_9_completude":1.0,"i60_69_n_validos":1,"i60_69_n_total":1,"i60_69_completude":1.0,"i70m_n_validos":1,"i70m_n_total":1,"i70m_completude":1.0,"indigenas_n_validos":1,"indigenas_n_total":1,"indigenas_completude":1.0,"pretos_pardos_n_validos":1,"pretos_pardos_n_total":1,"pretos_pardos_completude":1.0,"dom_agua_n_validos":1,"dom_agua_n_total":1,"dom_agua_completude":1.0,"dom_esgoto_n_validos":1,"dom_esgoto_n_total":1,"dom_esgoto_completude":1.0,"n_resp_n_validos":1,"n_resp_n_total":1,"n_resp_completude":1.0,"renda_resp_n_validos":1,"renda_resp_n_total":1,"renda_resp_completude":1.0,"dens_n_validos":1,"dens_n_total":1,"dens_completude":1.0},"geometry":{"type":"Polygon","coordinates":[[[-52.222192,-29.785200199999963],[-52.21257359999998,-29.789750599999945],[-52.211247199999946,-29.791518399999973],[-52.210196099999955,-29.796114699999972],[-52.208705399999985,-29.798617199999978],[-52.20352159999993,-29.803542499999928],[-52.20300059999993,-29.805777499999987],[-52.204266,-29.80964579999995],[-52.18671179999996,-29.816272299999987],[-52.18599139999998,-29.819609399999944],[-52.18065769999998,-29.822975],[-52.17802219999999,-29.826689599999945],[-52.212722099999944,-29.8413576],[-52.215692399999966,-29.841759399999937],[-52.224185899999945,-29.840529099999966],[-52.228492,-29.840620899999973],[-52.228247599999975,-29.840587399999947],[-52.22995259999993,-29.83495449999998],[-52.23001809999994,-29.831949],[-52.23084809999995,-29.828049],[-52.230746,-29.823779099999964],[-52.22752579999997,-29.82076029999996],[-52.22434889999994,-29.818432499999968],[-52.22427579999999,-29.817428699999933],[-52.222707299999975,-29.811924599999944],[-52.22161219999999,-29.809446299999937],[-52.221699099999974,-29.809051],[-52.22222549999998,-29.80863849999996],[-52.225574,-29.806778899999973],[-52.22849949999994,-29.806191899999924],[-52.22691339999994,-29.79671489999998],[-52.224604599999964,-29.790943199999962],[-52.224288299999955,-29.788985],[-52.224331199999945,-29.78744009999997],[-52.223355899999945,-29.786064599999964],[-52.222192,-29.785200199999963]]]}},{"type":"Feature","properties":{"setor":"431407605000014","pop":195,"sigilo_pop":false,"dom":106,"sigilo_dom":false,"mulheres":88,"sigilo_mulheres":false,"c0_4":null,"sigilo_c0_4":true,"c5_9":9,"sigilo_c5_9":false,"i60_69":28,"sigilo_i60_69":false,"i70m":24,"sigilo_i70m":false,"indigenas":0,"sigilo_indigenas":false,"pretos_pardos":null,"sigilo_pretos_pardos":true,"dom_ocupados":72,"sigilo_dom_ocupados":false,"dom_agua":50,"sigilo_dom_agua":false,"dom_esgoto":null,"sigilo_dom_esgoto":true,"renda_resp":2837.94,"sigilo_renda_resp":false,"n_resp":72,"sigilo_n_resp":false,"dens":33.1,"sigilo_dens":false,"na_bacia":0,"area_pct_bacia":0.0,"metodo_recorte_bacia":"ponto_representativo_setor_2022; area_pct_geometrica","status_borda_bacia":"total","metodo_area_bacia":"interseção geométrica em EPSG:5880","metodo_na_bacia":"ponto_representativo_setor_2022_within_bacia","pop_n_validos":1,"pop_n_total":1,"pop_completude":1.0,"dom_n_validos":1,"dom_n_total":1,"dom_completude":1.0,"dom_ocupados_n_validos":1,"dom_ocupados_n_total":1,"dom_ocupados_completude":1.0,"mulheres_n_validos":1,"mulheres_n_total":1,"mulheres_completude":1.0,"c0_4_n_validos":0,"c0_4_n_total":1,"c0_4_completude":0.0,"c5_9_n_validos":1,"c5_9_n_total":1,"c5_9_completude":1.0,"i60_69_n_validos":1,"i60_69_n_total":1,"i60_69_completude":1.0,"i70m_n_validos":1,"i70m_n_total":1,"i70m_completude":1.0,"indigenas_n_validos":1,"indigenas_n_total":1,"indigenas_completude":1.0,"pretos_pardos_n_validos":0,"pretos_pardos_n_total":1,"pretos_pardos_completude":0.0,"dom_agua_n_validos":1,"dom_agua_n_total":1,"dom_agua_completude":1.0,"dom_esgoto_n_validos":0,"dom_esgoto_n_total":1,"dom_esgoto_completude":0.0,"n_resp_n_validos":1,"n_resp_n_total":1,"n_resp_completude":1.0,"renda_resp_n_validos":1,"renda_resp_n_total":1,"renda_resp_completude":1.0,"dens_n_validos":1,"dens_n_total":1,"dens_completude":1.0},"geometry":{"type":"Polygon","coordinates":[[[-52.27751259999997,-29.78850829999994],[-52.27745659999994,-29.789509699999936],[-52.27623889999996,-29.791177799999954],[-52.276214,-29.79202239999995],[-52.28069229999995,-29.79466009999993],[-52.28225149999998,-29.796773099999953],[-52.28313239999994,-29.79860949999995],[-52.28557639999997,-29.800968],[-52.28728579999995,-29.80421409999997],[-52.291616099999935,-29.808284499999957],[-52.29992809999994,-29.81310249999995],[-52.302247,-29.813290299999952],[-52.30841429999999,-29.81434909999996],[-52.310567499999934,-29.81528189999994],[-52.315337699999986,-29.816558399999945],[-52.31604819999995,-29.814819599999968],[-52.31749579999996,-29.81378769999997],[-52.31828089999994,-29.812934299999945],[-52.32004969999998,-29.809826599999944],[-52.30449609999994,-29.808742499999948],[-52.3072284,-29.791849099999972],[-52.30763719999993,-29.790939],[-52.310999199999976,-29.79049039999995],[-52.312387299999955,-29.788827],[-52.310481,-29.789990499999924],[-52.30864589999993,-29.789703899999957],[-52.308175699999936,-29.789880599999943],[-52.307748499999946,-29.78962919999998],[-52.30601539999998,-29.790256899999974],[-52.30496039999997,-29.789757399999917],[-52.30438819999995,-29.789786899999967],[-52.30356659999996,-29.790450399999944],[-52.302612599999975,-29.790172699999957],[-52.30206919999995,-29.790330599999937],[-52.301700899999965,-29.790138899999928],[-52.301659,-29.78955369999994],[-52.29964019999994,-29.789213899999925],[-52.29917849999998,-29.789479599999922],[-52.298531099999934,-29.78938319999997],[-52.29808009999993,-29.790091],[-52.29753469999997,-29.789919899999976],[-52.296774099999936,-29.790462],[-52.29606819999998,-29.790576699999978],[-52.29485579999994,-29.790372],[-52.294714699999986,-29.790893399999966],[-52.29435089999998,-29.790919],[-52.29401249999995,-29.790796699999923],[-52.29377649999998,-29.790286599999945],[-52.29318149999995,-29.790071599999965],[-52.292770299999965,-29.789433399999954],[-52.292192199999924,-29.78985949999997],[-52.29166269999997,-29.78975869999993],[-52.29058269999996,-29.788554599999948],[-52.289637599999935,-29.788782],[-52.28892549999995,-29.788469299999974],[-52.28891489999996,-29.788717499999965],[-52.288554499999975,-29.788908499999938],[-52.28883179999997,-29.789181099999958],[-52.28854809999996,-29.789606499999937],[-52.28894659999998,-29.79036389999993],[-52.288203899999985,-29.790555499999982],[-52.28600019999994,-29.790075599999962],[-52.28472909999994,-29.789221399999974],[-52.28327859999997,-29.789099399999944],[-52.28331019999996,-29.78872239999998],[-52.283047099999976,-29.78852579999995],[-52.28271819999998,-29.788903299999962],[-52.28127909999995,-29.78853029999994],[-52.27995349999998,-29.78889779999997],[-52.278799,-29.788785699999956],[-52.27840159999994,-29.789077899999924],[-52.27751259999997,-29.78850829999994]]]}}]}
