{"type":"FeatureCollection","name":"4314548","crs":{"type":"name","properties":{"name":"urn:ogc:def:crs:OGC:1.3:CRS84"}},"features":[{"type":"Feature","properties":{"setor":"431454805000001","pop":827,"sigilo_pop":false,"dom":395,"sigilo_dom":false,"mulheres":422,"sigilo_mulheres":false,"c0_4":50,"sigilo_c0_4":false,"c5_9":39,"sigilo_c5_9":false,"i60_69":129,"sigilo_i60_69":false,"i70m":126,"sigilo_i70m":false,"indigenas":0,"sigilo_indigenas":false,"pretos_pardos":75,"sigilo_pretos_pardos":false,"dom_ocupados":328,"sigilo_dom_ocupados":false,"dom_agua":317,"sigilo_dom_agua":false,"dom_esgoto":5,"sigilo_dom_esgoto":false,"renda_resp":3827.36,"sigilo_renda_resp":false,"n_resp":328,"sigilo_n_resp":false,"dens":540.6,"sigilo_dens":false,"na_bacia":1,"area_pct_bacia":100.0,"metodo_recorte_bacia":"ponto_representativo_setor_2022; area_pct_geometrica"},"geometry":{"type":"Polygon","coordinates":[[[-51.446055,-29.09028249999995],[-51.44168779999996,-29.090193],[-51.44156179999993,-29.093813399999927],[-51.445865199999965,-29.093829099999937],[-51.44579509999994,-29.098539199999948],[-51.44810819999998,-29.098507699999967],[-51.44797269999998,-29.105745199999955],[-51.45013229999995,-29.105657199999925],[-51.45017079999996,-29.10744289999997],[-51.45231679999995,-29.10744679999993],[-51.45248849999996,-29.10269749999997],[-51.45587,-29.10269189999996],[-51.45595429999998,-29.100232],[-51.45482669999996,-29.100225499999965],[-51.45505939999998,-29.093932499999937],[-51.452809,-29.09391379999994],[-51.45284539999995,-29.090848699999984],[-51.45054409999995,-29.090889199999932],[-51.45063449999997,-29.08855279999995],[-51.45110329999994,-29.08760919999997],[-51.44605179999997,-29.087665599999983],[-51.446055,-29.09028249999995]]]}},{"type":"Feature","properties":{"setor":"431454805000002","pop":365,"sigilo_pop":false,"dom":183,"sigilo_dom":false,"mulheres":168,"sigilo_mulheres":false,"c0_4":14,"sigilo_c0_4":false,"c5_9":12,"sigilo_c5_9":false,"i60_69":52,"sigilo_i60_69":false,"i70m":68,"sigilo_i70m":false,"indigenas":0,"sigilo_indigenas":false,"pretos_pardos":null,"sigilo_pretos_pardos":true,"dom_ocupados":113,"sigilo_dom_ocupados":false,"dom_agua":16,"sigilo_dom_agua":false,"dom_esgoto":0,"sigilo_dom_esgoto":false,"renda_resp":3607.72,"sigilo_renda_resp":false,"n_resp":113,"sigilo_n_resp":false,"dens":13.5,"sigilo_dens":false,"na_bacia":1,"area_pct_bacia":100.0,"metodo_recorte_bacia":"ponto_representativo_setor_2022; area_pct_geometrica"},"geometry":{"type":"Polygon","coordinates":[[[-51.45193319999998,-29.085223],[-51.45063449999997,-29.08855279999995],[-51.45054409999995,-29.090889199999932],[-51.45284539999995,-29.090848699999984],[-51.452809,-29.09391379999994],[-51.45505939999998,-29.093932499999937],[-51.454895799999974,-29.098329399999972],[-51.455939599999965,-29.098341899999987],[-51.45956639999997,-29.097600699999926],[-51.464345299999934,-29.09760319999998],[-51.464738,-29.098189199999975],[-51.46461329999994,-29.099431699999958],[-51.46488249999994,-29.099702],[-51.468713599999944,-29.097548399999937],[-51.47097979999996,-29.097642799999967],[-51.47222719999996,-29.09795889999998],[-51.47308789999994,-29.09884179999994],[-51.47322509999998,-29.099964499999952],[-51.47275109999998,-29.102373299999947],[-51.47209,-29.103517699999937],[-51.471997199999976,-29.10439],[-51.47231449999998,-29.104558599999958],[-51.47247819999995,-29.103580499999968],[-51.472909,-29.102986099999942],[-51.47483429999994,-29.101343299999932],[-51.475695,-29.100002599999986],[-51.476480899999956,-29.099348599999917],[-51.47719109999998,-29.099233699999957],[-51.47809009999997,-29.09962519999994],[-51.47870889999996,-29.099643599999983],[-51.47932489999994,-29.09848509999995],[-51.479309099999966,-29.099158099999947],[-51.48007349999994,-29.099926299999947],[-51.47966179999997,-29.10038409999992],[-51.479535399999975,-29.10097059999997],[-51.48104109999996,-29.100221899999955],[-51.480988,-29.099342799999928],[-51.48142649999995,-29.098718599999973],[-51.48236939999998,-29.098488199999966],[-51.48357719999996,-29.098934399999973],[-51.48389769999994,-29.098489699999963],[-51.48454039999996,-29.098176499999976],[-51.48523759999995,-29.098366199999937],[-51.48731319999996,-29.09911969999996],[-51.48731709999998,-29.10368149999994],[-51.48961669999994,-29.103028],[-51.490346,-29.10301089999996],[-51.489210899999925,-29.105599399999964],[-51.48959129999998,-29.106291499999944],[-51.48944159999996,-29.106929099999938],[-51.49025249999994,-29.10787179999996],[-51.49197359999994,-29.107884],[-51.49261059999998,-29.108075],[-51.492978499999936,-29.1095979],[-51.492953099999966,-29.110912599999956],[-51.495494699999945,-29.11209779999996],[-51.497896499999975,-29.114516299999945],[-51.498894,-29.114092099999933],[-51.49886429999998,-29.11341759999993],[-51.502084699999955,-29.113483499999965],[-51.502264399999945,-29.11371589999994],[-51.502084699999955,-29.114286],[-51.502834399999976,-29.114032599999973],[-51.503161399999954,-29.113762899999973],[-51.503009,-29.113037699999946],[-51.50019409999994,-29.11197159999994],[-51.49851819999997,-29.11102619999997],[-51.49765889999998,-29.109106],[-51.49738729999996,-29.106981],[-51.497589199999936,-29.10614979999997],[-51.49845639999996,-29.10509939999998],[-51.50143939999999,-29.102824899999966],[-51.50166149999996,-29.102065699999972],[-51.50135389999998,-29.101020899999984],[-51.500953799999934,-29.100522899999934],[-51.50073659999998,-29.099370499999964],[-51.500805,-29.09677969999995],[-51.49997559999997,-29.096499399999974],[-51.498821599999985,-29.096624499999958],[-51.498072599999944,-29.09621869999995],[-51.497897199999954,-29.09582279999994],[-51.49861419999996,-29.094082299999975],[-51.49854049999993,-29.09323979999993],[-51.49761639999997,-29.09113139999992],[-51.49728559999994,-29.08749429999996],[-51.49691989999997,-29.086766199999936],[-51.496381,-29.086706599999957],[-51.494423599999955,-29.08804659999994],[-51.493823499999955,-29.088090899999937],[-51.493101,-29.087749299999913],[-51.49286289999998,-29.086796399999958],[-51.49326219999995,-29.085606699999982],[-51.49461429999997,-29.08437569999996],[-51.49778569999995,-29.08424229999997],[-51.49988609999997,-29.085172499999942],[-51.500613199999975,-29.084987699999942],[-51.50108679999993,-29.084436799999946],[-51.50122419999997,-29.083603899999957],[-51.50358009999996,-29.08272009999996],[-51.503977899999946,-29.081787],[-51.50244049999998,-29.079856099999965],[-51.501574199999936,-29.078158799999976],[-51.5009558,-29.075435499999976],[-51.501220599999954,-29.07406249999996],[-51.500504,-29.07302749999996],[-51.49987439999995,-29.06889369999994],[-51.49909369999994,-29.066277799999966],[-51.499008199999935,-29.06443679999994],[-51.49781509999997,-29.058469199999927],[-51.49774219999994,-29.056123399999933],[-51.49796519999995,-29.054877699999963],[-51.498493,-29.05390369999997],[-51.500672699999946,-29.052252199999938],[-51.50306159999997,-29.05127449999997],[-51.51259039999997,-29.04852169999998],[-51.51405669999997,-29.047877],[-51.51541459999998,-29.046916599999975],[-51.517946,-29.04606479999996],[-51.519785,-29.04481419999996],[-51.52080759999995,-29.04334619999997],[-51.522247299999954,-29.039105899999978],[-51.522216599999986,-29.03673149999997],[-51.50980539999995,-29.036885799999936],[-51.50548349999997,-29.037847899999974],[-51.50160469999997,-29.038314],[-51.50063849999998,-29.03878849999995],[-51.49929479999998,-29.040387699999936],[-51.49694729999993,-29.041165799999938],[-51.494556,-29.041046799999954],[-51.493141099999946,-29.040717799999967],[-51.49085769999993,-29.041821499999976],[-51.488200699999936,-29.04172789999997],[-51.487166,-29.042114799999982],[-51.48532249999994,-29.042135399999946],[-51.484987,-29.04292149999998],[-51.481984299999965,-29.044953899999943],[-51.481027899999965,-29.04589079999994],[-51.47897909999995,-29.04707969999998],[-51.47712349999994,-29.04746619999997],[-51.47494559999996,-29.048748899999968],[-51.47477009999994,-29.049021799999935],[-51.475139799999965,-29.049535799999944],[-51.47673169999996,-29.050587399999976],[-51.47486249999998,-29.050816299999944],[-51.47564919999997,-29.051285399999976],[-51.47598489999996,-29.052008499999946],[-51.47430289999994,-29.05303609999992],[-51.47420949999997,-29.05415859999994],[-51.473346799999945,-29.055327699999967],[-51.472696499999984,-29.05533879999996],[-51.47000869999994,-29.054197499999923],[-51.468520799999965,-29.05418489999994],[-51.469002799999934,-29.05694949999998],[-51.46859109999997,-29.0577676],[-51.46653659999998,-29.058636899999954],[-51.4636182,-29.058939099999982],[-51.46143209999997,-29.06075529999997],[-51.46097739999993,-29.06157589999998],[-51.459645,-29.062652599999982],[-51.45956889999997,-29.063919099999957],[-51.45910709999998,-29.064757499999935],[-51.458685499999945,-29.065052599999945],[-51.45661609999996,-29.06551939999996],[-51.455400699999984,-29.066716599999946],[-51.456025,-29.06790989999996],[-51.45520229999993,-29.07012809999997],[-51.45530259999998,-29.071949799999967],[-51.455694499999936,-29.072508599999935],[-51.458359599999945,-29.074584399999928],[-51.45861119999995,-29.075582599999965],[-51.45832159999997,-29.076591399999984],[-51.45829319999996,-29.07948469999997],[-51.45757209999993,-29.080464599999964],[-51.456910499999935,-29.082782399999928],[-51.45605439999997,-29.083991199999968],[-51.455214,-29.08443869999996],[-51.45265759999995,-29.084815799999937],[-51.45193319999998,-29.085223]]]}},{"type":"Feature","properties":{"setor":"431454805000003","pop":288,"sigilo_pop":false,"dom":133,"sigilo_dom":false,"mulheres":139,"sigilo_mulheres":false,"c0_4":12,"sigilo_c0_4":false,"c5_9":16,"sigilo_c5_9":false,"i60_69":46,"sigilo_i60_69":false,"i70m":38,"sigilo_i70m":false,"indigenas":0,"sigilo_indigenas":false,"pretos_pardos":41,"sigilo_pretos_pardos":false,"dom_ocupados":91,"sigilo_dom_ocupados":false,"dom_agua":null,"sigilo_dom_agua":true,"dom_esgoto":0,"sigilo_dom_esgoto":false,"renda_resp":4160.88,"sigilo_renda_resp":false,"n_resp":91,"sigilo_n_resp":false,"dens":18.2,"sigilo_dens":false,"na_bacia":1,"area_pct_bacia":100.0,"metodo_recorte_bacia":"ponto_representativo_setor_2022; area_pct_geometrica"},"geometry":{"type":"Polygon","coordinates":[[[-51.425914099999936,-29.078002599999927],[-51.42566959999993,-29.087663599999928],[-51.41288349999996,-29.087462899999924],[-51.41159129999994,-29.127260399999955],[-51.418467,-29.127203299999966],[-51.418570599999946,-29.126951399999946],[-51.41913,-29.126753199999943],[-51.419295699999964,-29.126171],[-51.41974669999997,-29.12611659999993],[-51.42057939999996,-29.12641829999995],[-51.42230459999996,-29.125533799999975],[-51.42318029999995,-29.124707699999927],[-51.423432299999945,-29.12403609999994],[-51.424312,-29.123888899999937],[-51.424675,-29.123333599999974],[-51.42534089999998,-29.123208099999943],[-51.425828399999936,-29.12347369999996],[-51.42532879999993,-29.125025499999932],[-51.42407049999997,-29.126065399999966],[-51.42488469999996,-29.126248599999936],[-51.42574209999998,-29.12614619999993],[-51.427925,-29.124910799999945],[-51.42818219999998,-29.12430349999994],[-51.431246399999964,-29.12547669999998],[-51.432136,-29.128540199999975],[-51.43223519999998,-29.129632899999926],[-51.43281909999996,-29.130121499999966],[-51.432837,-29.131286499999923],[-51.434252199999946,-29.129157799999966],[-51.43448519999998,-29.127655299999958],[-51.43406079999994,-29.126973599999932],[-51.43408119999998,-29.125497699999972],[-51.43430489999997,-29.125062699999944],[-51.434869599999956,-29.12477339999998],[-51.43638719999996,-29.124720699999948],[-51.438096299999984,-29.124084499999974],[-51.43932539999998,-29.1242306],[-51.439940499999985,-29.124489499999985],[-51.44129579999998,-29.126328],[-51.442131599999975,-29.127049899999978],[-51.44595609999993,-29.12717089999995],[-51.447277199999974,-29.127747299999953],[-51.450076,-29.12732679999993],[-51.450562,-29.125903599999944],[-51.45186769999998,-29.12483369999995],[-51.452673699999934,-29.123692299999956],[-51.45195249999994,-29.120115],[-51.451873199999966,-29.118559599999973],[-51.44996319999996,-29.117062899999947],[-51.44916129999996,-29.11568909999993],[-51.44922369999995,-29.114996799999975],[-51.451018799999986,-29.112204599999977],[-51.45134869999998,-29.110261899999948],[-51.450365199999965,-29.108574399999945],[-51.45013229999995,-29.105657199999925],[-51.44797269999998,-29.105745199999955],[-51.44810819999998,-29.098507699999967],[-51.44579509999994,-29.098539199999948],[-51.445865199999965,-29.093829099999937],[-51.44156179999993,-29.093813399999927],[-51.44168779999996,-29.090193],[-51.44420649999995,-29.090244],[-51.443014099999964,-29.088898599999926],[-51.44192829999998,-29.088135],[-51.44112729999995,-29.086796399999965],[-51.44106149999994,-29.08604809999997],[-51.44050169999998,-29.085539399999952],[-51.43828559999997,-29.084607799999954],[-51.43415379999993,-29.085573399999934],[-51.43195709999997,-29.086895699999964],[-51.42993769999998,-29.086681799999948],[-51.429613,-29.086408499999944],[-51.428733,-29.084975799999945],[-51.428541499999945,-29.082102299999956],[-51.42998159999996,-29.080599099999972],[-51.429102899999975,-29.07918459999996],[-51.42965959999999,-29.077026699999966],[-51.42853979999996,-29.07564469999994],[-51.427721099999985,-29.073838799999965],[-51.42814089999996,-29.072813899999968],[-51.42802409999996,-29.07220119999993],[-51.42839679999998,-29.070579699999932],[-51.429142199999944,-29.070283199999956],[-51.428903799999944,-29.06999679999996],[-51.42680329999996,-29.070045499999935],[-51.426035,-29.07365419999995],[-51.42709549999995,-29.076347399999953],[-51.42725779999995,-29.07787679999996],[-51.425914099999936,-29.078002599999927]]]}},{"type":"Feature","properties":{"setor":"431454805000005","pop":279,"sigilo_pop":false,"dom":97,"sigilo_dom":false,"mulheres":132,"sigilo_mulheres":false,"c0_4":15,"sigilo_c0_4":false,"c5_9":19,"sigilo_c5_9":false,"i60_69":29,"sigilo_i60_69":false,"i70m":37,"sigilo_i70m":false,"indigenas":13,"sigilo_indigenas":false,"pretos_pardos":null,"sigilo_pretos_pardos":true,"dom_ocupados":82,"sigilo_dom_ocupados":false,"dom_agua":20,"sigilo_dom_agua":false,"dom_esgoto":0,"sigilo_dom_esgoto":false,"renda_resp":3614.6,"sigilo_renda_resp":false,"n_resp":82,"sigilo_n_resp":false,"dens":21.4,"sigilo_dens":false,"na_bacia":1,"area_pct_bacia":100.0,"metodo_recorte_bacia":"ponto_representativo_setor_2022; area_pct_geometrica"},"geometry":{"type":"Polygon","coordinates":[[[-51.454895799999974,-29.098329399999972],[-51.45482669999996,-29.100225499999965],[-51.45595429999998,-29.100232],[-51.45587,-29.10269189999996],[-51.45248849999996,-29.10269749999997],[-51.45231679999995,-29.10744679999993],[-51.45017079999996,-29.10744289999997],[-51.450365199999965,-29.108574399999945],[-51.45129019999997,-29.110025399999984],[-51.45134529999996,-29.11060719999995],[-51.45085729999994,-29.11257659999995],[-51.449140599999964,-29.115307399999942],[-51.44927649999994,-29.11596529999997],[-51.44996319999996,-29.117062899999947],[-51.451873199999966,-29.118559599999973],[-51.45195249999994,-29.120115],[-51.452518,-29.122289799999965],[-51.45264079999998,-29.123879399999968],[-51.450562,-29.125903599999944],[-51.450076,-29.12732679999993],[-51.45024609999996,-29.128307099999958],[-51.45116929999995,-29.12988569999994],[-51.45121949999998,-29.131252199999942],[-51.465976099999985,-29.131455199999955],[-51.46832489999997,-29.133240799999946],[-51.4697518,-29.133330699999927],[-51.46901649999996,-29.13282129999994],[-51.470341099999985,-29.132446799999954],[-51.47278969999997,-29.13255269999997],[-51.473485799999935,-29.132819599999944],[-51.47365889999998,-29.132193499999964],[-51.476518,-29.13146129999996],[-51.47713609999994,-29.130913],[-51.47942059999997,-29.127532299999917],[-51.48070149999995,-29.126765199999966],[-51.48325209999996,-29.12569859999996],[-51.48589789999994,-29.122743699999937],[-51.48799769999994,-29.12106539999996],[-51.49006849999994,-29.119855699999974],[-51.49021809999994,-29.119496099999928],[-51.48992259999994,-29.11907189999995],[-51.488854499999945,-29.118689199999945],[-51.48883179999995,-29.118252099999957],[-51.48976909999993,-29.116989599999954],[-51.49120919999996,-29.116252199999963],[-51.4944397,-29.116469699999975],[-51.49707579999995,-29.116182399999946],[-51.498745499999984,-29.11542059999994],[-51.49955539999996,-29.114784399999955],[-51.502084699999955,-29.114286],[-51.502264399999945,-29.11371589999994],[-51.502084699999955,-29.113483499999965],[-51.49886429999998,-29.11341759999993],[-51.498894,-29.114092099999933],[-51.497896499999975,-29.114516299999945],[-51.495494699999945,-29.11209779999996],[-51.492953099999966,-29.110912599999956],[-51.492978499999936,-29.1095979],[-51.49261059999998,-29.108075],[-51.49197359999994,-29.107884],[-51.49025249999994,-29.10787179999996],[-51.48944159999996,-29.106929099999938],[-51.48959129999998,-29.106291499999944],[-51.489210899999925,-29.105599399999964],[-51.490346,-29.10301089999996],[-51.48961669999994,-29.103028],[-51.48731709999998,-29.10368149999994],[-51.48731319999996,-29.09911969999996],[-51.48523759999995,-29.098366199999937],[-51.48454039999996,-29.098176499999976],[-51.48389769999994,-29.098489699999963],[-51.48357719999996,-29.098934399999973],[-51.48236939999998,-29.098488199999966],[-51.48142649999995,-29.098718599999973],[-51.480988,-29.099342799999928],[-51.48104109999996,-29.100221899999955],[-51.479535399999975,-29.10097059999997],[-51.47966179999997,-29.10038409999992],[-51.48007349999994,-29.099926299999947],[-51.479309099999966,-29.099158099999947],[-51.47932489999994,-29.09848509999995],[-51.47870889999996,-29.099643599999983],[-51.47809009999997,-29.09962519999994],[-51.47719109999998,-29.099233699999957],[-51.476480899999956,-29.099348599999917],[-51.475695,-29.100002599999986],[-51.47483429999994,-29.101343299999932],[-51.472909,-29.102986099999942],[-51.47247819999995,-29.103580499999968],[-51.47231449999998,-29.104558599999958],[-51.471997199999976,-29.10439],[-51.47209,-29.103517699999937],[-51.47275109999998,-29.102373299999947],[-51.47322509999998,-29.099964499999952],[-51.47308789999994,-29.09884179999994],[-51.47222719999996,-29.09795889999998],[-51.47097979999996,-29.097642799999967],[-51.468713599999944,-29.097548399999937],[-51.46488249999994,-29.099702],[-51.46461329999994,-29.099431699999958],[-51.464738,-29.098189199999975],[-51.464345299999934,-29.09760319999998],[-51.45956639999997,-29.097600699999926],[-51.455939599999965,-29.098341899999987],[-51.454895799999974,-29.098329399999972]]]}},{"type":"Feature","properties":{"setor":"431454805000006","pop":26,"sigilo_pop":false,"dom":19,"sigilo_dom":false,"mulheres":11,"sigilo_mulheres":false,"c0_4":0,"sigilo_c0_4":false,"c5_9":0,"sigilo_c5_9":false,"i60_69":7,"sigilo_i60_69":false,"i70m":8,"sigilo_i70m":false,"indigenas":0,"sigilo_indigenas":false,"pretos_pardos":0,"sigilo_pretos_pardos":false,"dom_ocupados":11,"sigilo_dom_ocupados":false,"dom_agua":0,"sigilo_dom_agua":false,"dom_esgoto":0,"sigilo_dom_esgoto":false,"renda_resp":2957.82,"sigilo_renda_resp":false,"n_resp":11,"sigilo_n_resp":false,"dens":15.4,"sigilo_dens":false,"na_bacia":1,"area_pct_bacia":100.0,"metodo_recorte_bacia":"ponto_representativo_setor_2022; area_pct_geometrica"},"geometry":{"type":"Polygon","coordinates":[[[-51.51138549999996,-29.113929699999968],[-51.50210619999996,-29.114277299999962],[-51.49979669999993,-29.114704],[-51.49707579999995,-29.116182399999946],[-51.495505899999955,-29.11642649999993],[-51.491860299999985,-29.11623149999998],[-51.490675499999945,-29.116444799999964],[-51.48976909999993,-29.116989599999954],[-51.48883179999995,-29.118252099999957],[-51.488854499999945,-29.118689199999945],[-51.49008089999996,-29.119234599999974],[-51.49006849999994,-29.119855699999974],[-51.48912039999994,-29.120291599999963],[-51.48660229999996,-29.1222016],[-51.511358899999955,-29.122073099999966],[-51.51138549999996,-29.113929699999968]]]}},{"type":"Feature","properties":{"setor":"431454805000007","pop":44,"sigilo_pop":false,"dom":15,"sigilo_dom":false,"mulheres":24,"sigilo_mulheres":false,"c0_4":null,"sigilo_c0_4":true,"c5_9":null,"sigilo_c5_9":true,"i60_69":5,"sigilo_i60_69":false,"i70m":null,"sigilo_i70m":true,"indigenas":0,"sigilo_indigenas":false,"pretos_pardos":8,"sigilo_pretos_pardos":false,"dom_ocupados":14,"sigilo_dom_ocupados":false,"dom_agua":0,"sigilo_dom_agua":false,"dom_esgoto":0,"sigilo_dom_esgoto":false,"renda_resp":3251.71,"sigilo_renda_resp":false,"n_resp":14,"sigilo_n_resp":false,"dens":34.3,"sigilo_dens":false,"na_bacia":1,"area_pct_bacia":100.0,"metodo_recorte_bacia":"ponto_representativo_setor_2022; area_pct_geometrica"},"geometry":{"type":"Polygon","coordinates":[[[-51.44835149999995,-29.158882799999944],[-51.448034199999945,-29.160992599999933],[-51.44846449999994,-29.16209],[-51.449563099999985,-29.163219099999928],[-51.45061029999994,-29.163775499999915],[-51.451829099999934,-29.164008099999936],[-51.45268189999996,-29.165117299999952],[-51.45186849999994,-29.167191799999955],[-51.45021829999997,-29.167513299999943],[-51.449376599999944,-29.16797389999993],[-51.458151799999946,-29.16871789999993],[-51.45806309999995,-29.168169599999942],[-51.458737,-29.165593199999936],[-51.46072889999994,-29.163115599999976],[-51.46117419999996,-29.162904],[-51.462568,-29.162906699999954],[-51.46371849999996,-29.163723299999955],[-51.46382029999995,-29.16425529999998],[-51.464211,-29.164202499999938],[-51.46533359999995,-29.164834299999935],[-51.466144499999984,-29.16476349999993],[-51.466687699999966,-29.164189399999934],[-51.46600859999995,-29.16220009999995],[-51.46603029999995,-29.160108499999975],[-51.46551449999998,-29.15973359999996],[-51.46295109999995,-29.160321899999925],[-51.46175009999996,-29.160357799999936],[-51.45915069999996,-29.15966519999995],[-51.45691969999996,-29.15808089999996],[-51.455586,-29.15794429999994],[-51.45543719999995,-29.15743759999998],[-51.45296339999993,-29.15785839999994],[-51.450052599999935,-29.158024],[-51.448740199999975,-29.158513399999958],[-51.44835149999995,-29.158882799999944]]]}},{"type":"Feature","properties":{"setor":"431454805000008","pop":37,"sigilo_pop":false,"dom":19,"sigilo_dom":false,"mulheres":18,"sigilo_mulheres":false,"c0_4":null,"sigilo_c0_4":true,"c5_9":null,"sigilo_c5_9":true,"i60_69":8,"sigilo_i60_69":false,"i70m":null,"sigilo_i70m":true,"indigenas":0,"sigilo_indigenas":false,"pretos_pardos":0,"sigilo_pretos_pardos":false,"dom_ocupados":13,"sigilo_dom_ocupados":false,"dom_agua":null,"sigilo_dom_agua":true,"dom_esgoto":0,"sigilo_dom_esgoto":false,"renda_resp":4835.31,"sigilo_renda_resp":false,"n_resp":13,"sigilo_n_resp":false,"dens":18.2,"sigilo_dens":false,"na_bacia":1,"area_pct_bacia":100.0,"metodo_recorte_bacia":"ponto_representativo_setor_2022; area_pct_geometrica"},"geometry":{"type":"Polygon","coordinates":[[[-51.42341259999995,-29.16092729999997],[-51.42328469999996,-29.165038],[-51.449376599999944,-29.16797389999993],[-51.45021829999997,-29.167513299999943],[-51.45186849999994,-29.167191799999955],[-51.45266629999998,-29.16524709999993],[-51.45264719999995,-29.16495319999995],[-51.451829099999934,-29.164008099999936],[-51.45061029999994,-29.163775499999915],[-51.449563099999985,-29.163219099999928],[-51.44846449999994,-29.16209],[-51.448034199999945,-29.160992599999933],[-51.44835149999995,-29.158882799999944],[-51.44699009999994,-29.158723199999933],[-51.44605709999997,-29.158156799999976],[-51.444320499999954,-29.15770679999997],[-51.442254599999956,-29.157877399999954],[-51.441578599999964,-29.1576434],[-51.43638649999997,-29.157249899999954],[-51.434963599999946,-29.15792089999996],[-51.43553639999993,-29.159081899999926],[-51.43573879999997,-29.160659699999936],[-51.43477869999999,-29.161455299999933],[-51.431517699999965,-29.161918],[-51.428298799999936,-29.161924899999967],[-51.426987,-29.160948199999957],[-51.42641249999997,-29.16109459999995],[-51.42556379999996,-29.160891399999972],[-51.42341259999995,-29.16092729999997]]]}},{"type":"Feature","properties":{"setor":"431454805000009","pop":341,"sigilo_pop":false,"dom":173,"sigilo_dom":false,"mulheres":177,"sigilo_mulheres":false,"c0_4":20,"sigilo_c0_4":false,"c5_9":18,"sigilo_c5_9":false,"i60_69":51,"sigilo_i60_69":false,"i70m":41,"sigilo_i70m":false,"indigenas":0,"sigilo_indigenas":false,"pretos_pardos":null,"sigilo_pretos_pardos":true,"dom_ocupados":112,"sigilo_dom_ocupados":false,"dom_agua":38,"sigilo_dom_agua":false,"dom_esgoto":0,"sigilo_dom_esgoto":false,"renda_resp":3449.0,"sigilo_renda_resp":false,"n_resp":112,"sigilo_n_resp":false,"dens":13.4,"sigilo_dens":false,"na_bacia":1,"area_pct_bacia":100.0,"metodo_recorte_bacia":"ponto_representativo_setor_2022; area_pct_geometrica"},"geometry":{"type":"Polygon","coordinates":[[[-51.47572039999994,-29.01754909999994],[-51.46966929999997,-29.01613789999993],[-51.46786139999995,-29.01610719999996],[-51.46577039999995,-29.01647429999997],[-51.463989199999965,-29.01719939999998],[-51.462020499999944,-29.01822],[-51.460653399999956,-29.019415799999937],[-51.45989259999993,-29.020681899999953],[-51.45919249999997,-29.02300919999993],[-51.45880189999997,-29.026075899999963],[-51.458147,-29.02764079999998],[-51.45629989999998,-29.03050709999997],[-51.45504329999994,-29.031831399999923],[-51.45404659999998,-29.033683499999942],[-51.45015209999996,-29.038220799999962],[-51.44625919999998,-29.047103299999936],[-51.44533889999996,-29.050085],[-51.44193859999996,-29.057400099999946],[-51.440911899999946,-29.05943339999993],[-51.43887819999998,-29.061593899999938],[-51.43640739999994,-29.063135599999946],[-51.43423249999995,-29.063512599999967],[-51.43298549999998,-29.06337729999995],[-51.428961099999974,-29.061971],[-51.42782039999997,-29.061821199999937],[-51.42209109999993,-29.05983529999997],[-51.42233319999997,-29.06913839999992],[-51.42680329999996,-29.070045499999935],[-51.428903799999944,-29.06999679999996],[-51.429142199999944,-29.070283199999956],[-51.42839679999998,-29.070579699999932],[-51.42802409999996,-29.07220119999993],[-51.42814089999996,-29.072813899999968],[-51.427721099999985,-29.073838799999965],[-51.42853979999996,-29.07564469999994],[-51.42965959999999,-29.077026699999966],[-51.429102899999975,-29.07918459999996],[-51.43000409999997,-29.080483],[-51.42857479999998,-29.081990499999968],[-51.428579,-29.084113899999977],[-51.42877579999998,-29.085108499999937],[-51.42993769999998,-29.086681799999948],[-51.43195709999997,-29.086895699999964],[-51.43415379999993,-29.085573399999934],[-51.43828559999997,-29.084607799999954],[-51.44077639999995,-29.08574739999994],[-51.44192829999998,-29.088135],[-51.443014099999964,-29.088898599999926],[-51.44420649999995,-29.090244],[-51.446055,-29.09028249999995],[-51.44605179999997,-29.087665599999983],[-51.45110329999994,-29.08760919999997],[-51.45193319999998,-29.085223],[-51.45265759999995,-29.084815799999937],[-51.455214,-29.08443869999996],[-51.45605439999997,-29.083991199999968],[-51.456910499999935,-29.082782399999928],[-51.45757209999993,-29.080464599999964],[-51.45829319999996,-29.07948469999997],[-51.45832159999997,-29.076591399999984],[-51.45861119999995,-29.075582599999965],[-51.458285099999955,-29.074403599999986],[-51.45534109999994,-29.072093199999976],[-51.45520229999993,-29.07012809999997],[-51.456025,-29.06790989999996],[-51.455400699999984,-29.066716599999946],[-51.45661609999996,-29.06551939999996],[-51.458685499999945,-29.065052599999945],[-51.45910709999998,-29.064757499999935],[-51.45956889999997,-29.063919099999957],[-51.459645,-29.062652599999982],[-51.46097739999993,-29.06157589999998],[-51.46143209999997,-29.06075529999997],[-51.4636182,-29.058939099999982],[-51.46653659999998,-29.058636899999954],[-51.46859109999997,-29.0577676],[-51.469002799999934,-29.05694949999998],[-51.468520799999965,-29.05418489999994],[-51.47000869999994,-29.054197499999923],[-51.472696499999984,-29.05533879999996],[-51.473346799999945,-29.055327699999967],[-51.47420949999997,-29.05415859999994],[-51.47430289999994,-29.05303609999992],[-51.47598489999996,-29.052008499999946],[-51.47564919999997,-29.051285399999976],[-51.47486249999998,-29.050816299999944],[-51.47673169999996,-29.050587399999976],[-51.475299,-29.04969259999995],[-51.47481619999996,-29.049183299999974],[-51.47482569999993,-29.048870199999953],[-51.47712349999994,-29.04746619999997],[-51.47897909999995,-29.04707969999998],[-51.481027899999965,-29.04589079999994],[-51.481984299999965,-29.044953899999943],[-51.484987,-29.04292149999998],[-51.48523289999997,-29.042167899999974],[-51.487166,-29.042114799999982],[-51.488200699999936,-29.04172789999997],[-51.49085769999993,-29.041821499999976],[-51.493141099999946,-29.040717799999967],[-51.494556,-29.041046799999954],[-51.49694729999993,-29.041165799999938],[-51.49929479999998,-29.040387699999936],[-51.50063849999998,-29.03878849999995],[-51.50160469999997,-29.038314],[-51.50548349999997,-29.037847899999974],[-51.50980539999995,-29.036885799999936],[-51.522216599999986,-29.03673149999997],[-51.52180979999997,-29.032960899999974],[-51.521185,-29.030835499999977],[-51.51974689999998,-29.028722099999978],[-51.517696899999976,-29.026933399999965],[-51.51496909999997,-29.02545829999996],[-51.512227099999954,-29.024684799999935],[-51.50956889999997,-29.02511309999994],[-51.507248699999934,-29.02584419999993],[-51.50334019999997,-29.02774559999994],[-51.497982099999945,-29.02968669999996],[-51.49170449999996,-29.03251159999996],[-51.48918979999997,-29.033026],[-51.48668089999995,-29.03307339999998],[-51.48370269999999,-29.03165],[-51.481696299999946,-29.029509199999943],[-51.479089699999975,-29.025470199999972],[-51.477247499999976,-29.02185259999993],[-51.47698669999994,-29.018709099999963],[-51.47572039999994,-29.01754909999994]]]}},{"type":"Feature","properties":{"setor":"431454805000010","pop":290,"sigilo_pop":false,"dom":121,"sigilo_dom":false,"mulheres":151,"sigilo_mulheres":false,"c0_4":12,"sigilo_c0_4":false,"c5_9":13,"sigilo_c5_9":false,"i60_69":46,"sigilo_i60_69":false,"i70m":44,"sigilo_i70m":false,"indigenas":0,"sigilo_indigenas":false,"pretos_pardos":34,"sigilo_pretos_pardos":false,"dom_ocupados":80,"sigilo_dom_ocupados":false,"dom_agua":null,"sigilo_dom_agua":true,"dom_esgoto":0,"sigilo_dom_esgoto":false,"renda_resp":3590.73,"sigilo_renda_resp":false,"n_resp":80,"sigilo_n_resp":false,"dens":32.3,"sigilo_dens":false,"na_bacia":1,"area_pct_bacia":100.0,"metodo_recorte_bacia":"ponto_representativo_setor_2022; area_pct_geometrica"},"geometry":{"type":"Polygon","coordinates":[[[-51.424675,-29.123333599999974],[-51.424312,-29.123888899999937],[-51.423432299999945,-29.12403609999994],[-51.42318029999995,-29.124707699999927],[-51.42230459999996,-29.125533799999975],[-51.42057939999996,-29.12641829999995],[-51.41974669999997,-29.12611659999993],[-51.419295699999964,-29.126171],[-51.41913,-29.126753199999943],[-51.418570599999946,-29.126951399999946],[-51.418467,-29.127203299999966],[-51.423207799999936,-29.12716389999997],[-51.42315189999994,-29.156165299999945],[-51.423449699999935,-29.157865199999936],[-51.42341259999995,-29.16092729999997],[-51.42556379999996,-29.160891399999972],[-51.42641249999997,-29.16109459999995],[-51.426987,-29.160948199999957],[-51.428298799999936,-29.161924899999967],[-51.431517699999965,-29.161918],[-51.43477869999999,-29.161455299999933],[-51.43573879999997,-29.160659699999936],[-51.43553639999993,-29.159081899999926],[-51.434963599999946,-29.15792089999996],[-51.436513399999974,-29.15722829999993],[-51.441578599999964,-29.1576434],[-51.442254599999956,-29.157877399999954],[-51.444320499999954,-29.15770679999997],[-51.44605709999997,-29.158156799999976],[-51.44699009999994,-29.158723199999933],[-51.44835149999995,-29.158882799999944],[-51.448740199999975,-29.158513399999958],[-51.450052599999935,-29.158024],[-51.45296339999993,-29.15785839999994],[-51.45623989999996,-29.157339799999924],[-51.45698179999994,-29.15703579999997],[-51.45749849999998,-29.15645719999998],[-51.457662,-29.15486969999995],[-51.45838549999996,-29.153382599999937],[-51.45834329999997,-29.15265019999999],[-51.456153599999936,-29.152771599999937],[-51.45504029999995,-29.152357],[-51.45197889999997,-29.15190349999994],[-51.45142489999995,-29.152132499999933],[-51.450903,-29.153012399999966],[-51.45054539999995,-29.153197399999954],[-51.44892379999993,-29.15312659999995],[-51.44744729999997,-29.153604699999953],[-51.44636029999998,-29.152471599999956],[-51.445365799999934,-29.150372899999986],[-51.44441919999997,-29.149509],[-51.443766,-29.149098],[-51.441516499999985,-29.148807899999944],[-51.44017539999993,-29.148147699999985],[-51.440078,-29.147561499999938],[-51.44077379999993,-29.147284399999933],[-51.441191,-29.146391],[-51.44143779999996,-29.142138799999938],[-51.44237039999996,-29.141015299999943],[-51.44244459999993,-29.140537099999964],[-51.44159089999993,-29.139214199999973],[-51.44198189999997,-29.13852489999994],[-51.443285499999945,-29.13792019999994],[-51.444009,-29.13703219999998],[-51.4465752,-29.137261599999928],[-51.449042299999974,-29.135724699999965],[-51.45090719999996,-29.135436],[-51.452943699999935,-29.133122099999984],[-51.45277009999995,-29.132115099999957],[-51.45117049999993,-29.131153899999966],[-51.45116929999995,-29.12988569999994],[-51.45024609999996,-29.128307099999958],[-51.450076,-29.12732679999993],[-51.447277199999974,-29.127747299999953],[-51.44595609999993,-29.12717089999995],[-51.442131599999975,-29.127049899999978],[-51.44129579999998,-29.126328],[-51.439940499999985,-29.124489499999985],[-51.43932539999998,-29.1242306],[-51.438096299999984,-29.124084499999974],[-51.43638719999996,-29.124720699999948],[-51.434869599999956,-29.12477339999998],[-51.43430489999997,-29.125062699999944],[-51.43408119999998,-29.125497699999972],[-51.43406079999994,-29.126973599999932],[-51.43448519999998,-29.127655299999958],[-51.434252199999946,-29.129157799999966],[-51.432837,-29.131286499999923],[-51.43281909999996,-29.130121499999966],[-51.43223519999998,-29.129632899999926],[-51.43130209999998,-29.125523299999927],[-51.42818219999998,-29.12430349999994],[-51.427925,-29.124910799999945],[-51.42574209999998,-29.12614619999993],[-51.42426169999993,-29.12615159999996],[-51.42407049999997,-29.126065399999966],[-51.42532879999993,-29.125025499999932],[-51.425828399999936,-29.12347369999996],[-51.425099199999984,-29.123227199999977],[-51.424675,-29.123333599999974]]]}},{"type":"Feature","properties":{"setor":"431454805000012","pop":226,"sigilo_pop":false,"dom":112,"sigilo_dom":false,"mulheres":108,"sigilo_mulheres":false,"c0_4":13,"sigilo_c0_4":false,"c5_9":10,"sigilo_c5_9":false,"i60_69":26,"sigilo_i60_69":false,"i70m":28,"sigilo_i70m":false,"indigenas":8,"sigilo_indigenas":false,"pretos_pardos":null,"sigilo_pretos_pardos":true,"dom_ocupados":75,"sigilo_dom_ocupados":false,"dom_agua":0,"sigilo_dom_agua":false,"dom_esgoto":0,"sigilo_dom_esgoto":false,"renda_resp":4196.73,"sigilo_renda_resp":false,"n_resp":75,"sigilo_n_resp":false,"dens":28.6,"sigilo_dens":false,"na_bacia":1,"area_pct_bacia":100.0,"metodo_recorte_bacia":"ponto_representativo_setor_2022; area_pct_geometrica"},"geometry":{"type":"Polygon","coordinates":[[[-51.45543719999995,-29.15743759999998],[-51.455586,-29.15794429999994],[-51.45691969999996,-29.15808089999996],[-51.45915069999996,-29.15966519999995],[-51.46149779999996,-29.16030009999997],[-51.46295109999995,-29.160321899999925],[-51.46525879999995,-29.15972269999998],[-51.46590549999996,-29.159914599999983],[-51.46600859999995,-29.16220009999995],[-51.466687699999966,-29.164189399999934],[-51.466144499999984,-29.16476349999993],[-51.46558309999995,-29.164839699999952],[-51.464211,-29.164202499999938],[-51.46382029999995,-29.16425529999998],[-51.46530679999995,-29.16590169999994],[-51.465778599999965,-29.166115099999953],[-51.466117199999985,-29.16601329999997],[-51.46813769999994,-29.163904399999982],[-51.468090899999936,-29.163401299999975],[-51.46708589999997,-29.161926399999977],[-51.46753969999998,-29.16090619999994],[-51.46802979999995,-29.1579728],[-51.468607599999984,-29.156606499999945],[-51.46743719999996,-29.155527],[-51.46734259999994,-29.154579],[-51.47390139999993,-29.149393799999924],[-51.47413439999997,-29.14807629999995],[-51.47380679999998,-29.146015799999926],[-51.47408109999998,-29.145331299999942],[-51.47515819999996,-29.145317699999968],[-51.47741569999994,-29.14663789999997],[-51.478221899999944,-29.14676619999994],[-51.479846,-29.146351],[-51.48032719999998,-29.14595249999996],[-51.480538799999984,-29.145353499999942],[-51.480401,-29.144636099999957],[-51.478732699999966,-29.141441799999935],[-51.477501,-29.14068389999994],[-51.47587969999995,-29.14023629999998],[-51.47514389999997,-29.13937889999994],[-51.475201899999945,-29.138243299999942],[-51.47661839999995,-29.13671229999995],[-51.47683979999994,-29.135209099999926],[-51.47646419999995,-29.134877399999933],[-51.47432859999998,-29.13416769999998],[-51.47380739999994,-29.133788899999953],[-51.473485799999935,-29.132819599999944],[-51.47278969999997,-29.13255269999997],[-51.470341099999985,-29.132446799999954],[-51.46901649999996,-29.13282129999994],[-51.4697518,-29.133330699999927],[-51.46832489999997,-29.133240799999946],[-51.465976099999985,-29.131455199999955],[-51.45121949999998,-29.131252199999942],[-51.45277009999995,-29.132115099999957],[-51.452943699999935,-29.133122099999984],[-51.45105689999996,-29.13533789999997],[-51.449042299999974,-29.135724699999965],[-51.4465752,-29.137261599999928],[-51.444009,-29.13703219999998],[-51.443285499999945,-29.13792019999994],[-51.44225739999997,-29.138279],[-51.441787499999975,-29.138768099999943],[-51.44159089999993,-29.139214199999973],[-51.44244459999993,-29.140537099999964],[-51.442395,-29.140873299999967],[-51.44143779999996,-29.142138799999938],[-51.441191,-29.146391],[-51.44077379999993,-29.147284399999933],[-51.440078,-29.147561499999938],[-51.44017539999993,-29.148147699999985],[-51.441516499999985,-29.148807899999944],[-51.443766,-29.149098],[-51.44441919999997,-29.149509],[-51.445365799999934,-29.150372899999986],[-51.44636029999998,-29.152471599999956],[-51.44744729999997,-29.153604699999953],[-51.44892379999993,-29.15312659999995],[-51.45054539999995,-29.153197399999954],[-51.450903,-29.153012399999966],[-51.45142489999995,-29.152132499999933],[-51.45197889999997,-29.15190349999994],[-51.45504029999995,-29.152357],[-51.456153599999936,-29.152771599999937],[-51.45834329999997,-29.15265019999999],[-51.45838549999996,-29.153382599999937],[-51.457662,-29.15486969999995],[-51.457319299999945,-29.156773899999962],[-51.45666409999996,-29.15719819999998],[-51.45543719999995,-29.15743759999998]]]}}]}