{"type":"FeatureCollection","name":"4314001","crs":{"type":"name","properties":{"name":"urn:ogc:def:crs:OGC:1.3:CRS84"}},"features":[{"type":"Feature","properties":{"setor":"431400105000001","pop":931,"sigilo_pop":false,"dom":375,"sigilo_dom":0,"mulheres":475,"sigilo_mulheres":0,"c0_4":52,"sigilo_c0_4":0,"c5_9":57,"sigilo_c5_9":0,"i60_69":99,"sigilo_i60_69":0,"i70m":66,"sigilo_i70m":0,"indigenas":0,"sigilo_indigenas":0,"pretos_pardos":92,"sigilo_pretos_pardos":0,"dom_ocupados":347,"sigilo_dom_ocupados":0,"dom_agua":339,"sigilo_dom_agua":0,"dom_esgoto":7,"sigilo_dom_esgoto":0,"renda_resp":3835.78,"sigilo_renda_resp":0,"n_resp":347,"sigilo_n_resp":0,"dens":948.3,"sigilo_dens":false,"na_bacia":1,"area_pct_bacia":100.0,"metodo_recorte_bacia":"ponto_representativo_setor_2022; area_pct_geometrica","pop_n_validos":1,"pop_n_total":1,"pop_completude":1.0,"dom_n_validos":1,"dom_n_total":1,"dom_completude":1.0,"dom_ocupados_n_validos":1,"dom_ocupados_n_total":1,"dom_ocupados_completude":1.0,"mulheres_n_validos":1,"mulheres_n_total":1,"mulheres_completude":1.0,"c0_4_n_validos":1,"c0_4_n_total":1,"c0_4_completude":1.0,"c5_9_n_validos":1,"c5_9_n_total":1,"c5_9_completude":1.0,"i60_69_n_validos":1,"i60_69_n_total":1,"i60_69_completude":1.0,"i70m_n_validos":1,"i70m_n_total":1,"i70m_completude":1.0,"indigenas_n_validos":1,"indigenas_n_total":1,"indigenas_completude":1.0,"pretos_pardos_n_validos":1,"pretos_pardos_n_total":1,"pretos_pardos_completude":1.0,"dom_agua_n_validos":1,"dom_agua_n_total":1,"dom_agua_completude":1.0,"dom_esgoto_n_validos":1,"dom_esgoto_n_total":1,"dom_esgoto_completude":1.0,"n_resp_n_validos":1,"n_resp_n_total":1,"n_resp_completude":1.0,"renda_resp_n_validos":1,"renda_resp_n_total":1,"renda_resp_completude":1.0,"dens_n_validos":1,"dens_n_total":1,"dens_completude":1.0,"status_borda_bacia":"total","metodo_area_bacia":"interseção geométrica em EPSG:5880","metodo_na_bacia":"ponto_representativo_setor_2022_within_bacia","municipio":"Paraí","cod_mun":"4314001","mun_pct_na_bacia":100.0,"mun_pop_total":7194,"mun_pop_na_bacia":7194.0,"mun_ubs_iede":3,"mun_hospitais_iede":null,"mun_escolas_iede":null,"mun_bombeiros_iede":null,"mun_servicos_cobertura":"cadastro_IEDE_parcial_nao_inventario","mun_icm_faixa":"A","mun_icm_pontos":10,"mun_icm_prioritario":"não","mun_ubs_iede_status":"published","mun_hospitais_iede_status":"unknown","mun_escolas_iede_status":"unknown","mun_bombeiros_iede_status":"unknown"},"geometry":{"type":"Polygon","coordinates":[[[-51.77864009999996,-28.597275599999932],[-51.78026689999996,-28.59837039999996],[-51.78301129999995,-28.603177199999948],[-51.785952099999975,-28.604144499999958],[-51.79117419999994,-28.60654659999994],[-51.791686899999945,-28.605227899999935],[-51.79306669999995,-28.60333019999995],[-51.790277099999976,-28.60135309999998],[-51.78815249999997,-28.598282599999944],[-51.78548509999996,-28.599711899999924],[-51.78191339999995,-28.594532],[-51.783683199999984,-28.593585099999924],[-51.78192619999999,-28.591091499999948],[-51.78081869999994,-28.590749899999935],[-51.77748,-28.59028649999993],[-51.77864009999996,-28.597275599999932]]]}},{"type":"Feature","properties":{"setor":"431400105000002","pop":599,"sigilo_pop":false,"dom":225,"sigilo_dom":0,"mulheres":309,"sigilo_mulheres":0,"c0_4":27,"sigilo_c0_4":0,"c5_9":38,"sigilo_c5_9":0,"i60_69":73,"sigilo_i60_69":0,"i70m":61,"sigilo_i70m":0,"indigenas":0,"sigilo_indigenas":0,"pretos_pardos":123,"sigilo_pretos_pardos":0,"dom_ocupados":216,"sigilo_dom_ocupados":0,"dom_agua":209,"sigilo_dom_agua":0,"dom_esgoto":7,"sigilo_dom_esgoto":0,"renda_resp":2877.17,"sigilo_renda_resp":0,"n_resp":216,"sigilo_n_resp":0,"dens":666.6,"sigilo_dens":false,"na_bacia":1,"area_pct_bacia":100.0,"metodo_recorte_bacia":"ponto_representativo_setor_2022; area_pct_geometrica","pop_n_validos":1,"pop_n_total":1,"pop_completude":1.0,"dom_n_validos":1,"dom_n_total":1,"dom_completude":1.0,"dom_ocupados_n_validos":1,"dom_ocupados_n_total":1,"dom_ocupados_completude":1.0,"mulheres_n_validos":1,"mulheres_n_total":1,"mulheres_completude":1.0,"c0_4_n_validos":1,"c0_4_n_total":1,"c0_4_completude":1.0,"c5_9_n_validos":1,"c5_9_n_total":1,"c5_9_completude":1.0,"i60_69_n_validos":1,"i60_69_n_total":1,"i60_69_completude":1.0,"i70m_n_validos":1,"i70m_n_total":1,"i70m_completude":1.0,"indigenas_n_validos":1,"indigenas_n_total":1,"indigenas_completude":1.0,"pretos_pardos_n_validos":1,"pretos_pardos_n_total":1,"pretos_pardos_completude":1.0,"dom_agua_n_validos":1,"dom_agua_n_total":1,"dom_agua_completude":1.0,"dom_esgoto_n_validos":1,"dom_esgoto_n_total":1,"dom_esgoto_completude":1.0,"n_resp_n_validos":1,"n_resp_n_total":1,"n_resp_completude":1.0,"renda_resp_n_validos":1,"renda_resp_n_total":1,"renda_resp_completude":1.0,"dens_n_validos":1,"dens_n_total":1,"dens_completude":1.0,"status_borda_bacia":"total","metodo_area_bacia":"interseção geométrica em EPSG:5880","metodo_na_bacia":"ponto_representativo_setor_2022_within_bacia","municipio":"Paraí","cod_mun":"4314001","mun_pct_na_bacia":100.0,"mun_pop_total":7194,"mun_pop_na_bacia":7194.0,"mun_ubs_iede":3,"mun_hospitais_iede":null,"mun_escolas_iede":null,"mun_bombeiros_iede":null,"mun_servicos_cobertura":"cadastro_IEDE_parcial_nao_inventario","mun_icm_faixa":"A","mun_icm_pontos":10,"mun_icm_prioritario":"não","mun_ubs_iede_status":"published","mun_hospitais_iede_status":"unknown","mun_escolas_iede_status":"unknown","mun_bombeiros_iede_status":"unknown"},"geometry":{"type":"Polygon","coordinates":[[[-51.78292309999994,-28.584112],[-51.78277119999996,-28.585438399999923],[-51.7812421,-28.587719199999977],[-51.783042,-28.58826929999998],[-51.78524139999996,-28.591472],[-51.78654209999997,-28.592318],[-51.78931469999998,-28.588239599999945],[-51.78993279999997,-28.58854919999993],[-51.79170049999993,-28.586016],[-51.79410409999998,-28.588890199999984],[-51.794754299999965,-28.58699039999994],[-51.795615099999964,-28.585436599999976],[-51.794378799999954,-28.582958599999987],[-51.79486219999995,-28.58193439999997],[-51.79665289999997,-28.57960709999998],[-51.79534609999997,-28.579497199999945],[-51.79382129999994,-28.58004819999996],[-51.792751399999986,-28.58156609999997],[-51.789702,-28.583031299999956],[-51.78847109999998,-28.58282419999993],[-51.78774819999995,-28.582933599999933],[-51.786585899999984,-28.583383499999968],[-51.78541149999996,-28.58349239999995],[-51.78415329999995,-28.58429729999994],[-51.78292309999994,-28.584112]]]}},{"type":"Feature","properties":{"setor":"431400105000004","pop":437,"sigilo_pop":false,"dom":175,"sigilo_dom":0,"mulheres":198,"sigilo_mulheres":0,"c0_4":11,"sigilo_c0_4":0,"c5_9":17,"sigilo_c5_9":0,"i60_69":76,"sigilo_i60_69":0,"i70m":58,"sigilo_i70m":0,"indigenas":0,"sigilo_indigenas":0,"pretos_pardos":35,"sigilo_pretos_pardos":0,"dom_ocupados":156,"sigilo_dom_ocupados":0,"dom_agua":37,"sigilo_dom_agua":0,"dom_esgoto":0,"sigilo_dom_esgoto":0,"renda_resp":4227.17,"sigilo_renda_resp":0,"n_resp":156,"sigilo_n_resp":0,"dens":27.7,"sigilo_dens":false,"na_bacia":1,"area_pct_bacia":100.0,"metodo_recorte_bacia":"ponto_representativo_setor_2022; area_pct_geometrica","pop_n_validos":1,"pop_n_total":1,"pop_completude":1.0,"dom_n_validos":1,"dom_n_total":1,"dom_completude":1.0,"dom_ocupados_n_validos":1,"dom_ocupados_n_total":1,"dom_ocupados_completude":1.0,"mulheres_n_validos":1,"mulheres_n_total":1,"mulheres_completude":1.0,"c0_4_n_validos":1,"c0_4_n_total":1,"c0_4_completude":1.0,"c5_9_n_validos":1,"c5_9_n_total":1,"c5_9_completude":1.0,"i60_69_n_validos":1,"i60_69_n_total":1,"i60_69_completude":1.0,"i70m_n_validos":1,"i70m_n_total":1,"i70m_completude":1.0,"indigenas_n_validos":1,"indigenas_n_total":1,"indigenas_completude":1.0,"pretos_pardos_n_validos":1,"pretos_pardos_n_total":1,"pretos_pardos_completude":1.0,"dom_agua_n_validos":1,"dom_agua_n_total":1,"dom_agua_completude":1.0,"dom_esgoto_n_validos":1,"dom_esgoto_n_total":1,"dom_esgoto_completude":1.0,"n_resp_n_validos":1,"n_resp_n_total":1,"n_resp_completude":1.0,"renda_resp_n_validos":1,"renda_resp_n_total":1,"renda_resp_completude":1.0,"dens_n_validos":1,"dens_n_total":1,"dens_completude":1.0,"status_borda_bacia":"total","metodo_area_bacia":"interseção geométrica em EPSG:5880","metodo_na_bacia":"ponto_representativo_setor_2022_within_bacia","municipio":"Paraí","cod_mun":"4314001","mun_pct_na_bacia":100.0,"mun_pop_total":7194,"mun_pop_na_bacia":7194.0,"mun_ubs_iede":3,"mun_hospitais_iede":null,"mun_escolas_iede":null,"mun_bombeiros_iede":null,"mun_servicos_cobertura":"cadastro_IEDE_parcial_nao_inventario","mun_icm_faixa":"A","mun_icm_pontos":10,"mun_icm_prioritario":"não","mun_ubs_iede_status":"published","mun_hospitais_iede_status":"unknown","mun_escolas_iede_status":"unknown","mun_bombeiros_iede_status":"unknown"},"geometry":{"type":"Polygon","coordinates":[[[-51.795615099999964,-28.585436599999976],[-51.794754299999965,-28.58699039999994],[-51.79410409999998,-28.588890199999984],[-51.794762299999945,-28.589490499999943],[-51.79604009999997,-28.592058499999954],[-51.792524799999974,-28.597327199999928],[-51.79428279999997,-28.597747199999965],[-51.79511,-28.598388599999954],[-51.795383,-28.59917719999992],[-51.79453889999997,-28.60080039999997],[-51.79564279999994,-28.60218829999997],[-51.796595,-28.602376399999965],[-51.79752549999995,-28.602946499999966],[-51.79957609999997,-28.60291359999997],[-51.80019,-28.603125299999938],[-51.80202549999995,-28.605106099999947],[-51.80280029999994,-28.606697299999936],[-51.803310799999956,-28.607219599999954],[-51.803930599999944,-28.606565199999974],[-51.804475,-28.60667759999995],[-51.80593879999998,-28.603979],[-51.808845099999985,-28.607581599999946],[-51.80818059999995,-28.607659399999925],[-51.808236299999976,-28.60816969999996],[-51.80749119999996,-28.60828269999997],[-51.80409149999997,-28.607586],[-51.80401939999996,-28.60951719999998],[-51.80527379999995,-28.609213499999946],[-51.80767149999998,-28.609270599999945],[-51.81060679999996,-28.610454599999972],[-51.8123207,-28.609909599999988],[-51.81507689999996,-28.609616699999936],[-51.814127599999956,-28.607408],[-51.814279099999965,-28.606638399999948],[-51.816002099999935,-28.605793399999975],[-51.81591119999996,-28.609442899999962],[-51.81617819999997,-28.609304599999973],[-51.81838569999997,-28.60744949999998],[-51.82010669999994,-28.605401499999964],[-51.82217909999998,-28.60459439999995],[-51.82529859999994,-28.602253],[-51.82633609999994,-28.601761299999964],[-51.829114899999986,-28.601891199999947],[-51.831151899999945,-28.60243319999995],[-51.83358769999996,-28.602711899999978],[-51.83402479999995,-28.602504],[-51.83609679999995,-28.599828],[-51.83649879999995,-28.599793599999938],[-51.83767009999997,-28.600576],[-51.83894349999998,-28.60040219999995],[-51.83997109999996,-28.599920799999968],[-51.841848,-28.60193979999997],[-51.842186399999946,-28.601827899999932],[-51.84280649999994,-28.602895299999954],[-51.84397589999997,-28.603019],[-51.84498819999994,-28.60224909999994],[-51.84505929999995,-28.601124199999955],[-51.845511399999964,-28.599879199999968],[-51.847307899999976,-28.598346099999944],[-51.848468399999945,-28.59534059999993],[-51.85037059999997,-28.594684],[-51.850588899999934,-28.594271099999958],[-51.85237909999996,-28.59648079999994],[-51.85389209999994,-28.597730199999948],[-51.85567929999996,-28.598534299999987],[-51.857353099999955,-28.598211],[-51.85947769999996,-28.598484499999984],[-51.86143209999995,-28.599563899999964],[-51.862928599999975,-28.598697099999978],[-51.86346019999996,-28.597936599999965],[-51.86489119999993,-28.59686739999995],[-51.866453199999974,-28.596622099999923],[-51.867516199999955,-28.596802],[-51.86818679999993,-28.596474899999976],[-51.86842389999998,-28.59598419999997],[-51.868195,-28.594569499999974],[-51.87074659999997,-28.59337569999996],[-51.869735499999926,-28.592858699999958],[-51.86519119999997,-28.593040899999956],[-51.86166749999995,-28.595564699999965],[-51.85998019999994,-28.596284199999957],[-51.85914159999999,-28.59738749999996],[-51.857603,-28.597304299999955],[-51.857166699999944,-28.59706709999995],[-51.856569,-28.596227499999937],[-51.855007,-28.591697],[-51.853980599999936,-28.59058669999996],[-51.85365239999994,-28.59042579999994],[-51.85113219999994,-28.59042279999994],[-51.84899919999998,-28.589765599999975],[-51.84586149999996,-28.589552799999975],[-51.844366,-28.58919029999993],[-51.84372119999995,-28.588487599999954],[-51.84351419999995,-28.585995599999936],[-51.84281609999994,-28.584881399999983],[-51.84124849999995,-28.585114],[-51.83994649999994,-28.585844499999947],[-51.83852369999994,-28.58615769999994],[-51.837572199999954,-28.585677399999952],[-51.83685989999997,-28.582862599999945],[-51.83711619999997,-28.580970299999944],[-51.837950199999966,-28.58004979999998],[-51.84038929999998,-28.57904089999994],[-51.840528699999936,-28.577684799999926],[-51.83891059999997,-28.577628799999953],[-51.836964799999976,-28.577188299999936],[-51.83619609999993,-28.576406599999927],[-51.83545539999994,-28.57487649999996],[-51.834830499999946,-28.574265099999934],[-51.832916799999964,-28.57357609999997],[-51.83083319999997,-28.574901299999958],[-51.82902219999994,-28.577674199999926],[-51.82876769999996,-28.578501099999983],[-51.82840229999994,-28.578747],[-51.82826329999995,-28.579391599999944],[-51.827949399999966,-28.579396799999973],[-51.82677229999996,-28.578678099999934],[-51.82681,-28.574775499999934],[-51.82649619999996,-28.572850599999974],[-51.82679519999994,-28.57202809999997],[-51.82742889999997,-28.571397],[-51.82833169999998,-28.568682299999963],[-51.828641599999976,-28.56538519999998],[-51.82812249999995,-28.56489769999997],[-51.82750009999995,-28.565688799999972],[-51.825577799999955,-28.567105499999958],[-51.817610299999956,-28.571320899999947],[-51.808865,-28.576899399999938],[-51.80765139999994,-28.57848539999998],[-51.80605969999994,-28.581346399999966],[-51.803367399999956,-28.583751199999938],[-51.80251069999997,-28.585027499999967],[-51.80144039999993,-28.585146],[-51.79968019999995,-28.58466219999998],[-51.79788179999996,-28.584467],[-51.79662329999997,-28.584840799999927],[-51.795615099999964,-28.585436599999976]]]}},{"type":"Feature","properties":{"setor":"431400105000005","pop":404,"sigilo_pop":false,"dom":175,"sigilo_dom":0,"mulheres":195,"sigilo_mulheres":0,"c0_4":17,"sigilo_c0_4":0,"c5_9":24,"sigilo_c5_9":0,"i60_69":57,"sigilo_i60_69":0,"i70m":62,"sigilo_i70m":0,"indigenas":0,"sigilo_indigenas":0,"pretos_pardos":50,"sigilo_pretos_pardos":0,"dom_ocupados":156,"sigilo_dom_ocupados":0,"dom_agua":83,"sigilo_dom_agua":0,"dom_esgoto":null,"sigilo_dom_esgoto":1,"renda_resp":2463.59,"sigilo_renda_resp":0,"n_resp":156,"sigilo_n_resp":0,"dens":81.6,"sigilo_dens":false,"na_bacia":1,"area_pct_bacia":100.0,"metodo_recorte_bacia":"ponto_representativo_setor_2022; area_pct_geometrica","pop_n_validos":1,"pop_n_total":1,"pop_completude":1.0,"dom_n_validos":1,"dom_n_total":1,"dom_completude":1.0,"dom_ocupados_n_validos":1,"dom_ocupados_n_total":1,"dom_ocupados_completude":1.0,"mulheres_n_validos":1,"mulheres_n_total":1,"mulheres_completude":1.0,"c0_4_n_validos":1,"c0_4_n_total":1,"c0_4_completude":1.0,"c5_9_n_validos":1,"c5_9_n_total":1,"c5_9_completude":1.0,"i60_69_n_validos":1,"i60_69_n_total":1,"i60_69_completude":1.0,"i70m_n_validos":1,"i70m_n_total":1,"i70m_completude":1.0,"indigenas_n_validos":1,"indigenas_n_total":1,"indigenas_completude":1.0,"pretos_pardos_n_validos":1,"pretos_pardos_n_total":1,"pretos_pardos_completude":1.0,"dom_agua_n_validos":1,"dom_agua_n_total":1,"dom_agua_completude":1.0,"dom_esgoto_n_validos":0,"dom_esgoto_n_total":1,"dom_esgoto_completude":0.0,"n_resp_n_validos":1,"n_resp_n_total":1,"n_resp_completude":1.0,"renda_resp_n_validos":1,"renda_resp_n_total":1,"renda_resp_completude":1.0,"dens_n_validos":1,"dens_n_total":1,"dens_completude":1.0,"status_borda_bacia":"total","metodo_area_bacia":"interseção geométrica em EPSG:5880","metodo_na_bacia":"ponto_representativo_setor_2022_within_bacia","municipio":"Paraí","cod_mun":"4314001","mun_pct_na_bacia":100.0,"mun_pop_total":7194,"mun_pop_na_bacia":7194.0,"mun_ubs_iede":3,"mun_hospitais_iede":null,"mun_escolas_iede":null,"mun_bombeiros_iede":null,"mun_servicos_cobertura":"cadastro_IEDE_parcial_nao_inventario","mun_icm_faixa":"A","mun_icm_pontos":10,"mun_icm_prioritario":"não","mun_ubs_iede_status":"published","mun_hospitais_iede_status":"unknown","mun_escolas_iede_status":"unknown","mun_bombeiros_iede_status":"unknown"},"geometry":{"type":"Polygon","coordinates":[[[-51.7973674,-28.532108299999948],[-51.79747869999995,-28.534747599999942],[-51.79692529999995,-28.535411799999967],[-51.796585,-28.536396699999962],[-51.796845699999956,-28.536869499999955],[-51.79664559999997,-28.539230099999948],[-51.794942,-28.53956869999996],[-51.79489029999997,-28.540130699999956],[-51.79390439999997,-28.541730299999976],[-51.794640299999976,-28.542503799999952],[-51.79410279999996,-28.54294459999995],[-51.79436949999996,-28.543142799999934],[-51.79471029999996,-28.543010099999933],[-51.795108699999965,-28.542139899999942],[-51.79606019999994,-28.541074699999967],[-51.79777459999996,-28.54016239999993],[-51.79822759999997,-28.540187699999926],[-51.800148199999974,-28.542750299999962],[-51.80124569999999,-28.544766899999956],[-51.80398409999998,-28.545418799999936],[-51.805001,-28.545882299999946],[-51.80590379999995,-28.54595],[-51.806873,-28.546410299999927],[-51.80830369999995,-28.548248399999974],[-51.80905159999997,-28.54998689999997],[-51.80913249999998,-28.550732799999928],[-51.808967199999984,-28.551906699999964],[-51.807990299999965,-28.553771699999963],[-51.806032499999965,-28.55415029999994],[-51.80557019999998,-28.554758599999946],[-51.805801699999954,-28.55582639999995],[-51.80630189999994,-28.556399199999927],[-51.806437899999935,-28.559082],[-51.805821099999946,-28.560442399999936],[-51.80516019999993,-28.560924199999924],[-51.799672599999944,-28.563456],[-51.79984659999997,-28.56439339999997],[-51.800615599999965,-28.565981299999983],[-51.803743199999985,-28.569814599999972],[-51.80413109999996,-28.570538699999922],[-51.804149099999954,-28.571104],[-51.80373729999997,-28.572076],[-51.80281879999996,-28.573162799999977],[-51.80108319999994,-28.574125699999957],[-51.80150309999994,-28.576329299999937],[-51.80132469999995,-28.576943899999943],[-51.79987439999996,-28.578093699999943],[-51.79825559999995,-28.57829359999994],[-51.79772249999996,-28.578610199999954],[-51.79665289999997,-28.57960709999998],[-51.794696499999986,-28.582199],[-51.794433,-28.58320809999998],[-51.795615099999964,-28.585436599999976],[-51.79662329999997,-28.584840799999927],[-51.79788179999996,-28.584467],[-51.79968019999995,-28.58466219999998],[-51.80144039999993,-28.585146],[-51.80251069999997,-28.585027499999967],[-51.803367399999956,-28.583751199999938],[-51.80605969999994,-28.581346399999966],[-51.80765139999994,-28.57848539999998],[-51.808865,-28.576899399999938],[-51.817610299999956,-28.571320899999947],[-51.825577799999955,-28.567105499999958],[-51.82750009999995,-28.565688799999972],[-51.82812249999995,-28.56489769999997],[-51.82458719999994,-28.562995599999965],[-51.82336559999993,-28.563124],[-51.82285429999996,-28.56348169999996],[-51.821703,-28.567550699999963],[-51.820968599999965,-28.56801729999995],[-51.81992759999997,-28.567939399999933],[-51.81929839999999,-28.56756419999992],[-51.81748019999998,-28.564820499999943],[-51.816700499999975,-28.564261],[-51.81675069999995,-28.564004899999922],[-51.813224799999944,-28.562046899999928],[-51.80985309999995,-28.559683599999964],[-51.808380099999965,-28.557973499999935],[-51.80843269999997,-28.55721969999996],[-51.81067749999994,-28.55592349999996],[-51.812361299999964,-28.55452149999997],[-51.814093599999985,-28.552069399999944],[-51.81399169999997,-28.551279499999954],[-51.81186409999998,-28.549488099999955],[-51.81097009999996,-28.548389],[-51.80926939999994,-28.545420699999962],[-51.808656799999945,-28.544835199999966],[-51.807672,-28.544453299999933],[-51.804652799999985,-28.544302799999976],[-51.80293389999997,-28.54396069999994],[-51.80251979999998,-28.543380099999982],[-51.80284829999994,-28.542603899999953],[-51.80395669999996,-28.54175049999998],[-51.80574079999997,-28.54084849999999],[-51.80594869999993,-28.54032589999996],[-51.805412599999954,-28.53956769999997],[-51.80320089999998,-28.538169],[-51.80264379999995,-28.53759759999996],[-51.80148849999995,-28.534783399999977],[-51.79958849999997,-28.532104],[-51.798931799999934,-28.531747799999945],[-51.798229799999945,-28.5316931],[-51.79770229999997,-28.531785099999965],[-51.7973674,-28.532108299999948]]]}},{"type":"Feature","properties":{"setor":"431400105000007","pop":162,"sigilo_pop":false,"dom":68,"sigilo_dom":0,"mulheres":80,"sigilo_mulheres":0,"c0_4":null,"sigilo_c0_4":1,"c5_9":null,"sigilo_c5_9":1,"i60_69":21,"sigilo_i60_69":0,"i70m":25,"sigilo_i70m":0,"indigenas":0,"sigilo_indigenas":0,"pretos_pardos":26,"sigilo_pretos_pardos":0,"dom_ocupados":56,"sigilo_dom_ocupados":0,"dom_agua":11,"sigilo_dom_agua":0,"dom_esgoto":0,"sigilo_dom_esgoto":0,"renda_resp":3040.96,"sigilo_renda_resp":0,"n_resp":56,"sigilo_n_resp":0,"dens":11.2,"sigilo_dens":false,"na_bacia":1,"area_pct_bacia":100.0,"metodo_recorte_bacia":"ponto_representativo_setor_2022; area_pct_geometrica","pop_n_validos":1,"pop_n_total":1,"pop_completude":1.0,"dom_n_validos":1,"dom_n_total":1,"dom_completude":1.0,"dom_ocupados_n_validos":1,"dom_ocupados_n_total":1,"dom_ocupados_completude":1.0,"mulheres_n_validos":1,"mulheres_n_total":1,"mulheres_completude":1.0,"c0_4_n_validos":0,"c0_4_n_total":1,"c0_4_completude":0.0,"c5_9_n_validos":0,"c5_9_n_total":1,"c5_9_completude":0.0,"i60_69_n_validos":1,"i60_69_n_total":1,"i60_69_completude":1.0,"i70m_n_validos":1,"i70m_n_total":1,"i70m_completude":1.0,"indigenas_n_validos":1,"indigenas_n_total":1,"indigenas_completude":1.0,"pretos_pardos_n_validos":1,"pretos_pardos_n_total":1,"pretos_pardos_completude":1.0,"dom_agua_n_validos":1,"dom_agua_n_total":1,"dom_agua_completude":1.0,"dom_esgoto_n_validos":1,"dom_esgoto_n_total":1,"dom_esgoto_completude":1.0,"n_resp_n_validos":1,"n_resp_n_total":1,"n_resp_completude":1.0,"renda_resp_n_validos":1,"renda_resp_n_total":1,"renda_resp_completude":1.0,"dens_n_validos":1,"dens_n_total":1,"dens_completude":1.0,"status_borda_bacia":"total","metodo_area_bacia":"interseção geométrica em EPSG:5880","metodo_na_bacia":"ponto_representativo_setor_2022_within_bacia","municipio":"Paraí","cod_mun":"4314001","mun_pct_na_bacia":100.0,"mun_pop_total":7194,"mun_pop_na_bacia":7194.0,"mun_ubs_iede":3,"mun_hospitais_iede":null,"mun_escolas_iede":null,"mun_bombeiros_iede":null,"mun_servicos_cobertura":"cadastro_IEDE_parcial_nao_inventario","mun_icm_faixa":"A","mun_icm_pontos":10,"mun_icm_prioritario":"não","mun_ubs_iede_status":"published","mun_hospitais_iede_status":"unknown","mun_escolas_iede_status":"unknown","mun_bombeiros_iede_status":"unknown"},"geometry":{"type":"Polygon","coordinates":[[[-51.74043859999995,-28.548585699999933],[-51.73997589999994,-28.549535599999952],[-51.739273499999975,-28.549867699999933],[-51.738811,-28.550828499999962],[-51.73748189999998,-28.551710499999952],[-51.73745569999994,-28.55233609999993],[-51.73674589999996,-28.552740099999948],[-51.73680339999998,-28.55331139999998],[-51.73604509999996,-28.554261299999947],[-51.7355285,-28.55479079999997],[-51.73430309999998,-28.554994099999934],[-51.734031,-28.55547769999998],[-51.73339359999994,-28.555888799999934],[-51.73337029999993,-28.556239699999928],[-51.732371099999966,-28.557070199999945],[-51.732374,-28.55848],[-51.73112859999998,-28.558919699999937],[-51.73020289999994,-28.560698799999958],[-51.72971039999993,-28.562804299999975],[-51.730479799999955,-28.56393939999998],[-51.73020759999997,-28.56461479999995],[-51.72847169999995,-28.565214799999985],[-51.72823979999998,-28.565895599999976],[-51.727261299999945,-28.56631019999997],[-51.72696,-28.566790799999985],[-51.727013,-28.567514699999943],[-51.72639209999994,-28.568300799999967],[-51.72640769999998,-28.56915009999995],[-51.728182699999934,-28.570597599999935],[-51.728308899999945,-28.571212199999938],[-51.7287252,-28.571073],[-51.72853769999995,-28.57222949999993],[-51.728274699999986,-28.572266199999948],[-51.72830619999996,-28.572837399999973],[-51.728953299999944,-28.572921199999943],[-51.72863849999994,-28.573332399999966],[-51.728723599999974,-28.57407539999996],[-51.72832529999994,-28.574384599999984],[-51.72820209999998,-28.574984299999986],[-51.72751779999999,-28.57530719999993],[-51.72718749999996,-28.576023599999928],[-51.726487,-28.57654589999992],[-51.725020599999944,-28.57631739999994],[-51.72366549999999,-28.57645649999996],[-51.722655299999985,-28.577951399999957],[-51.72175679999998,-28.577799599999942],[-51.721231899999964,-28.577977299999922],[-51.720619099999965,-28.57862739999995],[-51.72098169999999,-28.580004399999943],[-51.72028009999996,-28.58037529999995],[-51.71965169999998,-28.581857],[-51.71870719999998,-28.582079299999975],[-51.71811259999998,-28.583297699999957],[-51.717677,-28.583426699999965],[-51.71701519999994,-28.583178399999962],[-51.71450109999995,-28.583380299999934],[-51.71393489999997,-28.583715699999974],[-51.71373429999994,-28.584237],[-51.712365799999986,-28.584948899999976],[-51.71208569999994,-28.585926599999922],[-51.71186079999995,-28.585925299999925],[-51.711283499999986,-28.58667689999994],[-51.71136359999997,-28.587434399999943],[-51.71053139999997,-28.589007599999945],[-51.71084809999996,-28.589587099999953],[-51.709954,-28.590168199999926],[-51.707961599999976,-28.592414499999954],[-51.70803839999996,-28.593634099999985],[-51.70769249999995,-28.594440599999928],[-51.70797269999997,-28.59467489999997],[-51.70809269999995,-28.595843199999944],[-51.70785189999998,-28.596415499999974],[-51.70752589999995,-28.596503299999945],[-51.70892669999994,-28.599414499999963],[-51.708635,-28.602954],[-51.708341799999964,-28.603450399999925],[-51.70694969999994,-28.604302899999933],[-51.70597949999996,-28.605753499999935],[-51.70517069999994,-28.607079],[-51.704713799999986,-28.60934119999997],[-51.707445,-28.60980889999996],[-51.708674,-28.609778899999977],[-51.71155659999994,-28.608637599999945],[-51.713971199999946,-28.608012599999938],[-51.71496789999998,-28.60855309999994],[-51.71586179999998,-28.60853609999997],[-51.71626269999996,-28.608741099999975],[-51.718078599999956,-28.60992869999995],[-51.71878369999996,-28.611040599999974],[-51.72135309999993,-28.61224],[-51.723953299999955,-28.612000399999946],[-51.72595179999997,-28.609519599999945],[-51.72470569999995,-28.60925219999995],[-51.72419509999998,-28.607056299999947],[-51.72437649999995,-28.606265899999986],[-51.72530759999995,-28.605363099999977],[-51.726764199999934,-28.60289539999996],[-51.72634049999994,-28.602099299999967],[-51.726465099999984,-28.60085349999996],[-51.72677679999998,-28.600528899999972],[-51.73012259999996,-28.59955259999999],[-51.732752199999936,-28.597455799999977],[-51.73277329999996,-28.595059099999965],[-51.73712,-28.586422299999985],[-51.739190399999984,-28.586586899999926],[-51.7451,-28.58065459999994],[-51.7486196,-28.581003],[-51.75235759999998,-28.58086439999994],[-51.75213969999999,-28.580367199999955],[-51.75227009999998,-28.580104299999963],[-51.75927559999997,-28.57340049999994],[-51.759979499999986,-28.570649499999945],[-51.759214,-28.570072499999984],[-51.75514919999995,-28.569182499999954],[-51.75468979999994,-28.569156799999984],[-51.75353429999996,-28.569712],[-51.75088079999995,-28.56936379999996],[-51.74760059999994,-28.56745],[-51.74582,-28.564940199999963],[-51.745696,-28.56431269999995],[-51.7460215,-28.56380189999993],[-51.74702,-28.563111099999954],[-51.74695359999998,-28.56203269999996],[-51.74938359999993,-28.56076039999994],[-51.74907319999994,-28.56050909999994],[-51.74891149999996,-28.559519299999984],[-51.74906939999994,-28.558858599999947],[-51.748595199999954,-28.558707099999946],[-51.74869229999996,-28.557927199999938],[-51.74829109999997,-28.55726279999994],[-51.748352299999965,-28.556663],[-51.747634699999935,-28.555919],[-51.747843299999936,-28.55499249999997],[-51.74713719999994,-28.552249],[-51.74678969999996,-28.551894199999936],[-51.74617349999995,-28.55176389999997],[-51.745966099999976,-28.550992299999965],[-51.74524,-28.551034799999968],[-51.74399419999997,-28.549661499999957],[-51.743005799999935,-28.549655599999927],[-51.74127669999996,-28.54870879999993],[-51.74043859999995,-28.548585699999933]]]}},{"type":"Feature","properties":{"setor":"431400105000008","pop":305,"sigilo_pop":false,"dom":113,"sigilo_dom":0,"mulheres":137,"sigilo_mulheres":0,"c0_4":17,"sigilo_c0_4":0,"c5_9":16,"sigilo_c5_9":0,"i60_69":64,"sigilo_i60_69":0,"i70m":35,"sigilo_i70m":0,"indigenas":0,"sigilo_indigenas":0,"pretos_pardos":22,"sigilo_pretos_pardos":0,"dom_ocupados":103,"sigilo_dom_ocupados":0,"dom_agua":8,"sigilo_dom_agua":0,"dom_esgoto":0,"sigilo_dom_esgoto":0,"renda_resp":4868.38,"sigilo_renda_resp":0,"n_resp":103,"sigilo_n_resp":0,"dens":12.3,"sigilo_dens":false,"na_bacia":1,"area_pct_bacia":100.0,"metodo_recorte_bacia":"ponto_representativo_setor_2022; area_pct_geometrica","pop_n_validos":1,"pop_n_total":1,"pop_completude":1.0,"dom_n_validos":1,"dom_n_total":1,"dom_completude":1.0,"dom_ocupados_n_validos":1,"dom_ocupados_n_total":1,"dom_ocupados_completude":1.0,"mulheres_n_validos":1,"mulheres_n_total":1,"mulheres_completude":1.0,"c0_4_n_validos":1,"c0_4_n_total":1,"c0_4_completude":1.0,"c5_9_n_validos":1,"c5_9_n_total":1,"c5_9_completude":1.0,"i60_69_n_validos":1,"i60_69_n_total":1,"i60_69_completude":1.0,"i70m_n_validos":1,"i70m_n_total":1,"i70m_completude":1.0,"indigenas_n_validos":1,"indigenas_n_total":1,"indigenas_completude":1.0,"pretos_pardos_n_validos":1,"pretos_pardos_n_total":1,"pretos_pardos_completude":1.0,"dom_agua_n_validos":1,"dom_agua_n_total":1,"dom_agua_completude":1.0,"dom_esgoto_n_validos":1,"dom_esgoto_n_total":1,"dom_esgoto_completude":1.0,"n_resp_n_validos":1,"n_resp_n_total":1,"n_resp_completude":1.0,"renda_resp_n_validos":1,"renda_resp_n_total":1,"renda_resp_completude":1.0,"dens_n_validos":1,"dens_n_total":1,"dens_completude":1.0,"status_borda_bacia":"total","metodo_area_bacia":"interseção geométrica em EPSG:5880","metodo_na_bacia":"ponto_representativo_setor_2022_within_bacia","municipio":"Paraí","cod_mun":"4314001","mun_pct_na_bacia":100.0,"mun_pop_total":7194,"mun_pop_na_bacia":7194.0,"mun_ubs_iede":3,"mun_hospitais_iede":null,"mun_escolas_iede":null,"mun_bombeiros_iede":null,"mun_servicos_cobertura":"cadastro_IEDE_parcial_nao_inventario","mun_icm_faixa":"A","mun_icm_pontos":10,"mun_icm_prioritario":"não","mun_ubs_iede_status":"published","mun_hospitais_iede_status":"unknown","mun_escolas_iede_status":"unknown","mun_bombeiros_iede_status":"unknown"},"geometry":{"type":"Polygon","coordinates":[[[-51.75781529999994,-28.58063489999995],[-51.7486196,-28.581003],[-51.7451,-28.58065459999994],[-51.739190399999984,-28.586586899999926],[-51.73712,-28.586422299999985],[-51.73277329999996,-28.595059099999965],[-51.732752199999936,-28.597455799999977],[-51.73012259999996,-28.59955259999999],[-51.72677679999998,-28.600528899999972],[-51.726465099999984,-28.60085349999996],[-51.72634049999994,-28.602099299999967],[-51.726764199999934,-28.60289539999996],[-51.72530759999995,-28.605363099999977],[-51.72437649999995,-28.606265899999986],[-51.72419509999998,-28.607056299999947],[-51.72470569999995,-28.60925219999995],[-51.72595179999997,-28.609519599999945],[-51.723953299999955,-28.612000399999946],[-51.72194719999994,-28.61229249999997],[-51.72074519999995,-28.611969799999926],[-51.720203899999944,-28.612175],[-51.719531899999936,-28.61333259999998],[-51.720987,-28.61482969999997],[-51.721032599999944,-28.615249],[-51.72279409999993,-28.615967099999978],[-51.72312,-28.618668299999968],[-51.723597,-28.61929059999994],[-51.725282,-28.62040209999999],[-51.725838299999964,-28.621342],[-51.72772089999996,-28.62245739999997],[-51.727872599999955,-28.624283599999952],[-51.728956299999936,-28.625969299999948],[-51.72910919999998,-28.627275299999948],[-51.72989569999998,-28.62783159999997],[-51.729955,-28.628254],[-51.73014589999997,-28.628422099999963],[-51.730860199999945,-28.62831519999997],[-51.731464,-28.628672599999955],[-51.73216969999998,-28.628485],[-51.734609699999965,-28.62889269999993],[-51.736616899999945,-28.630331199999933],[-51.73729859999998,-28.63059219999996],[-51.73913829999998,-28.63230509999993],[-51.739931899999924,-28.632527299999943],[-51.740281,-28.63298659999998],[-51.74109129999993,-28.633060299999954],[-51.74160079999996,-28.632859899999964],[-51.74399389999996,-28.633447199999974],[-51.74478639999996,-28.633407599999938],[-51.746749,-28.634003799999963],[-51.747514499999966,-28.63387809999994],[-51.74810569999995,-28.634086699999944],[-51.749215,-28.633893899999975],[-51.74972679999996,-28.634167],[-51.74987139999997,-28.63472329999996],[-51.750702399999966,-28.63486809999995],[-51.75206769999994,-28.63441459999995],[-51.75249379999997,-28.635340699999972],[-51.75351579999994,-28.63572039999997],[-51.754326399999975,-28.635643699999942],[-51.75492,-28.63587209999997],[-51.755627499999946,-28.63655559999995],[-51.75642369999997,-28.636044099999943],[-51.75767109999998,-28.63623],[-51.758031899999935,-28.634953599999964],[-51.75859759999997,-28.63468289999997],[-51.75920819999994,-28.634613099999967],[-51.759744299999966,-28.635377],[-51.76045409999995,-28.635130299999958],[-51.76224419999994,-28.635101099999936],[-51.762971099999966,-28.635549499999957],[-51.76412019999998,-28.63478069999996],[-51.764994,-28.63448059999996],[-51.76524869999997,-28.634154899999945],[-51.765804,-28.63412409999995],[-51.76697819999998,-28.634375099999943],[-51.76717089999994,-28.63528289999994],[-51.76756379999995,-28.635540499999937],[-51.77048759999997,-28.63514579999998],[-51.77221089999995,-28.635715399999984],[-51.773096099999975,-28.635393499999964],[-51.77399759999997,-28.634737899999944],[-51.77416219999998,-28.633590499999972],[-51.77473709999998,-28.63301179999996],[-51.77621589999995,-28.632557099999936],[-51.77859989999996,-28.630911499999968],[-51.78038309999994,-28.630596],[-51.78066769999999,-28.628899299999947],[-51.77999109999997,-28.62761029999996],[-51.77820019999996,-28.626872899999967],[-51.778286499999986,-28.625878099999973],[-51.777392,-28.624317899999934],[-51.777200499999935,-28.621427599999944],[-51.77673609999994,-28.620344099999958],[-51.77688479999995,-28.619693399999964],[-51.77750889999999,-28.618948499999934],[-51.777349899999926,-28.617439599999948],[-51.77664409999994,-28.616207399999944],[-51.77598869999997,-28.61416289999995],[-51.77611859999996,-28.612549499999947],[-51.77558709999993,-28.611065499999945],[-51.774305099999935,-28.610291899999932],[-51.77313319999997,-28.60997809999997],[-51.7705352,-28.608425199999953],[-51.769826499999965,-28.60672069999998],[-51.769904,-28.605850399999944],[-51.768789199999965,-28.60550439999998],[-51.76838459999993,-28.604380299999946],[-51.76738789999996,-28.60391979999997],[-51.766740099999936,-28.60286549999995],[-51.76672119999994,-28.602130299999935],[-51.767351399999946,-28.60102719999998],[-51.767655899999966,-28.60011009999994],[-51.76756039999998,-28.599412199999954],[-51.76791619999995,-28.598721699999935],[-51.768601,-28.597863499999953],[-51.770628399999964,-28.596462199999944],[-51.77482239999995,-28.597765],[-51.77864009999996,-28.597275599999932],[-51.77748,-28.59028649999993],[-51.7764112,-28.58940719999999],[-51.775329699999986,-28.588915099999948],[-51.77378619999997,-28.58881339999994],[-51.773374,-28.589012199999953],[-51.77278019999995,-28.589798499999965],[-51.76911529999995,-28.589425099999968],[-51.76733959999996,-28.58827339999994],[-51.76438589999998,-28.58766749999995],[-51.76227839999995,-28.585071899999946],[-51.76151309999995,-28.58304069999997],[-51.759743499999956,-28.58225279999994],[-51.758604899999966,-28.580791499999968],[-51.75781529999994,-28.58063489999995]]]}},{"type":"Feature","properties":{"setor":"431400105000009","pop":434,"sigilo_pop":false,"dom":187,"sigilo_dom":0,"mulheres":221,"sigilo_mulheres":0,"c0_4":26,"sigilo_c0_4":0,"c5_9":21,"sigilo_c5_9":0,"i60_69":73,"sigilo_i60_69":0,"i70m":51,"sigilo_i70m":0,"indigenas":0,"sigilo_indigenas":0,"pretos_pardos":null,"sigilo_pretos_pardos":1,"dom_ocupados":157,"sigilo_dom_ocupados":0,"dom_agua":18,"sigilo_dom_agua":0,"dom_esgoto":0,"sigilo_dom_esgoto":0,"renda_resp":4988.48,"sigilo_renda_resp":0,"n_resp":157,"sigilo_n_resp":0,"dens":20.1,"sigilo_dens":false,"na_bacia":1,"area_pct_bacia":100.0,"metodo_recorte_bacia":"ponto_representativo_setor_2022; area_pct_geometrica","pop_n_validos":1,"pop_n_total":1,"pop_completude":1.0,"dom_n_validos":1,"dom_n_total":1,"dom_completude":1.0,"dom_ocupados_n_validos":1,"dom_ocupados_n_total":1,"dom_ocupados_completude":1.0,"mulheres_n_validos":1,"mulheres_n_total":1,"mulheres_completude":1.0,"c0_4_n_validos":1,"c0_4_n_total":1,"c0_4_completude":1.0,"c5_9_n_validos":1,"c5_9_n_total":1,"c5_9_completude":1.0,"i60_69_n_validos":1,"i60_69_n_total":1,"i60_69_completude":1.0,"i70m_n_validos":1,"i70m_n_total":1,"i70m_completude":1.0,"indigenas_n_validos":1,"indigenas_n_total":1,"indigenas_completude":1.0,"pretos_pardos_n_validos":0,"pretos_pardos_n_total":1,"pretos_pardos_completude":0.0,"dom_agua_n_validos":1,"dom_agua_n_total":1,"dom_agua_completude":1.0,"dom_esgoto_n_validos":1,"dom_esgoto_n_total":1,"dom_esgoto_completude":1.0,"n_resp_n_validos":1,"n_resp_n_total":1,"n_resp_completude":1.0,"renda_resp_n_validos":1,"renda_resp_n_total":1,"renda_resp_completude":1.0,"dens_n_validos":1,"dens_n_total":1,"dens_completude":1.0,"status_borda_bacia":"total","metodo_area_bacia":"interseção geométrica em EPSG:5880","metodo_na_bacia":"ponto_representativo_setor_2022_within_bacia","municipio":"Paraí","cod_mun":"4314001","mun_pct_na_bacia":100.0,"mun_pop_total":7194,"mun_pop_na_bacia":7194.0,"mun_ubs_iede":3,"mun_hospitais_iede":null,"mun_escolas_iede":null,"mun_bombeiros_iede":null,"mun_servicos_cobertura":"cadastro_IEDE_parcial_nao_inventario","mun_icm_faixa":"A","mun_icm_pontos":10,"mun_icm_prioritario":"não","mun_ubs_iede_status":"published","mun_hospitais_iede_status":"unknown","mun_escolas_iede_status":"unknown","mun_bombeiros_iede_status":"unknown"},"geometry":{"type":"Polygon","coordinates":[[[-51.81591119999996,-28.609442899999962],[-51.81576679999995,-28.612794],[-51.81156729999998,-28.61266639999997],[-51.811014599999965,-28.6113286],[-51.810298899999964,-28.61040809999997],[-51.80903669999998,-28.60972129999994],[-51.80693859999997,-28.609215599999967],[-51.80527379999995,-28.609213499999946],[-51.803214899999944,-28.609566599999937],[-51.80373439999994,-28.610584399999933],[-51.80375909999998,-28.61198359999996],[-51.79538089999994,-28.611790199999966],[-51.79117419999994,-28.60654659999994],[-51.785952099999975,-28.604144499999958],[-51.78301129999995,-28.603177199999948],[-51.78026689999996,-28.59837039999996],[-51.77864009999996,-28.597275599999932],[-51.77482239999995,-28.597765],[-51.770628399999964,-28.596462199999944],[-51.768601,-28.597863499999953],[-51.76791619999995,-28.598721699999935],[-51.76756039999998,-28.599412199999954],[-51.767655899999966,-28.60011009999994],[-51.767351399999946,-28.60102719999998],[-51.76672119999994,-28.602130299999935],[-51.766740099999936,-28.60286549999995],[-51.76738789999996,-28.60391979999997],[-51.76838459999993,-28.604380299999946],[-51.768789199999965,-28.60550439999998],[-51.769904,-28.605850399999944],[-51.769826499999965,-28.60672069999998],[-51.7705352,-28.608425199999953],[-51.77313319999997,-28.60997809999997],[-51.774305099999935,-28.610291899999932],[-51.77558709999993,-28.611065499999945],[-51.77611859999996,-28.612549499999947],[-51.77598869999997,-28.61416289999995],[-51.77664409999994,-28.616207399999944],[-51.777349899999926,-28.617439599999948],[-51.77750889999999,-28.618948499999934],[-51.77688479999995,-28.619693399999964],[-51.77673609999994,-28.620344099999958],[-51.777200499999935,-28.621427599999944],[-51.777392,-28.624317899999934],[-51.778286499999986,-28.625878099999973],[-51.77820019999996,-28.626872899999967],[-51.77999109999997,-28.62761029999996],[-51.780574,-28.62866579999996],[-51.78069089999997,-28.629130599999936],[-51.78038309999994,-28.630596],[-51.78091279999996,-28.631092299999967],[-51.78089949999998,-28.632372499999967],[-51.78126649999996,-28.63284059999996],[-51.78154409999996,-28.632847499999976],[-51.78240019999998,-28.631996199999943],[-51.782867,-28.631851499999975],[-51.783464199999976,-28.6320717],[-51.784871599999974,-28.633282599999966],[-51.785098699999935,-28.634161099999968],[-51.784606199999985,-28.636256699999937],[-51.785003,-28.63701069999995],[-51.7863091,-28.636914299999937],[-51.788019899999945,-28.637424499999945],[-51.78967409999996,-28.638913],[-51.79034329999996,-28.638673799999925],[-51.79119379999998,-28.63871219999992],[-51.79185009999997,-28.63818349999996],[-51.79254069999996,-28.638117799999975],[-51.79295749999994,-28.6391551],[-51.793514799999976,-28.639572],[-51.79357159999995,-28.640175299999942],[-51.793298099999966,-28.64087579999995],[-51.79210449999994,-28.64117729999998],[-51.791832399999976,-28.641678699999936],[-51.79217109999997,-28.643058299999954],[-51.793801,-28.644191499999973],[-51.79509129999997,-28.641156099999932],[-51.795529,-28.640519399999956],[-51.796695599999964,-28.639586],[-51.80432729999995,-28.63455269999997],[-51.814963899999945,-28.629644299999935],[-51.81808639999998,-28.626846599999972],[-51.82426349999997,-28.623508799999954],[-51.826258799999955,-28.622806699999956],[-51.83043419999996,-28.62182389999999],[-51.838271599999985,-28.618842099999938],[-51.844626699999935,-28.617131699999952],[-51.84969849999993,-28.616148],[-51.85273909999995,-28.616102],[-51.854962899999975,-28.615260599999946],[-51.85358209999998,-28.613973],[-51.85114579999998,-28.612977799999946],[-51.84834529999995,-28.610484499999977],[-51.848264599999936,-28.60923209999992],[-51.848623299999986,-28.608021899999986],[-51.849147599999974,-28.60738019999997],[-51.85055139999997,-28.60664279999997],[-51.85465839999995,-28.605804299999928],[-51.855800099999946,-28.605806899999948],[-51.85707119999995,-28.606153],[-51.86123389999995,-28.610300699999982],[-51.86220209999994,-28.611683],[-51.86476249999998,-28.612872799999927],[-51.8656572,-28.613518799999945],[-51.866700799999926,-28.613757899999936],[-51.86724619999996,-28.61309019999993],[-51.867439,-28.610869099999945],[-51.866872099999966,-28.608872199999944],[-51.86531209999998,-28.599660899999936],[-51.866050499999965,-28.598929599999963],[-51.86801289999994,-28.599079899999932],[-51.86927839999998,-28.59848],[-51.870251199999984,-28.597264],[-51.871439,-28.595071599999976],[-51.871559899999966,-28.594200699999934],[-51.87132379999998,-28.593707199999976],[-51.87074659999997,-28.59337569999996],[-51.86895959999998,-28.594146299999977],[-51.868195,-28.594569499999974],[-51.86842389999998,-28.59598419999997],[-51.86818679999993,-28.596474899999976],[-51.867516199999955,-28.596802],[-51.866453199999974,-28.596622099999923],[-51.86489119999993,-28.59686739999995],[-51.86346019999996,-28.597936599999965],[-51.862928599999975,-28.598697099999978],[-51.86143209999995,-28.599563899999964],[-51.85947769999996,-28.598484499999984],[-51.857353099999955,-28.598211],[-51.85567929999996,-28.598534299999987],[-51.85389209999994,-28.597730199999948],[-51.85237909999996,-28.59648079999994],[-51.850588899999934,-28.594271099999958],[-51.85037059999997,-28.594684],[-51.848468399999945,-28.59534059999993],[-51.847307899999976,-28.598346099999944],[-51.845511399999964,-28.599879199999968],[-51.84505929999995,-28.601124199999955],[-51.84498819999994,-28.60224909999994],[-51.84397589999997,-28.603019],[-51.84280649999994,-28.602895299999954],[-51.842186399999946,-28.601827899999932],[-51.841848,-28.60193979999997],[-51.83997109999996,-28.599920799999968],[-51.83894349999998,-28.60040219999995],[-51.83767009999997,-28.600576],[-51.83649879999995,-28.599793599999938],[-51.83609679999995,-28.599828],[-51.83402479999995,-28.602504],[-51.83358769999996,-28.602711899999978],[-51.831151899999945,-28.60243319999995],[-51.829114899999986,-28.601891199999947],[-51.82633609999994,-28.601761299999964],[-51.82529859999994,-28.602253],[-51.82217909999998,-28.60459439999995],[-51.82010669999994,-28.605401499999964],[-51.81838569999997,-28.60744949999998],[-51.81591119999996,-28.609442899999962]],[[-51.80442369999997,-28.619984599999956],[-51.805272299999956,-28.61994179999994],[-51.80535389999994,-28.620451399999983],[-51.80651579999994,-28.62047409999997],[-51.80653209999997,-28.62020659999996],[-51.80900109999993,-28.620358799999956],[-51.809055299999955,-28.620043099999968],[-51.80997339999993,-28.620115199999933],[-51.809815199999946,-28.622652199999944],[-51.80538909999996,-28.62231939999998],[-51.80463129999998,-28.622972099999973],[-51.80442369999997,-28.619984599999956]]]}},{"type":"Feature","properties":{"setor":"431400105000010","pop":429,"sigilo_pop":false,"dom":205,"sigilo_dom":0,"mulheres":202,"sigilo_mulheres":0,"c0_4":17,"sigilo_c0_4":0,"c5_9":20,"sigilo_c5_9":0,"i60_69":72,"sigilo_i60_69":0,"i70m":46,"sigilo_i70m":0,"indigenas":0,"sigilo_indigenas":0,"pretos_pardos":null,"sigilo_pretos_pardos":1,"dom_ocupados":155,"sigilo_dom_ocupados":0,"dom_agua":3,"sigilo_dom_agua":0,"dom_esgoto":0,"sigilo_dom_esgoto":0,"renda_resp":6053.34,"sigilo_renda_resp":0,"n_resp":155,"sigilo_n_resp":0,"dens":24.7,"sigilo_dens":false,"na_bacia":1,"area_pct_bacia":100.0,"metodo_recorte_bacia":"ponto_representativo_setor_2022; area_pct_geometrica","pop_n_validos":1,"pop_n_total":1,"pop_completude":1.0,"dom_n_validos":1,"dom_n_total":1,"dom_completude":1.0,"dom_ocupados_n_validos":1,"dom_ocupados_n_total":1,"dom_ocupados_completude":1.0,"mulheres_n_validos":1,"mulheres_n_total":1,"mulheres_completude":1.0,"c0_4_n_validos":1,"c0_4_n_total":1,"c0_4_completude":1.0,"c5_9_n_validos":1,"c5_9_n_total":1,"c5_9_completude":1.0,"i60_69_n_validos":1,"i60_69_n_total":1,"i60_69_completude":1.0,"i70m_n_validos":1,"i70m_n_total":1,"i70m_completude":1.0,"indigenas_n_validos":1,"indigenas_n_total":1,"indigenas_completude":1.0,"pretos_pardos_n_validos":0,"pretos_pardos_n_total":1,"pretos_pardos_completude":0.0,"dom_agua_n_validos":1,"dom_agua_n_total":1,"dom_agua_completude":1.0,"dom_esgoto_n_validos":1,"dom_esgoto_n_total":1,"dom_esgoto_completude":1.0,"n_resp_n_validos":1,"n_resp_n_total":1,"n_resp_completude":1.0,"renda_resp_n_validos":1,"renda_resp_n_total":1,"renda_resp_completude":1.0,"dens_n_validos":1,"dens_n_total":1,"dens_completude":1.0,"status_borda_bacia":"total","metodo_area_bacia":"interseção geométrica em EPSG:5880","metodo_na_bacia":"ponto_representativo_setor_2022_within_bacia","municipio":"Paraí","cod_mun":"4314001","mun_pct_na_bacia":100.0,"mun_pop_total":7194,"mun_pop_na_bacia":7194.0,"mun_ubs_iede":3,"mun_hospitais_iede":null,"mun_escolas_iede":null,"mun_bombeiros_iede":null,"mun_servicos_cobertura":"cadastro_IEDE_parcial_nao_inventario","mun_icm_faixa":"A","mun_icm_pontos":10,"mun_icm_prioritario":"não","mun_ubs_iede_status":"published","mun_hospitais_iede_status":"unknown","mun_escolas_iede_status":"unknown","mun_bombeiros_iede_status":"unknown"},"geometry":{"type":"Polygon","coordinates":[[[-51.793801,-28.644191499999973],[-51.794353,-28.64585429999994],[-51.79481839999994,-28.646211499999932],[-51.79473929999995,-28.646682599999956],[-51.7951978,-28.64700069999997],[-51.79542309999993,-28.64823319999993],[-51.796033,-28.648574699999987],[-51.797238,-28.65063369999995],[-51.79830679999998,-28.651442599999932],[-51.798360099999975,-28.652174099999975],[-51.79907459999998,-28.65290969999995],[-51.80034169999994,-28.65296659999996],[-51.80042219999996,-28.653185299999947],[-51.80122609999995,-28.653449599999934],[-51.80312649999996,-28.652356499999954],[-51.804321,-28.652155199999974],[-51.80564519999996,-28.652266499999946],[-51.80654839999994,-28.651990899999934],[-51.809763799999985,-28.65167189999995],[-51.81049889999998,-28.652222899999973],[-51.81101829999995,-28.65311419999994],[-51.812671099999925,-28.654155899999964],[-51.81319589999998,-28.65325719999992],[-51.81284869999996,-28.650270299999928],[-51.813945,-28.649950799999935],[-51.815584299999955,-28.65006959999995],[-51.81872819999995,-28.649883499999934],[-51.81920179999997,-28.650258799999946],[-51.81912879999994,-28.652031899999937],[-51.81966819999997,-28.65256789999995],[-51.82093579999997,-28.653023299999973],[-51.82164249999994,-28.653599699999965],[-51.82471389999995,-28.654523399999956],[-51.827013799999975,-28.65573869999997],[-51.827639899999944,-28.655750399999928],[-51.827994899999965,-28.656281299999936],[-51.827813,-28.65762509999997],[-51.82883829999997,-28.658269899999933],[-51.82974819999998,-28.658164],[-51.83041529999997,-28.65842709999998],[-51.831314599999985,-28.65843959999995],[-51.83347529999998,-28.655869],[-51.83564439999998,-28.655270499999975],[-51.839585,-28.651963199999965],[-51.83870459999997,-28.651109],[-51.838645,-28.6508],[-51.839979899999946,-28.648542499999962],[-51.84090839999993,-28.647582599999964],[-51.84296709999995,-28.646672199999948],[-51.84958089999998,-28.644454399999965],[-51.85282009999998,-28.643610799999962],[-51.85321279999994,-28.642939799999958],[-51.85324179999998,-28.642288],[-51.85198819999994,-28.63886989999998],[-51.852043299999934,-28.638417299999947],[-51.85254229999998,-28.637871699999955],[-51.86288779999996,-28.635754],[-51.86311239999998,-28.635099199999967],[-51.86187389999998,-28.6337425],[-51.85946039999993,-28.63267539999999],[-51.858777099999934,-28.631582699999957],[-51.85697259999995,-28.630041799999965],[-51.85658059999997,-28.62933219999996],[-51.856434,-28.62833539999997],[-51.85773289999998,-28.626417],[-51.85810739999994,-28.62486029999996],[-51.85617789999998,-28.620431699999987],[-51.855171,-28.617274399999932],[-51.854962899999975,-28.615260599999946],[-51.85273909999995,-28.616102],[-51.84969849999993,-28.616148],[-51.844626699999935,-28.617131699999952],[-51.838271599999985,-28.618842099999938],[-51.83043419999996,-28.62182389999999],[-51.826258799999955,-28.622806699999956],[-51.82426349999997,-28.623508799999954],[-51.81808639999998,-28.626846599999972],[-51.814963899999945,-28.629644299999935],[-51.80432729999995,-28.63455269999997],[-51.796695599999964,-28.639586],[-51.795529,-28.640519399999956],[-51.79509129999997,-28.641156099999932],[-51.793801,-28.644191499999973]]]}},{"type":"Feature","properties":{"setor":"431400105000011","pop":710,"sigilo_pop":false,"dom":325,"sigilo_dom":0,"mulheres":377,"sigilo_mulheres":0,"c0_4":42,"sigilo_c0_4":0,"c5_9":39,"sigilo_c5_9":0,"i60_69":88,"sigilo_i60_69":0,"i70m":72,"sigilo_i70m":0,"indigenas":0,"sigilo_indigenas":0,"pretos_pardos":59,"sigilo_pretos_pardos":0,"dom_ocupados":298,"sigilo_dom_ocupados":0,"dom_agua":297,"sigilo_dom_agua":0,"dom_esgoto":107,"sigilo_dom_esgoto":0,"renda_resp":3663.34,"sigilo_renda_resp":0,"n_resp":298,"sigilo_n_resp":0,"dens":4085.1,"sigilo_dens":false,"na_bacia":1,"area_pct_bacia":100.0,"metodo_recorte_bacia":"ponto_representativo_setor_2022; area_pct_geometrica","pop_n_validos":1,"pop_n_total":1,"pop_completude":1.0,"dom_n_validos":1,"dom_n_total":1,"dom_completude":1.0,"dom_ocupados_n_validos":1,"dom_ocupados_n_total":1,"dom_ocupados_completude":1.0,"mulheres_n_validos":1,"mulheres_n_total":1,"mulheres_completude":1.0,"c0_4_n_validos":1,"c0_4_n_total":1,"c0_4_completude":1.0,"c5_9_n_validos":1,"c5_9_n_total":1,"c5_9_completude":1.0,"i60_69_n_validos":1,"i60_69_n_total":1,"i60_69_completude":1.0,"i70m_n_validos":1,"i70m_n_total":1,"i70m_completude":1.0,"indigenas_n_validos":1,"indigenas_n_total":1,"indigenas_completude":1.0,"pretos_pardos_n_validos":1,"pretos_pardos_n_total":1,"pretos_pardos_completude":1.0,"dom_agua_n_validos":1,"dom_agua_n_total":1,"dom_agua_completude":1.0,"dom_esgoto_n_validos":1,"dom_esgoto_n_total":1,"dom_esgoto_completude":1.0,"n_resp_n_validos":1,"n_resp_n_total":1,"n_resp_completude":1.0,"renda_resp_n_validos":1,"renda_resp_n_total":1,"renda_resp_completude":1.0,"dens_n_validos":1,"dens_n_total":1,"dens_completude":1.0,"status_borda_bacia":"total","metodo_area_bacia":"interseção geométrica em EPSG:5880","metodo_na_bacia":"ponto_representativo_setor_2022_within_bacia","municipio":"Paraí","cod_mun":"4314001","mun_pct_na_bacia":100.0,"mun_pop_total":7194,"mun_pop_na_bacia":7194.0,"mun_ubs_iede":3,"mun_hospitais_iede":null,"mun_escolas_iede":null,"mun_bombeiros_iede":null,"mun_servicos_cobertura":"cadastro_IEDE_parcial_nao_inventario","mun_icm_faixa":"A","mun_icm_pontos":10,"mun_icm_prioritario":"não","mun_ubs_iede_status":"published","mun_hospitais_iede_status":"unknown","mun_escolas_iede_status":"unknown","mun_bombeiros_iede_status":"unknown"},"geometry":{"type":"Polygon","coordinates":[[[-51.78815249999997,-28.598282599999944],[-51.78617959999996,-28.59544829999993],[-51.78530949999998,-28.59591219999993],[-51.783683199999984,-28.593585099999924],[-51.78191339999995,-28.594532],[-51.78548509999996,-28.599711899999924],[-51.78815249999997,-28.598282599999944]]]}},{"type":"Feature","properties":{"setor":"431400105000012","pop":501,"sigilo_pop":false,"dom":210,"sigilo_dom":0,"mulheres":259,"sigilo_mulheres":0,"c0_4":27,"sigilo_c0_4":0,"c5_9":26,"sigilo_c5_9":0,"i60_69":65,"sigilo_i60_69":0,"i70m":44,"sigilo_i70m":0,"indigenas":0,"sigilo_indigenas":0,"pretos_pardos":52,"sigilo_pretos_pardos":0,"dom_ocupados":192,"sigilo_dom_ocupados":0,"dom_agua":187,"sigilo_dom_agua":0,"dom_esgoto":18,"sigilo_dom_esgoto":0,"renda_resp":2560.85,"sigilo_renda_resp":0,"n_resp":192,"sigilo_n_resp":0,"dens":1366.0,"sigilo_dens":false,"na_bacia":1,"area_pct_bacia":100.0,"metodo_recorte_bacia":"ponto_representativo_setor_2022; area_pct_geometrica","pop_n_validos":1,"pop_n_total":1,"pop_completude":1.0,"dom_n_validos":1,"dom_n_total":1,"dom_completude":1.0,"dom_ocupados_n_validos":1,"dom_ocupados_n_total":1,"dom_ocupados_completude":1.0,"mulheres_n_validos":1,"mulheres_n_total":1,"mulheres_completude":1.0,"c0_4_n_validos":1,"c0_4_n_total":1,"c0_4_completude":1.0,"c5_9_n_validos":1,"c5_9_n_total":1,"c5_9_completude":1.0,"i60_69_n_validos":1,"i60_69_n_total":1,"i60_69_completude":1.0,"i70m_n_validos":1,"i70m_n_total":1,"i70m_completude":1.0,"indigenas_n_validos":1,"indigenas_n_total":1,"indigenas_completude":1.0,"pretos_pardos_n_validos":1,"pretos_pardos_n_total":1,"pretos_pardos_completude":1.0,"dom_agua_n_validos":1,"dom_agua_n_total":1,"dom_agua_completude":1.0,"dom_esgoto_n_validos":1,"dom_esgoto_n_total":1,"dom_esgoto_completude":1.0,"n_resp_n_validos":1,"n_resp_n_total":1,"n_resp_completude":1.0,"renda_resp_n_validos":1,"renda_resp_n_total":1,"renda_resp_completude":1.0,"dens_n_validos":1,"dens_n_total":1,"dens_completude":1.0,"status_borda_bacia":"total","metodo_area_bacia":"interseção geométrica em EPSG:5880","metodo_na_bacia":"ponto_representativo_setor_2022_within_bacia","municipio":"Paraí","cod_mun":"4314001","mun_pct_na_bacia":100.0,"mun_pop_total":7194,"mun_pop_na_bacia":7194.0,"mun_ubs_iede":3,"mun_hospitais_iede":null,"mun_escolas_iede":null,"mun_bombeiros_iede":null,"mun_servicos_cobertura":"cadastro_IEDE_parcial_nao_inventario","mun_icm_faixa":"A","mun_icm_pontos":10,"mun_icm_prioritario":"não","mun_ubs_iede_status":"published","mun_hospitais_iede_status":"unknown","mun_escolas_iede_status":"unknown","mun_bombeiros_iede_status":"unknown"},"geometry":{"type":"Polygon","coordinates":[[[-51.782531,-28.583953],[-51.77746559999998,-28.590277099999987],[-51.78081869999994,-28.590749899999935],[-51.78192619999999,-28.591091499999948],[-51.78530949999998,-28.59591219999993],[-51.788000299999965,-28.594296399999955],[-51.78669469999994,-28.593012499999933],[-51.78507559999998,-28.59388749999993],[-51.78455359999998,-28.593109499999965],[-51.78583439999995,-28.59185439999993],[-51.78524139999996,-28.591472],[-51.783042,-28.58826929999998],[-51.7812421,-28.587719199999977],[-51.78294329999994,-28.585023],[-51.78292309999994,-28.584112],[-51.782531,-28.583953]]]}},{"type":"Feature","properties":{"setor":"431400105000013","pop":713,"sigilo_pop":false,"dom":280,"sigilo_dom":0,"mulheres":368,"sigilo_mulheres":0,"c0_4":41,"sigilo_c0_4":0,"c5_9":35,"sigilo_c5_9":0,"i60_69":80,"sigilo_i60_69":0,"i70m":64,"sigilo_i70m":0,"indigenas":null,"sigilo_indigenas":1,"pretos_pardos":86,"sigilo_pretos_pardos":0,"dom_ocupados":258,"sigilo_dom_ocupados":0,"dom_agua":253,"sigilo_dom_agua":0,"dom_esgoto":3,"sigilo_dom_esgoto":0,"renda_resp":2865.0,"sigilo_renda_resp":0,"n_resp":258,"sigilo_n_resp":0,"dens":1016.1,"sigilo_dens":false,"na_bacia":1,"area_pct_bacia":100.0,"metodo_recorte_bacia":"ponto_representativo_setor_2022; area_pct_geometrica","pop_n_validos":1,"pop_n_total":1,"pop_completude":1.0,"dom_n_validos":1,"dom_n_total":1,"dom_completude":1.0,"dom_ocupados_n_validos":1,"dom_ocupados_n_total":1,"dom_ocupados_completude":1.0,"mulheres_n_validos":1,"mulheres_n_total":1,"mulheres_completude":1.0,"c0_4_n_validos":1,"c0_4_n_total":1,"c0_4_completude":1.0,"c5_9_n_validos":1,"c5_9_n_total":1,"c5_9_completude":1.0,"i60_69_n_validos":1,"i60_69_n_total":1,"i60_69_completude":1.0,"i70m_n_validos":1,"i70m_n_total":1,"i70m_completude":1.0,"indigenas_n_validos":0,"indigenas_n_total":1,"indigenas_completude":0.0,"pretos_pardos_n_validos":1,"pretos_pardos_n_total":1,"pretos_pardos_completude":1.0,"dom_agua_n_validos":1,"dom_agua_n_total":1,"dom_agua_completude":1.0,"dom_esgoto_n_validos":1,"dom_esgoto_n_total":1,"dom_esgoto_completude":1.0,"n_resp_n_validos":1,"n_resp_n_total":1,"n_resp_completude":1.0,"renda_resp_n_validos":1,"renda_resp_n_total":1,"renda_resp_completude":1.0,"dens_n_validos":1,"dens_n_total":1,"dens_completude":1.0,"status_borda_bacia":"total","metodo_area_bacia":"interseção geométrica em EPSG:5880","metodo_na_bacia":"ponto_representativo_setor_2022_within_bacia","municipio":"Paraí","cod_mun":"4314001","mun_pct_na_bacia":100.0,"mun_pop_total":7194,"mun_pop_na_bacia":7194.0,"mun_ubs_iede":3,"mun_hospitais_iede":null,"mun_escolas_iede":null,"mun_bombeiros_iede":null,"mun_servicos_cobertura":"cadastro_IEDE_parcial_nao_inventario","mun_icm_faixa":"A","mun_icm_pontos":10,"mun_icm_prioritario":"não","mun_ubs_iede_status":"published","mun_hospitais_iede_status":"unknown","mun_escolas_iede_status":"unknown","mun_bombeiros_iede_status":"unknown"},"geometry":{"type":"Polygon","coordinates":[[[-51.78583439999995,-28.59185439999993],[-51.78455359999998,-28.593109499999965],[-51.78507559999998,-28.59388749999993],[-51.78669469999994,-28.593012499999933],[-51.788000299999965,-28.594296399999955],[-51.78739119999995,-28.594746199999975],[-51.787614399999946,-28.594967399999977],[-51.78990659999994,-28.596584],[-51.792524799999974,-28.597327199999928],[-51.79604009999997,-28.592058499999954],[-51.794762299999945,-28.589490499999943],[-51.79170049999993,-28.586016],[-51.78993279999997,-28.58854919999993],[-51.78931469999998,-28.588239599999945],[-51.78654209999997,-28.592318],[-51.78583439999995,-28.59185439999993]]]}},{"type":"Feature","properties":{"setor":"431400105000014","pop":542,"sigilo_pop":false,"dom":259,"sigilo_dom":0,"mulheres":283,"sigilo_mulheres":0,"c0_4":28,"sigilo_c0_4":0,"c5_9":33,"sigilo_c5_9":0,"i60_69":76,"sigilo_i60_69":0,"i70m":61,"sigilo_i70m":0,"indigenas":0,"sigilo_indigenas":0,"pretos_pardos":50,"sigilo_pretos_pardos":0,"dom_ocupados":219,"sigilo_dom_ocupados":0,"dom_agua":218,"sigilo_dom_agua":0,"dom_esgoto":160,"sigilo_dom_esgoto":0,"renda_resp":3496.3,"sigilo_renda_resp":0,"n_resp":219,"sigilo_n_resp":0,"dens":1463.6,"sigilo_dens":false,"na_bacia":1,"area_pct_bacia":100.0,"metodo_recorte_bacia":"ponto_representativo_setor_2022; area_pct_geometrica","pop_n_validos":1,"pop_n_total":1,"pop_completude":1.0,"dom_n_validos":1,"dom_n_total":1,"dom_completude":1.0,"dom_ocupados_n_validos":1,"dom_ocupados_n_total":1,"dom_ocupados_completude":1.0,"mulheres_n_validos":1,"mulheres_n_total":1,"mulheres_completude":1.0,"c0_4_n_validos":1,"c0_4_n_total":1,"c0_4_completude":1.0,"c5_9_n_validos":1,"c5_9_n_total":1,"c5_9_completude":1.0,"i60_69_n_validos":1,"i60_69_n_total":1,"i60_69_completude":1.0,"i70m_n_validos":1,"i70m_n_total":1,"i70m_completude":1.0,"indigenas_n_validos":1,"indigenas_n_total":1,"indigenas_completude":1.0,"pretos_pardos_n_validos":1,"pretos_pardos_n_total":1,"pretos_pardos_completude":1.0,"dom_agua_n_validos":1,"dom_agua_n_total":1,"dom_agua_completude":1.0,"dom_esgoto_n_validos":1,"dom_esgoto_n_total":1,"dom_esgoto_completude":1.0,"n_resp_n_validos":1,"n_resp_n_total":1,"n_resp_completude":1.0,"renda_resp_n_validos":1,"renda_resp_n_total":1,"renda_resp_completude":1.0,"dens_n_validos":1,"dens_n_total":1,"dens_completude":1.0,"status_borda_bacia":"total","metodo_area_bacia":"interseção geométrica em EPSG:5880","metodo_na_bacia":"ponto_representativo_setor_2022_within_bacia","municipio":"Paraí","cod_mun":"4314001","mun_pct_na_bacia":100.0,"mun_pop_total":7194,"mun_pop_na_bacia":7194.0,"mun_ubs_iede":3,"mun_hospitais_iede":null,"mun_escolas_iede":null,"mun_bombeiros_iede":null,"mun_servicos_cobertura":"cadastro_IEDE_parcial_nao_inventario","mun_icm_faixa":"A","mun_icm_pontos":10,"mun_icm_prioritario":"não","mun_ubs_iede_status":"published","mun_hospitais_iede_status":"unknown","mun_escolas_iede_status":"unknown","mun_bombeiros_iede_status":"unknown"},"geometry":{"type":"Polygon","coordinates":[[[-51.78617959999996,-28.59544829999993],[-51.790277099999976,-28.60135309999998],[-51.79306669999995,-28.60333019999995],[-51.795383,-28.59917719999992],[-51.79511,-28.598388599999954],[-51.79428279999997,-28.597747199999965],[-51.78990659999994,-28.596584],[-51.78739119999995,-28.594746199999975],[-51.78617959999996,-28.59544829999993]]]}},{"type":"Feature","properties":{"setor":"431400105000015","pop":158,"sigilo_pop":false,"dom":53,"sigilo_dom":0,"mulheres":81,"sigilo_mulheres":0,"c0_4":16,"sigilo_c0_4":0,"c5_9":9,"sigilo_c5_9":0,"i60_69":null,"sigilo_i60_69":1,"i70m":null,"sigilo_i70m":1,"indigenas":0,"sigilo_indigenas":0,"pretos_pardos":59,"sigilo_pretos_pardos":0,"dom_ocupados":50,"sigilo_dom_ocupados":0,"dom_agua":50,"sigilo_dom_agua":0,"dom_esgoto":0,"sigilo_dom_esgoto":0,"renda_resp":3778.98,"sigilo_renda_resp":0,"n_resp":50,"sigilo_n_resp":0,"dens":2940.7,"sigilo_dens":false,"na_bacia":1,"area_pct_bacia":100.0,"metodo_recorte_bacia":"ponto_representativo_setor_2022; area_pct_geometrica","pop_n_validos":1,"pop_n_total":1,"pop_completude":1.0,"dom_n_validos":1,"dom_n_total":1,"dom_completude":1.0,"dom_ocupados_n_validos":1,"dom_ocupados_n_total":1,"dom_ocupados_completude":1.0,"mulheres_n_validos":1,"mulheres_n_total":1,"mulheres_completude":1.0,"c0_4_n_validos":1,"c0_4_n_total":1,"c0_4_completude":1.0,"c5_9_n_validos":1,"c5_9_n_total":1,"c5_9_completude":1.0,"i60_69_n_validos":0,"i60_69_n_total":1,"i60_69_completude":0.0,"i70m_n_validos":0,"i70m_n_total":1,"i70m_completude":0.0,"indigenas_n_validos":1,"indigenas_n_total":1,"indigenas_completude":1.0,"pretos_pardos_n_validos":1,"pretos_pardos_n_total":1,"pretos_pardos_completude":1.0,"dom_agua_n_validos":1,"dom_agua_n_total":1,"dom_agua_completude":1.0,"dom_esgoto_n_validos":1,"dom_esgoto_n_total":1,"dom_esgoto_completude":1.0,"n_resp_n_validos":1,"n_resp_n_total":1,"n_resp_completude":1.0,"renda_resp_n_validos":1,"renda_resp_n_total":1,"renda_resp_completude":1.0,"dens_n_validos":1,"dens_n_total":1,"dens_completude":1.0,"status_borda_bacia":"total","metodo_area_bacia":"interseção geométrica em EPSG:5880","metodo_na_bacia":"ponto_representativo_setor_2022_within_bacia","municipio":"Paraí","cod_mun":"4314001","mun_pct_na_bacia":100.0,"mun_pop_total":7194,"mun_pop_na_bacia":7194.0,"mun_ubs_iede":3,"mun_hospitais_iede":null,"mun_escolas_iede":null,"mun_bombeiros_iede":null,"mun_servicos_cobertura":"cadastro_IEDE_parcial_nao_inventario","mun_icm_faixa":"A","mun_icm_pontos":10,"mun_icm_prioritario":"não","mun_ubs_iede_status":"published","mun_hospitais_iede_status":"unknown","mun_escolas_iede_status":"unknown","mun_bombeiros_iede_status":"unknown"},"geometry":{"type":"Polygon","coordinates":[[[-51.81507689999996,-28.609616699999936],[-51.81591119999996,-28.609442899999962],[-51.816002099999935,-28.605793399999975],[-51.814279099999965,-28.606638399999948],[-51.814127599999956,-28.607408],[-51.81507689999996,-28.609616699999936]]]}},{"type":"Feature","properties":{"setor":"431400105000016","pop":0,"sigilo_pop":false,"dom":0,"sigilo_dom":0,"mulheres":0,"sigilo_mulheres":0,"c0_4":0,"sigilo_c0_4":0,"c5_9":0,"sigilo_c5_9":0,"i60_69":0,"sigilo_i60_69":0,"i70m":0,"sigilo_i70m":0,"indigenas":0,"sigilo_indigenas":0,"pretos_pardos":0,"sigilo_pretos_pardos":0,"dom_ocupados":0,"sigilo_dom_ocupados":0,"dom_agua":0,"sigilo_dom_agua":0,"dom_esgoto":0,"sigilo_dom_esgoto":0,"renda_resp":0.0,"sigilo_renda_resp":0,"n_resp":0,"sigilo_n_resp":0,"dens":0.0,"sigilo_dens":false,"na_bacia":1,"area_pct_bacia":100.0,"metodo_recorte_bacia":"ponto_representativo_setor_2022; area_pct_geometrica","pop_n_validos":1,"pop_n_total":1,"pop_completude":1.0,"dom_n_validos":1,"dom_n_total":1,"dom_completude":1.0,"dom_ocupados_n_validos":1,"dom_ocupados_n_total":1,"dom_ocupados_completude":1.0,"mulheres_n_validos":1,"mulheres_n_total":1,"mulheres_completude":1.0,"c0_4_n_validos":1,"c0_4_n_total":1,"c0_4_completude":1.0,"c5_9_n_validos":1,"c5_9_n_total":1,"c5_9_completude":1.0,"i60_69_n_validos":1,"i60_69_n_total":1,"i60_69_completude":1.0,"i70m_n_validos":1,"i70m_n_total":1,"i70m_completude":1.0,"indigenas_n_validos":1,"indigenas_n_total":1,"indigenas_completude":1.0,"pretos_pardos_n_validos":1,"pretos_pardos_n_total":1,"pretos_pardos_completude":1.0,"dom_agua_n_validos":1,"dom_agua_n_total":1,"dom_agua_completude":1.0,"dom_esgoto_n_validos":1,"dom_esgoto_n_total":1,"dom_esgoto_completude":1.0,"n_resp_n_validos":1,"n_resp_n_total":1,"n_resp_completude":1.0,"renda_resp_n_validos":1,"renda_resp_n_total":1,"renda_resp_completude":1.0,"dens_n_validos":1,"dens_n_total":1,"dens_completude":1.0,"status_borda_bacia":"total","metodo_area_bacia":"interseção geométrica em EPSG:5880","metodo_na_bacia":"ponto_representativo_setor_2022_within_bacia","municipio":"Paraí","cod_mun":"4314001","mun_pct_na_bacia":100.0,"mun_pop_total":7194,"mun_pop_na_bacia":7194.0,"mun_ubs_iede":3,"mun_hospitais_iede":null,"mun_escolas_iede":null,"mun_bombeiros_iede":null,"mun_servicos_cobertura":"cadastro_IEDE_parcial_nao_inventario","mun_icm_faixa":"A","mun_icm_pontos":10,"mun_icm_prioritario":"não","mun_ubs_iede_status":"published","mun_hospitais_iede_status":"unknown","mun_escolas_iede_status":"unknown","mun_bombeiros_iede_status":"unknown"},"geometry":{"type":"Polygon","coordinates":[[[-51.81591119999996,-28.609442899999962],[-51.8123207,-28.609909599999988],[-51.810974,-28.61043039999993],[-51.810298899999964,-28.61040809999997],[-51.811014599999965,-28.6113286],[-51.81156729999998,-28.61266639999997],[-51.81576679999995,-28.612794],[-51.81591119999996,-28.609442899999962]]]}},{"type":"Feature","properties":{"setor":"431400105000017","pop":0,"sigilo_pop":false,"dom":0,"sigilo_dom":0,"mulheres":0,"sigilo_mulheres":0,"c0_4":0,"sigilo_c0_4":0,"c5_9":0,"sigilo_c5_9":0,"i60_69":0,"sigilo_i60_69":0,"i70m":0,"sigilo_i70m":0,"indigenas":0,"sigilo_indigenas":0,"pretos_pardos":0,"sigilo_pretos_pardos":0,"dom_ocupados":0,"sigilo_dom_ocupados":0,"dom_agua":0,"sigilo_dom_agua":0,"dom_esgoto":0,"sigilo_dom_esgoto":0,"renda_resp":0.0,"sigilo_renda_resp":0,"n_resp":0,"sigilo_n_resp":0,"dens":0.0,"sigilo_dens":false,"na_bacia":1,"area_pct_bacia":100.0,"metodo_recorte_bacia":"ponto_representativo_setor_2022; area_pct_geometrica","pop_n_validos":1,"pop_n_total":1,"pop_completude":1.0,"dom_n_validos":1,"dom_n_total":1,"dom_completude":1.0,"dom_ocupados_n_validos":1,"dom_ocupados_n_total":1,"dom_ocupados_completude":1.0,"mulheres_n_validos":1,"mulheres_n_total":1,"mulheres_completude":1.0,"c0_4_n_validos":1,"c0_4_n_total":1,"c0_4_completude":1.0,"c5_9_n_validos":1,"c5_9_n_total":1,"c5_9_completude":1.0,"i60_69_n_validos":1,"i60_69_n_total":1,"i60_69_completude":1.0,"i70m_n_validos":1,"i70m_n_total":1,"i70m_completude":1.0,"indigenas_n_validos":1,"indigenas_n_total":1,"indigenas_completude":1.0,"pretos_pardos_n_validos":1,"pretos_pardos_n_total":1,"pretos_pardos_completude":1.0,"dom_agua_n_validos":1,"dom_agua_n_total":1,"dom_agua_completude":1.0,"dom_esgoto_n_validos":1,"dom_esgoto_n_total":1,"dom_esgoto_completude":1.0,"n_resp_n_validos":1,"n_resp_n_total":1,"n_resp_completude":1.0,"renda_resp_n_validos":1,"renda_resp_n_total":1,"renda_resp_completude":1.0,"dens_n_validos":1,"dens_n_total":1,"dens_completude":1.0,"status_borda_bacia":"total","metodo_area_bacia":"interseção geométrica em EPSG:5880","metodo_na_bacia":"ponto_representativo_setor_2022_within_bacia","municipio":"Paraí","cod_mun":"4314001","mun_pct_na_bacia":100.0,"mun_pop_total":7194,"mun_pop_na_bacia":7194.0,"mun_ubs_iede":3,"mun_hospitais_iede":null,"mun_escolas_iede":null,"mun_bombeiros_iede":null,"mun_servicos_cobertura":"cadastro_IEDE_parcial_nao_inventario","mun_icm_faixa":"A","mun_icm_pontos":10,"mun_icm_prioritario":"não","mun_ubs_iede_status":"published","mun_hospitais_iede_status":"unknown","mun_escolas_iede_status":"unknown","mun_bombeiros_iede_status":"unknown"},"geometry":{"type":"Polygon","coordinates":[[[-51.80442369999997,-28.619984599999956],[-51.80463129999998,-28.622972099999973],[-51.80538909999996,-28.62231939999998],[-51.809815199999946,-28.622652199999944],[-51.80997339999993,-28.620115199999933],[-51.809055299999955,-28.620043099999968],[-51.80900109999993,-28.620358799999956],[-51.80653209999997,-28.62020659999996],[-51.80651579999994,-28.62047409999997],[-51.80535389999994,-28.620451399999983],[-51.805272299999956,-28.61994179999994],[-51.80442369999997,-28.619984599999956]]]}},{"type":"Feature","properties":{"setor":"431400105000019","pop":329,"sigilo_pop":false,"dom":124,"sigilo_dom":0,"mulheres":170,"sigilo_mulheres":0,"c0_4":23,"sigilo_c0_4":0,"c5_9":20,"sigilo_c5_9":0,"i60_69":47,"sigilo_i60_69":0,"i70m":25,"sigilo_i70m":0,"indigenas":0,"sigilo_indigenas":0,"pretos_pardos":45,"sigilo_pretos_pardos":0,"dom_ocupados":112,"sigilo_dom_ocupados":0,"dom_agua":104,"sigilo_dom_agua":0,"dom_esgoto":13,"sigilo_dom_esgoto":0,"renda_resp":2676.27,"sigilo_renda_resp":0,"n_resp":112,"sigilo_n_resp":0,"dens":289.6,"sigilo_dens":false,"na_bacia":1,"area_pct_bacia":100.0,"metodo_recorte_bacia":"ponto_representativo_setor_2022; area_pct_geometrica","pop_n_validos":1,"pop_n_total":1,"pop_completude":1.0,"dom_n_validos":1,"dom_n_total":1,"dom_completude":1.0,"dom_ocupados_n_validos":1,"dom_ocupados_n_total":1,"dom_ocupados_completude":1.0,"mulheres_n_validos":1,"mulheres_n_total":1,"mulheres_completude":1.0,"c0_4_n_validos":1,"c0_4_n_total":1,"c0_4_completude":1.0,"c5_9_n_validos":1,"c5_9_n_total":1,"c5_9_completude":1.0,"i60_69_n_validos":1,"i60_69_n_total":1,"i60_69_completude":1.0,"i70m_n_validos":1,"i70m_n_total":1,"i70m_completude":1.0,"indigenas_n_validos":1,"indigenas_n_total":1,"indigenas_completude":1.0,"pretos_pardos_n_validos":1,"pretos_pardos_n_total":1,"pretos_pardos_completude":1.0,"dom_agua_n_validos":1,"dom_agua_n_total":1,"dom_agua_completude":1.0,"dom_esgoto_n_validos":1,"dom_esgoto_n_total":1,"dom_esgoto_completude":1.0,"n_resp_n_validos":1,"n_resp_n_total":1,"n_resp_completude":1.0,"renda_resp_n_validos":1,"renda_resp_n_total":1,"renda_resp_completude":1.0,"dens_n_validos":1,"dens_n_total":1,"dens_completude":1.0,"status_borda_bacia":"total","metodo_area_bacia":"interseção geométrica em EPSG:5880","metodo_na_bacia":"ponto_representativo_setor_2022_within_bacia","municipio":"Paraí","cod_mun":"4314001","mun_pct_na_bacia":100.0,"mun_pop_total":7194,"mun_pop_na_bacia":7194.0,"mun_ubs_iede":3,"mun_hospitais_iede":null,"mun_escolas_iede":null,"mun_bombeiros_iede":null,"mun_servicos_cobertura":"cadastro_IEDE_parcial_nao_inventario","mun_icm_faixa":"A","mun_icm_pontos":10,"mun_icm_prioritario":"não","mun_ubs_iede_status":"published","mun_hospitais_iede_status":"unknown","mun_escolas_iede_status":"unknown","mun_bombeiros_iede_status":"unknown"},"geometry":{"type":"Polygon","coordinates":[[[-51.79453889999997,-28.60080039999997],[-51.791686899999945,-28.605227899999935],[-51.79117419999994,-28.60654659999994],[-51.79538089999994,-28.611790199999966],[-51.80375909999998,-28.61198359999996],[-51.80373439999994,-28.610584399999933],[-51.803214899999944,-28.609566599999937],[-51.80401939999996,-28.60951719999998],[-51.80409149999997,-28.607586],[-51.80749119999996,-28.60828269999997],[-51.808236299999976,-28.60816969999996],[-51.80818059999995,-28.607659399999925],[-51.808845099999985,-28.607581599999946],[-51.80593879999998,-28.603979],[-51.804475,-28.60667759999995],[-51.803930599999944,-28.606565199999974],[-51.803310799999956,-28.607219599999954],[-51.80280029999994,-28.606697299999936],[-51.80202549999995,-28.605106099999947],[-51.80019,-28.603125299999938],[-51.79957609999997,-28.60291359999997],[-51.79752549999995,-28.602946499999966],[-51.796595,-28.602376399999965],[-51.79564279999994,-28.60218829999997],[-51.79453889999997,-28.60080039999997]]]}},{"type":"Feature","properties":{"setor":"431400105000020","pop":357,"sigilo_pop":false,"dom":142,"sigilo_dom":0,"mulheres":161,"sigilo_mulheres":0,"c0_4":21,"sigilo_c0_4":0,"c5_9":26,"sigilo_c5_9":0,"i60_69":51,"sigilo_i60_69":0,"i70m":50,"sigilo_i70m":0,"indigenas":0,"sigilo_indigenas":0,"pretos_pardos":31,"sigilo_pretos_pardos":0,"dom_ocupados":118,"sigilo_dom_ocupados":0,"dom_agua":9,"sigilo_dom_agua":0,"dom_esgoto":0,"sigilo_dom_esgoto":0,"renda_resp":6811.14,"sigilo_renda_resp":0,"n_resp":118,"sigilo_n_resp":0,"dens":21.5,"sigilo_dens":false,"na_bacia":1,"area_pct_bacia":100.0,"metodo_recorte_bacia":"ponto_representativo_setor_2022; area_pct_geometrica","pop_n_validos":1,"pop_n_total":1,"pop_completude":1.0,"dom_n_validos":1,"dom_n_total":1,"dom_completude":1.0,"dom_ocupados_n_validos":1,"dom_ocupados_n_total":1,"dom_ocupados_completude":1.0,"mulheres_n_validos":1,"mulheres_n_total":1,"mulheres_completude":1.0,"c0_4_n_validos":1,"c0_4_n_total":1,"c0_4_completude":1.0,"c5_9_n_validos":1,"c5_9_n_total":1,"c5_9_completude":1.0,"i60_69_n_validos":1,"i60_69_n_total":1,"i60_69_completude":1.0,"i70m_n_validos":1,"i70m_n_total":1,"i70m_completude":1.0,"indigenas_n_validos":1,"indigenas_n_total":1,"indigenas_completude":1.0,"pretos_pardos_n_validos":1,"pretos_pardos_n_total":1,"pretos_pardos_completude":1.0,"dom_agua_n_validos":1,"dom_agua_n_total":1,"dom_agua_completude":1.0,"dom_esgoto_n_validos":1,"dom_esgoto_n_total":1,"dom_esgoto_completude":1.0,"n_resp_n_validos":1,"n_resp_n_total":1,"n_resp_completude":1.0,"renda_resp_n_validos":1,"renda_resp_n_total":1,"renda_resp_completude":1.0,"dens_n_validos":1,"dens_n_total":1,"dens_completude":1.0,"status_borda_bacia":"total","metodo_area_bacia":"interseção geométrica em EPSG:5880","metodo_na_bacia":"ponto_representativo_setor_2022_within_bacia","municipio":"Paraí","cod_mun":"4314001","mun_pct_na_bacia":100.0,"mun_pop_total":7194,"mun_pop_na_bacia":7194.0,"mun_ubs_iede":3,"mun_hospitais_iede":null,"mun_escolas_iede":null,"mun_bombeiros_iede":null,"mun_servicos_cobertura":"cadastro_IEDE_parcial_nao_inventario","mun_icm_faixa":"A","mun_icm_pontos":10,"mun_icm_prioritario":"não","mun_ubs_iede_status":"published","mun_hospitais_iede_status":"unknown","mun_escolas_iede_status":"unknown","mun_bombeiros_iede_status":"unknown"},"geometry":{"type":"Polygon","coordinates":[[[-51.77746559999998,-28.590277099999987],[-51.782531,-28.583953],[-51.78099649999996,-28.584053299999933],[-51.780569,-28.580928299999982],[-51.780191799999955,-28.58037509999998],[-51.78130969999996,-28.580125899999917],[-51.781776,-28.580337299999947],[-51.783342,-28.57966409999994],[-51.783679199999945,-28.579421799999974],[-51.78383579999997,-28.57851759999994],[-51.78432729999997,-28.578119899999937],[-51.78475819999994,-28.57726939999997],[-51.785924099999924,-28.576860199999942],[-51.786055499999975,-28.57608069999997],[-51.78652989999995,-28.57576979999993],[-51.787002,-28.576385899999934],[-51.78733459999995,-28.575977799999983],[-51.78727969999995,-28.575077099999923],[-51.78688649999997,-28.574099799999935],[-51.78803639999996,-28.57360149999994],[-51.78692769999998,-28.571704],[-51.78700539999994,-28.571355399999966],[-51.78799749999996,-28.571094799999955],[-51.790314499999965,-28.571030799999964],[-51.79186779999998,-28.571288],[-51.793332099999986,-28.571880099999927],[-51.79395389999996,-28.573414],[-51.79337779999997,-28.57384839999997],[-51.79346469999995,-28.575434899999955],[-51.792216499999945,-28.576299],[-51.79316289999998,-28.576751699999928],[-51.79395389999997,-28.57756089999998],[-51.794392799999976,-28.577620399999937],[-51.79573239999996,-28.57706259999998],[-51.795933599999955,-28.577446599999973],[-51.79570959999995,-28.578319899999933],[-51.79624449999994,-28.578827399999962],[-51.79727719999993,-28.578969899999947],[-51.79825559999995,-28.57829359999994],[-51.79987439999996,-28.578093699999943],[-51.80132469999995,-28.576943899999943],[-51.80150309999994,-28.576329299999937],[-51.80108319999994,-28.574125699999957],[-51.80281879999996,-28.573162799999977],[-51.80406219999998,-28.571372],[-51.80419119999993,-28.57084949999996],[-51.80399559999995,-28.57022239999997],[-51.800615599999965,-28.565981299999983],[-51.799616699999945,-28.563606899999964],[-51.799828699999985,-28.563313199999982],[-51.80045979999995,-28.563187599999928],[-51.805821099999946,-28.560442399999936],[-51.806437899999935,-28.559082],[-51.80630189999994,-28.556399199999927],[-51.805801699999954,-28.55582639999995],[-51.80557019999998,-28.554758599999946],[-51.806032499999965,-28.55415029999994],[-51.807990299999965,-28.553771699999963],[-51.808967199999984,-28.551906699999964],[-51.80905159999997,-28.54998689999997],[-51.808162799999934,-28.547995499999953],[-51.806667699999934,-28.546271899999972],[-51.80124569999999,-28.544766899999956],[-51.800148199999974,-28.542750299999962],[-51.79811129999997,-28.54014449999994],[-51.79590009999998,-28.541206899999967],[-51.79459029999998,-28.543096899999966],[-51.79410279999996,-28.54294459999995],[-51.79350439999997,-28.543264],[-51.79327759999995,-28.54390469999992],[-51.79333289999994,-28.545902099999974],[-51.79303249999998,-28.546521599999952],[-51.788822399999965,-28.548271099999962],[-51.78849849999994,-28.54856919999998],[-51.78839409999995,-28.54929869999996],[-51.787888399999986,-28.54971549999993],[-51.78766579999996,-28.54976489999995],[-51.78681859999995,-28.549170299999957],[-51.786294699999985,-28.54911219999996],[-51.785474799999974,-28.549427],[-51.78330079999995,-28.552188099999963],[-51.78256829999998,-28.552397399999954],[-51.77923719999995,-28.55221639999996],[-51.778982499999984,-28.553067799999955],[-51.77826109999995,-28.55349039999993],[-51.77671319999996,-28.55364079999998],[-51.77584679999995,-28.553294599999965],[-51.775310099999956,-28.553984],[-51.77459009999996,-28.553594],[-51.77373719999997,-28.554196499999936],[-51.77288669999996,-28.554468599999957],[-51.772827,-28.555027899999967],[-51.77229189999997,-28.555891799999987],[-51.77178049999998,-28.55634179999992],[-51.77117979999997,-28.556486699999926],[-51.76773859999997,-28.555711699999968],[-51.76639879999993,-28.55689069999994],[-51.765530199999944,-28.558103],[-51.76435909999998,-28.558768699999984],[-51.76395329999997,-28.55852109999995],[-51.76144029999995,-28.558632399999958],[-51.75815559999995,-28.56045479999995],[-51.75725109999996,-28.559860499999953],[-51.75363219999998,-28.560963199999957],[-51.74907319999994,-28.56050909999994],[-51.74938359999993,-28.56076039999994],[-51.74695359999998,-28.56203269999996],[-51.74702,-28.563111099999954],[-51.74577129999995,-28.564091799999968],[-51.74582,-28.564940199999963],[-51.74773549999997,-28.56760019999996],[-51.75088079999995,-28.56936379999996],[-51.75353429999996,-28.569712],[-51.75468979999994,-28.569156799999984],[-51.75514919999995,-28.569182499999954],[-51.759214,-28.570072499999984],[-51.759979499999986,-28.570649499999945],[-51.75927559999997,-28.57340049999994],[-51.75227009999998,-28.580104299999963],[-51.75213969999999,-28.580367199999955],[-51.75235759999998,-28.58086439999994],[-51.75781529999994,-28.58063489999995],[-51.758604899999966,-28.580791499999968],[-51.759743499999956,-28.58225279999994],[-51.76151309999995,-28.58304069999997],[-51.76227839999995,-28.585071899999946],[-51.76438589999998,-28.58766749999995],[-51.76733959999996,-28.58827339999994],[-51.76911529999995,-28.589425099999968],[-51.77278019999995,-28.589798499999965],[-51.773374,-28.589012199999953],[-51.77378619999997,-28.58881339999994],[-51.775329699999986,-28.588915099999948],[-51.7764112,-28.58940719999999],[-51.77746559999998,-28.590277099999987]]]}},{"type":"Feature","properties":{"setor":"431400105000021","pop":183,"sigilo_pop":false,"dom":69,"sigilo_dom":0,"mulheres":89,"sigilo_mulheres":0,"c0_4":null,"sigilo_c0_4":1,"c5_9":15,"sigilo_c5_9":0,"i60_69":14,"sigilo_i60_69":0,"i70m":22,"sigilo_i70m":0,"indigenas":0,"sigilo_indigenas":0,"pretos_pardos":18,"sigilo_pretos_pardos":0,"dom_ocupados":61,"sigilo_dom_ocupados":0,"dom_agua":32,"sigilo_dom_agua":0,"dom_esgoto":0,"sigilo_dom_esgoto":0,"renda_resp":3594.66,"sigilo_renda_resp":0,"n_resp":61,"sigilo_n_resp":0,"dens":152.7,"sigilo_dens":false,"na_bacia":1,"area_pct_bacia":100.0,"metodo_recorte_bacia":"ponto_representativo_setor_2022; area_pct_geometrica","pop_n_validos":1,"pop_n_total":1,"pop_completude":1.0,"dom_n_validos":1,"dom_n_total":1,"dom_completude":1.0,"dom_ocupados_n_validos":1,"dom_ocupados_n_total":1,"dom_ocupados_completude":1.0,"mulheres_n_validos":1,"mulheres_n_total":1,"mulheres_completude":1.0,"c0_4_n_validos":0,"c0_4_n_total":1,"c0_4_completude":0.0,"c5_9_n_validos":1,"c5_9_n_total":1,"c5_9_completude":1.0,"i60_69_n_validos":1,"i60_69_n_total":1,"i60_69_completude":1.0,"i70m_n_validos":1,"i70m_n_total":1,"i70m_completude":1.0,"indigenas_n_validos":1,"indigenas_n_total":1,"indigenas_completude":1.0,"pretos_pardos_n_validos":1,"pretos_pardos_n_total":1,"pretos_pardos_completude":1.0,"dom_agua_n_validos":1,"dom_agua_n_total":1,"dom_agua_completude":1.0,"dom_esgoto_n_validos":1,"dom_esgoto_n_total":1,"dom_esgoto_completude":1.0,"n_resp_n_validos":1,"n_resp_n_total":1,"n_resp_completude":1.0,"renda_resp_n_validos":1,"renda_resp_n_total":1,"renda_resp_completude":1.0,"dens_n_validos":1,"dens_n_total":1,"dens_completude":1.0,"status_borda_bacia":"total","metodo_area_bacia":"interseção geométrica em EPSG:5880","metodo_na_bacia":"ponto_representativo_setor_2022_within_bacia","municipio":"Paraí","cod_mun":"4314001","mun_pct_na_bacia":100.0,"mun_pop_total":7194,"mun_pop_na_bacia":7194.0,"mun_ubs_iede":3,"mun_hospitais_iede":null,"mun_escolas_iede":null,"mun_bombeiros_iede":null,"mun_servicos_cobertura":"cadastro_IEDE_parcial_nao_inventario","mun_icm_faixa":"A","mun_icm_pontos":10,"mun_icm_prioritario":"não","mun_ubs_iede_status":"published","mun_hospitais_iede_status":"unknown","mun_escolas_iede_status":"unknown","mun_bombeiros_iede_status":"unknown"},"geometry":{"type":"Polygon","coordinates":[[[-51.79727719999993,-28.578969899999947],[-51.79624449999994,-28.578827399999962],[-51.79570959999995,-28.578319899999933],[-51.795933599999955,-28.577446599999973],[-51.79573239999996,-28.57706259999998],[-51.794392799999976,-28.577620399999937],[-51.79395389999997,-28.57756089999998],[-51.79316289999998,-28.576751699999928],[-51.792216499999945,-28.576299],[-51.79346469999995,-28.575434899999955],[-51.79337779999997,-28.57384839999997],[-51.79395389999996,-28.573414],[-51.793332099999986,-28.571880099999927],[-51.79186779999998,-28.571288],[-51.790314499999965,-28.571030799999964],[-51.78743289999995,-28.571216],[-51.78686479999993,-28.571466299999944],[-51.78803639999996,-28.57360149999994],[-51.78688649999997,-28.574099799999935],[-51.78735169999994,-28.575585799999935],[-51.78710029999996,-28.57639849999998],[-51.78652989999995,-28.57576979999993],[-51.786055499999975,-28.57608069999997],[-51.785924099999924,-28.576860199999942],[-51.78475819999994,-28.57726939999997],[-51.78432729999997,-28.578119899999937],[-51.78383579999997,-28.57851759999994],[-51.783679199999945,-28.579421799999974],[-51.783342,-28.57966409999994],[-51.781776,-28.580337299999947],[-51.78130969999996,-28.580125899999917],[-51.780191799999955,-28.58037509999998],[-51.780569,-28.580928299999982],[-51.78099649999996,-28.584053299999933],[-51.782711,-28.583971],[-51.783727399999975,-28.58436379999995],[-51.78541149999996,-28.58349239999995],[-51.786585899999984,-28.583383499999968],[-51.78774819999995,-28.582933599999933],[-51.78847109999998,-28.58282419999993],[-51.789702,-28.583031299999956],[-51.792751399999986,-28.58156609999997],[-51.79382129999994,-28.58004819999996],[-51.79534609999997,-28.579497199999945],[-51.79665289999997,-28.57960709999998],[-51.79727719999993,-28.578969899999947]]]}}]}
