{"type":"FeatureCollection","name":"4315131","crs":{"type":"name","properties":{"name":"urn:ogc:def:crs:OGC:1.3:CRS84"}},"features":[{"type":"Feature","properties":{"setor":"431513105000001","pop":703,"sigilo_pop":false,"dom":326,"sigilo_dom":0,"mulheres":351,"sigilo_mulheres":0,"c0_4":39,"sigilo_c0_4":0,"c5_9":34,"sigilo_c5_9":0,"i60_69":87,"sigilo_i60_69":0,"i70m":104,"sigilo_i70m":0,"indigenas":0,"sigilo_indigenas":0,"pretos_pardos":152,"sigilo_pretos_pardos":0,"dom_ocupados":282,"sigilo_dom_ocupados":0,"dom_agua":280,"sigilo_dom_agua":0,"dom_esgoto":10,"sigilo_dom_esgoto":0,"renda_resp":2882.7,"sigilo_renda_resp":0,"n_resp":282,"sigilo_n_resp":0,"dens":363.8,"sigilo_dens":false,"na_bacia":1,"area_pct_bacia":100.0,"metodo_recorte_bacia":"ponto_representativo_setor_2022; area_pct_geometrica","pop_n_validos":1,"pop_n_total":1,"pop_completude":1.0,"dom_n_validos":1,"dom_n_total":1,"dom_completude":1.0,"dom_ocupados_n_validos":1,"dom_ocupados_n_total":1,"dom_ocupados_completude":1.0,"mulheres_n_validos":1,"mulheres_n_total":1,"mulheres_completude":1.0,"c0_4_n_validos":1,"c0_4_n_total":1,"c0_4_completude":1.0,"c5_9_n_validos":1,"c5_9_n_total":1,"c5_9_completude":1.0,"i60_69_n_validos":1,"i60_69_n_total":1,"i60_69_completude":1.0,"i70m_n_validos":1,"i70m_n_total":1,"i70m_completude":1.0,"indigenas_n_validos":1,"indigenas_n_total":1,"indigenas_completude":1.0,"pretos_pardos_n_validos":1,"pretos_pardos_n_total":1,"pretos_pardos_completude":1.0,"dom_agua_n_validos":1,"dom_agua_n_total":1,"dom_agua_completude":1.0,"dom_esgoto_n_validos":1,"dom_esgoto_n_total":1,"dom_esgoto_completude":1.0,"n_resp_n_validos":1,"n_resp_n_total":1,"n_resp_completude":1.0,"renda_resp_n_validos":1,"renda_resp_n_total":1,"renda_resp_completude":1.0,"dens_n_validos":1,"dens_n_total":1,"dens_completude":1.0,"status_borda_bacia":"total","metodo_area_bacia":"interseção geométrica em EPSG:5880","metodo_na_bacia":"ponto_representativo_setor_2022_within_bacia","municipio":"Pouso Novo","cod_mun":"4315131","mun_pct_na_bacia":100.0,"mun_pop_total":1739,"mun_pop_na_bacia":1739.0,"mun_ubs_iede":1,"mun_hospitais_iede":null,"mun_escolas_iede":3,"mun_bombeiros_iede":null,"mun_servicos_cobertura":"cadastro_IEDE_parcial_nao_inventario","mun_icm_faixa":"A","mun_icm_pontos":11,"mun_icm_prioritario":"não","mun_ubs_iede_status":"published","mun_hospitais_iede_status":"unknown","mun_escolas_iede_status":"published","mun_bombeiros_iede_status":"unknown"},"geometry":{"type":"Polygon","coordinates":[[[-52.20213619999998,-29.175811299999975],[-52.20332549999995,-29.17698689999997],[-52.20397969999993,-29.17619259999998],[-52.20786229999993,-29.175076799999946],[-52.209722899999974,-29.175502899999966],[-52.21052769999995,-29.176995199999958],[-52.23073009999995,-29.16940569999997],[-52.22073769999997,-29.162535599999945],[-52.22003579999995,-29.16347739999998],[-52.21938339999997,-29.165342599999963],[-52.21955859999997,-29.166788599999965],[-52.22066139999998,-29.168617599999955],[-52.22046669999998,-29.16941439999993],[-52.21985449999993,-29.17012689999995],[-52.21801879999998,-29.170439199999976],[-52.21591709999995,-29.169291799999947],[-52.213237,-29.169079499999953],[-52.21147829999995,-29.16803939999994],[-52.21023009999994,-29.16773189999998],[-52.208401899999956,-29.167698499999965],[-52.20600419999994,-29.16836559999996],[-52.204066,-29.169978],[-52.203270699999955,-29.171307099999975],[-52.200178499999936,-29.173023199999925],[-52.20213619999998,-29.175811299999975]]]}},{"type":"Feature","properties":{"setor":"431513105000002","pop":180,"sigilo_pop":false,"dom":77,"sigilo_dom":0,"mulheres":89,"sigilo_mulheres":0,"c0_4":15,"sigilo_c0_4":0,"c5_9":null,"sigilo_c5_9":1,"i60_69":19,"sigilo_i60_69":0,"i70m":35,"sigilo_i70m":0,"indigenas":0,"sigilo_indigenas":0,"pretos_pardos":null,"sigilo_pretos_pardos":1,"dom_ocupados":61,"sigilo_dom_ocupados":0,"dom_agua":25,"sigilo_dom_agua":0,"dom_esgoto":0,"sigilo_dom_esgoto":0,"renda_resp":2479.67,"sigilo_renda_resp":0,"n_resp":61,"sigilo_n_resp":0,"dens":6.2,"sigilo_dens":false,"na_bacia":1,"area_pct_bacia":100.0,"metodo_recorte_bacia":"ponto_representativo_setor_2022; area_pct_geometrica","pop_n_validos":1,"pop_n_total":1,"pop_completude":1.0,"dom_n_validos":1,"dom_n_total":1,"dom_completude":1.0,"dom_ocupados_n_validos":1,"dom_ocupados_n_total":1,"dom_ocupados_completude":1.0,"mulheres_n_validos":1,"mulheres_n_total":1,"mulheres_completude":1.0,"c0_4_n_validos":1,"c0_4_n_total":1,"c0_4_completude":1.0,"c5_9_n_validos":0,"c5_9_n_total":1,"c5_9_completude":0.0,"i60_69_n_validos":1,"i60_69_n_total":1,"i60_69_completude":1.0,"i70m_n_validos":1,"i70m_n_total":1,"i70m_completude":1.0,"indigenas_n_validos":1,"indigenas_n_total":1,"indigenas_completude":1.0,"pretos_pardos_n_validos":0,"pretos_pardos_n_total":1,"pretos_pardos_completude":0.0,"dom_agua_n_validos":1,"dom_agua_n_total":1,"dom_agua_completude":1.0,"dom_esgoto_n_validos":1,"dom_esgoto_n_total":1,"dom_esgoto_completude":1.0,"n_resp_n_validos":1,"n_resp_n_total":1,"n_resp_completude":1.0,"renda_resp_n_validos":1,"renda_resp_n_total":1,"renda_resp_completude":1.0,"dens_n_validos":1,"dens_n_total":1,"dens_completude":1.0,"status_borda_bacia":"total","metodo_area_bacia":"interseção geométrica em EPSG:5880","metodo_na_bacia":"ponto_representativo_setor_2022_within_bacia","municipio":"Pouso Novo","cod_mun":"4315131","mun_pct_na_bacia":100.0,"mun_pop_total":1739,"mun_pop_na_bacia":1739.0,"mun_ubs_iede":1,"mun_hospitais_iede":null,"mun_escolas_iede":3,"mun_bombeiros_iede":null,"mun_servicos_cobertura":"cadastro_IEDE_parcial_nao_inventario","mun_icm_faixa":"A","mun_icm_pontos":11,"mun_icm_prioritario":"não","mun_ubs_iede_status":"published","mun_hospitais_iede_status":"unknown","mun_escolas_iede_status":"published","mun_bombeiros_iede_status":"unknown"},"geometry":{"type":"Polygon","coordinates":[[[-52.22158459999997,-29.163114699999944],[-52.23073009999995,-29.16940569999997],[-52.219167199999966,-29.173793599999946],[-52.22071629999994,-29.17633459999996],[-52.21237809999997,-29.179480899999934],[-52.21123989999995,-29.17673239999993],[-52.21052769999995,-29.176995199999958],[-52.209722899999974,-29.175502899999966],[-52.20786229999993,-29.175076799999946],[-52.20397969999993,-29.17619259999998],[-52.1999029,-29.180388],[-52.19662569999998,-29.179479899999937],[-52.19576959999995,-29.178348399999944],[-52.19459069999994,-29.179022899999946],[-52.19349639999996,-29.181626],[-52.19176559999993,-29.18374439999996],[-52.19085969999998,-29.185395599999932],[-52.189771399999984,-29.186198899999958],[-52.18945569999994,-29.18697089999994],[-52.18944259999994,-29.18885179999994],[-52.188912399999936,-29.189431799999962],[-52.186652699999975,-29.190945399999972],[-52.18629239999995,-29.193251499999974],[-52.18543829999992,-29.195554899999934],[-52.18459569999993,-29.196409],[-52.183101299999976,-29.197240299999972],[-52.182267499999966,-29.198146099999974],[-52.18224759999998,-29.198787],[-52.18293689999995,-29.199893799999984],[-52.183073199999974,-29.201195899999952],[-52.18401709999995,-29.202736499999947],[-52.183798699999954,-29.20330159999997],[-52.18301569999995,-29.204135299999955],[-52.182405099999976,-29.205596],[-52.18217269999997,-29.207815],[-52.18153589999998,-29.208279399999977],[-52.179995599999984,-29.208464699999983],[-52.17833879999995,-29.20974469999993],[-52.173771699999975,-29.21158449999995],[-52.17247489999995,-29.21290359999994],[-52.17090409999997,-29.21621749999999],[-52.170388399999986,-29.218260099999952],[-52.17080369999996,-29.22025169999995],[-52.172198399999964,-29.223186199999923],[-52.17217329999994,-29.224518599999946],[-52.17111059999997,-29.226085099999963],[-52.16769439999996,-29.22795259999998],[-52.16959949999995,-29.229180299999925],[-52.17138939999995,-29.229393399999932],[-52.174091199999964,-29.228668],[-52.17498779999994,-29.228049899999977],[-52.17595289999998,-29.22647589999997],[-52.174347599999976,-29.223636799999948],[-52.17286059999998,-29.22289279999995],[-52.17105179999999,-29.21922259999996],[-52.17183309999996,-29.217064],[-52.17438309999994,-29.213268],[-52.17551739999993,-29.212496299999934],[-52.17663029999994,-29.21228389999993],[-52.177722499999966,-29.212385799999936],[-52.180821899999955,-29.215546399999933],[-52.18198129999996,-29.216453199999943],[-52.18470779999996,-29.21732979999996],[-52.18586179999994,-29.217022],[-52.18699719999995,-29.215796399999935],[-52.18759589999997,-29.214750699999954],[-52.18751,-29.21400039999998],[-52.186825,-29.21295279999998],[-52.18483809999998,-29.211907699999983],[-52.18411969999993,-29.210737399999967],[-52.18395669999995,-29.20915729999995],[-52.18439459999997,-29.207980899999942],[-52.18521549999996,-29.206879799999967],[-52.18792449999995,-29.205886499999966],[-52.191588199999956,-29.20390409999992],[-52.19300579999998,-29.20166689999996],[-52.19421269999999,-29.200919299999946],[-52.196258199999924,-29.199065099999935],[-52.197631299999955,-29.198567099999934],[-52.199182,-29.19883009999995],[-52.199985399999946,-29.20014969999994],[-52.19965769999993,-29.201694599999925],[-52.197351,-29.204925],[-52.19725489999996,-29.206812799999962],[-52.19750809999994,-29.208575099999962],[-52.200002599999955,-29.211045499999944],[-52.20063159999995,-29.211942599999933],[-52.20089379999996,-29.213948099999975],[-52.201861,-29.214660199999965],[-52.20309479999998,-29.214886399999955],[-52.2042891,-29.21407319999997],[-52.206117499999955,-29.20999829999993],[-52.20676,-29.20667],[-52.20713129999996,-29.202867299999973],[-52.208640299999956,-29.20125359999997],[-52.210646899999965,-29.200350599999982],[-52.21239639999994,-29.200180599999946],[-52.21533289999997,-29.201592599999973],[-52.21651449999996,-29.202589699999976],[-52.218197799999984,-29.20491679999997],[-52.21970209999995,-29.205716899999977],[-52.22113109999998,-29.205867899999927],[-52.222357399999964,-29.205232499999973],[-52.22429869999996,-29.20130079999995],[-52.22455519999994,-29.20011839999996],[-52.22600249999994,-29.196847199999986],[-52.226999699999965,-29.19572269999997],[-52.22844889999993,-29.19465509999998],[-52.23105409999994,-29.193413699999947],[-52.233060199999954,-29.19295109999996],[-52.234989799999944,-29.193035099999985],[-52.242998599999964,-29.195114399999962],[-52.24378749999994,-29.19608969999997],[-52.243435799999986,-29.199708099999953],[-52.24386349999998,-29.200409],[-52.244567199999956,-29.200772699999963],[-52.245515499999954,-29.20032419999995],[-52.24870169999997,-29.19733509999998],[-52.24955269999998,-29.19625809999997],[-52.2567069,-29.193511199999932],[-52.25922259999998,-29.193278199999945],[-52.26074319999998,-29.19487159999995],[-52.260946399999966,-29.197785699999926],[-52.26190619999994,-29.20034789999995],[-52.26280029999998,-29.200691499999937],[-52.263951099999986,-29.199676399999923],[-52.266321199999936,-29.192990699999935],[-52.2672252,-29.192190599999947],[-52.27086659999998,-29.191383499999965],[-52.27340959999998,-29.193103],[-52.27442909999996,-29.195471299999944],[-52.27625859999995,-29.19589259999998],[-52.28325109999997,-29.19214179999994],[-52.285512799999935,-29.188531199999936],[-52.28517359999994,-29.18660469999997],[-52.28278649999998,-29.18614469999994],[-52.279455,-29.186514199999976],[-52.278417599999955,-29.18595339999996],[-52.27748669999994,-29.185786199999946],[-52.275624799999946,-29.186330499999947],[-52.27433149999997,-29.18594859999998],[-52.27256369999998,-29.184736099999945],[-52.27142589999995,-29.18446159999996],[-52.27073039999993,-29.184489599999942],[-52.26987969999993,-29.185551099999934],[-52.26915679999996,-29.18549209999997],[-52.268601499999924,-29.184334],[-52.26534609999993,-29.180545],[-52.26394159999996,-29.17950579999995],[-52.26225979999998,-29.179060899999964],[-52.261378899999954,-29.17849839999996],[-52.26158049999999,-29.178188899999952],[-52.26255839999993,-29.17818],[-52.262801,-29.178001799999944],[-52.26282179999998,-29.177562799999972],[-52.26216889999995,-29.176954499999958],[-52.26153659999995,-29.17573129999994],[-52.26075579999996,-29.175145699999977],[-52.258999,-29.174768399999945],[-52.25556689999997,-29.173440199999963],[-52.254576499999985,-29.172548799999966],[-52.25365369999997,-29.170823],[-52.25362279999996,-29.170342699999935],[-52.25540909999995,-29.167755599999957],[-52.255496,-29.166569699999954],[-52.254296099999976,-29.16342059999995],[-52.25398379999996,-29.16195259999994],[-52.25298779999997,-29.16042609999993],[-52.25236289999998,-29.159993099999937],[-52.251308,-29.160003699999944],[-52.25062419999995,-29.16032039999994],[-52.24951149999998,-29.159677099999953],[-52.24890149999993,-29.158609299999977],[-52.24865449999999,-29.15735689999997],[-52.244781499999924,-29.158302],[-52.243029,-29.15780639999998],[-52.24091169999997,-29.155799599999973],[-52.238433,-29.152266499999936],[-52.23633969999998,-29.150909399999936],[-52.23471919999997,-29.150571899999935],[-52.23348519999996,-29.15131179999997],[-52.23066249999994,-29.15197769999998],[-52.229801,-29.153433399999983],[-52.22937509999997,-29.155404599999944],[-52.22830759999993,-29.156705299999935],[-52.22737549999994,-29.158847199999965],[-52.22450969999994,-29.161033299999925],[-52.223258299999934,-29.16237669999999],[-52.22158459999997,-29.163114699999944]]]}},{"type":"Feature","properties":{"setor":"431513105000003","pop":362,"sigilo_pop":false,"dom":157,"sigilo_dom":0,"mulheres":176,"sigilo_mulheres":0,"c0_4":25,"sigilo_c0_4":0,"c5_9":20,"sigilo_c5_9":0,"i60_69":58,"sigilo_i60_69":0,"i70m":48,"sigilo_i70m":0,"indigenas":0,"sigilo_indigenas":0,"pretos_pardos":null,"sigilo_pretos_pardos":1,"dom_ocupados":130,"sigilo_dom_ocupados":0,"dom_agua":36,"sigilo_dom_agua":0,"dom_esgoto":0,"sigilo_dom_esgoto":0,"renda_resp":2050.34,"sigilo_renda_resp":0,"n_resp":130,"sigilo_n_resp":0,"dens":13.3,"sigilo_dens":false,"na_bacia":1,"area_pct_bacia":100.0,"metodo_recorte_bacia":"ponto_representativo_setor_2022; area_pct_geometrica","pop_n_validos":1,"pop_n_total":1,"pop_completude":1.0,"dom_n_validos":1,"dom_n_total":1,"dom_completude":1.0,"dom_ocupados_n_validos":1,"dom_ocupados_n_total":1,"dom_ocupados_completude":1.0,"mulheres_n_validos":1,"mulheres_n_total":1,"mulheres_completude":1.0,"c0_4_n_validos":1,"c0_4_n_total":1,"c0_4_completude":1.0,"c5_9_n_validos":1,"c5_9_n_total":1,"c5_9_completude":1.0,"i60_69_n_validos":1,"i60_69_n_total":1,"i60_69_completude":1.0,"i70m_n_validos":1,"i70m_n_total":1,"i70m_completude":1.0,"indigenas_n_validos":1,"indigenas_n_total":1,"indigenas_completude":1.0,"pretos_pardos_n_validos":0,"pretos_pardos_n_total":1,"pretos_pardos_completude":0.0,"dom_agua_n_validos":1,"dom_agua_n_total":1,"dom_agua_completude":1.0,"dom_esgoto_n_validos":1,"dom_esgoto_n_total":1,"dom_esgoto_completude":1.0,"n_resp_n_validos":1,"n_resp_n_total":1,"n_resp_completude":1.0,"renda_resp_n_validos":1,"renda_resp_n_total":1,"renda_resp_completude":1.0,"dens_n_validos":1,"dens_n_total":1,"dens_completude":1.0,"status_borda_bacia":"total","metodo_area_bacia":"interseção geométrica em EPSG:5880","metodo_na_bacia":"ponto_representativo_setor_2022_within_bacia","municipio":"Pouso Novo","cod_mun":"4315131","mun_pct_na_bacia":100.0,"mun_pop_total":1739,"mun_pop_na_bacia":1739.0,"mun_ubs_iede":1,"mun_hospitais_iede":null,"mun_escolas_iede":3,"mun_bombeiros_iede":null,"mun_servicos_cobertura":"cadastro_IEDE_parcial_nao_inventario","mun_icm_faixa":"A","mun_icm_pontos":11,"mun_icm_prioritario":"não","mun_ubs_iede_status":"published","mun_hospitais_iede_status":"unknown","mun_escolas_iede_status":"published","mun_bombeiros_iede_status":"unknown"},"geometry":{"type":"Polygon","coordinates":[[[-52.251394,-29.12243659999995],[-52.25212309999995,-29.123328099999977],[-52.25234509999996,-29.12421369999991],[-52.252251899999976,-29.127026199999936],[-52.251865099999975,-29.128259299999968],[-52.251075699999944,-29.12916969999997],[-52.249724399999934,-29.130004899999946],[-52.24883189999997,-29.130878099999958],[-52.24803929999996,-29.13444369999996],[-52.24614429999997,-29.135934799999973],[-52.244832,-29.13768949999996],[-52.2442071,-29.13797119999998],[-52.243178299999954,-29.138045099999946],[-52.240027,-29.13766839999994],[-52.23923639999998,-29.13809139999995],[-52.23895669999996,-29.138667099999957],[-52.23920779999998,-29.140604099999955],[-52.23803319999996,-29.141606499999966],[-52.23772,-29.142244599999973],[-52.237622,-29.146162299999943],[-52.23731509999994,-29.14756319999998],[-52.236923,-29.148363],[-52.23471919999997,-29.150571899999935],[-52.23633969999998,-29.150909399999936],[-52.238433,-29.152266499999936],[-52.24091169999997,-29.155799599999973],[-52.243029,-29.15780639999998],[-52.244781499999924,-29.158302],[-52.24865449999999,-29.15735689999997],[-52.24890149999993,-29.158609299999977],[-52.24951149999998,-29.159677099999953],[-52.25062419999995,-29.16032039999994],[-52.251308,-29.160003699999944],[-52.25236289999998,-29.159993099999937],[-52.25298779999997,-29.16042609999993],[-52.25398379999996,-29.16195259999994],[-52.254296099999976,-29.16342059999995],[-52.255496,-29.166569699999954],[-52.25540909999995,-29.167755599999957],[-52.25362279999996,-29.170342699999935],[-52.25365369999997,-29.170823],[-52.254576499999985,-29.172548799999966],[-52.25556689999997,-29.173440199999963],[-52.258999,-29.174768399999945],[-52.26075579999996,-29.175145699999977],[-52.26153659999995,-29.17573129999994],[-52.26216889999995,-29.176954499999958],[-52.26282179999998,-29.177562799999972],[-52.262801,-29.178001799999944],[-52.26255839999993,-29.17818],[-52.26158049999999,-29.178188899999952],[-52.261378899999954,-29.17849839999996],[-52.26225979999998,-29.179060899999964],[-52.26394159999996,-29.17950579999995],[-52.26534609999993,-29.180545],[-52.268601499999924,-29.184334],[-52.26915679999996,-29.18549209999997],[-52.26987969999993,-29.185551099999934],[-52.27073039999993,-29.184489599999942],[-52.27142589999995,-29.18446159999996],[-52.27256369999998,-29.184736099999945],[-52.27433149999997,-29.18594859999998],[-52.275624799999946,-29.186330499999947],[-52.27748669999994,-29.185786199999946],[-52.278417599999955,-29.18595339999996],[-52.279455,-29.186514199999976],[-52.28278649999998,-29.18614469999994],[-52.27546429999996,-29.184734699999986],[-52.2742669,-29.18335809999996],[-52.27375909999995,-29.179169],[-52.27450539999995,-29.17807639999996],[-52.277161699999965,-29.177488199999967],[-52.28348759999994,-29.17960879999997],[-52.28835909999998,-29.178862099999943],[-52.290219499999985,-29.17567289999993],[-52.29236259999993,-29.163912899999957],[-52.292434,-29.16251389999997],[-52.29071179999994,-29.159119399999962],[-52.292198,-29.15460039999993],[-52.286692799999976,-29.155509699999982],[-52.286257199999966,-29.15431709999995],[-52.28959069999996,-29.152025299999934],[-52.28438129999995,-29.15072569999995],[-52.28665659999996,-29.14808929999998],[-52.286658,-29.1457784],[-52.285754199999985,-29.14412519999996],[-52.28766069999994,-29.141465199999974],[-52.28796179999995,-29.138742299999926],[-52.289416399999936,-29.13797619999997],[-52.29361389999997,-29.138343499999966],[-52.29412739999999,-29.13768169999997],[-52.293856699999935,-29.1359644],[-52.29267219999998,-29.134998599999953],[-52.293002299999955,-29.13306349999994],[-52.290455399999985,-29.12965849999994],[-52.288779499999976,-29.129274499999944],[-52.287703499999964,-29.130577699999947],[-52.283850399999956,-29.130409399999962],[-52.281645699999956,-29.12857349999996],[-52.28239279999997,-29.126719599999948],[-52.28105579999994,-29.124928199999935],[-52.274699,-29.121597599999962],[-52.27363379999998,-29.119607599999934],[-52.271729499999935,-29.11869639999997],[-52.26923569999997,-29.11881389999997],[-52.26828229999995,-29.117574],[-52.26494609999998,-29.11914639999998],[-52.263426899999956,-29.118745199999978],[-52.25548859999998,-29.120288299999963],[-52.25221749999997,-29.118724],[-52.251597199999935,-29.10983489999997],[-52.249141,-29.105735799999927],[-52.24868969999994,-29.108084699999957],[-52.24544059999994,-29.110768699999937],[-52.245073399999974,-29.11133049999995],[-52.24349489999997,-29.11707569999993],[-52.24402229999998,-29.118106399999935],[-52.24559129999995,-29.119567799999977],[-52.251394,-29.12243659999995]]]}},{"type":"Feature","properties":{"setor":"431513105000004","pop":180,"sigilo_pop":false,"dom":91,"sigilo_dom":0,"mulheres":80,"sigilo_mulheres":0,"c0_4":8,"sigilo_c0_4":0,"c5_9":7,"sigilo_c5_9":0,"i60_69":38,"sigilo_i60_69":0,"i70m":33,"sigilo_i70m":0,"indigenas":0,"sigilo_indigenas":0,"pretos_pardos":51,"sigilo_pretos_pardos":0,"dom_ocupados":73,"sigilo_dom_ocupados":0,"dom_agua":18,"sigilo_dom_agua":0,"dom_esgoto":0,"sigilo_dom_esgoto":0,"renda_resp":1717.62,"sigilo_renda_resp":0,"n_resp":73,"sigilo_n_resp":0,"dens":8.0,"sigilo_dens":false,"na_bacia":1,"area_pct_bacia":100.0,"metodo_recorte_bacia":"ponto_representativo_setor_2022; area_pct_geometrica","pop_n_validos":1,"pop_n_total":1,"pop_completude":1.0,"dom_n_validos":1,"dom_n_total":1,"dom_completude":1.0,"dom_ocupados_n_validos":1,"dom_ocupados_n_total":1,"dom_ocupados_completude":1.0,"mulheres_n_validos":1,"mulheres_n_total":1,"mulheres_completude":1.0,"c0_4_n_validos":1,"c0_4_n_total":1,"c0_4_completude":1.0,"c5_9_n_validos":1,"c5_9_n_total":1,"c5_9_completude":1.0,"i60_69_n_validos":1,"i60_69_n_total":1,"i60_69_completude":1.0,"i70m_n_validos":1,"i70m_n_total":1,"i70m_completude":1.0,"indigenas_n_validos":1,"indigenas_n_total":1,"indigenas_completude":1.0,"pretos_pardos_n_validos":1,"pretos_pardos_n_total":1,"pretos_pardos_completude":1.0,"dom_agua_n_validos":1,"dom_agua_n_total":1,"dom_agua_completude":1.0,"dom_esgoto_n_validos":1,"dom_esgoto_n_total":1,"dom_esgoto_completude":1.0,"n_resp_n_validos":1,"n_resp_n_total":1,"n_resp_completude":1.0,"renda_resp_n_validos":1,"renda_resp_n_total":1,"renda_resp_completude":1.0,"dens_n_validos":1,"dens_n_total":1,"dens_completude":1.0,"status_borda_bacia":"total","metodo_area_bacia":"interseção geométrica em EPSG:5880","metodo_na_bacia":"ponto_representativo_setor_2022_within_bacia","municipio":"Pouso Novo","cod_mun":"4315131","mun_pct_na_bacia":100.0,"mun_pop_total":1739,"mun_pop_na_bacia":1739.0,"mun_ubs_iede":1,"mun_hospitais_iede":null,"mun_escolas_iede":3,"mun_bombeiros_iede":null,"mun_servicos_cobertura":"cadastro_IEDE_parcial_nao_inventario","mun_icm_faixa":"A","mun_icm_pontos":11,"mun_icm_prioritario":"não","mun_ubs_iede_status":"published","mun_hospitais_iede_status":"unknown","mun_escolas_iede_status":"published","mun_bombeiros_iede_status":"unknown"},"geometry":{"type":"Polygon","coordinates":[[[-52.212262599999974,-29.09457449999997],[-52.21190769999998,-29.09573069999993],[-52.211318099999964,-29.096006799999937],[-52.21044679999994,-29.095793499999946],[-52.20840819999996,-29.094627299999953],[-52.20642819999995,-29.09414329999992],[-52.20471219999996,-29.094266499999947],[-52.20213079999997,-29.09513789999994],[-52.19723219999997,-29.094908899999965],[-52.19594739999996,-29.095533699999976],[-52.19592979999993,-29.096308099999938],[-52.196727599999974,-29.097271899999967],[-52.20219539999994,-29.099388099999942],[-52.20385559999994,-29.100536699999964],[-52.204047799999955,-29.101442899999928],[-52.203792599999986,-29.10390689999997],[-52.2039774,-29.105121299999954],[-52.205772599999925,-29.108843699999973],[-52.20645379999996,-29.11132119999996],[-52.20608319999997,-29.112091],[-52.20539419999995,-29.112266899999963],[-52.204828,-29.112082399999956],[-52.20358139999996,-29.11103489999993],[-52.20187779999998,-29.110067199999946],[-52.20018819999996,-29.11008479999998],[-52.19911979999995,-29.11092049999996],[-52.19772419999998,-29.113763199999934],[-52.19500579999993,-29.117007899999972],[-52.1958418,-29.119232099999977],[-52.196961199999976,-29.120462],[-52.20136729999996,-29.12335179999996],[-52.20207569999997,-29.12409659999997],[-52.202630399999975,-29.125075099999947],[-52.202001,-29.126268799999934],[-52.20096229999995,-29.12690409999994],[-52.199534,-29.12738359999997],[-52.19686869999998,-29.127683699999967],[-52.19013929999994,-29.126874399999966],[-52.18913749999996,-29.127215399999958],[-52.188585099999955,-29.128045399999984],[-52.188781699999936,-29.128914099999974],[-52.18940169999996,-29.129908399999984],[-52.18967969999994,-29.13026959999996],[-52.190293599999954,-29.130508599999928],[-52.19187629999994,-29.132857299999962],[-52.192559899999935,-29.13505829999997],[-52.19217039999995,-29.135893],[-52.19115979999998,-29.13643169999995],[-52.18826569999994,-29.136885099999972],[-52.18692839999994,-29.136716899999968],[-52.18659119999996,-29.136890199999982],[-52.18648589999999,-29.137622099999934],[-52.18672369999996,-29.138420399999966],[-52.189759,-29.140135899999954],[-52.19133069999998,-29.141673],[-52.193081899999974,-29.142879799999935],[-52.193685599999974,-29.143382199999966],[-52.19421059999996,-29.14461469999998],[-52.193489,-29.145247099999946],[-52.191836799999976,-29.14558749999997],[-52.19107329999997,-29.14523209999993],[-52.188469,-29.145601399999983],[-52.186150899999966,-29.146135599999976],[-52.185544799999946,-29.14656549999995],[-52.18508219999996,-29.147674699999975],[-52.184464,-29.15098619999998],[-52.184702499999965,-29.152958399999925],[-52.18583029999997,-29.15528539999998],[-52.18727549999994,-29.154586399999964],[-52.188513799999946,-29.154443699999952],[-52.18948159999997,-29.153601],[-52.190749,-29.153721],[-52.19336009999995,-29.15273439999992],[-52.19447029999997,-29.152613199999973],[-52.19562,-29.15282349999995],[-52.19615969999996,-29.152642299999968],[-52.197309,-29.151577199999966],[-52.19791189999995,-29.150077099999976],[-52.19754179999996,-29.14913409999996],[-52.19835159999997,-29.148030199999923],[-52.20024269999994,-29.14732949999994],[-52.20095289999995,-29.146333299999977],[-52.20333569999996,-29.144839099999945],[-52.203838799999964,-29.143691299999944],[-52.205679,-29.143256799999964],[-52.20549239999997,-29.142754599999943],[-52.205771199999965,-29.142266799999955],[-52.20674459999998,-29.141728699999927],[-52.20713079999996,-29.14168339999998],[-52.20924369999994,-29.142412399999948],[-52.21056039999996,-29.14246519999994],[-52.21412949999996,-29.14089369999993],[-52.214552899999944,-29.139527499999932],[-52.21523329999997,-29.13916939999995],[-52.215954899999986,-29.139162799999944],[-52.218346199999985,-29.13835119999992],[-52.21886019999994,-29.138342699999956],[-52.22093969999998,-29.139402199999942],[-52.22267979999999,-29.139275499999936],[-52.223792099999976,-29.139444499999954],[-52.22569609999994,-29.139052099999965],[-52.22846029999994,-29.139203199999944],[-52.22998259999998,-29.13811119999997],[-52.23173509999998,-29.13798549999996],[-52.232035,-29.137037799999973],[-52.23382839999994,-29.135833899999966],[-52.23528939999995,-29.133995],[-52.235688,-29.132804199999963],[-52.23622389999997,-29.132293499999946],[-52.237305299999946,-29.129931],[-52.23954909999998,-29.12876709999994],[-52.24026269999995,-29.128014299999954],[-52.24326529999996,-29.12664389999997],[-52.24544009999994,-29.12614019999995],[-52.251394,-29.12243659999995],[-52.24559129999995,-29.119567799999977],[-52.24402229999998,-29.118106399999935],[-52.24349489999997,-29.11707569999993],[-52.245073399999974,-29.11133049999995],[-52.24544059999994,-29.110768699999937],[-52.24825149999998,-29.10862289999994],[-52.24882239999994,-29.10772679999997],[-52.249141,-29.105735799999927],[-52.24689289999997,-29.101983],[-52.245505899999955,-29.10252589999993],[-52.24024039999995,-29.10210509999996],[-52.23235589999996,-29.100066699999957],[-52.230028,-29.100598],[-52.22471409999997,-29.09983139999998],[-52.22056039999996,-29.09749979999997],[-52.212262599999974,-29.09457449999997]]]}},{"type":"Feature","properties":{"setor":"431513105000005","pop":267,"sigilo_pop":false,"dom":130,"sigilo_dom":0,"mulheres":121,"sigilo_mulheres":0,"c0_4":8,"sigilo_c0_4":0,"c5_9":14,"sigilo_c5_9":0,"i60_69":31,"sigilo_i60_69":0,"i70m":46,"sigilo_i70m":0,"indigenas":0,"sigilo_indigenas":0,"pretos_pardos":null,"sigilo_pretos_pardos":1,"dom_ocupados":101,"sigilo_dom_ocupados":0,"dom_agua":28,"sigilo_dom_agua":0,"dom_esgoto":0,"sigilo_dom_esgoto":0,"renda_resp":2820.64,"sigilo_renda_resp":0,"n_resp":101,"sigilo_n_resp":0,"dens":10.9,"sigilo_dens":false,"na_bacia":1,"area_pct_bacia":100.0,"metodo_recorte_bacia":"ponto_representativo_setor_2022; area_pct_geometrica","pop_n_validos":1,"pop_n_total":1,"pop_completude":1.0,"dom_n_validos":1,"dom_n_total":1,"dom_completude":1.0,"dom_ocupados_n_validos":1,"dom_ocupados_n_total":1,"dom_ocupados_completude":1.0,"mulheres_n_validos":1,"mulheres_n_total":1,"mulheres_completude":1.0,"c0_4_n_validos":1,"c0_4_n_total":1,"c0_4_completude":1.0,"c5_9_n_validos":1,"c5_9_n_total":1,"c5_9_completude":1.0,"i60_69_n_validos":1,"i60_69_n_total":1,"i60_69_completude":1.0,"i70m_n_validos":1,"i70m_n_total":1,"i70m_completude":1.0,"indigenas_n_validos":1,"indigenas_n_total":1,"indigenas_completude":1.0,"pretos_pardos_n_validos":0,"pretos_pardos_n_total":1,"pretos_pardos_completude":0.0,"dom_agua_n_validos":1,"dom_agua_n_total":1,"dom_agua_completude":1.0,"dom_esgoto_n_validos":1,"dom_esgoto_n_total":1,"dom_esgoto_completude":1.0,"n_resp_n_validos":1,"n_resp_n_total":1,"n_resp_completude":1.0,"renda_resp_n_validos":1,"renda_resp_n_total":1,"renda_resp_completude":1.0,"dens_n_validos":1,"dens_n_total":1,"dens_completude":1.0,"status_borda_bacia":"total","metodo_area_bacia":"interseção geométrica em EPSG:5880","metodo_na_bacia":"ponto_representativo_setor_2022_within_bacia","municipio":"Pouso Novo","cod_mun":"4315131","mun_pct_na_bacia":100.0,"mun_pop_total":1739,"mun_pop_na_bacia":1739.0,"mun_ubs_iede":1,"mun_hospitais_iede":null,"mun_escolas_iede":3,"mun_bombeiros_iede":null,"mun_servicos_cobertura":"cadastro_IEDE_parcial_nao_inventario","mun_icm_faixa":"A","mun_icm_pontos":11,"mun_icm_prioritario":"não","mun_ubs_iede_status":"published","mun_hospitais_iede_status":"unknown","mun_escolas_iede_status":"published","mun_bombeiros_iede_status":"unknown"},"geometry":{"type":"Polygon","coordinates":[[[-52.18583029999997,-29.15528539999998],[-52.18714689999996,-29.15686119999998],[-52.187328899999955,-29.159094899999968],[-52.187055899999955,-29.162146099999973],[-52.1855887,-29.16431189999995],[-52.184335199999964,-29.16479169999996],[-52.183633099999945,-29.16453219999994],[-52.18277159999997,-29.163587599999957],[-52.178898899999986,-29.16326449999997],[-52.17498729999994,-29.163702399999977],[-52.172991399999944,-29.16438159999994],[-52.172553,-29.164728499999963],[-52.172274399999935,-29.165572599999965],[-52.17299809999997,-29.168489299999973],[-52.17313839999998,-29.17015729999997],[-52.17228439999997,-29.17080409999993],[-52.169192799999955,-29.172222199999965],[-52.16809769999998,-29.172996199999947],[-52.16738959999998,-29.174119899999937],[-52.16738109999994,-29.175356399999934],[-52.170888599999955,-29.179654099999933],[-52.175533,-29.186979499999957],[-52.17571479999999,-29.18764239999996],[-52.17569559999998,-29.188223],[-52.17527389999997,-29.188635599999945],[-52.17450739999998,-29.188694399999964],[-52.17210069999993,-29.18816869999996],[-52.17033189999995,-29.188531899999933],[-52.16814419999997,-29.190207699999966],[-52.16720139999995,-29.19158559999993],[-52.167186199999946,-29.192962899999934],[-52.16774529999998,-29.193818799999974],[-52.16918479999998,-29.198832499999973],[-52.16920649999997,-29.20321139999993],[-52.169798599999986,-29.205024099999942],[-52.171515699999986,-29.208217],[-52.171435,-29.209268299999962],[-52.171147,-29.20965629999996],[-52.170500699999934,-29.209821499999972],[-52.165423,-29.209616],[-52.16370459999997,-29.208991],[-52.159818399999956,-29.20625329999995],[-52.15839259999996,-29.206348299999952],[-52.15709559999994,-29.20698669999996],[-52.15674079999997,-29.209023],[-52.157087899999965,-29.210873699999972],[-52.15842839999993,-29.21375749999993],[-52.159258,-29.21443979999998],[-52.16010689999996,-29.214651499999952],[-52.16339469999997,-29.218142699999923],[-52.16814549999998,-29.218729099999962],[-52.168997899999965,-29.219443399999935],[-52.169407399999955,-29.220415899999963],[-52.16694869999998,-29.22661749999997],[-52.166213599999935,-29.226566499999922],[-52.16769439999996,-29.22795259999998],[-52.17111059999997,-29.226085099999963],[-52.17217329999994,-29.224518599999946],[-52.172198399999964,-29.223186199999923],[-52.17080369999996,-29.22025169999995],[-52.170388399999986,-29.218260099999952],[-52.17090409999997,-29.21621749999999],[-52.17247489999995,-29.21290359999994],[-52.173771699999975,-29.21158449999995],[-52.17833879999995,-29.20974469999993],[-52.179995599999984,-29.208464699999983],[-52.18153589999998,-29.208279399999977],[-52.18217269999997,-29.207815],[-52.182405099999976,-29.205596],[-52.18301569999995,-29.204135299999955],[-52.183798699999954,-29.20330159999997],[-52.18401709999995,-29.202736499999947],[-52.183073199999974,-29.201195899999952],[-52.18293689999995,-29.199893799999984],[-52.18224759999998,-29.198787],[-52.182267499999966,-29.198146099999974],[-52.183101299999976,-29.197240299999972],[-52.18459569999993,-29.196409],[-52.18543829999992,-29.195554899999934],[-52.18629239999995,-29.193251499999974],[-52.186652699999975,-29.190945399999972],[-52.188912399999936,-29.189431799999962],[-52.18944259999994,-29.18885179999994],[-52.18945569999994,-29.18697089999994],[-52.189771399999984,-29.186198899999958],[-52.19085969999998,-29.185395599999932],[-52.19176559999993,-29.18374439999996],[-52.19349639999996,-29.181626],[-52.19459069999994,-29.179022899999946],[-52.19576959999995,-29.178348399999944],[-52.19541049999998,-29.177819699999933],[-52.20213619999998,-29.175811299999975],[-52.200178499999936,-29.173023199999925],[-52.203270699999955,-29.171307099999975],[-52.204066,-29.169978],[-52.20600419999994,-29.16836559999996],[-52.208401899999956,-29.167698499999965],[-52.21023009999994,-29.16773189999998],[-52.21147829999995,-29.16803939999994],[-52.213237,-29.169079499999953],[-52.21591709999995,-29.169291799999947],[-52.21801879999998,-29.170439199999976],[-52.21921839999993,-29.170361599999975],[-52.2201376,-29.169899699999966],[-52.22065449999997,-29.16855969999994],[-52.21965339999997,-29.167010199999932],[-52.21935579999996,-29.165772499999942],[-52.22003579999995,-29.16347739999998],[-52.22073769999997,-29.162535599999945],[-52.22158459999997,-29.163114699999944],[-52.223258299999934,-29.16237669999999],[-52.22450969999994,-29.161033299999925],[-52.22737549999994,-29.158847199999965],[-52.22830759999993,-29.156705299999935],[-52.22937509999997,-29.155404599999944],[-52.229801,-29.153433399999983],[-52.23066249999994,-29.15197769999998],[-52.233842599999946,-29.15114259999996],[-52.23572049999996,-29.14975429999998],[-52.236923,-29.148363],[-52.23754759999997,-29.146763199999956],[-52.23772,-29.142244599999973],[-52.23803319999996,-29.141606499999966],[-52.23920779999998,-29.140604099999955],[-52.23895669999996,-29.138667099999957],[-52.23909529999998,-29.138303],[-52.239368899999924,-29.137939299999974],[-52.240027,-29.13766839999994],[-52.243178299999954,-29.138045099999946],[-52.2442071,-29.13797119999998],[-52.24503549999998,-29.137514399999933],[-52.24614429999997,-29.135934799999973],[-52.24803929999996,-29.13444369999996],[-52.24883189999997,-29.130878099999958],[-52.249724399999934,-29.130004899999946],[-52.251075699999944,-29.12916969999997],[-52.25215129999998,-29.12770629999994],[-52.25235829999997,-29.125039399999938],[-52.25212309999995,-29.123328099999977],[-52.251394,-29.12243659999995],[-52.24544009999994,-29.12614019999995],[-52.24326529999996,-29.12664389999997],[-52.24026269999995,-29.128014299999954],[-52.23954909999998,-29.12876709999994],[-52.23798269999998,-29.129439299999937],[-52.237305299999946,-29.129931],[-52.23687469999993,-29.130594599999945],[-52.23528939999995,-29.133995],[-52.23382839999994,-29.135833899999966],[-52.232035,-29.137037799999973],[-52.23173509999998,-29.13798549999996],[-52.22998259999998,-29.13811119999997],[-52.22846029999994,-29.139203199999944],[-52.22569609999994,-29.139052099999965],[-52.223792099999976,-29.139444499999954],[-52.22267979999999,-29.139275499999936],[-52.22093969999998,-29.139402199999942],[-52.21886019999994,-29.138342699999956],[-52.218346199999985,-29.13835119999992],[-52.215954899999986,-29.139162799999944],[-52.21523329999997,-29.13916939999995],[-52.214552899999944,-29.139527499999932],[-52.21412949999996,-29.14089369999993],[-52.21056039999996,-29.14246519999994],[-52.20924369999994,-29.142412399999948],[-52.20713079999996,-29.14168339999998],[-52.20674459999998,-29.141728699999927],[-52.205771199999965,-29.142266799999955],[-52.20549239999997,-29.142754599999943],[-52.205679,-29.143256799999964],[-52.203838799999964,-29.143691299999944],[-52.20333569999996,-29.144839099999945],[-52.20095289999995,-29.146333299999977],[-52.20024269999994,-29.14732949999994],[-52.19835159999997,-29.148030199999923],[-52.19754179999996,-29.14913409999996],[-52.19791189999995,-29.150077099999976],[-52.197309,-29.151577199999966],[-52.19615969999996,-29.152642299999968],[-52.19562,-29.15282349999995],[-52.19447029999997,-29.152613199999973],[-52.19336009999995,-29.15273439999992],[-52.190749,-29.153721],[-52.18948159999997,-29.153601],[-52.188513799999946,-29.154443699999952],[-52.18727549999994,-29.154586399999964],[-52.18583029999997,-29.15528539999998]]]}},{"type":"Feature","properties":{"setor":"431513105000006","pop":1,"sigilo_pop":false,"dom":1,"sigilo_dom":0,"mulheres":null,"sigilo_mulheres":1,"c0_4":null,"sigilo_c0_4":1,"c5_9":null,"sigilo_c5_9":1,"i60_69":null,"sigilo_i60_69":1,"i70m":null,"sigilo_i70m":1,"indigenas":null,"sigilo_indigenas":1,"pretos_pardos":null,"sigilo_pretos_pardos":1,"dom_ocupados":null,"sigilo_dom_ocupados":1,"dom_agua":null,"sigilo_dom_agua":1,"dom_esgoto":null,"sigilo_dom_esgoto":1,"renda_resp":null,"sigilo_renda_resp":1,"n_resp":null,"sigilo_n_resp":1,"dens":3.6,"sigilo_dens":false,"na_bacia":1,"area_pct_bacia":100.0,"metodo_recorte_bacia":"ponto_representativo_setor_2022; area_pct_geometrica","pop_n_validos":1,"pop_n_total":1,"pop_completude":1.0,"dom_n_validos":1,"dom_n_total":1,"dom_completude":1.0,"dom_ocupados_n_validos":0,"dom_ocupados_n_total":1,"dom_ocupados_completude":0.0,"mulheres_n_validos":0,"mulheres_n_total":1,"mulheres_completude":0.0,"c0_4_n_validos":0,"c0_4_n_total":1,"c0_4_completude":0.0,"c5_9_n_validos":0,"c5_9_n_total":1,"c5_9_completude":0.0,"i60_69_n_validos":0,"i60_69_n_total":1,"i60_69_completude":0.0,"i70m_n_validos":0,"i70m_n_total":1,"i70m_completude":0.0,"indigenas_n_validos":0,"indigenas_n_total":1,"indigenas_completude":0.0,"pretos_pardos_n_validos":0,"pretos_pardos_n_total":1,"pretos_pardos_completude":0.0,"dom_agua_n_validos":0,"dom_agua_n_total":1,"dom_agua_completude":0.0,"dom_esgoto_n_validos":0,"dom_esgoto_n_total":1,"dom_esgoto_completude":0.0,"n_resp_n_validos":0,"n_resp_n_total":1,"n_resp_completude":0.0,"renda_resp_n_validos":0,"renda_resp_n_total":1,"renda_resp_completude":0.0,"dens_n_validos":1,"dens_n_total":1,"dens_completude":1.0,"status_borda_bacia":"total","metodo_area_bacia":"interseção geométrica em EPSG:5880","metodo_na_bacia":"ponto_representativo_setor_2022_within_bacia","municipio":"Pouso Novo","cod_mun":"4315131","mun_pct_na_bacia":100.0,"mun_pop_total":1739,"mun_pop_na_bacia":1739.0,"mun_ubs_iede":1,"mun_hospitais_iede":null,"mun_escolas_iede":3,"mun_bombeiros_iede":null,"mun_servicos_cobertura":"cadastro_IEDE_parcial_nao_inventario","mun_icm_faixa":"A","mun_icm_pontos":11,"mun_icm_prioritario":"não","mun_ubs_iede_status":"published","mun_hospitais_iede_status":"unknown","mun_escolas_iede_status":"published","mun_bombeiros_iede_status":"unknown"},"geometry":{"type":"Polygon","coordinates":[[[-52.21123989999995,-29.17673239999993],[-52.21237809999997,-29.179480899999934],[-52.22071629999994,-29.17633459999996],[-52.219167199999966,-29.173793599999946],[-52.21123989999995,-29.17673239999993]]]}},{"type":"Feature","properties":{"setor":"431513105000007","pop":46,"sigilo_pop":false,"dom":19,"sigilo_dom":0,"mulheres":24,"sigilo_mulheres":0,"c0_4":null,"sigilo_c0_4":1,"c5_9":null,"sigilo_c5_9":1,"i60_69":null,"sigilo_i60_69":1,"i70m":null,"sigilo_i70m":1,"indigenas":0,"sigilo_indigenas":0,"pretos_pardos":10,"sigilo_pretos_pardos":0,"dom_ocupados":17,"sigilo_dom_ocupados":0,"dom_agua":17,"sigilo_dom_agua":0,"dom_esgoto":0,"sigilo_dom_esgoto":0,"renda_resp":2435.76,"sigilo_renda_resp":0,"n_resp":17,"sigilo_n_resp":0,"dens":253.9,"sigilo_dens":false,"na_bacia":1,"area_pct_bacia":100.0,"metodo_recorte_bacia":"ponto_representativo_setor_2022; area_pct_geometrica","pop_n_validos":1,"pop_n_total":1,"pop_completude":1.0,"dom_n_validos":1,"dom_n_total":1,"dom_completude":1.0,"dom_ocupados_n_validos":1,"dom_ocupados_n_total":1,"dom_ocupados_completude":1.0,"mulheres_n_validos":1,"mulheres_n_total":1,"mulheres_completude":1.0,"c0_4_n_validos":0,"c0_4_n_total":1,"c0_4_completude":0.0,"c5_9_n_validos":0,"c5_9_n_total":1,"c5_9_completude":0.0,"i60_69_n_validos":0,"i60_69_n_total":1,"i60_69_completude":0.0,"i70m_n_validos":0,"i70m_n_total":1,"i70m_completude":0.0,"indigenas_n_validos":1,"indigenas_n_total":1,"indigenas_completude":1.0,"pretos_pardos_n_validos":1,"pretos_pardos_n_total":1,"pretos_pardos_completude":1.0,"dom_agua_n_validos":1,"dom_agua_n_total":1,"dom_agua_completude":1.0,"dom_esgoto_n_validos":1,"dom_esgoto_n_total":1,"dom_esgoto_completude":1.0,"n_resp_n_validos":1,"n_resp_n_total":1,"n_resp_completude":1.0,"renda_resp_n_validos":1,"renda_resp_n_total":1,"renda_resp_completude":1.0,"dens_n_validos":1,"dens_n_total":1,"dens_completude":1.0,"status_borda_bacia":"total","metodo_area_bacia":"interseção geométrica em EPSG:5880","metodo_na_bacia":"ponto_representativo_setor_2022_within_bacia","municipio":"Pouso Novo","cod_mun":"4315131","mun_pct_na_bacia":100.0,"mun_pop_total":1739,"mun_pop_na_bacia":1739.0,"mun_ubs_iede":1,"mun_hospitais_iede":null,"mun_escolas_iede":3,"mun_bombeiros_iede":null,"mun_servicos_cobertura":"cadastro_IEDE_parcial_nao_inventario","mun_icm_faixa":"A","mun_icm_pontos":11,"mun_icm_prioritario":"não","mun_ubs_iede_status":"published","mun_hospitais_iede_status":"unknown","mun_escolas_iede_status":"published","mun_bombeiros_iede_status":"unknown"},"geometry":{"type":"Polygon","coordinates":[[[-52.19576959999995,-29.178348399999944],[-52.19662569999998,-29.179479899999937],[-52.1999029,-29.180388],[-52.20332549999995,-29.17698689999997],[-52.202394199999965,-29.176164699999962],[-52.20141109999998,-29.176568499999973],[-52.198425199999974,-29.17700719999992],[-52.19576959999995,-29.178348399999944]]]}},{"type":"Feature","properties":{"setor":"431513105000008","pop":0,"sigilo_pop":false,"dom":0,"sigilo_dom":0,"mulheres":0,"sigilo_mulheres":0,"c0_4":0,"sigilo_c0_4":0,"c5_9":0,"sigilo_c5_9":0,"i60_69":0,"sigilo_i60_69":0,"i70m":0,"sigilo_i70m":0,"indigenas":0,"sigilo_indigenas":0,"pretos_pardos":0,"sigilo_pretos_pardos":0,"dom_ocupados":0,"sigilo_dom_ocupados":0,"dom_agua":0,"sigilo_dom_agua":0,"dom_esgoto":0,"sigilo_dom_esgoto":0,"renda_resp":0.0,"sigilo_renda_resp":0,"n_resp":0,"sigilo_n_resp":0,"dens":0.0,"sigilo_dens":false,"na_bacia":1,"area_pct_bacia":100.0,"metodo_recorte_bacia":"ponto_representativo_setor_2022; area_pct_geometrica","pop_n_validos":1,"pop_n_total":1,"pop_completude":1.0,"dom_n_validos":1,"dom_n_total":1,"dom_completude":1.0,"dom_ocupados_n_validos":1,"dom_ocupados_n_total":1,"dom_ocupados_completude":1.0,"mulheres_n_validos":1,"mulheres_n_total":1,"mulheres_completude":1.0,"c0_4_n_validos":1,"c0_4_n_total":1,"c0_4_completude":1.0,"c5_9_n_validos":1,"c5_9_n_total":1,"c5_9_completude":1.0,"i60_69_n_validos":1,"i60_69_n_total":1,"i60_69_completude":1.0,"i70m_n_validos":1,"i70m_n_total":1,"i70m_completude":1.0,"indigenas_n_validos":1,"indigenas_n_total":1,"indigenas_completude":1.0,"pretos_pardos_n_validos":1,"pretos_pardos_n_total":1,"pretos_pardos_completude":1.0,"dom_agua_n_validos":1,"dom_agua_n_total":1,"dom_agua_completude":1.0,"dom_esgoto_n_validos":1,"dom_esgoto_n_total":1,"dom_esgoto_completude":1.0,"n_resp_n_validos":1,"n_resp_n_total":1,"n_resp_completude":1.0,"renda_resp_n_validos":1,"renda_resp_n_total":1,"renda_resp_completude":1.0,"dens_n_validos":1,"dens_n_total":1,"dens_completude":1.0,"status_borda_bacia":"total","metodo_area_bacia":"interseção geométrica em EPSG:5880","metodo_na_bacia":"ponto_representativo_setor_2022_within_bacia","municipio":"Pouso Novo","cod_mun":"4315131","mun_pct_na_bacia":100.0,"mun_pop_total":1739,"mun_pop_na_bacia":1739.0,"mun_ubs_iede":1,"mun_hospitais_iede":null,"mun_escolas_iede":3,"mun_bombeiros_iede":null,"mun_servicos_cobertura":"cadastro_IEDE_parcial_nao_inventario","mun_icm_faixa":"A","mun_icm_pontos":11,"mun_icm_prioritario":"não","mun_ubs_iede_status":"published","mun_hospitais_iede_status":"unknown","mun_escolas_iede_status":"published","mun_bombeiros_iede_status":"unknown"},"geometry":{"type":"Polygon","coordinates":[[[-52.19576959999995,-29.178348399999944],[-52.198425199999974,-29.17700719999992],[-52.20141109999998,-29.176568499999973],[-52.202394199999965,-29.176164699999962],[-52.20213619999998,-29.175811299999975],[-52.19541049999998,-29.177819699999933],[-52.19576959999995,-29.178348399999944]]]}}]}
