{"type":"FeatureCollection","name":"4315206","crs":{"type":"name","properties":{"name":"urn:ogc:def:crs:OGC:1.3:CRS84"}},"features":[{"type":"Feature","properties":{"setor":"431520605000001","pop":717,"sigilo_pop":false,"dom":329,"sigilo_dom":0,"mulheres":375,"sigilo_mulheres":0,"c0_4":37,"sigilo_c0_4":0,"c5_9":32,"sigilo_c5_9":0,"i60_69":91,"sigilo_i60_69":0,"i70m":112,"sigilo_i70m":0,"indigenas":0,"sigilo_indigenas":0,"pretos_pardos":57,"sigilo_pretos_pardos":0,"dom_ocupados":295,"sigilo_dom_ocupados":0,"dom_agua":289,"sigilo_dom_agua":0,"dom_esgoto":21,"sigilo_dom_esgoto":0,"renda_resp":2594.98,"sigilo_renda_resp":0,"n_resp":295,"sigilo_n_resp":0,"dens":1104.6,"sigilo_dens":false,"na_bacia":1,"area_pct_bacia":100.0,"metodo_recorte_bacia":"ponto_representativo_setor_2022; area_pct_geometrica","pop_n_validos":1,"pop_n_total":1,"pop_completude":1.0,"dom_n_validos":1,"dom_n_total":1,"dom_completude":1.0,"dom_ocupados_n_validos":1,"dom_ocupados_n_total":1,"dom_ocupados_completude":1.0,"mulheres_n_validos":1,"mulheres_n_total":1,"mulheres_completude":1.0,"c0_4_n_validos":1,"c0_4_n_total":1,"c0_4_completude":1.0,"c5_9_n_validos":1,"c5_9_n_total":1,"c5_9_completude":1.0,"i60_69_n_validos":1,"i60_69_n_total":1,"i60_69_completude":1.0,"i70m_n_validos":1,"i70m_n_total":1,"i70m_completude":1.0,"indigenas_n_validos":1,"indigenas_n_total":1,"indigenas_completude":1.0,"pretos_pardos_n_validos":1,"pretos_pardos_n_total":1,"pretos_pardos_completude":1.0,"dom_agua_n_validos":1,"dom_agua_n_total":1,"dom_agua_completude":1.0,"dom_esgoto_n_validos":1,"dom_esgoto_n_total":1,"dom_esgoto_completude":1.0,"n_resp_n_validos":1,"n_resp_n_total":1,"n_resp_completude":1.0,"renda_resp_n_validos":1,"renda_resp_n_total":1,"renda_resp_completude":1.0,"dens_n_validos":1,"dens_n_total":1,"dens_completude":1.0,"status_borda_bacia":"total","metodo_area_bacia":"interseção geométrica em EPSG:5880","metodo_na_bacia":"ponto_representativo_setor_2022_within_bacia","municipio":"Putinga","cod_mun":"4315206","mun_pct_na_bacia":100.0,"mun_pop_total":3747,"mun_pop_na_bacia":3747.0,"mun_ubs_iede":2,"mun_hospitais_iede":1,"mun_escolas_iede":5,"mun_bombeiros_iede":null,"mun_servicos_cobertura":"cadastro_IEDE_parcial_nao_inventario","mun_icm_faixa":"B","mun_icm_pontos":13,"mun_icm_prioritario":"sim","mun_ubs_iede_status":"published","mun_hospitais_iede_status":"published","mun_escolas_iede_status":"published","mun_bombeiros_iede_status":"unknown"},"geometry":{"type":"Polygon","coordinates":[[[-52.153408899999924,-29.001993],[-52.15959019999996,-29.000551],[-52.15992239999997,-29.00179159999993],[-52.161576799999985,-29.001431099999934],[-52.163059299999986,-29.00137219999994],[-52.16654479999994,-29.00246519999996],[-52.16727929999996,-29.002521399999974],[-52.167312599999946,-29.000515599999954],[-52.16759539999998,-28.999926499999948],[-52.16681779999993,-28.99877189999995],[-52.16620519999998,-28.998465499999952],[-52.16523909999995,-28.998654099999946],[-52.1638253,-28.998065],[-52.163189099999954,-28.998065],[-52.16085679999997,-28.995519199999947],[-52.15993729999997,-28.99490749999995],[-52.15819359999994,-28.99799429999996],[-52.152868299999966,-28.996627599999947],[-52.153408899999924,-29.001993]]]}},{"type":"Feature","properties":{"setor":"431520605000002","pop":895,"sigilo_pop":false,"dom":391,"sigilo_dom":0,"mulheres":477,"sigilo_mulheres":0,"c0_4":42,"sigilo_c0_4":0,"c5_9":48,"sigilo_c5_9":0,"i60_69":116,"sigilo_i60_69":0,"i70m":149,"sigilo_i70m":0,"indigenas":0,"sigilo_indigenas":0,"pretos_pardos":126,"sigilo_pretos_pardos":0,"dom_ocupados":343,"sigilo_dom_ocupados":0,"dom_agua":329,"sigilo_dom_agua":0,"dom_esgoto":0,"sigilo_dom_esgoto":0,"renda_resp":2339.21,"sigilo_renda_resp":0,"n_resp":343,"sigilo_n_resp":0,"dens":1273.4,"sigilo_dens":false,"na_bacia":1,"area_pct_bacia":100.0,"metodo_recorte_bacia":"ponto_representativo_setor_2022; area_pct_geometrica","pop_n_validos":1,"pop_n_total":1,"pop_completude":1.0,"dom_n_validos":1,"dom_n_total":1,"dom_completude":1.0,"dom_ocupados_n_validos":1,"dom_ocupados_n_total":1,"dom_ocupados_completude":1.0,"mulheres_n_validos":1,"mulheres_n_total":1,"mulheres_completude":1.0,"c0_4_n_validos":1,"c0_4_n_total":1,"c0_4_completude":1.0,"c5_9_n_validos":1,"c5_9_n_total":1,"c5_9_completude":1.0,"i60_69_n_validos":1,"i60_69_n_total":1,"i60_69_completude":1.0,"i70m_n_validos":1,"i70m_n_total":1,"i70m_completude":1.0,"indigenas_n_validos":1,"indigenas_n_total":1,"indigenas_completude":1.0,"pretos_pardos_n_validos":1,"pretos_pardos_n_total":1,"pretos_pardos_completude":1.0,"dom_agua_n_validos":1,"dom_agua_n_total":1,"dom_agua_completude":1.0,"dom_esgoto_n_validos":1,"dom_esgoto_n_total":1,"dom_esgoto_completude":1.0,"n_resp_n_validos":1,"n_resp_n_total":1,"n_resp_completude":1.0,"renda_resp_n_validos":1,"renda_resp_n_total":1,"renda_resp_completude":1.0,"dens_n_validos":1,"dens_n_total":1,"dens_completude":1.0,"status_borda_bacia":"total","metodo_area_bacia":"interseção geométrica em EPSG:5880","metodo_na_bacia":"ponto_representativo_setor_2022_within_bacia","municipio":"Putinga","cod_mun":"4315206","mun_pct_na_bacia":100.0,"mun_pop_total":3747,"mun_pop_na_bacia":3747.0,"mun_ubs_iede":2,"mun_hospitais_iede":1,"mun_escolas_iede":5,"mun_bombeiros_iede":null,"mun_servicos_cobertura":"cadastro_IEDE_parcial_nao_inventario","mun_icm_faixa":"B","mun_icm_pontos":13,"mun_icm_prioritario":"sim","mun_ubs_iede_status":"published","mun_hospitais_iede_status":"published","mun_escolas_iede_status":"published","mun_bombeiros_iede_status":"unknown"},"geometry":{"type":"Polygon","coordinates":[[[-52.153408899999924,-29.001993],[-52.15287559999996,-29.001818799999967],[-52.15123609999995,-29.00280249999997],[-52.152281,-29.00420559999997],[-52.15179669999997,-29.00462],[-52.15055179999996,-29.004678],[-52.150175199999985,-29.00488419999993],[-52.14969669999994,-29.005811899999976],[-52.15000629999997,-29.006116099999915],[-52.15051949999997,-29.006190099999973],[-52.15035069999993,-29.006619799999957],[-52.14957389999994,-29.007261],[-52.14746369999995,-29.00795579999994],[-52.149114399999974,-29.01007209999995],[-52.149381,-29.010105799999963],[-52.149593,-29.00965809999997],[-52.152443699999935,-29.007744599999956],[-52.15856889999998,-29.005138799999926],[-52.158490899999954,-29.004155199999953],[-52.16283119999998,-29.003256199999946],[-52.16282979999994,-29.003992599999947],[-52.16733289999996,-29.003990799999936],[-52.16727929999996,-29.002521399999974],[-52.16654479999994,-29.00246519999996],[-52.163059299999986,-29.00137219999994],[-52.161576799999985,-29.001431099999934],[-52.15992239999997,-29.00179159999993],[-52.15959019999996,-29.000551],[-52.153408899999924,-29.001993]]]}},{"type":"Feature","properties":{"setor":"431520605000003","pop":270,"sigilo_pop":false,"dom":111,"sigilo_dom":0,"mulheres":126,"sigilo_mulheres":0,"c0_4":10,"sigilo_c0_4":0,"c5_9":11,"sigilo_c5_9":0,"i60_69":39,"sigilo_i60_69":0,"i70m":49,"sigilo_i70m":0,"indigenas":0,"sigilo_indigenas":0,"pretos_pardos":10,"sigilo_pretos_pardos":0,"dom_ocupados":89,"sigilo_dom_ocupados":0,"dom_agua":11,"sigilo_dom_agua":0,"dom_esgoto":0,"sigilo_dom_esgoto":0,"renda_resp":1797.15,"sigilo_renda_resp":0,"n_resp":89,"sigilo_n_resp":0,"dens":12.8,"sigilo_dens":false,"na_bacia":1,"area_pct_bacia":100.0,"metodo_recorte_bacia":"ponto_representativo_setor_2022; area_pct_geometrica","pop_n_validos":1,"pop_n_total":1,"pop_completude":1.0,"dom_n_validos":1,"dom_n_total":1,"dom_completude":1.0,"dom_ocupados_n_validos":1,"dom_ocupados_n_total":1,"dom_ocupados_completude":1.0,"mulheres_n_validos":1,"mulheres_n_total":1,"mulheres_completude":1.0,"c0_4_n_validos":1,"c0_4_n_total":1,"c0_4_completude":1.0,"c5_9_n_validos":1,"c5_9_n_total":1,"c5_9_completude":1.0,"i60_69_n_validos":1,"i60_69_n_total":1,"i60_69_completude":1.0,"i70m_n_validos":1,"i70m_n_total":1,"i70m_completude":1.0,"indigenas_n_validos":1,"indigenas_n_total":1,"indigenas_completude":1.0,"pretos_pardos_n_validos":1,"pretos_pardos_n_total":1,"pretos_pardos_completude":1.0,"dom_agua_n_validos":1,"dom_agua_n_total":1,"dom_agua_completude":1.0,"dom_esgoto_n_validos":1,"dom_esgoto_n_total":1,"dom_esgoto_completude":1.0,"n_resp_n_validos":1,"n_resp_n_total":1,"n_resp_completude":1.0,"renda_resp_n_validos":1,"renda_resp_n_total":1,"renda_resp_completude":1.0,"dens_n_validos":1,"dens_n_total":1,"dens_completude":1.0,"status_borda_bacia":"total","metodo_area_bacia":"interseção geométrica em EPSG:5880","metodo_na_bacia":"ponto_representativo_setor_2022_within_bacia","municipio":"Putinga","cod_mun":"4315206","mun_pct_na_bacia":100.0,"mun_pop_total":3747,"mun_pop_na_bacia":3747.0,"mun_ubs_iede":2,"mun_hospitais_iede":1,"mun_escolas_iede":5,"mun_bombeiros_iede":null,"mun_servicos_cobertura":"cadastro_IEDE_parcial_nao_inventario","mun_icm_faixa":"B","mun_icm_pontos":13,"mun_icm_prioritario":"sim","mun_ubs_iede_status":"published","mun_hospitais_iede_status":"published","mun_escolas_iede_status":"published","mun_bombeiros_iede_status":"unknown"},"geometry":{"type":"Polygon","coordinates":[[[-52.1101159,-28.98388439999996],[-52.1096381,-28.985263599999943],[-52.1096381,-28.986308399999913],[-52.10884979999997,-28.986893499999958],[-52.10911249999998,-28.98835629999997],[-52.10973369999993,-28.988836899999956],[-52.109757499999944,-28.989087599999955],[-52.10896919999993,-28.989547299999966],[-52.10507529999995,-28.990111499999966],[-52.104717,-28.99034139999997],[-52.10426309999997,-28.991260799999957],[-52.10435869999998,-28.99172049999993],[-52.10540979999996,-28.992702599999976],[-52.10500369999993,-28.993204],[-52.10354719999999,-28.993653],[-52.10413009999996,-28.993944499999937],[-52.10622089999998,-28.995893499999973],[-52.11057979999998,-28.99770089999998],[-52.10544129999994,-29.015242499999932],[-52.10728409999996,-29.016908099999966],[-52.108134599999964,-29.01970759999995],[-52.110302299999944,-29.023255199999916],[-52.11368779999999,-29.02372759999997],[-52.114495699999964,-29.024124],[-52.114292699999964,-29.024619099999935],[-52.11298429999994,-29.025435],[-52.112842099999966,-29.02596969999995],[-52.11314139999996,-29.02633469999995],[-52.11340459999997,-29.028235299999956],[-52.11374979999994,-29.028393399999967],[-52.116702099999934,-29.027231599999922],[-52.117691399999956,-29.026629399999926],[-52.11789109999996,-29.025978299999974],[-52.11730449999994,-29.02464239999995],[-52.117607,-29.024036899999956],[-52.11980089999997,-29.023644599999965],[-52.11992269999996,-29.023382],[-52.11941369999994,-29.022803],[-52.11965849999995,-29.022156099999957],[-52.11891289999994,-29.021885],[-52.118182,-29.021146],[-52.11856549999993,-29.020609299999947],[-52.12282259999995,-29.021419199999972],[-52.1233544,-29.021017199999946],[-52.12348089999994,-29.02003939999997],[-52.12385409999996,-29.019613399999965],[-52.12656959999998,-29.019833499999947],[-52.12814569999995,-29.019480299999938],[-52.12818589999995,-29.018958599999966],[-52.12705,-29.01750769999995],[-52.126989,-29.0162784],[-52.12566,-29.014035599999946],[-52.12558579999996,-29.013544799999973],[-52.12581129999996,-29.013220499999917],[-52.126369499999946,-29.013117299999973],[-52.128352799999966,-29.014541199999943],[-52.12988939999997,-29.014718599999988],[-52.13235849999996,-29.014479699999974],[-52.13398019999994,-29.013694],[-52.13639509999996,-29.01367069999997],[-52.13772519999998,-29.01305679999995],[-52.138535,-29.011577099999943],[-52.13930459999995,-29.010905799999932],[-52.139517499999954,-29.010483899999947],[-52.13935339999995,-29.010074],[-52.140479,-29.009410399999968],[-52.14128679999993,-29.007923299999963],[-52.14170479999996,-29.007912899999944],[-52.142104599999975,-29.008857399999933],[-52.14297229999994,-29.008729499999966],[-52.143491,-29.009056899999965],[-52.14632369999998,-29.007862399999976],[-52.14746369999995,-29.00795579999994],[-52.14957389999994,-29.007261],[-52.15050039999994,-29.006341599999928],[-52.14969669999994,-29.005811899999976],[-52.150175199999985,-29.00488419999993],[-52.15055179999996,-29.004678],[-52.15179669999997,-29.00462],[-52.152281,-29.00420559999997],[-52.15123609999995,-29.00280249999997],[-52.15287559999996,-29.001818799999967],[-52.153408899999924,-29.001993],[-52.152868299999966,-28.996627599999947],[-52.15819359999994,-28.99799429999996],[-52.15993729999997,-28.99490749999995],[-52.16085679999997,-28.995519199999947],[-52.160850799999935,-28.993480599999934],[-52.161392099999944,-28.988740299999964],[-52.160817399999985,-28.986800899999928],[-52.16095009999997,-28.985641],[-52.161366799999946,-28.984608399999953],[-52.16087959999993,-28.982804],[-52.160848199999975,-28.981763],[-52.161485,-28.976993],[-52.16101029999998,-28.97634529999992],[-52.158104199999975,-28.97532169999995],[-52.156376399999935,-28.975548099999973],[-52.15507779999995,-28.976140399999963],[-52.15473739999993,-28.974913099999984],[-52.12251429999998,-28.972933599999973],[-52.121615099999985,-28.982829899999956],[-52.1099895,-28.981912899999944],[-52.1101159,-28.98388439999996]]]}},{"type":"Feature","properties":{"setor":"431520605000004","pop":329,"sigilo_pop":false,"dom":170,"sigilo_dom":0,"mulheres":160,"sigilo_mulheres":0,"c0_4":10,"sigilo_c0_4":0,"c5_9":14,"sigilo_c5_9":0,"i60_69":64,"sigilo_i60_69":0,"i70m":51,"sigilo_i70m":0,"indigenas":0,"sigilo_indigenas":0,"pretos_pardos":29,"sigilo_pretos_pardos":0,"dom_ocupados":122,"sigilo_dom_ocupados":0,"dom_agua":16,"sigilo_dom_agua":0,"dom_esgoto":0,"sigilo_dom_esgoto":0,"renda_resp":4179.8,"sigilo_renda_resp":0,"n_resp":122,"sigilo_n_resp":0,"dens":13.7,"sigilo_dens":false,"na_bacia":1,"area_pct_bacia":100.0,"metodo_recorte_bacia":"ponto_representativo_setor_2022; area_pct_geometrica","pop_n_validos":1,"pop_n_total":1,"pop_completude":1.0,"dom_n_validos":1,"dom_n_total":1,"dom_completude":1.0,"dom_ocupados_n_validos":1,"dom_ocupados_n_total":1,"dom_ocupados_completude":1.0,"mulheres_n_validos":1,"mulheres_n_total":1,"mulheres_completude":1.0,"c0_4_n_validos":1,"c0_4_n_total":1,"c0_4_completude":1.0,"c5_9_n_validos":1,"c5_9_n_total":1,"c5_9_completude":1.0,"i60_69_n_validos":1,"i60_69_n_total":1,"i60_69_completude":1.0,"i70m_n_validos":1,"i70m_n_total":1,"i70m_completude":1.0,"indigenas_n_validos":1,"indigenas_n_total":1,"indigenas_completude":1.0,"pretos_pardos_n_validos":1,"pretos_pardos_n_total":1,"pretos_pardos_completude":1.0,"dom_agua_n_validos":1,"dom_agua_n_total":1,"dom_agua_completude":1.0,"dom_esgoto_n_validos":1,"dom_esgoto_n_total":1,"dom_esgoto_completude":1.0,"n_resp_n_validos":1,"n_resp_n_total":1,"n_resp_completude":1.0,"renda_resp_n_validos":1,"renda_resp_n_total":1,"renda_resp_completude":1.0,"dens_n_validos":1,"dens_n_total":1,"dens_completude":1.0,"status_borda_bacia":"total","metodo_area_bacia":"interseção geométrica em EPSG:5880","metodo_na_bacia":"ponto_representativo_setor_2022_within_bacia","municipio":"Putinga","cod_mun":"4315206","mun_pct_na_bacia":100.0,"mun_pop_total":3747,"mun_pop_na_bacia":3747.0,"mun_ubs_iede":2,"mun_hospitais_iede":1,"mun_escolas_iede":5,"mun_bombeiros_iede":null,"mun_servicos_cobertura":"cadastro_IEDE_parcial_nao_inventario","mun_icm_faixa":"B","mun_icm_pontos":13,"mun_icm_prioritario":"sim","mun_ubs_iede_status":"published","mun_hospitais_iede_status":"published","mun_escolas_iede_status":"published","mun_bombeiros_iede_status":"unknown"},"geometry":{"type":"Polygon","coordinates":[[[-52.110302299999944,-29.023255199999916],[-52.109873299999954,-29.023694699999954],[-52.11029589999998,-29.02473339999995],[-52.11010669999996,-29.025258399999913],[-52.10826519999995,-29.025124299999945],[-52.10731819999995,-29.0261599],[-52.106840699999964,-29.027066899999966],[-52.107211,-29.028601899999952],[-52.106296,-29.03052639999993],[-52.10579419999994,-29.03074029999993],[-52.10509679999995,-29.030696199999962],[-52.10366429999994,-29.030316099999936],[-52.10101039999996,-29.030643899999973],[-52.099822,-29.032855899999948],[-52.09902549999998,-29.03379169999993],[-52.09733669999998,-29.034512799999955],[-52.09459679999998,-29.03839479999993],[-52.09604219999995,-29.038412599999955],[-52.097788599999944,-29.03892349999995],[-52.09954,-29.03989629999994],[-52.10051139999996,-29.041015799999965],[-52.10057009999997,-29.042014199999976],[-52.10087139999996,-29.042553299999962],[-52.10325,-29.0440445],[-52.10375719999996,-29.044604599999953],[-52.10397759999995,-29.046031],[-52.10507809999996,-29.04812829999997],[-52.105378,-29.048346299999924],[-52.10585839999993,-29.048303399999956],[-52.10828169999996,-29.05219259999995],[-52.10981439999995,-29.054137099999938],[-52.111225199999986,-29.055445],[-52.11193879999996,-29.055680499999937],[-52.11441679999995,-29.055963399999943],[-52.11562729999998,-29.055752199999986],[-52.115827,-29.055166],[-52.116731699999946,-29.05403859999995],[-52.11705939999995,-29.05047139999994],[-52.11735319999997,-29.05012729999992],[-52.12083089999992,-29.049807099999953],[-52.122516099999984,-29.048845699999948],[-52.12678869999996,-29.047953799999974],[-52.12760719999995,-29.047323],[-52.128904199999965,-29.046808899999967],[-52.129364599999974,-29.046845099999935],[-52.130817599999936,-29.047699599999927],[-52.131430499999965,-29.04725269999995],[-52.13181169999996,-29.046441699999946],[-52.13228749999996,-29.04602529999995],[-52.13310909999995,-29.045734499999966],[-52.13380149999995,-29.0461726],[-52.13445209999998,-29.044999099999988],[-52.13502289999997,-29.044833899999944],[-52.13929179999997,-29.045622799999943],[-52.14054859999993,-29.045340699999937],[-52.14089969999998,-29.046142899999953],[-52.14124639999994,-29.046282099999928],[-52.14222549999994,-29.045850099999935],[-52.14433139999994,-29.045690699999973],[-52.14496649999996,-29.045204299999966],[-52.146225,-29.04499969999995],[-52.14742989999996,-29.04434349999996],[-52.147861199999966,-29.04595319999993],[-52.14892919999994,-29.047213499999934],[-52.15043019999997,-29.04740469999997],[-52.15193429999994,-29.045864],[-52.152912,-29.046027199999966],[-52.15428719999994,-29.045209099999973],[-52.15621339999996,-29.044927899999948],[-52.15672939999997,-29.04525069999995],[-52.15706369999998,-29.045218299999934],[-52.15729029999995,-29.045004099999964],[-52.15733309999996,-29.043695],[-52.15799939999994,-29.04283279999993],[-52.157933,-29.04212109999998],[-52.15807049999995,-29.041838],[-52.158585,-29.04177469999997],[-52.16006609999994,-29.04250569999993],[-52.16150369999997,-29.042851],[-52.16340319999995,-29.04262349999994],[-52.163922499999956,-29.04322139999993],[-52.16514189999999,-29.043655699999935],[-52.16631629999995,-29.043554499999978],[-52.16774039999996,-29.04274769999995],[-52.16855159999995,-29.04263249999998],[-52.169048699999955,-29.04407969999995],[-52.169497699999965,-29.04429779999998],[-52.172966899999956,-29.04409429999998],[-52.174848299999944,-29.043318899999978],[-52.175914,-29.043329799999974],[-52.17890039999998,-29.044070199999965],[-52.181732599999975,-29.04382269999997],[-52.184461,-29.043118099999962],[-52.18447429999997,-29.04218289999994],[-52.18477909999996,-29.04183709999996],[-52.18544019999997,-29.04166919999994],[-52.18615239999996,-29.041813199999975],[-52.187332499999975,-29.04262019999993],[-52.188478,-29.043819099999965],[-52.18949939999993,-29.044015],[-52.19006169999994,-29.043857599999964],[-52.18873069999996,-29.042639099999974],[-52.18837049999997,-29.041213599999935],[-52.18645989999994,-29.040257899999972],[-52.18457709999995,-29.039651499999927],[-52.18359189999995,-29.038567599999958],[-52.17988539999993,-29.03562829999993],[-52.17819539999994,-29.035745199999948],[-52.176990799999935,-29.034588799999945],[-52.17501559999993,-29.033872],[-52.170600199999974,-29.02982059999992],[-52.17057989999996,-29.028760499999965],[-52.16985259999996,-29.02841049999995],[-52.16947119999997,-29.02774169999998],[-52.169744199999975,-29.026984499999966],[-52.16765139999996,-29.025181599999936],[-52.16837869999994,-29.023602299999943],[-52.16662009999993,-29.022471299999932],[-52.16578959999998,-29.022367399999943],[-52.16397239999998,-29.02163849999994],[-52.164170099999986,-29.020882599999926],[-52.163684899999964,-29.01988679999994],[-52.16381049999996,-29.01925],[-52.16521739999996,-29.017637],[-52.16340279999997,-29.016782399999954],[-52.16322689999998,-29.01587149999996],[-52.16205429999997,-29.014075599999956],[-52.1608088,-29.01314849999994],[-52.16065719999995,-29.012388199999975],[-52.16116049999994,-29.011634099999984],[-52.16078189999996,-29.010011299999974],[-52.15930259999994,-29.00869979999993],[-52.157928799999986,-29.008549399999936],[-52.157352499999945,-29.008703599999937],[-52.155838,-29.009706499999943],[-52.154139,-29.01009569999996],[-52.15257409999998,-29.009089],[-52.152279299999975,-29.007867299999933],[-52.149593,-29.00965809999997],[-52.149381,-29.010105799999963],[-52.149114399999974,-29.01007209999995],[-52.14746369999995,-29.00795579999994],[-52.14632369999998,-29.007862399999976],[-52.143491,-29.009056899999965],[-52.14297229999994,-29.008729499999966],[-52.142104599999975,-29.008857399999933],[-52.14170479999996,-29.007912899999944],[-52.14128679999993,-29.007923299999963],[-52.140479,-29.009410399999968],[-52.13935339999995,-29.010074],[-52.139517499999954,-29.010483899999947],[-52.13930459999995,-29.010905799999932],[-52.138535,-29.011577099999943],[-52.13772519999998,-29.01305679999995],[-52.137284799999975,-29.013402499999984],[-52.13639509999996,-29.01367069999997],[-52.13398019999994,-29.013694],[-52.13235849999996,-29.014479699999974],[-52.12988939999997,-29.014718599999988],[-52.128352799999966,-29.014541199999943],[-52.126369499999946,-29.013117299999973],[-52.12581129999996,-29.013220499999917],[-52.12558579999996,-29.013544799999973],[-52.12566,-29.014035599999946],[-52.126989,-29.0162784],[-52.12705,-29.01750769999995],[-52.12818589999995,-29.018958599999966],[-52.12814569999995,-29.019480299999938],[-52.12656959999998,-29.019833499999947],[-52.12385409999996,-29.019613399999965],[-52.12348089999994,-29.02003939999997],[-52.1233544,-29.021017199999946],[-52.12282259999995,-29.021419199999972],[-52.11856549999993,-29.020609299999947],[-52.118182,-29.021146],[-52.11891289999994,-29.021885],[-52.11965849999995,-29.022156099999957],[-52.11941369999994,-29.022803],[-52.11992269999996,-29.023382],[-52.11980089999997,-29.023644599999965],[-52.117607,-29.024036899999956],[-52.11730449999994,-29.02464239999995],[-52.11789109999996,-29.025978299999974],[-52.117691399999956,-29.026629399999926],[-52.11421819999998,-29.028268299999965],[-52.11374979999994,-29.028393399999967],[-52.11340459999997,-29.028235299999956],[-52.11314139999996,-29.02633469999995],[-52.112842099999966,-29.02596969999995],[-52.11298429999994,-29.025435],[-52.114292699999964,-29.024619099999935],[-52.114495699999964,-29.024124],[-52.11368779999999,-29.02372759999997],[-52.110302299999944,-29.023255199999916]]]}},{"type":"Feature","properties":{"setor":"431520605000006","pop":90,"sigilo_pop":false,"dom":53,"sigilo_dom":0,"mulheres":41,"sigilo_mulheres":0,"c0_4":null,"sigilo_c0_4":1,"c5_9":null,"sigilo_c5_9":1,"i60_69":16,"sigilo_i60_69":0,"i70m":22,"sigilo_i70m":0,"indigenas":0,"sigilo_indigenas":0,"pretos_pardos":null,"sigilo_pretos_pardos":1,"dom_ocupados":39,"sigilo_dom_ocupados":0,"dom_agua":0,"sigilo_dom_agua":0,"dom_esgoto":0,"sigilo_dom_esgoto":0,"renda_resp":2113.03,"sigilo_renda_resp":0,"n_resp":39,"sigilo_n_resp":0,"dens":6.6,"sigilo_dens":false,"na_bacia":1,"area_pct_bacia":100.0,"metodo_recorte_bacia":"ponto_representativo_setor_2022; area_pct_geometrica","pop_n_validos":1,"pop_n_total":1,"pop_completude":1.0,"dom_n_validos":1,"dom_n_total":1,"dom_completude":1.0,"dom_ocupados_n_validos":1,"dom_ocupados_n_total":1,"dom_ocupados_completude":1.0,"mulheres_n_validos":1,"mulheres_n_total":1,"mulheres_completude":1.0,"c0_4_n_validos":0,"c0_4_n_total":1,"c0_4_completude":0.0,"c5_9_n_validos":0,"c5_9_n_total":1,"c5_9_completude":0.0,"i60_69_n_validos":1,"i60_69_n_total":1,"i60_69_completude":1.0,"i70m_n_validos":1,"i70m_n_total":1,"i70m_completude":1.0,"indigenas_n_validos":1,"indigenas_n_total":1,"indigenas_completude":1.0,"pretos_pardos_n_validos":0,"pretos_pardos_n_total":1,"pretos_pardos_completude":0.0,"dom_agua_n_validos":1,"dom_agua_n_total":1,"dom_agua_completude":1.0,"dom_esgoto_n_validos":1,"dom_esgoto_n_total":1,"dom_esgoto_completude":1.0,"n_resp_n_validos":1,"n_resp_n_total":1,"n_resp_completude":1.0,"renda_resp_n_validos":1,"renda_resp_n_total":1,"renda_resp_completude":1.0,"dens_n_validos":1,"dens_n_total":1,"dens_completude":1.0,"status_borda_bacia":"total","metodo_area_bacia":"interseção geométrica em EPSG:5880","metodo_na_bacia":"ponto_representativo_setor_2022_within_bacia","municipio":"Putinga","cod_mun":"4315206","mun_pct_na_bacia":100.0,"mun_pop_total":3747,"mun_pop_na_bacia":3747.0,"mun_ubs_iede":2,"mun_hospitais_iede":1,"mun_escolas_iede":5,"mun_bombeiros_iede":null,"mun_servicos_cobertura":"cadastro_IEDE_parcial_nao_inventario","mun_icm_faixa":"B","mun_icm_pontos":13,"mun_icm_prioritario":"sim","mun_ubs_iede_status":"published","mun_hospitais_iede_status":"published","mun_escolas_iede_status":"published","mun_bombeiros_iede_status":"unknown"},"geometry":{"type":"Polygon","coordinates":[[[-52.151147099999946,-29.087294499999935],[-52.151636,-29.08782149999995],[-52.16076949999996,-29.088600199999973],[-52.15987359999997,-29.087512799999946],[-52.15915809999996,-29.087075399999957],[-52.15764159999998,-29.08674609999997],[-52.15704089999996,-29.086328399999967],[-52.15682749999997,-29.085906899999934],[-52.156989,-29.083819299999966],[-52.1556217,-29.082381699999917],[-52.15545489999994,-29.08193919999996],[-52.15409249999993,-29.08086339999995],[-52.15445219999998,-29.080275699999955],[-52.15650379999993,-29.079281099999946],[-52.15745839999993,-29.07856809999998],[-52.158112899999935,-29.07763539999997],[-52.158316499999955,-29.07531649999992],[-52.15786659999998,-29.07410169999997],[-52.15619789999994,-29.072464199999953],[-52.155889199999926,-29.071398399999957],[-52.15512219999994,-29.070518299999947],[-52.15473919999994,-29.068900299999942],[-52.15588149999997,-29.066643],[-52.157010499999956,-29.065242399999924],[-52.15709659999994,-29.064616699999927],[-52.156904499999946,-29.063812299999945],[-52.155233,-29.06182029999997],[-52.15531659999994,-29.061279299999974],[-52.155903499999965,-29.060386299999948],[-52.15585409999995,-29.060043799999956],[-52.15368529999995,-29.05668749999996],[-52.153386599999976,-29.054433899999946],[-52.15261689999994,-29.053312],[-52.15318469999994,-29.050779],[-52.15240439999997,-29.048584599999966],[-52.15186389999996,-29.04831639999998],[-52.15013369999997,-29.04842249999996],[-52.149486399999944,-29.047924699999964],[-52.147861199999966,-29.04595319999993],[-52.14742989999996,-29.04434349999996],[-52.146225,-29.04499969999995],[-52.14496649999996,-29.045204299999966],[-52.14433139999994,-29.045690699999973],[-52.14222549999994,-29.045850099999935],[-52.14124639999994,-29.046282099999928],[-52.14089969999998,-29.046142899999953],[-52.14054859999993,-29.045340699999937],[-52.13929179999997,-29.045622799999943],[-52.13502289999997,-29.044833899999944],[-52.13445209999998,-29.044999099999988],[-52.13380149999995,-29.0461726],[-52.13310909999995,-29.045734499999966],[-52.13228749999996,-29.04602529999995],[-52.13181169999996,-29.046441699999946],[-52.131430499999965,-29.04725269999995],[-52.130817599999936,-29.047699599999927],[-52.129364599999974,-29.046845099999935],[-52.128904199999965,-29.046808899999967],[-52.12760719999995,-29.047323],[-52.12678869999996,-29.047953799999974],[-52.122516099999984,-29.048845699999948],[-52.12083089999992,-29.049807099999953],[-52.118141,-29.050002199999927],[-52.12149409999995,-29.052652199999955],[-52.121847599999974,-29.053717],[-52.12402929999996,-29.055901299999956],[-52.12444709999995,-29.056593599999932],[-52.12456889999998,-29.057296099999974],[-52.123882099999946,-29.05943949999994],[-52.124469799999986,-29.060785399999933],[-52.12418389999993,-29.061944],[-52.12481179999998,-29.06492929999996],[-52.12461,-29.065293599999954],[-52.123513299999956,-29.06562549999994],[-52.123013599999986,-29.066051499999958],[-52.12269769999995,-29.066479099999974],[-52.122658699999924,-29.067103599999935],[-52.12343059999995,-29.068599899999974],[-52.123918,-29.069079399999968],[-52.12424969999994,-29.070103199999963],[-52.1244296,-29.07179509999998],[-52.12423419999993,-29.072888299999935],[-52.12465729999996,-29.07380159999997],[-52.124527399999984,-29.074508699999964],[-52.12330119999995,-29.075626299999968],[-52.12342969999998,-29.076754599999962],[-52.12279529999995,-29.07758549999994],[-52.12352059999994,-29.07899549999997],[-52.124302899999975,-29.07929949999993],[-52.12673959999995,-29.08127909999997],[-52.127389799999946,-29.08252839999994],[-52.12739529999994,-29.082960499999956],[-52.126969,-29.083416399999972],[-52.12716949999998,-29.083918],[-52.13056209999996,-29.085826099999952],[-52.1313871,-29.085829699999977],[-52.13199769999994,-29.08487449999995],[-52.13254759999996,-29.084915599999935],[-52.13329609999994,-29.086583099999924],[-52.134526499999936,-29.08649069999997],[-52.13680569999997,-29.088204599999983],[-52.13733039999993,-29.088103399999962],[-52.138098199999945,-29.088293399999937],[-52.139037599999945,-29.08755859999996],[-52.13988679999995,-29.087794299999924],[-52.14050119999995,-29.087298199999957],[-52.141925699999945,-29.086762499999956],[-52.144052,-29.08654029999996],[-52.146621,-29.08514739999998],[-52.14820279999998,-29.085855799999937],[-52.14950769999996,-29.085973799999973],[-52.15042729999993,-29.086689899999953],[-52.151141199999984,-29.086928599999975],[-52.151147099999946,-29.087294499999935]]]}},{"type":"Feature","properties":{"setor":"431520605000007","pop":177,"sigilo_pop":false,"dom":117,"sigilo_dom":0,"mulheres":82,"sigilo_mulheres":0,"c0_4":null,"sigilo_c0_4":1,"c5_9":10,"sigilo_c5_9":0,"i60_69":35,"sigilo_i60_69":0,"i70m":20,"sigilo_i70m":0,"indigenas":0,"sigilo_indigenas":0,"pretos_pardos":10,"sigilo_pretos_pardos":0,"dom_ocupados":63,"sigilo_dom_ocupados":0,"dom_agua":0,"sigilo_dom_agua":0,"dom_esgoto":0,"sigilo_dom_esgoto":0,"renda_resp":2270.16,"sigilo_renda_resp":0,"n_resp":63,"sigilo_n_resp":0,"dens":5.0,"sigilo_dens":false,"na_bacia":1,"area_pct_bacia":100.0,"metodo_recorte_bacia":"ponto_representativo_setor_2022; area_pct_geometrica","pop_n_validos":1,"pop_n_total":1,"pop_completude":1.0,"dom_n_validos":1,"dom_n_total":1,"dom_completude":1.0,"dom_ocupados_n_validos":1,"dom_ocupados_n_total":1,"dom_ocupados_completude":1.0,"mulheres_n_validos":1,"mulheres_n_total":1,"mulheres_completude":1.0,"c0_4_n_validos":0,"c0_4_n_total":1,"c0_4_completude":0.0,"c5_9_n_validos":1,"c5_9_n_total":1,"c5_9_completude":1.0,"i60_69_n_validos":1,"i60_69_n_total":1,"i60_69_completude":1.0,"i70m_n_validos":1,"i70m_n_total":1,"i70m_completude":1.0,"indigenas_n_validos":1,"indigenas_n_total":1,"indigenas_completude":1.0,"pretos_pardos_n_validos":1,"pretos_pardos_n_total":1,"pretos_pardos_completude":1.0,"dom_agua_n_validos":1,"dom_agua_n_total":1,"dom_agua_completude":1.0,"dom_esgoto_n_validos":1,"dom_esgoto_n_total":1,"dom_esgoto_completude":1.0,"n_resp_n_validos":1,"n_resp_n_total":1,"n_resp_completude":1.0,"renda_resp_n_validos":1,"renda_resp_n_total":1,"renda_resp_completude":1.0,"dens_n_validos":1,"dens_n_total":1,"dens_completude":1.0,"status_borda_bacia":"total","metodo_area_bacia":"interseção geométrica em EPSG:5880","metodo_na_bacia":"ponto_representativo_setor_2022_within_bacia","municipio":"Putinga","cod_mun":"4315206","mun_pct_na_bacia":100.0,"mun_pop_total":3747,"mun_pop_na_bacia":3747.0,"mun_ubs_iede":2,"mun_hospitais_iede":1,"mun_escolas_iede":5,"mun_bombeiros_iede":null,"mun_servicos_cobertura":"cadastro_IEDE_parcial_nao_inventario","mun_icm_faixa":"B","mun_icm_pontos":13,"mun_icm_prioritario":"sim","mun_ubs_iede_status":"published","mun_hospitais_iede_status":"published","mun_escolas_iede_status":"published","mun_bombeiros_iede_status":"unknown"},"geometry":{"type":"Polygon","coordinates":[[[-52.20980739999994,-29.050283899999954],[-52.20930139999996,-29.049637099999988],[-52.20741129999993,-29.049494],[-52.207563799999946,-29.04880869999994],[-52.207948399999964,-29.04848279999994],[-52.20793949999995,-29.047688099999952],[-52.207205899999956,-29.047471699999953],[-52.20657959999995,-29.04693569999996],[-52.20467339999993,-29.046245499999937],[-52.20327929999997,-29.044500399999954],[-52.202146899999946,-29.04360309999992],[-52.20120519999995,-29.043194499999974],[-52.19964769999996,-29.043238599999942],[-52.19855819999998,-29.04401319999994],[-52.19679249999995,-29.043928199999982],[-52.196270099999936,-29.044089],[-52.19588859999993,-29.044001799999926],[-52.19505429999998,-29.043264499999964],[-52.19452739999997,-29.043209599999955],[-52.193287399999974,-29.04389559999993],[-52.19298639999994,-29.04455089999992],[-52.19232379999994,-29.04468719999995],[-52.19164469999998,-29.044411],[-52.19115469999996,-29.044597499999966],[-52.19006169999994,-29.043857599999964],[-52.18949939999993,-29.044015],[-52.188478,-29.043819099999965],[-52.187332499999975,-29.04262019999993],[-52.18615239999996,-29.041813199999975],[-52.18544019999997,-29.04166919999994],[-52.18477909999996,-29.04183709999996],[-52.18447429999997,-29.04218289999994],[-52.184461,-29.043118099999962],[-52.181732599999975,-29.04382269999997],[-52.17890039999998,-29.044070199999965],[-52.175914,-29.043329799999974],[-52.174848299999944,-29.043318899999978],[-52.172966899999956,-29.04409429999998],[-52.169497699999965,-29.04429779999998],[-52.169048699999955,-29.04407969999995],[-52.16855159999995,-29.04263249999998],[-52.16774039999996,-29.04274769999995],[-52.16631629999995,-29.043554499999978],[-52.16514189999999,-29.043655699999935],[-52.163922499999956,-29.04322139999993],[-52.16340319999995,-29.04262349999994],[-52.16150369999997,-29.042851],[-52.16006609999994,-29.04250569999993],[-52.158585,-29.04177469999997],[-52.15807049999995,-29.041838],[-52.15799939999994,-29.04283279999993],[-52.15733309999996,-29.043695],[-52.15729029999995,-29.045004099999964],[-52.15706369999998,-29.045218299999934],[-52.15672939999997,-29.04525069999995],[-52.15621339999996,-29.044927899999948],[-52.15428719999994,-29.045209099999973],[-52.153310099999935,-29.045932599999958],[-52.15193429999994,-29.045864],[-52.15043019999997,-29.04740469999997],[-52.14892919999994,-29.047213499999934],[-52.15013369999997,-29.04842249999996],[-52.15186389999996,-29.04831639999998],[-52.15240439999997,-29.048584599999966],[-52.15318469999994,-29.050779],[-52.15261689999994,-29.053312],[-52.153386599999976,-29.054433899999946],[-52.15368529999995,-29.05668749999996],[-52.15585409999995,-29.060043799999956],[-52.155903499999965,-29.060386299999948],[-52.15531659999994,-29.061279299999974],[-52.155233,-29.06182029999997],[-52.156904499999946,-29.063812299999945],[-52.15709659999994,-29.064616699999927],[-52.157010499999956,-29.065242399999924],[-52.15588149999997,-29.066643],[-52.15473919999994,-29.068900299999942],[-52.15512219999994,-29.070518299999947],[-52.155889199999926,-29.071398399999957],[-52.15619789999994,-29.072464199999953],[-52.15786659999998,-29.07410169999997],[-52.158316499999955,-29.07531649999992],[-52.158308199999965,-29.07670719999993],[-52.158112899999935,-29.07763539999997],[-52.15745839999993,-29.07856809999998],[-52.15408959999996,-29.080621599999972],[-52.15409249999993,-29.08086339999995],[-52.15545489999994,-29.08193919999996],[-52.1556217,-29.082381699999917],[-52.156989,-29.083819299999966],[-52.15682749999997,-29.085906899999934],[-52.15704089999996,-29.086328399999967],[-52.15764159999998,-29.08674609999997],[-52.15915809999996,-29.087075399999957],[-52.15987359999997,-29.087512799999946],[-52.16076949999996,-29.088600199999973],[-52.16553459999995,-29.088801599999965],[-52.16786559999996,-29.09199219999995],[-52.16819739999995,-29.096737799999964],[-52.16796329999995,-29.099319899999976],[-52.16809759999995,-29.100501699999928],[-52.17022079999999,-29.102768699999952],[-52.17110079999998,-29.105003899999932],[-52.17155839999998,-29.10544389999994],[-52.172786,-29.106103899999937],[-52.17370969999996,-29.107107899999967],[-52.17441369999995,-29.107508299999946],[-52.17624219999993,-29.107401899999942],[-52.17721779999994,-29.107026899999926],[-52.178011,-29.107423899999947],[-52.178809299999955,-29.10742029999995],[-52.179727,-29.107723099999927],[-52.18146279999996,-29.107749499999947],[-52.183081699999946,-29.108322299999934],[-52.18371669999994,-29.107515199999973],[-52.184379699999965,-29.10734549999996],[-52.184751699999936,-29.107498299999975],[-52.184641699999986,-29.107948699999945],[-52.18499819999994,-29.108219199999958],[-52.186527,-29.108612699999977],[-52.18793809999994,-29.108690899999942],[-52.188058199999944,-29.109013099999977],[-52.18769009999995,-29.110051599999963],[-52.18796489999995,-29.110388399999962],[-52.19026939999997,-29.110503899999973],[-52.191910599999964,-29.11027509999996],[-52.192720399999985,-29.111120799999973],[-52.19317559999996,-29.112217699999974],[-52.19383559999994,-29.112827099999944],[-52.194002799999964,-29.115192099999938],[-52.19420739999999,-29.115566099999974],[-52.19504539999998,-29.11608389999997],[-52.195133399999975,-29.116770299999928],[-52.19772419999998,-29.113763199999934],[-52.19911979999995,-29.11092049999996],[-52.20018819999996,-29.11008479999998],[-52.20187779999998,-29.110067199999946],[-52.20358139999996,-29.11103489999993],[-52.204828,-29.112082399999956],[-52.20539419999995,-29.112266899999963],[-52.20608319999997,-29.112091],[-52.20645379999996,-29.11132119999996],[-52.205772599999925,-29.108843699999973],[-52.2039774,-29.105121299999954],[-52.203792599999986,-29.10390689999997],[-52.204047799999955,-29.101442899999928],[-52.20385559999994,-29.100536699999964],[-52.20219539999994,-29.099388099999942],[-52.196727599999974,-29.097271899999967],[-52.19592979999993,-29.096308099999938],[-52.19594739999996,-29.095533699999976],[-52.19723219999997,-29.094908899999965],[-52.20213079999997,-29.09513789999994],[-52.20471219999996,-29.094266499999947],[-52.20642819999995,-29.09414329999992],[-52.20840819999996,-29.094627299999953],[-52.21082519999993,-29.095956299999955],[-52.21174819999993,-29.095871499999937],[-52.212149599999975,-29.09512029999997],[-52.212399,-29.09382209999996],[-52.212192199999954,-29.092840899999942],[-52.209666599999935,-29.088828],[-52.206767,-29.086042799999966],[-52.20655059999996,-29.085114699999956],[-52.207138,-29.084516299999947],[-52.20896619999996,-29.0837375],[-52.211387,-29.083583199999964],[-52.2142444,-29.082366199999953],[-52.22064509999996,-29.07776869999998],[-52.22158979999995,-29.076719499999964],[-52.221154199999944,-29.076253099999978],[-52.22035779999993,-29.076176099999937],[-52.214904,-29.078180299999925],[-52.211602599999935,-29.07841319999994],[-52.21067419999997,-29.078809199999952],[-52.20874839999994,-29.08052109999995],[-52.207603,-29.080468],[-52.206972,-29.080188799999966],[-52.20668039999998,-29.079759899999935],[-52.206098199999985,-29.077049199999973],[-52.204883,-29.07411909999996],[-52.20475179999994,-29.072666799999983],[-52.205139,-29.07227079999995],[-52.206344599999966,-29.071980399999976],[-52.20916059999996,-29.072086],[-52.21148379999995,-29.07257],[-52.21338459999998,-29.072288399999934],[-52.218479799999955,-29.070035599999976],[-52.222422299999955,-29.069217199999972],[-52.22301319999997,-29.06896449999993],[-52.223779,-29.068147],[-52.22371739999994,-29.067561799999968],[-52.22304709999998,-29.06681479999997],[-52.220451,-29.065521199999974],[-52.21928639999994,-29.064599599999966],[-52.218422,-29.06352149999998],[-52.21838739999998,-29.062480799999953],[-52.217366599999934,-29.06167119999998],[-52.215963,-29.061508399999987],[-52.215228199999956,-29.06179],[-52.214455199999975,-29.062555799999984],[-52.214215399999944,-29.063783399999966],[-52.21377539999998,-29.064113399999936],[-52.21286539999994,-29.064060399999963],[-52.21000539999994,-29.06250279999994],[-52.20964379999998,-29.061491],[-52.20924859999996,-29.058727599999948],[-52.209380599999974,-29.057592299999957],[-52.21025979999996,-29.056140599999928],[-52.210383,-29.054873399999984],[-52.209533799999974,-29.053232199999982],[-52.20924559999998,-29.052125599999954],[-52.208640599999974,-29.05158],[-52.208942,-29.050931],[-52.20980739999994,-29.050283899999954]]]}},{"type":"Feature","properties":{"setor":"431520605000008","pop":160,"sigilo_pop":false,"dom":77,"sigilo_dom":0,"mulheres":75,"sigilo_mulheres":0,"c0_4":7,"sigilo_c0_4":0,"c5_9":10,"sigilo_c5_9":0,"i60_69":29,"sigilo_i60_69":0,"i70m":18,"sigilo_i70m":0,"indigenas":0,"sigilo_indigenas":0,"pretos_pardos":null,"sigilo_pretos_pardos":1,"dom_ocupados":58,"sigilo_dom_ocupados":0,"dom_agua":12,"sigilo_dom_agua":0,"dom_esgoto":0,"sigilo_dom_esgoto":0,"renda_resp":2711.55,"sigilo_renda_resp":0,"n_resp":58,"sigilo_n_resp":0,"dens":8.0,"sigilo_dens":false,"na_bacia":1,"area_pct_bacia":100.0,"metodo_recorte_bacia":"ponto_representativo_setor_2022; area_pct_geometrica","pop_n_validos":1,"pop_n_total":1,"pop_completude":1.0,"dom_n_validos":1,"dom_n_total":1,"dom_completude":1.0,"dom_ocupados_n_validos":1,"dom_ocupados_n_total":1,"dom_ocupados_completude":1.0,"mulheres_n_validos":1,"mulheres_n_total":1,"mulheres_completude":1.0,"c0_4_n_validos":1,"c0_4_n_total":1,"c0_4_completude":1.0,"c5_9_n_validos":1,"c5_9_n_total":1,"c5_9_completude":1.0,"i60_69_n_validos":1,"i60_69_n_total":1,"i60_69_completude":1.0,"i70m_n_validos":1,"i70m_n_total":1,"i70m_completude":1.0,"indigenas_n_validos":1,"indigenas_n_total":1,"indigenas_completude":1.0,"pretos_pardos_n_validos":0,"pretos_pardos_n_total":1,"pretos_pardos_completude":0.0,"dom_agua_n_validos":1,"dom_agua_n_total":1,"dom_agua_completude":1.0,"dom_esgoto_n_validos":1,"dom_esgoto_n_total":1,"dom_esgoto_completude":1.0,"n_resp_n_validos":1,"n_resp_n_total":1,"n_resp_completude":1.0,"renda_resp_n_validos":1,"renda_resp_n_total":1,"renda_resp_completude":1.0,"dens_n_validos":1,"dens_n_total":1,"dens_completude":1.0,"status_borda_bacia":"total","metodo_area_bacia":"interseção geométrica em EPSG:5880","metodo_na_bacia":"ponto_representativo_setor_2022_within_bacia","municipio":"Putinga","cod_mun":"4315206","mun_pct_na_bacia":100.0,"mun_pop_total":3747,"mun_pop_na_bacia":3747.0,"mun_ubs_iede":2,"mun_hospitais_iede":1,"mun_escolas_iede":5,"mun_bombeiros_iede":null,"mun_servicos_cobertura":"cadastro_IEDE_parcial_nao_inventario","mun_icm_faixa":"B","mun_icm_pontos":13,"mun_icm_prioritario":"sim","mun_ubs_iede_status":"published","mun_hospitais_iede_status":"published","mun_escolas_iede_status":"published","mun_bombeiros_iede_status":"unknown"},"geometry":{"type":"Polygon","coordinates":[[[-52.22936549999998,-29.01766439999993],[-52.229769499999975,-29.016833099999932],[-52.22961609999993,-29.016283],[-52.22906629999994,-29.01588679999997],[-52.22727039999995,-29.017649],[-52.22014039999994,-29.017914699999945],[-52.216196199999956,-29.016906299999963],[-52.212845,-29.015738799999944],[-52.21148379999993,-29.014665399999952],[-52.210773399999944,-29.014551299999926],[-52.20788639999995,-29.015994799999934],[-52.207551899999935,-29.016701099999977],[-52.206913199999974,-29.016828799999935],[-52.20638289999994,-29.01639059999997],[-52.20521749999995,-29.016459799999964],[-52.20454759999996,-29.01590429999994],[-52.2029237,-29.015778799999964],[-52.201066,-29.015165],[-52.19779289999997,-29.01483249999995],[-52.196813299999974,-29.015202699999964],[-52.19550719999995,-29.017053199999967],[-52.19415789999994,-29.015838199999965],[-52.192511499999966,-29.015768199999968],[-52.192186299999946,-29.015398499999943],[-52.19112,-29.0130291],[-52.19041649999998,-29.012455],[-52.19025909999994,-29.010766099999955],[-52.191128499999934,-29.007422699999946],[-52.19029089999997,-29.005412],[-52.187576399999955,-29.00197079999998],[-52.18638549999998,-29.000864799999928],[-52.18512739999994,-29.000586],[-52.17942949999997,-29.002886599999957],[-52.17760819999995,-29.002273199999923],[-52.175836199999935,-29.00205119999998],[-52.16727929999996,-29.002521399999974],[-52.16733289999996,-29.003990799999936],[-52.16282979999994,-29.003992599999947],[-52.16283119999998,-29.003256199999946],[-52.158490899999954,-29.004155199999953],[-52.15856889999998,-29.005138799999926],[-52.152279299999975,-29.007867299999933],[-52.15257409999998,-29.009089],[-52.154139,-29.01009569999996],[-52.155838,-29.009706499999943],[-52.15664629999998,-29.00909],[-52.157928799999986,-29.008549399999936],[-52.15930259999994,-29.00869979999993],[-52.16078189999996,-29.010011299999974],[-52.16116049999994,-29.011634099999984],[-52.16065719999995,-29.012388199999975],[-52.1608088,-29.01314849999994],[-52.16205429999997,-29.014075599999956],[-52.16322689999998,-29.01587149999996],[-52.16340279999997,-29.016782399999954],[-52.16521739999996,-29.017637],[-52.16381049999996,-29.01925],[-52.163684899999964,-29.01988679999994],[-52.164170099999986,-29.020882599999926],[-52.16397239999998,-29.02163849999994],[-52.16578959999998,-29.022367399999943],[-52.16662009999993,-29.022471299999932],[-52.16837869999994,-29.023602299999943],[-52.16765139999996,-29.025181599999936],[-52.169744199999975,-29.026984499999966],[-52.16947119999997,-29.02774169999998],[-52.16985259999996,-29.02841049999995],[-52.17057989999996,-29.028760499999965],[-52.170600199999974,-29.02982059999992],[-52.17501559999993,-29.033872],[-52.176990799999935,-29.034588799999945],[-52.17819539999994,-29.035745199999948],[-52.17988539999993,-29.03562829999993],[-52.18359189999995,-29.038567599999958],[-52.18457709999995,-29.039651499999927],[-52.18645989999994,-29.040257899999972],[-52.18837049999997,-29.041213599999935],[-52.18873069999996,-29.042639099999974],[-52.19086779999998,-29.04450609999997],[-52.19164469999998,-29.044411],[-52.19232379999994,-29.04468719999995],[-52.19298639999994,-29.04455089999992],[-52.193287399999974,-29.04389559999993],[-52.19452739999997,-29.043209599999955],[-52.19505429999998,-29.043264499999964],[-52.19588859999993,-29.044001799999926],[-52.196270099999936,-29.044089],[-52.19679249999995,-29.043928199999982],[-52.19855819999998,-29.04401319999994],[-52.19964769999996,-29.043238599999942],[-52.20120519999995,-29.043194499999974],[-52.202146899999946,-29.04360309999992],[-52.20327929999997,-29.044500399999954],[-52.20467339999993,-29.046245499999937],[-52.20657959999995,-29.04693569999996],[-52.207205899999956,-29.047471699999953],[-52.20793949999995,-29.047688099999952],[-52.207948399999964,-29.04848279999994],[-52.207563799999946,-29.04880869999994],[-52.20741129999993,-29.049494],[-52.20930139999996,-29.049637099999988],[-52.20980739999994,-29.050283899999954],[-52.21181819999998,-29.04943909999997],[-52.21324519999996,-29.049435],[-52.214511,-29.050248699999933],[-52.217636399999954,-29.053377399999935],[-52.218644,-29.053672199999934],[-52.219534099999976,-29.053465299999974],[-52.220794499999954,-29.052361],[-52.22267749999998,-29.050239899999944],[-52.22272149999998,-29.04949189999998],[-52.221832699999936,-29.048251099999966],[-52.22056239999995,-29.047560599999933],[-52.216782799999976,-29.047340599999977],[-52.215718,-29.046949],[-52.215382199999965,-29.046579099999974],[-52.214907,-29.04548789999994],[-52.214836599999956,-29.044238299999964],[-52.21540459999994,-29.039651399999954],[-52.21606669999994,-29.039288599999963],[-52.21659659999995,-29.039327899999932],[-52.22069749999997,-29.041580699999933],[-52.221880099999964,-29.04184509999993],[-52.22688739999995,-29.041889],[-52.227800399999985,-29.041512799999964],[-52.22816869999997,-29.040911899999962],[-52.22705989999997,-29.038799899999958],[-52.223399099999945,-29.034749699999974],[-52.21790779999998,-29.031616899999953],[-52.21730059999994,-29.03094809999993],[-52.21608539999994,-29.02850849999992],[-52.214926,-29.02796729999994],[-52.21474559999996,-29.0271423],[-52.21504259999995,-29.026664899999957],[-52.216235799999936,-29.026042099999984],[-52.21981739999996,-29.02495089999996],[-52.223619099999944,-29.0217828],[-52.22646149999998,-29.018887599999964],[-52.22936549999998,-29.01766439999993]]]}},{"type":"Feature","properties":{"setor":"431520605000009","pop":419,"sigilo_pop":false,"dom":188,"sigilo_dom":0,"mulheres":200,"sigilo_mulheres":0,"c0_4":25,"sigilo_c0_4":0,"c5_9":16,"sigilo_c5_9":0,"i60_69":73,"sigilo_i60_69":0,"i70m":57,"sigilo_i70m":0,"indigenas":0,"sigilo_indigenas":0,"pretos_pardos":null,"sigilo_pretos_pardos":1,"dom_ocupados":149,"sigilo_dom_ocupados":0,"dom_agua":16,"sigilo_dom_agua":0,"dom_esgoto":0,"sigilo_dom_esgoto":0,"renda_resp":2392.76,"sigilo_renda_resp":0,"n_resp":149,"sigilo_n_resp":0,"dens":12.3,"sigilo_dens":false,"na_bacia":1,"area_pct_bacia":100.0,"metodo_recorte_bacia":"ponto_representativo_setor_2022; area_pct_geometrica","pop_n_validos":1,"pop_n_total":1,"pop_completude":1.0,"dom_n_validos":1,"dom_n_total":1,"dom_completude":1.0,"dom_ocupados_n_validos":1,"dom_ocupados_n_total":1,"dom_ocupados_completude":1.0,"mulheres_n_validos":1,"mulheres_n_total":1,"mulheres_completude":1.0,"c0_4_n_validos":1,"c0_4_n_total":1,"c0_4_completude":1.0,"c5_9_n_validos":1,"c5_9_n_total":1,"c5_9_completude":1.0,"i60_69_n_validos":1,"i60_69_n_total":1,"i60_69_completude":1.0,"i70m_n_validos":1,"i70m_n_total":1,"i70m_completude":1.0,"indigenas_n_validos":1,"indigenas_n_total":1,"indigenas_completude":1.0,"pretos_pardos_n_validos":0,"pretos_pardos_n_total":1,"pretos_pardos_completude":0.0,"dom_agua_n_validos":1,"dom_agua_n_total":1,"dom_agua_completude":1.0,"dom_esgoto_n_validos":1,"dom_esgoto_n_total":1,"dom_esgoto_completude":1.0,"n_resp_n_validos":1,"n_resp_n_total":1,"n_resp_completude":1.0,"renda_resp_n_validos":1,"renda_resp_n_total":1,"renda_resp_completude":1.0,"dens_n_validos":1,"dens_n_total":1,"dens_completude":1.0,"status_borda_bacia":"total","metodo_area_bacia":"interseção geométrica em EPSG:5880","metodo_na_bacia":"ponto_representativo_setor_2022_within_bacia","municipio":"Putinga","cod_mun":"4315206","mun_pct_na_bacia":100.0,"mun_pop_total":3747,"mun_pop_na_bacia":3747.0,"mun_ubs_iede":2,"mun_hospitais_iede":1,"mun_escolas_iede":5,"mun_bombeiros_iede":null,"mun_servicos_cobertura":"cadastro_IEDE_parcial_nao_inventario","mun_icm_faixa":"B","mun_icm_pontos":13,"mun_icm_prioritario":"sim","mun_ubs_iede_status":"published","mun_hospitais_iede_status":"published","mun_escolas_iede_status":"published","mun_bombeiros_iede_status":"unknown"},"geometry":{"type":"Polygon","coordinates":[[[-52.22860119999996,-28.975627],[-52.227075299999974,-28.97259069999996],[-52.227013699999986,-28.971455499999927],[-52.22752679999996,-28.97040609999994],[-52.228290499999964,-28.970056599999953],[-52.19376939999995,-28.968497199999934],[-52.194363099999975,-28.95924749999995],[-52.17701909999994,-28.958313099999934],[-52.177777799999944,-28.949394899999955],[-52.16112549999997,-28.948312199999975],[-52.15988459999994,-28.966366899999954],[-52.158197099999946,-28.966209],[-52.15758909999994,-28.975115199999944],[-52.15473739999993,-28.974913099999984],[-52.15498839999998,-28.97611429999995],[-52.156376399999935,-28.975548099999973],[-52.157968,-28.97529629999997],[-52.16101029999998,-28.97634529999992],[-52.161485,-28.976993],[-52.160848199999975,-28.981763],[-52.16087959999993,-28.982804],[-52.161366799999946,-28.984608399999953],[-52.16095009999997,-28.985641],[-52.160817399999985,-28.986800899999928],[-52.161392099999944,-28.988740299999964],[-52.160850799999935,-28.993480599999934],[-52.16085679999997,-28.995519199999947],[-52.163189099999954,-28.998065],[-52.1638253,-28.998065],[-52.16523909999995,-28.998654099999946],[-52.16620519999998,-28.998465499999952],[-52.16681779999993,-28.99877189999995],[-52.16759539999998,-28.999926499999948],[-52.167312599999946,-29.000515599999954],[-52.16727929999996,-29.002521399999974],[-52.175836199999935,-29.00205119999998],[-52.17760819999995,-29.002273199999923],[-52.17942949999997,-29.002886599999957],[-52.18512739999994,-29.000586],[-52.18638549999998,-29.000864799999928],[-52.187576399999955,-29.00197079999998],[-52.19029089999997,-29.005412],[-52.191128499999934,-29.007422699999946],[-52.19025909999994,-29.010766099999955],[-52.19041649999998,-29.012455],[-52.19112,-29.0130291],[-52.192511499999966,-29.015768199999968],[-52.19415789999994,-29.015838199999965],[-52.19550719999995,-29.017053199999967],[-52.196813299999974,-29.015202699999964],[-52.19779289999997,-29.01483249999995],[-52.201066,-29.015165],[-52.2029237,-29.015778799999964],[-52.20454759999996,-29.01590429999994],[-52.20521749999995,-29.016459799999964],[-52.20638289999994,-29.01639059999997],[-52.206913199999974,-29.016828799999935],[-52.207551899999935,-29.016701099999977],[-52.20788639999995,-29.015994799999934],[-52.210773399999944,-29.014551299999926],[-52.21148379999993,-29.014665399999952],[-52.212845,-29.015738799999944],[-52.216196199999956,-29.016906299999963],[-52.22014039999994,-29.017914699999945],[-52.22727039999995,-29.017649],[-52.22906629999994,-29.01588679999997],[-52.225343899999984,-29.015402799999947],[-52.224243899999976,-29.01485719999994],[-52.22239939999998,-29.01338569999995],[-52.221933,-29.012822499999974],[-52.221673399999986,-29.01198429999994],[-52.22073619999997,-29.010967899999972],[-52.219942,-29.010901899999965],[-52.21509759999998,-29.01167409999994],[-52.21466269999996,-29.011411099999975],[-52.214765399999976,-29.010653299999944],[-52.21786079999998,-29.0071465],[-52.21829719999994,-29.005810799999956],[-52.21889479999999,-29.00511369999998],[-52.221966899999984,-29.00236119999994],[-52.22482689999998,-29.00038119999993],[-52.22717339999997,-28.999266099999936],[-52.228119399999976,-28.999032899999968],[-52.229930899999935,-28.99903479999995],[-52.23155889999998,-28.998542],[-52.23216609999998,-28.998022799999944],[-52.23250929999995,-28.99724839999994],[-52.232377299999946,-28.996526799999977],[-52.23178769999998,-28.99586679999993],[-52.230617299999956,-28.995004399999967],[-52.22657809999998,-28.993121199999948],[-52.22468739999993,-28.991482399999946],[-52.224309,-28.990694799999968],[-52.22428129999997,-28.98953959999993],[-52.22480619999993,-28.988890799999975],[-52.22546929999998,-28.98880039999995],[-52.22928329999996,-28.989388],[-52.230077499999936,-28.98913719999996],[-52.23067009999995,-28.988131499999955],[-52.23083729999996,-28.984162699999953],[-52.22940209999996,-28.978258199999964],[-52.22860119999996,-28.975627]]]}},{"type":"Feature","properties":{"setor":"431520605000011","pop":2,"sigilo_pop":false,"dom":2,"sigilo_dom":0,"mulheres":null,"sigilo_mulheres":1,"c0_4":null,"sigilo_c0_4":1,"c5_9":null,"sigilo_c5_9":1,"i60_69":null,"sigilo_i60_69":1,"i70m":null,"sigilo_i70m":1,"indigenas":null,"sigilo_indigenas":1,"pretos_pardos":null,"sigilo_pretos_pardos":1,"dom_ocupados":null,"sigilo_dom_ocupados":1,"dom_agua":null,"sigilo_dom_agua":1,"dom_esgoto":null,"sigilo_dom_esgoto":1,"renda_resp":null,"sigilo_renda_resp":1,"n_resp":null,"sigilo_n_resp":1,"dens":5.9,"sigilo_dens":false,"na_bacia":1,"area_pct_bacia":100.0,"metodo_recorte_bacia":"ponto_representativo_setor_2022; area_pct_geometrica","pop_n_validos":1,"pop_n_total":1,"pop_completude":1.0,"dom_n_validos":1,"dom_n_total":1,"dom_completude":1.0,"dom_ocupados_n_validos":0,"dom_ocupados_n_total":1,"dom_ocupados_completude":0.0,"mulheres_n_validos":0,"mulheres_n_total":1,"mulheres_completude":0.0,"c0_4_n_validos":0,"c0_4_n_total":1,"c0_4_completude":0.0,"c5_9_n_validos":0,"c5_9_n_total":1,"c5_9_completude":0.0,"i60_69_n_validos":0,"i60_69_n_total":1,"i60_69_completude":0.0,"i70m_n_validos":0,"i70m_n_total":1,"i70m_completude":0.0,"indigenas_n_validos":0,"indigenas_n_total":1,"indigenas_completude":0.0,"pretos_pardos_n_validos":0,"pretos_pardos_n_total":1,"pretos_pardos_completude":0.0,"dom_agua_n_validos":0,"dom_agua_n_total":1,"dom_agua_completude":0.0,"dom_esgoto_n_validos":0,"dom_esgoto_n_total":1,"dom_esgoto_completude":0.0,"n_resp_n_validos":0,"n_resp_n_total":1,"n_resp_completude":0.0,"renda_resp_n_validos":0,"renda_resp_n_total":1,"renda_resp_completude":0.0,"dens_n_validos":1,"dens_n_total":1,"dens_completude":1.0,"status_borda_bacia":"total","metodo_area_bacia":"interseção geométrica em EPSG:5880","metodo_na_bacia":"ponto_representativo_setor_2022_within_bacia","municipio":"Putinga","cod_mun":"4315206","mun_pct_na_bacia":100.0,"mun_pop_total":3747,"mun_pop_na_bacia":3747.0,"mun_ubs_iede":2,"mun_hospitais_iede":1,"mun_escolas_iede":5,"mun_bombeiros_iede":null,"mun_servicos_cobertura":"cadastro_IEDE_parcial_nao_inventario","mun_icm_faixa":"B","mun_icm_pontos":13,"mun_icm_prioritario":"sim","mun_ubs_iede_status":"published","mun_hospitais_iede_status":"published","mun_escolas_iede_status":"published","mun_bombeiros_iede_status":"unknown"},"geometry":{"type":"Polygon","coordinates":[[[-52.110169,-29.08136159999998],[-52.12673959999995,-29.08127909999997],[-52.124302899999975,-29.07929949999993],[-52.12352059999994,-29.07899549999997],[-52.12279529999995,-29.07758549999994],[-52.122859699999935,-29.077262599999987],[-52.110169,-29.08136159999998]]]}},{"type":"Feature","properties":{"setor":"431520605000012","pop":161,"sigilo_pop":false,"dom":88,"sigilo_dom":0,"mulheres":73,"sigilo_mulheres":0,"c0_4":null,"sigilo_c0_4":1,"c5_9":null,"sigilo_c5_9":1,"i60_69":32,"sigilo_i60_69":0,"i70m":27,"sigilo_i70m":0,"indigenas":0,"sigilo_indigenas":0,"pretos_pardos":null,"sigilo_pretos_pardos":1,"dom_ocupados":51,"sigilo_dom_ocupados":0,"dom_agua":0,"sigilo_dom_agua":0,"dom_esgoto":0,"sigilo_dom_esgoto":0,"renda_resp":3062.78,"sigilo_renda_resp":0,"n_resp":51,"sigilo_n_resp":0,"dens":7.9,"sigilo_dens":false,"na_bacia":1,"area_pct_bacia":100.0,"metodo_recorte_bacia":"ponto_representativo_setor_2022; area_pct_geometrica","pop_n_validos":1,"pop_n_total":1,"pop_completude":1.0,"dom_n_validos":1,"dom_n_total":1,"dom_completude":1.0,"dom_ocupados_n_validos":1,"dom_ocupados_n_total":1,"dom_ocupados_completude":1.0,"mulheres_n_validos":1,"mulheres_n_total":1,"mulheres_completude":1.0,"c0_4_n_validos":0,"c0_4_n_total":1,"c0_4_completude":0.0,"c5_9_n_validos":0,"c5_9_n_total":1,"c5_9_completude":0.0,"i60_69_n_validos":1,"i60_69_n_total":1,"i60_69_completude":1.0,"i70m_n_validos":1,"i70m_n_total":1,"i70m_completude":1.0,"indigenas_n_validos":1,"indigenas_n_total":1,"indigenas_completude":1.0,"pretos_pardos_n_validos":0,"pretos_pardos_n_total":1,"pretos_pardos_completude":0.0,"dom_agua_n_validos":1,"dom_agua_n_total":1,"dom_agua_completude":1.0,"dom_esgoto_n_validos":1,"dom_esgoto_n_total":1,"dom_esgoto_completude":1.0,"n_resp_n_validos":1,"n_resp_n_total":1,"n_resp_completude":1.0,"renda_resp_n_validos":1,"renda_resp_n_total":1,"renda_resp_completude":1.0,"dens_n_validos":1,"dens_n_total":1,"dens_completude":1.0,"status_borda_bacia":"total","metodo_area_bacia":"interseção geométrica em EPSG:5880","metodo_na_bacia":"ponto_representativo_setor_2022_within_bacia","municipio":"Putinga","cod_mun":"4315206","mun_pct_na_bacia":100.0,"mun_pop_total":3747,"mun_pop_na_bacia":3747.0,"mun_ubs_iede":2,"mun_hospitais_iede":1,"mun_escolas_iede":5,"mun_bombeiros_iede":null,"mun_servicos_cobertura":"cadastro_IEDE_parcial_nao_inventario","mun_icm_faixa":"B","mun_icm_pontos":13,"mun_icm_prioritario":"sim","mun_ubs_iede_status":"published","mun_hospitais_iede_status":"published","mun_escolas_iede_status":"published","mun_bombeiros_iede_status":"unknown"},"geometry":{"type":"Polygon","coordinates":[[[-52.059158699999955,-29.059971699999952],[-52.05969989999994,-29.05965489999995],[-52.06419409999995,-29.06160949999997],[-52.06580809999997,-29.062788199999936],[-52.066422299999935,-29.062566099999966],[-52.06686689999998,-29.061805],[-52.06782,-29.062627699999947],[-52.069592099999966,-29.063154699999988],[-52.07008969999998,-29.063512699999933],[-52.069647,-29.064454299999966],[-52.06981419999994,-29.06474169999996],[-52.071089,-29.06494849999996],[-52.07134049999997,-29.065450899999966],[-52.072407,-29.065154199999927],[-52.07331129999995,-29.065183399999956],[-52.07587309999997,-29.06660639999996],[-52.076703699999946,-29.067394],[-52.07843229999997,-29.06766949999997],[-52.079398799999986,-29.069719],[-52.080144799999964,-29.070255499999973],[-52.081371399999966,-29.073457899999934],[-52.082567599999955,-29.074205599999978],[-52.08364839999996,-29.075244699999924],[-52.08534289999994,-29.076206],[-52.086175899999944,-29.077099099999945],[-52.087908,-29.07780929999996],[-52.08876849999996,-29.077766499999925],[-52.08983359999997,-29.077216099999934],[-52.09536859999998,-29.076015799999922],[-52.09532559999997,-29.083597099999963],[-52.10491879999996,-29.081424699999957],[-52.110169,-29.08136159999998],[-52.12318029999994,-29.07714079999993],[-52.12342969999998,-29.076754599999962],[-52.12330119999995,-29.075626299999968],[-52.124527399999984,-29.074508699999964],[-52.12465729999996,-29.07380159999997],[-52.12423419999993,-29.072888299999935],[-52.1244296,-29.07179509999998],[-52.12424969999994,-29.070103199999963],[-52.123918,-29.069079399999968],[-52.12343059999995,-29.068599899999974],[-52.122658699999924,-29.067103599999935],[-52.12269769999995,-29.066479099999974],[-52.123013599999986,-29.066051499999958],[-52.123513299999956,-29.06562549999994],[-52.12461,-29.065293599999954],[-52.12481179999998,-29.06492929999996],[-52.12418389999993,-29.061944],[-52.124469799999986,-29.060785399999933],[-52.123882099999946,-29.05943949999994],[-52.12456889999998,-29.057296099999974],[-52.12402929999996,-29.055901299999956],[-52.121847599999974,-29.053717],[-52.12149409999995,-29.052652199999955],[-52.118141,-29.050002199999927],[-52.11735319999997,-29.05012729999992],[-52.11705939999995,-29.05047139999994],[-52.116731699999946,-29.05403859999995],[-52.115827,-29.055166],[-52.11562729999998,-29.055752199999986],[-52.11441679999995,-29.055963399999943],[-52.111225199999986,-29.055445],[-52.10981439999995,-29.054137099999938],[-52.10828169999996,-29.05219259999995],[-52.10585839999993,-29.048303399999956],[-52.105378,-29.048346299999924],[-52.10507809999996,-29.04812829999997],[-52.10397759999995,-29.046031],[-52.10375719999996,-29.044604599999953],[-52.10325,-29.0440445],[-52.10087139999996,-29.042553299999962],[-52.10057009999997,-29.042014199999976],[-52.10051139999996,-29.041015799999965],[-52.099054499999966,-29.039495199999976],[-52.09604219999995,-29.038412599999955],[-52.09459679999998,-29.03839479999993],[-52.09349849999995,-29.03954459999992],[-52.09294879999993,-29.03956749999997],[-52.09186839999995,-29.03901639999997],[-52.0905767,-29.037901199999965],[-52.09001159999997,-29.038368499999947],[-52.08941439999995,-29.040241499999983],[-52.088916799999936,-29.040889299999947],[-52.088313399999954,-29.041145899999947],[-52.08737189999993,-29.040750899999964],[-52.086373,-29.039069899999944],[-52.08581769999994,-29.038670499999967],[-52.08371589999996,-29.038670299999975],[-52.08261539999995,-29.039433],[-52.082385099999954,-29.04144469999994],[-52.08223039999996,-29.04193049999998],[-52.081821299999945,-29.042172699999966],[-52.081226699999945,-29.042177699999975],[-52.08051469999998,-29.041863599999935],[-52.07972959999995,-29.04112269999995],[-52.078649299999945,-29.040571499999945],[-52.07575529999997,-29.040264],[-52.074457,-29.040836199999937],[-52.074233299999946,-29.04121809999998],[-52.07462,-29.043226],[-52.074270199999944,-29.043541199999932],[-52.07374219999997,-29.043604799999972],[-52.07326069999994,-29.04332739999996],[-52.072543,-29.042327599999965],[-52.07168989999997,-29.041652399999972],[-52.071047299999975,-29.041534099999982],[-52.070441399999936,-29.042585199999955],[-52.06978469999996,-29.0452645],[-52.06900029999996,-29.045863799999946],[-52.067492199999954,-29.045675299999964],[-52.06670889999998,-29.045278899999968],[-52.065646899999926,-29.044302099999985],[-52.06354359999995,-29.04316329999995],[-52.06266309999995,-29.044175199999984],[-52.06271769999995,-29.045099599999958],[-52.06454419999994,-29.047096699999926],[-52.064688299999936,-29.04773739999996],[-52.064491,-29.048683399999963],[-52.063365399999945,-29.049182199999954],[-52.06174269999997,-29.049359],[-52.05969729999998,-29.050499299999956],[-52.05947969999994,-29.051427],[-52.06028289999995,-29.052897899999934],[-52.060545,-29.053984099999976],[-52.060206,-29.05426509999994],[-52.058212,-29.053859299999935],[-52.05592919999998,-29.054239299999953],[-52.055397899999946,-29.054696199999963],[-52.05520009999998,-29.05544009999994],[-52.055258899999956,-29.056848],[-52.05471469999998,-29.059437099999972],[-52.05705549999993,-29.05951189999997],[-52.057577699999975,-29.058753199999963],[-52.05795089999998,-29.05864069999995],[-52.05841069999997,-29.058926699999972],[-52.05873629999997,-29.059826499999936],[-52.059158699999955,-29.059971699999952]]]}},{"type":"Feature","properties":{"setor":"431520605000013","pop":48,"sigilo_pop":false,"dom":18,"sigilo_dom":0,"mulheres":23,"sigilo_mulheres":0,"c0_4":null,"sigilo_c0_4":1,"c5_9":3,"sigilo_c5_9":0,"i60_69":11,"sigilo_i60_69":0,"i70m":8,"sigilo_i70m":0,"indigenas":0,"sigilo_indigenas":0,"pretos_pardos":null,"sigilo_pretos_pardos":1,"dom_ocupados":16,"sigilo_dom_ocupados":0,"dom_agua":10,"sigilo_dom_agua":0,"dom_esgoto":0,"sigilo_dom_esgoto":0,"renda_resp":2021.5,"sigilo_renda_resp":0,"n_resp":16,"sigilo_n_resp":0,"dens":7.7,"sigilo_dens":false,"na_bacia":1,"area_pct_bacia":100.0,"metodo_recorte_bacia":"ponto_representativo_setor_2022; area_pct_geometrica","pop_n_validos":1,"pop_n_total":1,"pop_completude":1.0,"dom_n_validos":1,"dom_n_total":1,"dom_completude":1.0,"dom_ocupados_n_validos":1,"dom_ocupados_n_total":1,"dom_ocupados_completude":1.0,"mulheres_n_validos":1,"mulheres_n_total":1,"mulheres_completude":1.0,"c0_4_n_validos":0,"c0_4_n_total":1,"c0_4_completude":0.0,"c5_9_n_validos":1,"c5_9_n_total":1,"c5_9_completude":1.0,"i60_69_n_validos":1,"i60_69_n_total":1,"i60_69_completude":1.0,"i70m_n_validos":1,"i70m_n_total":1,"i70m_completude":1.0,"indigenas_n_validos":1,"indigenas_n_total":1,"indigenas_completude":1.0,"pretos_pardos_n_validos":0,"pretos_pardos_n_total":1,"pretos_pardos_completude":0.0,"dom_agua_n_validos":1,"dom_agua_n_total":1,"dom_agua_completude":1.0,"dom_esgoto_n_validos":1,"dom_esgoto_n_total":1,"dom_esgoto_completude":1.0,"n_resp_n_validos":1,"n_resp_n_total":1,"n_resp_completude":1.0,"renda_resp_n_validos":1,"renda_resp_n_total":1,"renda_resp_completude":1.0,"dens_n_validos":1,"dens_n_total":1,"dens_completude":1.0,"status_borda_bacia":"total","metodo_area_bacia":"interseção geométrica em EPSG:5880","metodo_na_bacia":"ponto_representativo_setor_2022_within_bacia","municipio":"Putinga","cod_mun":"4315206","mun_pct_na_bacia":100.0,"mun_pop_total":3747,"mun_pop_na_bacia":3747.0,"mun_ubs_iede":2,"mun_hospitais_iede":1,"mun_escolas_iede":5,"mun_bombeiros_iede":null,"mun_servicos_cobertura":"cadastro_IEDE_parcial_nao_inventario","mun_icm_faixa":"B","mun_icm_pontos":13,"mun_icm_prioritario":"sim","mun_ubs_iede_status":"published","mun_hospitais_iede_status":"published","mun_escolas_iede_status":"published","mun_bombeiros_iede_status":"unknown"},"geometry":{"type":"Polygon","coordinates":[[[-52.127886899999964,-29.084409599999958],[-52.12777249999993,-29.084099099999957],[-52.12707039999997,-29.08377409999997],[-52.126969,-29.083416399999972],[-52.12739529999994,-29.082960499999956],[-52.127389799999946,-29.08252839999994],[-52.12673959999995,-29.08127909999997],[-52.110169,-29.08136159999998],[-52.08928759999998,-29.086932899999965],[-52.089808,-29.108244199999945],[-52.09089819999997,-29.107403799999933],[-52.09132169999999,-29.10669179999996],[-52.091977799999945,-29.106393599999933],[-52.09271119999995,-29.10639259999994],[-52.093575,-29.107004199999952],[-52.09370649999994,-29.105223599999924],[-52.09397269999994,-29.104847099999976],[-52.095277299999964,-29.104651299999947],[-52.09761479999997,-29.102748299999966],[-52.099191099999985,-29.101911799999986],[-52.101941599999975,-29.101007799999934],[-52.103539799999965,-29.100032299999945],[-52.10431269999999,-29.09910759999997],[-52.10572069999996,-29.098111199999945],[-52.10568989999995,-29.096712],[-52.10662929999996,-29.09520939999993],[-52.107274399999945,-29.095174],[-52.108394799999985,-29.095723099999926],[-52.108712699999955,-29.097296099999937],[-52.109279199999946,-29.097528199999942],[-52.11123279999999,-29.09698479999998],[-52.112286599999955,-29.09643459999996],[-52.116229,-29.09609049999994],[-52.118186,-29.09499209999995],[-52.11933549999998,-29.095375499999918],[-52.119806299999944,-29.09531169999997],[-52.120424199999945,-29.09440629999994],[-52.121400799999954,-29.093539399999944],[-52.12278729999997,-29.09285429999994],[-52.12381469999997,-29.092963],[-52.124364699999944,-29.091973199999984],[-52.12488829999995,-29.08987],[-52.12616539999994,-29.089136299999954],[-52.12594209999998,-29.088599899999966],[-52.125306,-29.08801509999995],[-52.12510879999996,-29.087167799999968],[-52.127886899999964,-29.084409599999958]]]}},{"type":"Feature","properties":{"setor":"431520605000014","pop":17,"sigilo_pop":false,"dom":6,"sigilo_dom":0,"mulheres":9,"sigilo_mulheres":0,"c0_4":null,"sigilo_c0_4":1,"c5_9":null,"sigilo_c5_9":1,"i60_69":null,"sigilo_i60_69":1,"i70m":null,"sigilo_i70m":1,"indigenas":0,"sigilo_indigenas":0,"pretos_pardos":0,"sigilo_pretos_pardos":0,"dom_ocupados":6,"sigilo_dom_ocupados":0,"dom_agua":4,"sigilo_dom_agua":0,"dom_esgoto":0,"sigilo_dom_esgoto":0,"renda_resp":1856.0,"sigilo_renda_resp":0,"n_resp":6,"sigilo_n_resp":0,"dens":5.0,"sigilo_dens":false,"na_bacia":1,"area_pct_bacia":100.0,"metodo_recorte_bacia":"ponto_representativo_setor_2022; area_pct_geometrica","pop_n_validos":1,"pop_n_total":1,"pop_completude":1.0,"dom_n_validos":1,"dom_n_total":1,"dom_completude":1.0,"dom_ocupados_n_validos":1,"dom_ocupados_n_total":1,"dom_ocupados_completude":1.0,"mulheres_n_validos":1,"mulheres_n_total":1,"mulheres_completude":1.0,"c0_4_n_validos":0,"c0_4_n_total":1,"c0_4_completude":0.0,"c5_9_n_validos":0,"c5_9_n_total":1,"c5_9_completude":0.0,"i60_69_n_validos":0,"i60_69_n_total":1,"i60_69_completude":0.0,"i70m_n_validos":0,"i70m_n_total":1,"i70m_completude":0.0,"indigenas_n_validos":1,"indigenas_n_total":1,"indigenas_completude":1.0,"pretos_pardos_n_validos":1,"pretos_pardos_n_total":1,"pretos_pardos_completude":1.0,"dom_agua_n_validos":1,"dom_agua_n_total":1,"dom_agua_completude":1.0,"dom_esgoto_n_validos":1,"dom_esgoto_n_total":1,"dom_esgoto_completude":1.0,"n_resp_n_validos":1,"n_resp_n_total":1,"n_resp_completude":1.0,"renda_resp_n_validos":1,"renda_resp_n_total":1,"renda_resp_completude":1.0,"dens_n_validos":1,"dens_n_total":1,"dens_completude":1.0,"status_borda_bacia":"total","metodo_area_bacia":"interseção geométrica em EPSG:5880","metodo_na_bacia":"ponto_representativo_setor_2022_within_bacia","municipio":"Putinga","cod_mun":"4315206","mun_pct_na_bacia":100.0,"mun_pop_total":3747,"mun_pop_na_bacia":3747.0,"mun_ubs_iede":2,"mun_hospitais_iede":1,"mun_escolas_iede":5,"mun_bombeiros_iede":null,"mun_servicos_cobertura":"cadastro_IEDE_parcial_nao_inventario","mun_icm_faixa":"B","mun_icm_pontos":13,"mun_icm_prioritario":"sim","mun_ubs_iede_status":"published","mun_hospitais_iede_status":"published","mun_escolas_iede_status":"published","mun_bombeiros_iede_status":"unknown"},"geometry":{"type":"Polygon","coordinates":[[[-52.078091099999945,-29.090280299999964],[-52.08928759999998,-29.086932899999965],[-52.1099928,-29.081391599999975],[-52.10491879999996,-29.081424699999957],[-52.09532559999997,-29.083597099999963],[-52.09536859999998,-29.076015799999922],[-52.08983359999997,-29.077216099999934],[-52.08876849999996,-29.077766499999925],[-52.087908,-29.07780929999996],[-52.086175899999944,-29.077099099999945],[-52.08534289999994,-29.076206],[-52.08364839999996,-29.075244699999924],[-52.082567599999955,-29.074205599999978],[-52.081371399999966,-29.073457899999934],[-52.080144799999964,-29.070255499999973],[-52.079398799999986,-29.069719],[-52.07843229999997,-29.06766949999997],[-52.076703699999946,-29.067394],[-52.07587309999997,-29.06660639999996],[-52.07331129999995,-29.065183399999956],[-52.072407,-29.065154199999927],[-52.07134049999997,-29.065450899999966],[-52.078091099999945,-29.090280299999964]]]}},{"type":"Feature","properties":{"setor":"431520605000015","pop":32,"sigilo_pop":false,"dom":11,"sigilo_dom":0,"mulheres":17,"sigilo_mulheres":0,"c0_4":null,"sigilo_c0_4":1,"c5_9":null,"sigilo_c5_9":1,"i60_69":null,"sigilo_i60_69":1,"i70m":9,"sigilo_i70m":0,"indigenas":0,"sigilo_indigenas":0,"pretos_pardos":0,"sigilo_pretos_pardos":0,"dom_ocupados":10,"sigilo_dom_ocupados":0,"dom_agua":5,"sigilo_dom_agua":0,"dom_esgoto":0,"sigilo_dom_esgoto":0,"renda_resp":1938.4,"sigilo_renda_resp":0,"n_resp":10,"sigilo_n_resp":0,"dens":5.7,"sigilo_dens":false,"na_bacia":1,"area_pct_bacia":100.0,"metodo_recorte_bacia":"ponto_representativo_setor_2022; area_pct_geometrica","pop_n_validos":1,"pop_n_total":1,"pop_completude":1.0,"dom_n_validos":1,"dom_n_total":1,"dom_completude":1.0,"dom_ocupados_n_validos":1,"dom_ocupados_n_total":1,"dom_ocupados_completude":1.0,"mulheres_n_validos":1,"mulheres_n_total":1,"mulheres_completude":1.0,"c0_4_n_validos":0,"c0_4_n_total":1,"c0_4_completude":0.0,"c5_9_n_validos":0,"c5_9_n_total":1,"c5_9_completude":0.0,"i60_69_n_validos":0,"i60_69_n_total":1,"i60_69_completude":0.0,"i70m_n_validos":1,"i70m_n_total":1,"i70m_completude":1.0,"indigenas_n_validos":1,"indigenas_n_total":1,"indigenas_completude":1.0,"pretos_pardos_n_validos":1,"pretos_pardos_n_total":1,"pretos_pardos_completude":1.0,"dom_agua_n_validos":1,"dom_agua_n_total":1,"dom_agua_completude":1.0,"dom_esgoto_n_validos":1,"dom_esgoto_n_total":1,"dom_esgoto_completude":1.0,"n_resp_n_validos":1,"n_resp_n_total":1,"n_resp_completude":1.0,"renda_resp_n_validos":1,"renda_resp_n_total":1,"renda_resp_completude":1.0,"dens_n_validos":1,"dens_n_total":1,"dens_completude":1.0,"status_borda_bacia":"total","metodo_area_bacia":"interseção geométrica em EPSG:5880","metodo_na_bacia":"ponto_representativo_setor_2022_within_bacia","municipio":"Putinga","cod_mun":"4315206","mun_pct_na_bacia":100.0,"mun_pop_total":3747,"mun_pop_na_bacia":3747.0,"mun_ubs_iede":2,"mun_hospitais_iede":1,"mun_escolas_iede":5,"mun_bombeiros_iede":null,"mun_servicos_cobertura":"cadastro_IEDE_parcial_nao_inventario","mun_icm_faixa":"B","mun_icm_pontos":13,"mun_icm_prioritario":"sim","mun_ubs_iede_status":"published","mun_hospitais_iede_status":"published","mun_escolas_iede_status":"published","mun_bombeiros_iede_status":"unknown"},"geometry":{"type":"Polygon","coordinates":[[[-52.059158699999955,-29.059971699999952],[-52.05873629999997,-29.059826499999936],[-52.058261199999954,-29.058767899999964],[-52.05734119999994,-29.09273419999993],[-52.07812949999993,-29.092808199999975],[-52.078091099999945,-29.090280299999964],[-52.071089,-29.06494849999996],[-52.06981419999994,-29.06474169999996],[-52.069647,-29.064454299999966],[-52.07008969999998,-29.063512699999933],[-52.069592099999966,-29.063154699999988],[-52.06782,-29.062627699999947],[-52.06686689999998,-29.061805],[-52.066422299999935,-29.062566099999966],[-52.06580809999997,-29.062788199999936],[-52.06419409999995,-29.06160949999997],[-52.05969989999994,-29.05965489999995],[-52.059158699999955,-29.059971699999952]]]}},{"type":"Feature","properties":{"setor":"431520615000001","pop":93,"sigilo_pop":false,"dom":37,"sigilo_dom":0,"mulheres":48,"sigilo_mulheres":0,"c0_4":7,"sigilo_c0_4":0,"c5_9":null,"sigilo_c5_9":1,"i60_69":7,"sigilo_i60_69":0,"i70m":12,"sigilo_i70m":0,"indigenas":0,"sigilo_indigenas":0,"pretos_pardos":null,"sigilo_pretos_pardos":1,"dom_ocupados":28,"sigilo_dom_ocupados":0,"dom_agua":0,"sigilo_dom_agua":0,"dom_esgoto":0,"sigilo_dom_esgoto":0,"renda_resp":4151.18,"sigilo_renda_resp":0,"n_resp":28,"sigilo_n_resp":0,"dens":131.4,"sigilo_dens":false,"na_bacia":1,"area_pct_bacia":100.0,"metodo_recorte_bacia":"ponto_representativo_setor_2022; area_pct_geometrica","pop_n_validos":1,"pop_n_total":1,"pop_completude":1.0,"dom_n_validos":1,"dom_n_total":1,"dom_completude":1.0,"dom_ocupados_n_validos":1,"dom_ocupados_n_total":1,"dom_ocupados_completude":1.0,"mulheres_n_validos":1,"mulheres_n_total":1,"mulheres_completude":1.0,"c0_4_n_validos":1,"c0_4_n_total":1,"c0_4_completude":1.0,"c5_9_n_validos":0,"c5_9_n_total":1,"c5_9_completude":0.0,"i60_69_n_validos":1,"i60_69_n_total":1,"i60_69_completude":1.0,"i70m_n_validos":1,"i70m_n_total":1,"i70m_completude":1.0,"indigenas_n_validos":1,"indigenas_n_total":1,"indigenas_completude":1.0,"pretos_pardos_n_validos":0,"pretos_pardos_n_total":1,"pretos_pardos_completude":0.0,"dom_agua_n_validos":1,"dom_agua_n_total":1,"dom_agua_completude":1.0,"dom_esgoto_n_validos":1,"dom_esgoto_n_total":1,"dom_esgoto_completude":1.0,"n_resp_n_validos":1,"n_resp_n_total":1,"n_resp_completude":1.0,"renda_resp_n_validos":1,"renda_resp_n_total":1,"renda_resp_completude":1.0,"dens_n_validos":1,"dens_n_total":1,"dens_completude":1.0,"status_borda_bacia":"total","metodo_area_bacia":"interseção geométrica em EPSG:5880","metodo_na_bacia":"ponto_representativo_setor_2022_within_bacia","municipio":"Putinga","cod_mun":"4315206","mun_pct_na_bacia":100.0,"mun_pop_total":3747,"mun_pop_na_bacia":3747.0,"mun_ubs_iede":2,"mun_hospitais_iede":1,"mun_escolas_iede":5,"mun_bombeiros_iede":null,"mun_servicos_cobertura":"cadastro_IEDE_parcial_nao_inventario","mun_icm_faixa":"B","mun_icm_pontos":13,"mun_icm_prioritario":"sim","mun_ubs_iede_status":"published","mun_hospitais_iede_status":"published","mun_escolas_iede_status":"published","mun_bombeiros_iede_status":"unknown"},"geometry":{"type":"Polygon","coordinates":[[[-52.08392629999997,-29.011816],[-52.081306,-29.014943299999974],[-52.08509819999995,-29.01728479999997],[-52.088339299999966,-29.01865179999993],[-52.091161399999976,-29.019092699999934],[-52.093652899999945,-29.01898249999993],[-52.09598989999995,-29.018276899999933],[-52.096453,-29.01774779999993],[-52.09764349999995,-29.01807849999994],[-52.09930149999997,-29.017647699999937],[-52.096475,-29.013867299999955],[-52.0958136,-29.013801199999925],[-52.09398839999995,-29.014573899999956],[-52.09063019999997,-29.01528969999998],[-52.08813509999994,-29.014471699999948],[-52.08392629999997,-29.011816]]]}},{"type":"Feature","properties":{"setor":"431520615000002","pop":205,"sigilo_pop":false,"dom":77,"sigilo_dom":0,"mulheres":102,"sigilo_mulheres":0,"c0_4":10,"sigilo_c0_4":0,"c5_9":14,"sigilo_c5_9":0,"i60_69":33,"sigilo_i60_69":0,"i70m":28,"sigilo_i70m":0,"indigenas":0,"sigilo_indigenas":0,"pretos_pardos":12,"sigilo_pretos_pardos":0,"dom_ocupados":57,"sigilo_dom_ocupados":0,"dom_agua":0,"sigilo_dom_agua":0,"dom_esgoto":0,"sigilo_dom_esgoto":0,"renda_resp":5008.08,"sigilo_renda_resp":0,"n_resp":57,"sigilo_n_resp":0,"dens":13.3,"sigilo_dens":false,"na_bacia":1,"area_pct_bacia":100.0,"metodo_recorte_bacia":"ponto_representativo_setor_2022; area_pct_geometrica","pop_n_validos":1,"pop_n_total":1,"pop_completude":1.0,"dom_n_validos":1,"dom_n_total":1,"dom_completude":1.0,"dom_ocupados_n_validos":1,"dom_ocupados_n_total":1,"dom_ocupados_completude":1.0,"mulheres_n_validos":1,"mulheres_n_total":1,"mulheres_completude":1.0,"c0_4_n_validos":1,"c0_4_n_total":1,"c0_4_completude":1.0,"c5_9_n_validos":1,"c5_9_n_total":1,"c5_9_completude":1.0,"i60_69_n_validos":1,"i60_69_n_total":1,"i60_69_completude":1.0,"i70m_n_validos":1,"i70m_n_total":1,"i70m_completude":1.0,"indigenas_n_validos":1,"indigenas_n_total":1,"indigenas_completude":1.0,"pretos_pardos_n_validos":1,"pretos_pardos_n_total":1,"pretos_pardos_completude":1.0,"dom_agua_n_validos":1,"dom_agua_n_total":1,"dom_agua_completude":1.0,"dom_esgoto_n_validos":1,"dom_esgoto_n_total":1,"dom_esgoto_completude":1.0,"n_resp_n_validos":1,"n_resp_n_total":1,"n_resp_completude":1.0,"renda_resp_n_validos":1,"renda_resp_n_total":1,"renda_resp_completude":1.0,"dens_n_validos":1,"dens_n_total":1,"dens_completude":1.0,"status_borda_bacia":"total","metodo_area_bacia":"interseção geométrica em EPSG:5880","metodo_na_bacia":"ponto_representativo_setor_2022_within_bacia","municipio":"Putinga","cod_mun":"4315206","mun_pct_na_bacia":100.0,"mun_pop_total":3747,"mun_pop_na_bacia":3747.0,"mun_ubs_iede":2,"mun_hospitais_iede":1,"mun_escolas_iede":5,"mun_bombeiros_iede":null,"mun_servicos_cobertura":"cadastro_IEDE_parcial_nao_inventario","mun_icm_faixa":"B","mun_icm_pontos":13,"mun_icm_prioritario":"sim","mun_ubs_iede_status":"published","mun_hospitais_iede_status":"published","mun_escolas_iede_status":"published","mun_bombeiros_iede_status":"unknown"},"geometry":{"type":"Polygon","coordinates":[[[-52.066909399999986,-29.00614009999997],[-52.06720519999993,-29.006708699999933],[-52.06678989999995,-29.008390199999955],[-52.06746389999994,-29.009745599999974],[-52.067605199999946,-29.01074309999995],[-52.069869599999954,-29.012638499999976],[-52.073105,-29.012241799999966],[-52.073182299999985,-29.010951299999935],[-52.073520899999956,-29.010404099999956],[-52.07559109999994,-29.008925699999974],[-52.077547,-29.00951559999993],[-52.07844669999997,-29.010377199999937],[-52.07926059999994,-29.013604299999933],[-52.079611299999954,-29.014287599999935],[-52.08016489999995,-29.014604899999938],[-52.08188629999995,-29.01425059999997],[-52.08392629999997,-29.011816],[-52.08813509999994,-29.014471699999948],[-52.09063019999997,-29.01528969999998],[-52.09398839999995,-29.014573899999956],[-52.0958136,-29.013801199999925],[-52.096475,-29.013867299999955],[-52.09930149999997,-29.017647699999937],[-52.09764349999995,-29.01807849999994],[-52.096453,-29.01774779999993],[-52.09598989999995,-29.018276899999933],[-52.093652899999945,-29.01898249999993],[-52.091161399999976,-29.019092699999934],[-52.08959449999997,-29.018847899999965],[-52.08886359999997,-29.021318599999976],[-52.08774109999996,-29.02334559999997],[-52.08770569999996,-29.02504259999995],[-52.086511299999984,-29.028735399999963],[-52.085503,-29.029742899999974],[-52.08491639999994,-29.030706],[-52.082992399999966,-29.031038399999943],[-52.082124799999974,-29.03359029999996],[-52.082331,-29.035655199999947],[-52.08213949999998,-29.03812559999995],[-52.082579899999985,-29.039741899999974],[-52.083147599999954,-29.03891569999997],[-52.08371589999996,-29.038670299999975],[-52.08581769999994,-29.038670499999967],[-52.086373,-29.039069899999944],[-52.08737189999993,-29.040750899999964],[-52.088313399999954,-29.041145899999947],[-52.088916799999936,-29.040889299999947],[-52.08941439999995,-29.040241499999983],[-52.09001159999997,-29.038368499999947],[-52.0905767,-29.037901199999965],[-52.09186839999995,-29.03901639999997],[-52.09294879999993,-29.03956749999997],[-52.09349849999995,-29.03954459999992],[-52.096019499999954,-29.036575],[-52.09733669999998,-29.034512799999955],[-52.09902549999998,-29.03379169999993],[-52.099822,-29.032855899999948],[-52.10101039999996,-29.030643899999973],[-52.10366429999994,-29.030316099999936],[-52.10509679999995,-29.030696199999962],[-52.10579419999994,-29.03074029999993],[-52.106296,-29.03052639999993],[-52.107211,-29.028601899999952],[-52.106840699999964,-29.027066899999966],[-52.10731819999995,-29.0261599],[-52.10826519999995,-29.025124299999945],[-52.11010669999996,-29.025258399999913],[-52.11029589999998,-29.02473339999995],[-52.109873299999954,-29.023694699999954],[-52.110302299999944,-29.023255199999916],[-52.108134599999964,-29.01970759999995],[-52.10728409999996,-29.016908099999966],[-52.10544129999994,-29.015242499999932],[-52.11057979999998,-28.99770089999998],[-52.10622089999998,-28.995893499999973],[-52.10413009999996,-28.993944499999937],[-52.10354719999999,-28.993653],[-52.10500369999993,-28.993204],[-52.10540979999996,-28.992702599999976],[-52.10435869999998,-28.99172049999993],[-52.10426309999997,-28.991260799999957],[-52.104717,-28.99034139999997],[-52.10507529999995,-28.990111499999966],[-52.10896919999993,-28.989547299999966],[-52.109757499999944,-28.989087599999955],[-52.10973369999993,-28.988836899999956],[-52.10911249999998,-28.98835629999997],[-52.10884979999997,-28.986893499999958],[-52.1096381,-28.986308399999913],[-52.1096381,-28.985263599999943],[-52.1101159,-28.98388439999996],[-52.1099895,-28.981912899999944],[-52.09204289999997,-28.980435699999923],[-52.09116349999994,-28.989728],[-52.07841679999996,-28.989312899999955],[-52.07762989999998,-28.998322],[-52.06757269999997,-28.99735119999997],[-52.066909399999986,-29.00614009999997]]]}},{"type":"Feature","properties":{"setor":"431520615000003","pop":132,"sigilo_pop":false,"dom":70,"sigilo_dom":0,"mulheres":61,"sigilo_mulheres":0,"c0_4":null,"sigilo_c0_4":1,"c5_9":7,"sigilo_c5_9":0,"i60_69":21,"sigilo_i60_69":0,"i70m":14,"sigilo_i70m":0,"indigenas":0,"sigilo_indigenas":0,"pretos_pardos":null,"sigilo_pretos_pardos":1,"dom_ocupados":39,"sigilo_dom_ocupados":0,"dom_agua":0,"sigilo_dom_agua":0,"dom_esgoto":0,"sigilo_dom_esgoto":0,"renda_resp":4204.54,"sigilo_renda_resp":0,"n_resp":39,"sigilo_n_resp":0,"dens":9.1,"sigilo_dens":false,"na_bacia":1,"area_pct_bacia":100.0,"metodo_recorte_bacia":"ponto_representativo_setor_2022; area_pct_geometrica","pop_n_validos":1,"pop_n_total":1,"pop_completude":1.0,"dom_n_validos":1,"dom_n_total":1,"dom_completude":1.0,"dom_ocupados_n_validos":1,"dom_ocupados_n_total":1,"dom_ocupados_completude":1.0,"mulheres_n_validos":1,"mulheres_n_total":1,"mulheres_completude":1.0,"c0_4_n_validos":0,"c0_4_n_total":1,"c0_4_completude":0.0,"c5_9_n_validos":1,"c5_9_n_total":1,"c5_9_completude":1.0,"i60_69_n_validos":1,"i60_69_n_total":1,"i60_69_completude":1.0,"i70m_n_validos":1,"i70m_n_total":1,"i70m_completude":1.0,"indigenas_n_validos":1,"indigenas_n_total":1,"indigenas_completude":1.0,"pretos_pardos_n_validos":0,"pretos_pardos_n_total":1,"pretos_pardos_completude":0.0,"dom_agua_n_validos":1,"dom_agua_n_total":1,"dom_agua_completude":1.0,"dom_esgoto_n_validos":1,"dom_esgoto_n_total":1,"dom_esgoto_completude":1.0,"n_resp_n_validos":1,"n_resp_n_total":1,"n_resp_completude":1.0,"renda_resp_n_validos":1,"renda_resp_n_total":1,"renda_resp_completude":1.0,"dens_n_validos":1,"dens_n_total":1,"dens_completude":1.0,"status_borda_bacia":"total","metodo_area_bacia":"interseção geométrica em EPSG:5880","metodo_na_bacia":"ponto_representativo_setor_2022_within_bacia","municipio":"Putinga","cod_mun":"4315206","mun_pct_na_bacia":100.0,"mun_pop_total":3747,"mun_pop_na_bacia":3747.0,"mun_ubs_iede":2,"mun_hospitais_iede":1,"mun_escolas_iede":5,"mun_bombeiros_iede":null,"mun_servicos_cobertura":"cadastro_IEDE_parcial_nao_inventario","mun_icm_faixa":"B","mun_icm_pontos":13,"mun_icm_prioritario":"sim","mun_ubs_iede_status":"published","mun_hospitais_iede_status":"published","mun_escolas_iede_status":"published","mun_bombeiros_iede_status":"unknown"},"geometry":{"type":"Polygon","coordinates":[[[-52.055258899999956,-29.056848],[-52.05520009999998,-29.05544009999994],[-52.055397899999946,-29.054696199999963],[-52.05592919999998,-29.054239299999953],[-52.058212,-29.053859299999935],[-52.060206,-29.05426509999994],[-52.060545,-29.053984099999976],[-52.06028289999995,-29.052897899999934],[-52.05947969999994,-29.051427],[-52.05969729999998,-29.050499299999956],[-52.06174269999997,-29.049359],[-52.063365399999945,-29.049182199999954],[-52.064491,-29.048683399999963],[-52.064688299999936,-29.04773739999996],[-52.06454419999994,-29.047096699999926],[-52.06271769999995,-29.045099599999958],[-52.06266309999995,-29.044175199999984],[-52.06354359999995,-29.04316329999995],[-52.065646899999926,-29.044302099999985],[-52.06670889999998,-29.045278899999968],[-52.06849519999997,-29.045908],[-52.06900029999996,-29.045863799999946],[-52.06978469999996,-29.0452645],[-52.070441399999936,-29.042585199999955],[-52.071047299999975,-29.041534099999982],[-52.07168989999997,-29.041652399999972],[-52.07374219999997,-29.043604799999972],[-52.074270199999944,-29.043541199999932],[-52.07462,-29.043226],[-52.074233299999946,-29.04121809999998],[-52.074457,-29.040836199999937],[-52.07575529999997,-29.040264],[-52.078649299999945,-29.040571499999945],[-52.081226699999945,-29.042177699999975],[-52.081821299999945,-29.042172699999966],[-52.08223039999996,-29.04193049999998],[-52.082579899999985,-29.039741899999974],[-52.08213949999998,-29.03812559999995],[-52.082331,-29.035655199999947],[-52.08209869999996,-29.034336799999945],[-52.08253419999995,-29.03216119999996],[-52.08289769999993,-29.031716299999967],[-52.082992399999966,-29.031038399999943],[-52.08491639999994,-29.030706],[-52.085503,-29.029742899999974],[-52.086511299999984,-29.028735399999963],[-52.08770569999996,-29.02504259999995],[-52.08774109999996,-29.02334559999997],[-52.08886359999997,-29.021318599999976],[-52.08959449999997,-29.018847899999965],[-52.08661949999998,-29.018056499999943],[-52.083378,-29.01626],[-52.081306,-29.014943299999974],[-52.08188629999995,-29.01425059999997],[-52.08016489999995,-29.014604899999938],[-52.079611299999954,-29.014287599999935],[-52.07844669999997,-29.010377199999937],[-52.077547,-29.00951559999993],[-52.07559109999994,-29.008925699999974],[-52.073520899999956,-29.010404099999956],[-52.073182299999985,-29.010951299999935],[-52.073105,-29.012241799999966],[-52.070688,-29.012616],[-52.06953839999994,-29.01252009999995],[-52.067605199999946,-29.01074309999995],[-52.06746389999994,-29.009745599999974],[-52.06678989999995,-29.008390199999955],[-52.06720519999993,-29.006708699999933],[-52.066909399999986,-29.00614009999997],[-52.061569799999965,-29.00568259999995],[-52.061087,-29.010850199999943],[-52.06042369999995,-29.011237099999967],[-52.057032399999976,-29.010956599999933],[-52.05541509999994,-29.00977989999995],[-52.05416989999997,-29.00844749999994],[-52.05392709999995,-29.008526699999948],[-52.05354979999998,-29.009352799999917],[-52.05247009999994,-29.00963769999992],[-52.05245529999997,-29.009907199999923],[-52.05320819999998,-29.01042369999993],[-52.053355099999976,-29.011303099999967],[-52.05303989999992,-29.012121],[-52.05196739999997,-29.01276009999998],[-52.052488299999936,-29.013362299999976],[-52.05192069999998,-29.015036499999955],[-52.05292609999998,-29.0157713],[-52.055330699999956,-29.016516],[-52.055371399999956,-29.01691809999993],[-52.054846699999985,-29.01749889999996],[-52.05530759999994,-29.018527899999977],[-52.057874399999946,-29.018787499999966],[-52.05671169999994,-29.019582],[-52.05614139999995,-29.019520699999934],[-52.055660099999955,-29.019829],[-52.05400349999997,-29.019706599999953],[-52.05242939999994,-29.02020489999995],[-52.051602799999955,-29.020563199999966],[-52.050894899999946,-29.021402799999976],[-52.04980919999996,-29.020600899999977],[-52.048707,-29.020587699999968],[-52.046045499999934,-29.057707799999942],[-52.04777589999998,-29.05743719999998],[-52.04915149999994,-29.057667899999966],[-52.05100989999995,-29.059129099999943],[-52.05166109999993,-29.059347099999965],[-52.052529,-29.06083979999994],[-52.05332649999997,-29.06091989999993],[-52.053929299999936,-29.060563499999937],[-52.05466629999995,-29.059577],[-52.055258899999956,-29.056848]]]}}]}
