{"type":"FeatureCollection","name":"4316758","crs":{"type":"name","properties":{"name":"urn:ogc:def:crs:OGC:1.3:CRS84"}},"features":[{"type":"Feature","properties":{"setor":"431675805000001","pop":1040,"sigilo_pop":false,"dom":393,"sigilo_dom":0,"mulheres":551,"sigilo_mulheres":0,"c0_4":78,"sigilo_c0_4":0,"c5_9":80,"sigilo_c5_9":0,"i60_69":60,"sigilo_i60_69":0,"i70m":54,"sigilo_i70m":0,"indigenas":0,"sigilo_indigenas":0,"pretos_pardos":91,"sigilo_pretos_pardos":0,"dom_ocupados":366,"sigilo_dom_ocupados":0,"dom_agua":361,"sigilo_dom_agua":0,"dom_esgoto":11,"sigilo_dom_esgoto":0,"renda_resp":2871.06,"sigilo_renda_resp":0,"n_resp":366,"sigilo_n_resp":0,"dens":1209.5,"sigilo_dens":false,"na_bacia":1,"area_pct_bacia":100.0,"metodo_recorte_bacia":"ponto_representativo_setor_2022; area_pct_geometrica","pop_n_validos":1,"pop_n_total":1,"pop_completude":1.0,"dom_n_validos":1,"dom_n_total":1,"dom_completude":1.0,"dom_ocupados_n_validos":1,"dom_ocupados_n_total":1,"dom_ocupados_completude":1.0,"mulheres_n_validos":1,"mulheres_n_total":1,"mulheres_completude":1.0,"c0_4_n_validos":1,"c0_4_n_total":1,"c0_4_completude":1.0,"c5_9_n_validos":1,"c5_9_n_total":1,"c5_9_completude":1.0,"i60_69_n_validos":1,"i60_69_n_total":1,"i60_69_completude":1.0,"i70m_n_validos":1,"i70m_n_total":1,"i70m_completude":1.0,"indigenas_n_validos":1,"indigenas_n_total":1,"indigenas_completude":1.0,"pretos_pardos_n_validos":1,"pretos_pardos_n_total":1,"pretos_pardos_completude":1.0,"dom_agua_n_validos":1,"dom_agua_n_total":1,"dom_agua_completude":1.0,"dom_esgoto_n_validos":1,"dom_esgoto_n_total":1,"dom_esgoto_completude":1.0,"n_resp_n_validos":1,"n_resp_n_total":1,"n_resp_completude":1.0,"renda_resp_n_validos":1,"renda_resp_n_total":1,"renda_resp_completude":1.0,"dens_n_validos":1,"dens_n_total":1,"dens_completude":1.0,"status_borda_bacia":"total","metodo_area_bacia":"interse??o geom?trica em EPSG:5880","metodo_na_bacia":"ponto_representativo_setor_2022_within_bacia","municipio":"Santa Clara do Sul","cod_mun":"4316758","mun_pct_na_bacia":100.0,"mun_pop_total":6887,"mun_pop_na_bacia":6887.0,"mun_ubs_iede":2,"mun_hospitais_iede":null,"mun_escolas_iede":6,"mun_bombeiros_iede":null,"mun_servicos_cobertura":"cadastro_IEDE_parcial_nao_inventario","mun_icm_faixa":"A","mun_icm_pontos":14,"mun_icm_prioritario":"não","mun_ubs_iede_status":"published","mun_hospitais_iede_status":"unknown","mun_escolas_iede_status":"published","mun_bombeiros_iede_status":"unknown"},"geometry":{"type":"Polygon","coordinates":[[[-52.07438959999997,-29.461212399999972],[-52.075463,-29.462709099999977],[-52.075463899999924,-29.4651636],[-52.08212849999995,-29.465117799999963],[-52.08206379999995,-29.466694699999934],[-52.08488129999996,-29.466679],[-52.08490029999996,-29.468131],[-52.09065259999994,-29.468091099999967],[-52.09064779999994,-29.465793199999936],[-52.089031199999965,-29.465181799999986],[-52.087624,-29.465496099999942],[-52.08644449999997,-29.465377899999964],[-52.08639669999996,-29.46027069999997],[-52.08620229999997,-29.459972499999935],[-52.08364109999996,-29.460176799999935],[-52.08363129999997,-29.45977839999995],[-52.082814499999984,-29.4602465],[-52.081542199999944,-29.460265],[-52.07813679999998,-29.459904099999957],[-52.074468699999954,-29.45905959999993],[-52.07438959999997,-29.461212399999972]]]}},{"type":"Feature","properties":{"setor":"431675805000002","pop":415,"sigilo_pop":false,"dom":160,"sigilo_dom":0,"mulheres":213,"sigilo_mulheres":0,"c0_4":36,"sigilo_c0_4":0,"c5_9":29,"sigilo_c5_9":0,"i60_69":20,"sigilo_i60_69":0,"i70m":13,"sigilo_i70m":0,"indigenas":0,"sigilo_indigenas":0,"pretos_pardos":28,"sigilo_pretos_pardos":0,"dom_ocupados":148,"sigilo_dom_ocupados":0,"dom_agua":148,"sigilo_dom_agua":0,"dom_esgoto":null,"sigilo_dom_esgoto":1,"renda_resp":2243.03,"sigilo_renda_resp":0,"n_resp":148,"sigilo_n_resp":0,"dens":1459.4,"sigilo_dens":false,"na_bacia":1,"area_pct_bacia":100.0,"metodo_recorte_bacia":"ponto_representativo_setor_2022; area_pct_geometrica","pop_n_validos":1,"pop_n_total":1,"pop_completude":1.0,"dom_n_validos":1,"dom_n_total":1,"dom_completude":1.0,"dom_ocupados_n_validos":1,"dom_ocupados_n_total":1,"dom_ocupados_completude":1.0,"mulheres_n_validos":1,"mulheres_n_total":1,"mulheres_completude":1.0,"c0_4_n_validos":1,"c0_4_n_total":1,"c0_4_completude":1.0,"c5_9_n_validos":1,"c5_9_n_total":1,"c5_9_completude":1.0,"i60_69_n_validos":1,"i60_69_n_total":1,"i60_69_completude":1.0,"i70m_n_validos":1,"i70m_n_total":1,"i70m_completude":1.0,"indigenas_n_validos":1,"indigenas_n_total":1,"indigenas_completude":1.0,"pretos_pardos_n_validos":1,"pretos_pardos_n_total":1,"pretos_pardos_completude":1.0,"dom_agua_n_validos":1,"dom_agua_n_total":1,"dom_agua_completude":1.0,"dom_esgoto_n_validos":0,"dom_esgoto_n_total":1,"dom_esgoto_completude":0.0,"n_resp_n_validos":1,"n_resp_n_total":1,"n_resp_completude":1.0,"renda_resp_n_validos":1,"renda_resp_n_total":1,"renda_resp_completude":1.0,"dens_n_validos":1,"dens_n_total":1,"dens_completude":1.0,"status_borda_bacia":"total","metodo_area_bacia":"interse??o geom?trica em EPSG:5880","metodo_na_bacia":"ponto_representativo_setor_2022_within_bacia","municipio":"Santa Clara do Sul","cod_mun":"4316758","mun_pct_na_bacia":100.0,"mun_pop_total":6887,"mun_pop_na_bacia":6887.0,"mun_ubs_iede":2,"mun_hospitais_iede":null,"mun_escolas_iede":6,"mun_bombeiros_iede":null,"mun_servicos_cobertura":"cadastro_IEDE_parcial_nao_inventario","mun_icm_faixa":"A","mun_icm_pontos":14,"mun_icm_prioritario":"não","mun_ubs_iede_status":"published","mun_hospitais_iede_status":"unknown","mun_escolas_iede_status":"published","mun_bombeiros_iede_status":"unknown"},"geometry":{"type":"Polygon","coordinates":[[[-52.06642709999994,-29.464567099999947],[-52.067218699999955,-29.46517169999992],[-52.06979239999998,-29.466106699999962],[-52.07148659999996,-29.467299599999944],[-52.07227359999997,-29.467259299999963],[-52.075455899999945,-29.466446399999946],[-52.075463,-29.462709099999977],[-52.075225199999984,-29.462353699999937],[-52.06642709999994,-29.464567099999947]]]}},{"type":"Feature","properties":{"setor":"431675805000003","pop":105,"sigilo_pop":false,"dom":46,"sigilo_dom":0,"mulheres":51,"sigilo_mulheres":0,"c0_4":null,"sigilo_c0_4":1,"c5_9":7,"sigilo_c5_9":0,"i60_69":10,"sigilo_i60_69":0,"i70m":16,"sigilo_i70m":0,"indigenas":0,"sigilo_indigenas":0,"pretos_pardos":11,"sigilo_pretos_pardos":0,"dom_ocupados":42,"sigilo_dom_ocupados":0,"dom_agua":42,"sigilo_dom_agua":0,"dom_esgoto":4,"sigilo_dom_esgoto":0,"renda_resp":2665.76,"sigilo_renda_resp":0,"n_resp":42,"sigilo_n_resp":0,"dens":90.1,"sigilo_dens":false,"na_bacia":1,"area_pct_bacia":100.0,"metodo_recorte_bacia":"ponto_representativo_setor_2022; area_pct_geometrica","pop_n_validos":1,"pop_n_total":1,"pop_completude":1.0,"dom_n_validos":1,"dom_n_total":1,"dom_completude":1.0,"dom_ocupados_n_validos":1,"dom_ocupados_n_total":1,"dom_ocupados_completude":1.0,"mulheres_n_validos":1,"mulheres_n_total":1,"mulheres_completude":1.0,"c0_4_n_validos":0,"c0_4_n_total":1,"c0_4_completude":0.0,"c5_9_n_validos":1,"c5_9_n_total":1,"c5_9_completude":1.0,"i60_69_n_validos":1,"i60_69_n_total":1,"i60_69_completude":1.0,"i70m_n_validos":1,"i70m_n_total":1,"i70m_completude":1.0,"indigenas_n_validos":1,"indigenas_n_total":1,"indigenas_completude":1.0,"pretos_pardos_n_validos":1,"pretos_pardos_n_total":1,"pretos_pardos_completude":1.0,"dom_agua_n_validos":1,"dom_agua_n_total":1,"dom_agua_completude":1.0,"dom_esgoto_n_validos":1,"dom_esgoto_n_total":1,"dom_esgoto_completude":1.0,"n_resp_n_validos":1,"n_resp_n_total":1,"n_resp_completude":1.0,"renda_resp_n_validos":1,"renda_resp_n_total":1,"renda_resp_completude":1.0,"dens_n_validos":1,"dens_n_total":1,"dens_completude":1.0,"status_borda_bacia":"total","metodo_area_bacia":"interse??o geom?trica em EPSG:5880","metodo_na_bacia":"ponto_representativo_setor_2022_within_bacia","municipio":"Santa Clara do Sul","cod_mun":"4316758","mun_pct_na_bacia":100.0,"mun_pop_total":6887,"mun_pop_na_bacia":6887.0,"mun_ubs_iede":2,"mun_hospitais_iede":null,"mun_escolas_iede":6,"mun_bombeiros_iede":null,"mun_servicos_cobertura":"cadastro_IEDE_parcial_nao_inventario","mun_icm_faixa":"A","mun_icm_pontos":14,"mun_icm_prioritario":"não","mun_ubs_iede_status":"published","mun_hospitais_iede_status":"unknown","mun_escolas_iede_status":"published","mun_bombeiros_iede_status":"unknown"},"geometry":{"type":"Polygon","coordinates":[[[-52.074355399999945,-29.473354199999974],[-52.074033799999945,-29.474494099999955],[-52.07384379999996,-29.48119439999994],[-52.075323099999935,-29.481011799999976],[-52.075322,-29.482520199999954],[-52.07811889999994,-29.482516499999974],[-52.086821399999955,-29.476365799999954],[-52.08683359999998,-29.47183259999997],[-52.074267299999974,-29.47182],[-52.074355399999945,-29.473354199999974]]]}},{"type":"Feature","properties":{"setor":"431675805000004","pop":1083,"sigilo_pop":false,"dom":475,"sigilo_dom":0,"mulheres":571,"sigilo_mulheres":0,"c0_4":74,"sigilo_c0_4":0,"c5_9":65,"sigilo_c5_9":0,"i60_69":88,"sigilo_i60_69":0,"i70m":128,"sigilo_i70m":0,"indigenas":null,"sigilo_indigenas":1,"pretos_pardos":106,"sigilo_pretos_pardos":0,"dom_ocupados":413,"sigilo_dom_ocupados":0,"dom_agua":411,"sigilo_dom_agua":0,"dom_esgoto":9,"sigilo_dom_esgoto":0,"renda_resp":3354.81,"sigilo_renda_resp":0,"n_resp":413,"sigilo_n_resp":0,"dens":1561.2,"sigilo_dens":false,"na_bacia":1,"area_pct_bacia":100.0,"metodo_recorte_bacia":"ponto_representativo_setor_2022; area_pct_geometrica","pop_n_validos":1,"pop_n_total":1,"pop_completude":1.0,"dom_n_validos":1,"dom_n_total":1,"dom_completude":1.0,"dom_ocupados_n_validos":1,"dom_ocupados_n_total":1,"dom_ocupados_completude":1.0,"mulheres_n_validos":1,"mulheres_n_total":1,"mulheres_completude":1.0,"c0_4_n_validos":1,"c0_4_n_total":1,"c0_4_completude":1.0,"c5_9_n_validos":1,"c5_9_n_total":1,"c5_9_completude":1.0,"i60_69_n_validos":1,"i60_69_n_total":1,"i60_69_completude":1.0,"i70m_n_validos":1,"i70m_n_total":1,"i70m_completude":1.0,"indigenas_n_validos":0,"indigenas_n_total":1,"indigenas_completude":0.0,"pretos_pardos_n_validos":1,"pretos_pardos_n_total":1,"pretos_pardos_completude":1.0,"dom_agua_n_validos":1,"dom_agua_n_total":1,"dom_agua_completude":1.0,"dom_esgoto_n_validos":1,"dom_esgoto_n_total":1,"dom_esgoto_completude":1.0,"n_resp_n_validos":1,"n_resp_n_total":1,"n_resp_completude":1.0,"renda_resp_n_validos":1,"renda_resp_n_total":1,"renda_resp_completude":1.0,"dens_n_validos":1,"dens_n_total":1,"dens_completude":1.0,"status_borda_bacia":"total","metodo_area_bacia":"interse??o geom?trica em EPSG:5880","metodo_na_bacia":"ponto_representativo_setor_2022_within_bacia","municipio":"Santa Clara do Sul","cod_mun":"4316758","mun_pct_na_bacia":100.0,"mun_pop_total":6887,"mun_pop_na_bacia":6887.0,"mun_ubs_iede":2,"mun_hospitais_iede":null,"mun_escolas_iede":6,"mun_bombeiros_iede":null,"mun_servicos_cobertura":"cadastro_IEDE_parcial_nao_inventario","mun_icm_faixa":"A","mun_icm_pontos":14,"mun_icm_prioritario":"não","mun_ubs_iede_status":"published","mun_hospitais_iede_status":"unknown","mun_escolas_iede_status":"published","mun_bombeiros_iede_status":"unknown"},"geometry":{"type":"Polygon","coordinates":[[[-52.072331,-29.467246399999965],[-52.07222319999994,-29.471818],[-52.09070519999994,-29.471836099999962],[-52.09065459999994,-29.469053299999917],[-52.091988599999986,-29.469050799999934],[-52.092007,-29.46808169999997],[-52.08490029999996,-29.468131],[-52.08491269999996,-29.46907249999999],[-52.07540279999995,-29.469004399999953],[-52.075455899999945,-29.466446399999946],[-52.072331,-29.467246399999965]]]}},{"type":"Feature","properties":{"setor":"431675805000005","pop":123,"sigilo_pop":false,"dom":51,"sigilo_dom":0,"mulheres":63,"sigilo_mulheres":0,"c0_4":10,"sigilo_c0_4":0,"c5_9":9,"sigilo_c5_9":0,"i60_69":11,"sigilo_i60_69":0,"i70m":12,"sigilo_i70m":0,"indigenas":0,"sigilo_indigenas":0,"pretos_pardos":8,"sigilo_pretos_pardos":0,"dom_ocupados":48,"sigilo_dom_ocupados":0,"dom_agua":48,"sigilo_dom_agua":0,"dom_esgoto":0,"sigilo_dom_esgoto":0,"renda_resp":2087.98,"sigilo_renda_resp":0,"n_resp":48,"sigilo_n_resp":0,"dens":255.2,"sigilo_dens":false,"na_bacia":1,"area_pct_bacia":100.0,"metodo_recorte_bacia":"ponto_representativo_setor_2022; area_pct_geometrica","pop_n_validos":1,"pop_n_total":1,"pop_completude":1.0,"dom_n_validos":1,"dom_n_total":1,"dom_completude":1.0,"dom_ocupados_n_validos":1,"dom_ocupados_n_total":1,"dom_ocupados_completude":1.0,"mulheres_n_validos":1,"mulheres_n_total":1,"mulheres_completude":1.0,"c0_4_n_validos":1,"c0_4_n_total":1,"c0_4_completude":1.0,"c5_9_n_validos":1,"c5_9_n_total":1,"c5_9_completude":1.0,"i60_69_n_validos":1,"i60_69_n_total":1,"i60_69_completude":1.0,"i70m_n_validos":1,"i70m_n_total":1,"i70m_completude":1.0,"indigenas_n_validos":1,"indigenas_n_total":1,"indigenas_completude":1.0,"pretos_pardos_n_validos":1,"pretos_pardos_n_total":1,"pretos_pardos_completude":1.0,"dom_agua_n_validos":1,"dom_agua_n_total":1,"dom_agua_completude":1.0,"dom_esgoto_n_validos":1,"dom_esgoto_n_total":1,"dom_esgoto_completude":1.0,"n_resp_n_validos":1,"n_resp_n_total":1,"n_resp_completude":1.0,"renda_resp_n_validos":1,"renda_resp_n_total":1,"renda_resp_completude":1.0,"dens_n_validos":1,"dens_n_total":1,"dens_completude":1.0,"status_borda_bacia":"total","metodo_area_bacia":"interse??o geom?trica em EPSG:5880","metodo_na_bacia":"ponto_representativo_setor_2022_within_bacia","municipio":"Santa Clara do Sul","cod_mun":"4316758","mun_pct_na_bacia":100.0,"mun_pop_total":6887,"mun_pop_na_bacia":6887.0,"mun_ubs_iede":2,"mun_hospitais_iede":null,"mun_escolas_iede":6,"mun_bombeiros_iede":null,"mun_servicos_cobertura":"cadastro_IEDE_parcial_nao_inventario","mun_icm_faixa":"A","mun_icm_pontos":14,"mun_icm_prioritario":"não","mun_ubs_iede_status":"published","mun_hospitais_iede_status":"unknown","mun_escolas_iede_status":"published","mun_bombeiros_iede_status":"unknown"},"geometry":{"type":"Polygon","coordinates":[[[-52.105129199999965,-29.471850199999963],[-52.08683359999998,-29.47183259999997],[-52.086829499999965,-29.47336639999997],[-52.107874199999976,-29.473508299999924],[-52.109810299999936,-29.473847699999972],[-52.113156699999934,-29.475450399999932],[-52.111817,-29.473898899999927],[-52.11165029999996,-29.47234289999994],[-52.10964879999995,-29.471702499999935],[-52.10708439999996,-29.471476899999978],[-52.10512969999996,-29.469076599999944],[-52.105129199999965,-29.471850199999963]]]}},{"type":"Feature","properties":{"setor":"431675805000006","pop":715,"sigilo_pop":false,"dom":323,"sigilo_dom":0,"mulheres":369,"sigilo_mulheres":0,"c0_4":30,"sigilo_c0_4":0,"c5_9":39,"sigilo_c5_9":0,"i60_69":89,"sigilo_i60_69":0,"i70m":61,"sigilo_i70m":0,"indigenas":0,"sigilo_indigenas":0,"pretos_pardos":37,"sigilo_pretos_pardos":0,"dom_ocupados":270,"sigilo_dom_ocupados":0,"dom_agua":259,"sigilo_dom_agua":0,"dom_esgoto":10,"sigilo_dom_esgoto":0,"renda_resp":3083.32,"sigilo_renda_resp":0,"n_resp":270,"sigilo_n_resp":0,"dens":893.0,"sigilo_dens":false,"na_bacia":1,"area_pct_bacia":100.0,"metodo_recorte_bacia":"ponto_representativo_setor_2022; area_pct_geometrica","pop_n_validos":1,"pop_n_total":1,"pop_completude":1.0,"dom_n_validos":1,"dom_n_total":1,"dom_completude":1.0,"dom_ocupados_n_validos":1,"dom_ocupados_n_total":1,"dom_ocupados_completude":1.0,"mulheres_n_validos":1,"mulheres_n_total":1,"mulheres_completude":1.0,"c0_4_n_validos":1,"c0_4_n_total":1,"c0_4_completude":1.0,"c5_9_n_validos":1,"c5_9_n_total":1,"c5_9_completude":1.0,"i60_69_n_validos":1,"i60_69_n_total":1,"i60_69_completude":1.0,"i70m_n_validos":1,"i70m_n_total":1,"i70m_completude":1.0,"indigenas_n_validos":1,"indigenas_n_total":1,"indigenas_completude":1.0,"pretos_pardos_n_validos":1,"pretos_pardos_n_total":1,"pretos_pardos_completude":1.0,"dom_agua_n_validos":1,"dom_agua_n_total":1,"dom_agua_completude":1.0,"dom_esgoto_n_validos":1,"dom_esgoto_n_total":1,"dom_esgoto_completude":1.0,"n_resp_n_validos":1,"n_resp_n_total":1,"n_resp_completude":1.0,"renda_resp_n_validos":1,"renda_resp_n_total":1,"renda_resp_completude":1.0,"dens_n_validos":1,"dens_n_total":1,"dens_completude":1.0,"status_borda_bacia":"total","metodo_area_bacia":"interse??o geom?trica em EPSG:5880","metodo_na_bacia":"ponto_representativo_setor_2022_within_bacia","municipio":"Santa Clara do Sul","cod_mun":"4316758","mun_pct_na_bacia":100.0,"mun_pop_total":6887,"mun_pop_na_bacia":6887.0,"mun_ubs_iede":2,"mun_hospitais_iede":null,"mun_escolas_iede":6,"mun_bombeiros_iede":null,"mun_servicos_cobertura":"cadastro_IEDE_parcial_nao_inventario","mun_icm_faixa":"A","mun_icm_pontos":14,"mun_icm_prioritario":"não","mun_ubs_iede_status":"published","mun_hospitais_iede_status":"unknown","mun_escolas_iede_status":"published","mun_bombeiros_iede_status":"unknown"},"geometry":{"type":"Polygon","coordinates":[[[-52.09064779999994,-29.465793199999936],[-52.09065259999994,-29.468091099999967],[-52.092007,-29.46808169999997],[-52.091988599999986,-29.469050799999934],[-52.09065459999994,-29.469053299999917],[-52.09070519999994,-29.471836099999962],[-52.105129199999965,-29.471850199999963],[-52.10513129999999,-29.467898299999938],[-52.101520499999936,-29.46751239999997],[-52.09952109999995,-29.46639009999996],[-52.098178099999984,-29.466705199999968],[-52.096743099999976,-29.466745499999956],[-52.09413239999997,-29.46545579999997],[-52.092049299999985,-29.465834699999956],[-52.09064779999994,-29.465793199999936]]]}},{"type":"Feature","properties":{"setor":"431675805000007","pop":156,"sigilo_pop":false,"dom":75,"sigilo_dom":0,"mulheres":77,"sigilo_mulheres":0,"c0_4":6,"sigilo_c0_4":0,"c5_9":null,"sigilo_c5_9":1,"i60_69":27,"sigilo_i60_69":0,"i70m":15,"sigilo_i70m":0,"indigenas":0,"sigilo_indigenas":0,"pretos_pardos":null,"sigilo_pretos_pardos":1,"dom_ocupados":56,"sigilo_dom_ocupados":0,"dom_agua":50,"sigilo_dom_agua":0,"dom_esgoto":0,"sigilo_dom_esgoto":0,"renda_resp":3121.02,"sigilo_renda_resp":0,"n_resp":56,"sigilo_n_resp":0,"dens":28.0,"sigilo_dens":false,"na_bacia":1,"area_pct_bacia":100.0,"metodo_recorte_bacia":"ponto_representativo_setor_2022; area_pct_geometrica","pop_n_validos":1,"pop_n_total":1,"pop_completude":1.0,"dom_n_validos":1,"dom_n_total":1,"dom_completude":1.0,"dom_ocupados_n_validos":1,"dom_ocupados_n_total":1,"dom_ocupados_completude":1.0,"mulheres_n_validos":1,"mulheres_n_total":1,"mulheres_completude":1.0,"c0_4_n_validos":1,"c0_4_n_total":1,"c0_4_completude":1.0,"c5_9_n_validos":0,"c5_9_n_total":1,"c5_9_completude":0.0,"i60_69_n_validos":1,"i60_69_n_total":1,"i60_69_completude":1.0,"i70m_n_validos":1,"i70m_n_total":1,"i70m_completude":1.0,"indigenas_n_validos":1,"indigenas_n_total":1,"indigenas_completude":1.0,"pretos_pardos_n_validos":0,"pretos_pardos_n_total":1,"pretos_pardos_completude":0.0,"dom_agua_n_validos":1,"dom_agua_n_total":1,"dom_agua_completude":1.0,"dom_esgoto_n_validos":1,"dom_esgoto_n_total":1,"dom_esgoto_completude":1.0,"n_resp_n_validos":1,"n_resp_n_total":1,"n_resp_completude":1.0,"renda_resp_n_validos":1,"renda_resp_n_total":1,"renda_resp_completude":1.0,"dens_n_validos":1,"dens_n_total":1,"dens_completude":1.0,"status_borda_bacia":"total","metodo_area_bacia":"interse??o geom?trica em EPSG:5880","metodo_na_bacia":"ponto_representativo_setor_2022_within_bacia","municipio":"Santa Clara do Sul","cod_mun":"4316758","mun_pct_na_bacia":100.0,"mun_pop_total":6887,"mun_pop_na_bacia":6887.0,"mun_ubs_iede":2,"mun_hospitais_iede":null,"mun_escolas_iede":6,"mun_bombeiros_iede":null,"mun_servicos_cobertura":"cadastro_IEDE_parcial_nao_inventario","mun_icm_faixa":"A","mun_icm_pontos":14,"mun_icm_prioritario":"não","mun_ubs_iede_status":"published","mun_hospitais_iede_status":"unknown","mun_escolas_iede_status":"published","mun_bombeiros_iede_status":"unknown"},"geometry":{"type":"Polygon","coordinates":[[[-52.07733929999995,-29.441093499999965],[-52.04172059999996,-29.445202],[-52.04187109999999,-29.451269799999988],[-52.045707,-29.45156349999995],[-52.047158499999966,-29.451910299999955],[-52.048416399999944,-29.452583799999953],[-52.049638899999934,-29.453694],[-52.05420789999993,-29.45515409999996],[-52.05745239999993,-29.45692609999997],[-52.062730599999945,-29.458455899999926],[-52.06606789999996,-29.460157399999964],[-52.066264599999954,-29.456351299999934],[-52.06862649999994,-29.457644899999938],[-52.071589,-29.45835419999998],[-52.072303699999964,-29.456224099999922],[-52.077256699999964,-29.454507],[-52.07891369999999,-29.453616699999934],[-52.08050659999998,-29.45347519999995],[-52.08357029999996,-29.452722299999937],[-52.08352209999998,-29.450155799999948],[-52.08274439999996,-29.449285099999944],[-52.082744399999974,-29.448930399999934],[-52.085707,-29.445818499999966],[-52.08618839999997,-29.44560079999996],[-52.08636429999996,-29.44456879999995],[-52.08582729999994,-29.444250399999927],[-52.08363319999995,-29.443935899999918],[-52.079309699999946,-29.441517199999957],[-52.078133899999955,-29.4411947],[-52.07733929999995,-29.441093499999965]]]}},{"type":"Feature","properties":{"setor":"431675805000008","pop":251,"sigilo_pop":false,"dom":120,"sigilo_dom":0,"mulheres":118,"sigilo_mulheres":0,"c0_4":10,"sigilo_c0_4":0,"c5_9":11,"sigilo_c5_9":0,"i60_69":45,"sigilo_i60_69":0,"i70m":45,"sigilo_i70m":0,"indigenas":0,"sigilo_indigenas":0,"pretos_pardos":6,"sigilo_pretos_pardos":0,"dom_ocupados":101,"sigilo_dom_ocupados":0,"dom_agua":93,"sigilo_dom_agua":0,"dom_esgoto":0,"sigilo_dom_esgoto":0,"renda_resp":2540.94,"sigilo_renda_resp":0,"n_resp":101,"sigilo_n_resp":0,"dens":29.7,"sigilo_dens":false,"na_bacia":1,"area_pct_bacia":100.0,"metodo_recorte_bacia":"ponto_representativo_setor_2022; area_pct_geometrica","pop_n_validos":1,"pop_n_total":1,"pop_completude":1.0,"dom_n_validos":1,"dom_n_total":1,"dom_completude":1.0,"dom_ocupados_n_validos":1,"dom_ocupados_n_total":1,"dom_ocupados_completude":1.0,"mulheres_n_validos":1,"mulheres_n_total":1,"mulheres_completude":1.0,"c0_4_n_validos":1,"c0_4_n_total":1,"c0_4_completude":1.0,"c5_9_n_validos":1,"c5_9_n_total":1,"c5_9_completude":1.0,"i60_69_n_validos":1,"i60_69_n_total":1,"i60_69_completude":1.0,"i70m_n_validos":1,"i70m_n_total":1,"i70m_completude":1.0,"indigenas_n_validos":1,"indigenas_n_total":1,"indigenas_completude":1.0,"pretos_pardos_n_validos":1,"pretos_pardos_n_total":1,"pretos_pardos_completude":1.0,"dom_agua_n_validos":1,"dom_agua_n_total":1,"dom_agua_completude":1.0,"dom_esgoto_n_validos":1,"dom_esgoto_n_total":1,"dom_esgoto_completude":1.0,"n_resp_n_validos":1,"n_resp_n_total":1,"n_resp_completude":1.0,"renda_resp_n_validos":1,"renda_resp_n_total":1,"renda_resp_completude":1.0,"dens_n_validos":1,"dens_n_total":1,"dens_completude":1.0,"status_borda_bacia":"total","metodo_area_bacia":"interse??o geom?trica em EPSG:5880","metodo_na_bacia":"ponto_representativo_setor_2022_within_bacia","municipio":"Santa Clara do Sul","cod_mun":"4316758","mun_pct_na_bacia":100.0,"mun_pop_total":6887,"mun_pop_na_bacia":6887.0,"mun_ubs_iede":2,"mun_hospitais_iede":null,"mun_escolas_iede":6,"mun_bombeiros_iede":null,"mun_servicos_cobertura":"cadastro_IEDE_parcial_nao_inventario","mun_icm_faixa":"A","mun_icm_pontos":14,"mun_icm_prioritario":"não","mun_ubs_iede_status":"published","mun_hospitais_iede_status":"unknown","mun_escolas_iede_status":"published","mun_bombeiros_iede_status":"unknown"},"geometry":{"type":"Polygon","coordinates":[[[-52.139870099999946,-29.481402099999972],[-52.13932859999994,-29.482933099999965],[-52.14263229999995,-29.481430499999924],[-52.143761799999936,-29.481132299999963],[-52.14439139999996,-29.48014909999995],[-52.147242799999965,-29.480205499999958],[-52.14798349999995,-29.480020199999966],[-52.14991839999993,-29.478883799999952],[-52.15487149999995,-29.476602899999932],[-52.15588989999998,-29.476465899999933],[-52.15688049999994,-29.47560349999998],[-52.15701009999998,-29.475031299999948],[-52.15792659999993,-29.474837799999936],[-52.15858389999995,-29.47429779999993],[-52.15956529999994,-29.474080199999943],[-52.16083359999993,-29.473113],[-52.16255559999996,-29.472274799999965],[-52.16134279999994,-29.471081899999948],[-52.157602599999954,-29.469566599999943],[-52.153214299999945,-29.469639099999938],[-52.15086269999994,-29.47021139999998],[-52.14500239999995,-29.46993739999994],[-52.14485429999996,-29.469711699999948],[-52.14523379999997,-29.468148],[-52.14453019999996,-29.467462899999937],[-52.14400249999994,-29.465947499999974],[-52.14177129999996,-29.46564929999993],[-52.139679,-29.46647139999993],[-52.13933649999996,-29.467124299999963],[-52.13929019999995,-29.46896209999993],[-52.13896619999996,-29.469413499999984],[-52.13828109999997,-29.46976],[-52.136198,-29.469848699999936],[-52.135374,-29.469397299999976],[-52.13419829999997,-29.469276399999966],[-52.13297619999998,-29.468865399999967],[-52.12993959999994,-29.469284499999944],[-52.125606799999964,-29.469308699999925],[-52.124792099999986,-29.46836559999997],[-52.12449579999998,-29.4682931],[-52.12364409999998,-29.468454299999955],[-52.122635,-29.46923609999993],[-52.121811,-29.469276399999966],[-52.12132959999997,-29.468937899999954],[-52.12027419999998,-29.469212],[-52.119857599999925,-29.469534399999937],[-52.119200199999966,-29.468720299999976],[-52.118867,-29.46871219999997],[-52.11622379999995,-29.47159369999996],[-52.11569969999994,-29.473018],[-52.11467389999996,-29.473646299999924],[-52.11376869999997,-29.473516],[-52.11165029999996,-29.47234289999994],[-52.111817,-29.473898899999927],[-52.113156699999934,-29.475450399999932],[-52.109810299999936,-29.473847699999972],[-52.107874199999976,-29.473508299999924],[-52.086829499999965,-29.47336639999997],[-52.086821399999955,-29.476365799999954],[-52.07811889999994,-29.482516499999974],[-52.075322,-29.482520199999954],[-52.075323199999964,-29.485363],[-52.10905319999995,-29.48550089999997],[-52.10911149999998,-29.478759899999933],[-52.141015699999976,-29.478794399999973],[-52.14175959999994,-29.47941359999993],[-52.14180639999995,-29.47992529999993],[-52.14065549999998,-29.48017929999996],[-52.139870099999946,-29.481402099999972]]]}},{"type":"Feature","properties":{"setor":"431675805000009","pop":348,"sigilo_pop":false,"dom":168,"sigilo_dom":0,"mulheres":175,"sigilo_mulheres":0,"c0_4":18,"sigilo_c0_4":0,"c5_9":15,"sigilo_c5_9":0,"i60_69":59,"sigilo_i60_69":0,"i70m":54,"sigilo_i70m":0,"indigenas":0,"sigilo_indigenas":0,"pretos_pardos":null,"sigilo_pretos_pardos":1,"dom_ocupados":127,"sigilo_dom_ocupados":0,"dom_agua":115,"sigilo_dom_agua":0,"dom_esgoto":0,"sigilo_dom_esgoto":0,"renda_resp":2329.8,"sigilo_renda_resp":0,"n_resp":127,"sigilo_n_resp":0,"dens":26.1,"sigilo_dens":false,"na_bacia":1,"area_pct_bacia":100.0,"metodo_recorte_bacia":"ponto_representativo_setor_2022; area_pct_geometrica","pop_n_validos":1,"pop_n_total":1,"pop_completude":1.0,"dom_n_validos":1,"dom_n_total":1,"dom_completude":1.0,"dom_ocupados_n_validos":1,"dom_ocupados_n_total":1,"dom_ocupados_completude":1.0,"mulheres_n_validos":1,"mulheres_n_total":1,"mulheres_completude":1.0,"c0_4_n_validos":1,"c0_4_n_total":1,"c0_4_completude":1.0,"c5_9_n_validos":1,"c5_9_n_total":1,"c5_9_completude":1.0,"i60_69_n_validos":1,"i60_69_n_total":1,"i60_69_completude":1.0,"i70m_n_validos":1,"i70m_n_total":1,"i70m_completude":1.0,"indigenas_n_validos":1,"indigenas_n_total":1,"indigenas_completude":1.0,"pretos_pardos_n_validos":0,"pretos_pardos_n_total":1,"pretos_pardos_completude":0.0,"dom_agua_n_validos":1,"dom_agua_n_total":1,"dom_agua_completude":1.0,"dom_esgoto_n_validos":1,"dom_esgoto_n_total":1,"dom_esgoto_completude":1.0,"n_resp_n_validos":1,"n_resp_n_total":1,"n_resp_completude":1.0,"renda_resp_n_validos":1,"renda_resp_n_total":1,"renda_resp_completude":1.0,"dens_n_validos":1,"dens_n_total":1,"dens_completude":1.0,"status_borda_bacia":"total","metodo_area_bacia":"interse??o geom?trica em EPSG:5880","metodo_na_bacia":"ponto_representativo_setor_2022_within_bacia","municipio":"Santa Clara do Sul","cod_mun":"4316758","mun_pct_na_bacia":100.0,"mun_pop_total":6887,"mun_pop_na_bacia":6887.0,"mun_ubs_iede":2,"mun_hospitais_iede":null,"mun_escolas_iede":6,"mun_bombeiros_iede":null,"mun_servicos_cobertura":"cadastro_IEDE_parcial_nao_inventario","mun_icm_faixa":"A","mun_icm_pontos":14,"mun_icm_prioritario":"não","mun_ubs_iede_status":"published","mun_hospitais_iede_status":"unknown","mun_escolas_iede_status":"published","mun_bombeiros_iede_status":"unknown"},"geometry":{"type":"Polygon","coordinates":[[[-52.19871089999998,-29.45956869999997],[-52.199076299999945,-29.458042899999953],[-52.19876149999993,-29.457244899999978],[-52.19785419999994,-29.45598729999994],[-52.19684509999996,-29.455132799999937],[-52.19520639999996,-29.45269829999995],[-52.19354919999995,-29.45141649999994],[-52.194456499999944,-29.450545799999926],[-52.19433619999995,-29.450046],[-52.19458609999998,-29.449449399999946],[-52.19360479999994,-29.44879639999994],[-52.19265119999994,-29.44862709999995],[-52.191364299999975,-29.447820899999954],[-52.18950349999995,-29.44580539999998],[-52.19051259999998,-29.44556349999993],[-52.192003099999965,-29.4448379],[-52.192493799999966,-29.444047899999923],[-52.19204019999995,-29.442798199999967],[-52.19098479999997,-29.442129],[-52.190512599999984,-29.44142759999995],[-52.19129949999996,-29.440790699999972],[-52.19098479999996,-29.439919899999946],[-52.19191979999994,-29.43967],[-52.19218829999995,-29.43931519999996],[-52.19179019999996,-29.43786389999998],[-52.19101249999994,-29.437114099999974],[-52.19289189999995,-29.436896399999963],[-52.193827,-29.43643679999998],[-52.19338259999995,-29.4343727],[-52.193660299999976,-29.43233269999997],[-52.193327,-29.431244199999988],[-52.19137359999996,-29.432931399999966],[-52.18959609999996,-29.433358799999947],[-52.18778609999998,-29.433286199999948],[-52.18730009999996,-29.43345959999994],[-52.18678159999996,-29.43524959999996],[-52.18629089999996,-29.435870399999935],[-52.18605949999994,-29.437507199999967],[-52.18616129999999,-29.438369899999945],[-52.186689,-29.438732699999935],[-52.186615,-29.439514799999976],[-52.184809599999944,-29.440780599999975],[-52.18497629999995,-29.442118899999986],[-52.183578299999965,-29.442505899999958],[-52.18250439999997,-29.443425],[-52.18208779999998,-29.444287699999947],[-52.18280069999997,-29.445271299999945],[-52.18161559999998,-29.445964599999964],[-52.181069399999956,-29.446561199999966],[-52.179430699999955,-29.446770799999978],[-52.177181,-29.446287099999946],[-52.17669959999995,-29.445626],[-52.17582939999994,-29.445118099999938],[-52.169857899999954,-29.443336399999964],[-52.16583989999999,-29.443747499999983],[-52.16473819999993,-29.444473099999975],[-52.16331249999996,-29.444795599999967],[-52.161599699999954,-29.445618],[-52.15914639999993,-29.447415799999927],[-52.157915,-29.44864119999994],[-52.157729899999936,-29.451511199999967],[-52.15723,-29.452148099999917],[-52.15645229999996,-29.45275269999995],[-52.153212,-29.45403849999997],[-52.14608329999999,-29.45983049999996],[-52.14544449999994,-29.461031499999937],[-52.14535189999998,-29.463006399999987],[-52.144537199999945,-29.46432029999993],[-52.144444599999986,-29.46499739999996],[-52.143947,-29.465883],[-52.14453019999996,-29.467462899999937],[-52.14523379999997,-29.468148],[-52.14492829999995,-29.469897099999983],[-52.15086269999994,-29.47021139999998],[-52.153214299999945,-29.469639099999938],[-52.157602599999954,-29.469566599999943],[-52.16134279999994,-29.471081899999948],[-52.16255559999996,-29.472274799999965],[-52.16083359999993,-29.473113],[-52.15956529999994,-29.474080199999943],[-52.15858389999995,-29.47429779999993],[-52.15792659999993,-29.474837799999936],[-52.15701009999998,-29.475031299999948],[-52.15688049999994,-29.47560349999998],[-52.15588989999998,-29.476465899999933],[-52.15487149999995,-29.476602899999932],[-52.14991839999993,-29.478883799999952],[-52.14798349999995,-29.480020199999966],[-52.147242799999965,-29.480205499999958],[-52.14439139999996,-29.48014909999995],[-52.143761799999936,-29.481132299999963],[-52.14263229999995,-29.481430499999924],[-52.13932859999994,-29.482933099999965],[-52.13941389999997,-29.483570199999974],[-52.140287599999965,-29.483712199999953],[-52.14163729999996,-29.483340799999958],[-52.14223659999993,-29.48405759999997],[-52.143522099999984,-29.48195669999995],[-52.14471869999995,-29.48138319999998],[-52.14543459999993,-29.481332199999944],[-52.14688169999994,-29.481415],[-52.14709039999997,-29.48238429999997],[-52.1469393,-29.483206299999953],[-52.147897299999954,-29.483414299999946],[-52.14850979999995,-29.48191329999996],[-52.149903,-29.48020549999995],[-52.151002,-29.480164499999937],[-52.153981499999986,-29.479427199999968],[-52.15534489999993,-29.477246099999935],[-52.157124299999964,-29.475996499999944],[-52.15977269999996,-29.4747364],[-52.16116269999998,-29.47474339999996],[-52.16238809999999,-29.47417829999995],[-52.165600599999955,-29.475286699999963],[-52.16631469999999,-29.474700899999952],[-52.166966299999956,-29.473425299999967],[-52.168077299999936,-29.473625399999943],[-52.171041099999975,-29.47310549999997],[-52.17370159999996,-29.473602899999953],[-52.17458209999995,-29.474946099999947],[-52.17592009999998,-29.47580579999994],[-52.177168,-29.476052799999938],[-52.178402,-29.475661099999957],[-52.17989609999996,-29.47454319999996],[-52.179249599999935,-29.472510099999948],[-52.17927729999997,-29.471463299999982],[-52.181808699999976,-29.47019889999995],[-52.181991499999974,-29.46843709999996],[-52.18262669999995,-29.46707819999995],[-52.187185099999965,-29.465154399999964],[-52.18939489999997,-29.462799],[-52.1927348,-29.463760899999954],[-52.19303979999996,-29.46363959999997],[-52.193202799999945,-29.462332699999923],[-52.19348349999996,-29.462090099999955],[-52.19497929999994,-29.462140299999923],[-52.195930799999985,-29.462684599999925],[-52.19718739999996,-29.462769499999983],[-52.19746339999995,-29.46223129999992],[-52.19713369999994,-29.460962199999976],[-52.19728619999996,-29.460133699999965],[-52.19800369999995,-29.459551399999945],[-52.19871089999998,-29.45956869999997]]]}},{"type":"Feature","properties":{"setor":"431675805000010","pop":267,"sigilo_pop":false,"dom":123,"sigilo_dom":0,"mulheres":117,"sigilo_mulheres":0,"c0_4":null,"sigilo_c0_4":1,"c5_9":10,"sigilo_c5_9":0,"i60_69":36,"sigilo_i60_69":0,"i70m":30,"sigilo_i70m":0,"indigenas":0,"sigilo_indigenas":0,"pretos_pardos":9,"sigilo_pretos_pardos":0,"dom_ocupados":95,"sigilo_dom_ocupados":0,"dom_agua":75,"sigilo_dom_agua":0,"dom_esgoto":0,"sigilo_dom_esgoto":0,"renda_resp":1999.6,"sigilo_renda_resp":0,"n_resp":95,"sigilo_n_resp":0,"dens":21.1,"sigilo_dens":false,"na_bacia":1,"area_pct_bacia":100.0,"metodo_recorte_bacia":"ponto_representativo_setor_2022; area_pct_geometrica","pop_n_validos":1,"pop_n_total":1,"pop_completude":1.0,"dom_n_validos":1,"dom_n_total":1,"dom_completude":1.0,"dom_ocupados_n_validos":1,"dom_ocupados_n_total":1,"dom_ocupados_completude":1.0,"mulheres_n_validos":1,"mulheres_n_total":1,"mulheres_completude":1.0,"c0_4_n_validos":0,"c0_4_n_total":1,"c0_4_completude":0.0,"c5_9_n_validos":1,"c5_9_n_total":1,"c5_9_completude":1.0,"i60_69_n_validos":1,"i60_69_n_total":1,"i60_69_completude":1.0,"i70m_n_validos":1,"i70m_n_total":1,"i70m_completude":1.0,"indigenas_n_validos":1,"indigenas_n_total":1,"indigenas_completude":1.0,"pretos_pardos_n_validos":1,"pretos_pardos_n_total":1,"pretos_pardos_completude":1.0,"dom_agua_n_validos":1,"dom_agua_n_total":1,"dom_agua_completude":1.0,"dom_esgoto_n_validos":1,"dom_esgoto_n_total":1,"dom_esgoto_completude":1.0,"n_resp_n_validos":1,"n_resp_n_total":1,"n_resp_completude":1.0,"renda_resp_n_validos":1,"renda_resp_n_total":1,"renda_resp_completude":1.0,"dens_n_validos":1,"dens_n_total":1,"dens_completude":1.0,"status_borda_bacia":"total","metodo_area_bacia":"interse??o geom?trica em EPSG:5880","metodo_na_bacia":"ponto_representativo_setor_2022_within_bacia","municipio":"Santa Clara do Sul","cod_mun":"4316758","mun_pct_na_bacia":100.0,"mun_pop_total":6887,"mun_pop_na_bacia":6887.0,"mun_ubs_iede":2,"mun_hospitais_iede":null,"mun_escolas_iede":6,"mun_bombeiros_iede":null,"mun_servicos_cobertura":"cadastro_IEDE_parcial_nao_inventario","mun_icm_faixa":"A","mun_icm_pontos":14,"mun_icm_prioritario":"não","mun_ubs_iede_status":"published","mun_hospitais_iede_status":"unknown","mun_escolas_iede_status":"published","mun_bombeiros_iede_status":"unknown"},"geometry":{"type":"Polygon","coordinates":[[[-52.21781169999997,-29.455731399999937],[-52.218417599999945,-29.45516],[-52.21769419999998,-29.453448799999933],[-52.218574,-29.451817599999977],[-52.21773489999999,-29.450775099999934],[-52.218682799999954,-29.449991799999967],[-52.21794649999999,-29.44929969999998],[-52.21783519999997,-29.448512099999952],[-52.21905929999998,-29.44796239999993],[-52.21959439999995,-29.446989699999968],[-52.220129,-29.44674369999994],[-52.220155499999976,-29.444957699999968],[-52.22125919999997,-29.444409899999986],[-52.22066179999995,-29.443685],[-52.22074759999999,-29.44327079999993],[-52.222108799999944,-29.44305749999996],[-52.222659299999975,-29.44238309999997],[-52.22327169999994,-29.44214949999997],[-52.223602599999936,-29.441349499999948],[-52.224106399999975,-29.441152699999968],[-52.22552249999995,-29.43928109999995],[-52.22739409999996,-29.437548799999952],[-52.22692679999995,-29.43554359999996],[-52.22712859999996,-29.434904299999964],[-52.226024,-29.434722599999926],[-52.22625889999995,-29.433876499999936],[-52.225457,-29.43364819999993],[-52.22518319999995,-29.433331899999935],[-52.224996799999985,-29.428548],[-52.224131299999954,-29.426471499999916],[-52.224266299999954,-29.425106499999966],[-52.22478429999996,-29.42357639999995],[-52.22437609999997,-29.42216859999996],[-52.22397369999993,-29.421783899999973],[-52.22340019999996,-29.421772099999945],[-52.22374709999996,-29.420915399999952],[-52.209119199999975,-29.42320819999998],[-52.20815029999994,-29.423608299999962],[-52.206213899999966,-29.423642499999985],[-52.20265359999996,-29.425268199999945],[-52.20180749999997,-29.425424],[-52.17121349999996,-29.423558299999968],[-52.17089749999997,-29.42485219999997],[-52.171262199999944,-29.425454099999964],[-52.171303699999946,-29.42608949999994],[-52.170714299999986,-29.427404699999958],[-52.170968899999934,-29.428230499999984],[-52.17180209999998,-29.428867499999964],[-52.170968899999934,-29.431536499999925],[-52.17184379999998,-29.431351099999958],[-52.172982499999925,-29.431851],[-52.173788,-29.43017379999997],[-52.17413979999997,-29.42994],[-52.17524149999998,-29.429794799999986],[-52.17595429999995,-29.43018989999996],[-52.17800959999994,-29.430206099999968],[-52.18274049999997,-29.43217349999997],[-52.18426809999994,-29.432342799999937],[-52.18730009999996,-29.43345959999994],[-52.18778609999998,-29.433286199999948],[-52.18959609999996,-29.433358799999947],[-52.19137359999996,-29.432931399999966],[-52.193327,-29.431244199999988],[-52.193660299999976,-29.43233269999997],[-52.19338259999995,-29.4343727],[-52.193827,-29.43643679999998],[-52.19289189999995,-29.436896399999963],[-52.19101249999994,-29.437114099999974],[-52.19179019999996,-29.43786389999998],[-52.19218829999995,-29.43931519999996],[-52.19191979999994,-29.43967],[-52.19098479999996,-29.439919899999946],[-52.19129949999996,-29.440790699999972],[-52.190512599999984,-29.44142759999995],[-52.19098479999997,-29.442129],[-52.19204019999995,-29.442798199999967],[-52.192493799999966,-29.444047899999923],[-52.192003099999965,-29.4448379],[-52.19051259999998,-29.44556349999993],[-52.18950349999995,-29.44580539999998],[-52.191364299999975,-29.447820899999954],[-52.19265119999994,-29.44862709999995],[-52.19360479999994,-29.44879639999994],[-52.19458609999998,-29.449449399999946],[-52.19433619999995,-29.450046],[-52.194456499999944,-29.450545799999926],[-52.19354919999995,-29.45141649999994],[-52.19520639999996,-29.45269829999995],[-52.19684509999996,-29.455132799999937],[-52.19785419999994,-29.45598729999994],[-52.19884479999996,-29.45737389999993],[-52.199076299999945,-29.458042899999953],[-52.198748699999946,-29.45872569999994],[-52.19871089999998,-29.45956869999997],[-52.200416399999945,-29.459041799999962],[-52.20134879999995,-29.458241099999945],[-52.20225359999995,-29.45790129999994],[-52.20301269999993,-29.457811199999984],[-52.20378569999997,-29.458019199999967],[-52.20629189999994,-29.457696799999944],[-52.20717239999993,-29.457991499999927],[-52.210351099999976,-29.459802699999965],[-52.211224699999946,-29.45989969999993],[-52.21158519999995,-29.459723],[-52.21211029999996,-29.458839],[-52.21337379999994,-29.45885809999993],[-52.215145199999945,-29.458404],[-52.21553339999997,-29.458036499999928],[-52.21544669999998,-29.456906499999942],[-52.21731169999998,-29.456629199999956],[-52.21781169999997,-29.455731399999937]]]}},{"type":"Feature","properties":{"setor":"431675805000011","pop":371,"sigilo_pop":false,"dom":175,"sigilo_dom":0,"mulheres":175,"sigilo_mulheres":0,"c0_4":19,"sigilo_c0_4":0,"c5_9":12,"sigilo_c5_9":0,"i60_69":59,"sigilo_i60_69":0,"i70m":56,"sigilo_i70m":0,"indigenas":0,"sigilo_indigenas":0,"pretos_pardos":7,"sigilo_pretos_pardos":0,"dom_ocupados":143,"sigilo_dom_ocupados":0,"dom_agua":128,"sigilo_dom_agua":0,"dom_esgoto":0,"sigilo_dom_esgoto":0,"renda_resp":2131.38,"sigilo_renda_resp":0,"n_resp":143,"sigilo_n_resp":0,"dens":36.2,"sigilo_dens":false,"na_bacia":1,"area_pct_bacia":100.0,"metodo_recorte_bacia":"ponto_representativo_setor_2022; area_pct_geometrica","pop_n_validos":1,"pop_n_total":1,"pop_completude":1.0,"dom_n_validos":1,"dom_n_total":1,"dom_completude":1.0,"dom_ocupados_n_validos":1,"dom_ocupados_n_total":1,"dom_ocupados_completude":1.0,"mulheres_n_validos":1,"mulheres_n_total":1,"mulheres_completude":1.0,"c0_4_n_validos":1,"c0_4_n_total":1,"c0_4_completude":1.0,"c5_9_n_validos":1,"c5_9_n_total":1,"c5_9_completude":1.0,"i60_69_n_validos":1,"i60_69_n_total":1,"i60_69_completude":1.0,"i70m_n_validos":1,"i70m_n_total":1,"i70m_completude":1.0,"indigenas_n_validos":1,"indigenas_n_total":1,"indigenas_completude":1.0,"pretos_pardos_n_validos":1,"pretos_pardos_n_total":1,"pretos_pardos_completude":1.0,"dom_agua_n_validos":1,"dom_agua_n_total":1,"dom_agua_completude":1.0,"dom_esgoto_n_validos":1,"dom_esgoto_n_total":1,"dom_esgoto_completude":1.0,"n_resp_n_validos":1,"n_resp_n_total":1,"n_resp_completude":1.0,"renda_resp_n_validos":1,"renda_resp_n_total":1,"renda_resp_completude":1.0,"dens_n_validos":1,"dens_n_total":1,"dens_completude":1.0,"status_borda_bacia":"total","metodo_area_bacia":"interse??o geom?trica em EPSG:5880","metodo_na_bacia":"ponto_representativo_setor_2022_within_bacia","municipio":"Santa Clara do Sul","cod_mun":"4316758","mun_pct_na_bacia":100.0,"mun_pop_total":6887,"mun_pop_na_bacia":6887.0,"mun_ubs_iede":2,"mun_hospitais_iede":null,"mun_escolas_iede":6,"mun_bombeiros_iede":null,"mun_servicos_cobertura":"cadastro_IEDE_parcial_nao_inventario","mun_icm_faixa":"A","mun_icm_pontos":14,"mun_icm_prioritario":"não","mun_ubs_iede_status":"published","mun_hospitais_iede_status":"unknown","mun_escolas_iede_status":"published","mun_bombeiros_iede_status":"unknown"},"geometry":{"type":"Polygon","coordinates":[[[-52.17071959999998,-29.42734979999995],[-52.171322299999986,-29.425847],[-52.170894,-29.424671699999966],[-52.17121349999996,-29.423558299999968],[-52.16077619999999,-29.425039899999938],[-52.15457379999998,-29.42991819999997],[-52.13898829999994,-29.429645599999958],[-52.13901129999994,-29.43141479999996],[-52.13934409999996,-29.43283],[-52.13986089999997,-29.433343299999926],[-52.14128759999995,-29.43358049999994],[-52.14183849999994,-29.433938299999962],[-52.14183849999995,-29.434881599999976],[-52.14146809999994,-29.435502499999977],[-52.14194029999993,-29.436091099999967],[-52.14193339999998,-29.43959029999995],[-52.14090569999996,-29.44127539999993],[-52.14110939999995,-29.443363499999972],[-52.14159079999996,-29.44429069999995],[-52.14129459999998,-29.448474899999944],[-52.14050759999998,-29.449684199999986],[-52.13995209999996,-29.45282009999994],[-52.14075759999997,-29.454351799999987],[-52.141526,-29.45487579999996],[-52.14208149999996,-29.455956],[-52.14341459999997,-29.456173699999965],[-52.14294249999995,-29.456947599999975],[-52.14160929999997,-29.45725389999996],[-52.142007399999954,-29.459914],[-52.14157229999996,-29.460687899999975],[-52.14053539999998,-29.461687399999963],[-52.13978549999996,-29.46323509999996],[-52.13972989999997,-29.464549],[-52.14029469999997,-29.465347],[-52.140471499999926,-29.466094899999987],[-52.14158619999995,-29.465657299999968],[-52.143947,-29.465883],[-52.144444599999986,-29.46499739999996],[-52.144537199999945,-29.46432029999993],[-52.14535189999998,-29.463006399999987],[-52.14544449999994,-29.461031499999937],[-52.14595369999995,-29.459967499999948],[-52.149231,-29.457093699999973],[-52.153212,-29.45403849999997],[-52.15645229999996,-29.45275269999995],[-52.15723,-29.452148099999917],[-52.157729899999936,-29.451511199999967],[-52.157961299999954,-29.448536399999966],[-52.16082209999996,-29.446142],[-52.1629607,-29.444932699999978],[-52.16473819999993,-29.444473099999975],[-52.16599729999996,-29.443691099999963],[-52.16965419999996,-29.443312199999983],[-52.175496099999975,-29.44498909999993],[-52.17669959999995,-29.445626],[-52.177181,-29.446287099999946],[-52.1788567,-29.446698299999973],[-52.18093049999994,-29.44664179999996],[-52.18161559999998,-29.445964599999964],[-52.182745099999984,-29.445368],[-52.18278209999994,-29.44500519999998],[-52.18208779999998,-29.444287699999947],[-52.18250439999997,-29.443425],[-52.183578299999965,-29.442505899999958],[-52.18497629999995,-29.442118899999986],[-52.184809599999944,-29.440780599999975],[-52.186615,-29.439514799999976],[-52.186689,-29.438732699999935],[-52.18616129999999,-29.438369899999945],[-52.18605949999994,-29.437507199999967],[-52.18629089999996,-29.435870399999935],[-52.18678159999996,-29.43524959999996],[-52.18730009999996,-29.43345959999994],[-52.18426809999994,-29.432342799999937],[-52.18274049999997,-29.43217349999997],[-52.17800959999994,-29.430206099999968],[-52.17595429999995,-29.43018989999996],[-52.17524149999998,-29.429794799999986],[-52.17413979999997,-29.42994],[-52.173788,-29.43017379999997],[-52.172982499999925,-29.431851],[-52.17184379999998,-29.431351099999958],[-52.170968899999934,-29.431536499999925],[-52.17180209999998,-29.428867499999964],[-52.17084849999998,-29.42799669999993],[-52.17071959999998,-29.42734979999995]]]}},{"type":"Feature","properties":{"setor":"431675805000012","pop":273,"sigilo_pop":false,"dom":123,"sigilo_dom":0,"mulheres":135,"sigilo_mulheres":0,"c0_4":null,"sigilo_c0_4":1,"c5_9":13,"sigilo_c5_9":0,"i60_69":60,"sigilo_i60_69":0,"i70m":50,"sigilo_i70m":0,"indigenas":0,"sigilo_indigenas":0,"pretos_pardos":null,"sigilo_pretos_pardos":1,"dom_ocupados":102,"sigilo_dom_ocupados":0,"dom_agua":100,"sigilo_dom_agua":0,"dom_esgoto":0,"sigilo_dom_esgoto":0,"renda_resp":2111.86,"sigilo_renda_resp":0,"n_resp":102,"sigilo_n_resp":0,"dens":23.1,"sigilo_dens":false,"na_bacia":1,"area_pct_bacia":100.0,"metodo_recorte_bacia":"ponto_representativo_setor_2022; area_pct_geometrica","pop_n_validos":1,"pop_n_total":1,"pop_completude":1.0,"dom_n_validos":1,"dom_n_total":1,"dom_completude":1.0,"dom_ocupados_n_validos":1,"dom_ocupados_n_total":1,"dom_ocupados_completude":1.0,"mulheres_n_validos":1,"mulheres_n_total":1,"mulheres_completude":1.0,"c0_4_n_validos":0,"c0_4_n_total":1,"c0_4_completude":0.0,"c5_9_n_validos":1,"c5_9_n_total":1,"c5_9_completude":1.0,"i60_69_n_validos":1,"i60_69_n_total":1,"i60_69_completude":1.0,"i70m_n_validos":1,"i70m_n_total":1,"i70m_completude":1.0,"indigenas_n_validos":1,"indigenas_n_total":1,"indigenas_completude":1.0,"pretos_pardos_n_validos":0,"pretos_pardos_n_total":1,"pretos_pardos_completude":0.0,"dom_agua_n_validos":1,"dom_agua_n_total":1,"dom_agua_completude":1.0,"dom_esgoto_n_validos":1,"dom_esgoto_n_total":1,"dom_esgoto_completude":1.0,"n_resp_n_validos":1,"n_resp_n_total":1,"n_resp_completude":1.0,"renda_resp_n_validos":1,"renda_resp_n_total":1,"renda_resp_completude":1.0,"dens_n_validos":1,"dens_n_total":1,"dens_completude":1.0,"status_borda_bacia":"total","metodo_area_bacia":"interse??o geom?trica em EPSG:5880","metodo_na_bacia":"ponto_representativo_setor_2022_within_bacia","municipio":"Santa Clara do Sul","cod_mun":"4316758","mun_pct_na_bacia":100.0,"mun_pop_total":6887,"mun_pop_na_bacia":6887.0,"mun_ubs_iede":2,"mun_hospitais_iede":null,"mun_escolas_iede":6,"mun_bombeiros_iede":null,"mun_servicos_cobertura":"cadastro_IEDE_parcial_nao_inventario","mun_icm_faixa":"A","mun_icm_pontos":14,"mun_icm_prioritario":"não","mun_ubs_iede_status":"published","mun_hospitais_iede_status":"unknown","mun_escolas_iede_status":"published","mun_bombeiros_iede_status":"unknown"},"geometry":{"type":"Polygon","coordinates":[[[-52.08636429999996,-29.44456879999995],[-52.08618839999997,-29.44560079999996],[-52.085707,-29.445818499999966],[-52.082744399999974,-29.448930399999934],[-52.08274439999996,-29.449285099999944],[-52.08352209999998,-29.450155799999948],[-52.08357029999996,-29.452722299999937],[-52.0862,-29.452810099999958],[-52.08764639999998,-29.452357],[-52.089718,-29.452616599999942],[-52.09120029999997,-29.452032599999924],[-52.091693,-29.45306109999997],[-52.09164529999999,-29.45361],[-52.08957109999995,-29.45737059999993],[-52.08940059999997,-29.458108499999984],[-52.08958709999996,-29.458846199999982],[-52.09020719999995,-29.459243199999946],[-52.09096749999998,-29.45924],[-52.095045,-29.45666769999996],[-52.09579349999995,-29.456347399999963],[-52.09655809999999,-29.45636639999998],[-52.097129299999956,-29.457141799999924],[-52.097057,-29.461446199999955],[-52.09761509999998,-29.461933299999934],[-52.09868,-29.46172949999993],[-52.10413,-29.459364099999956],[-52.10523159999997,-29.45911559999996],[-52.10621069999996,-29.45939539999994],[-52.106582199999934,-29.460885],[-52.106635799999935,-29.46437479999998],[-52.10752819999993,-29.467346],[-52.108185399999975,-29.468579399999964],[-52.109235199999944,-29.46985779999994],[-52.111662799999976,-29.47041949999992],[-52.11165029999996,-29.47234289999994],[-52.112500299999965,-29.472943799999932],[-52.11446139999999,-29.47369589999994],[-52.11569969999994,-29.473018],[-52.11622379999995,-29.47159369999996],[-52.118242,-29.469199899999975],[-52.11900579999997,-29.46867189999994],[-52.119857599999925,-29.469534399999937],[-52.12027419999998,-29.469212],[-52.12132959999997,-29.468937899999954],[-52.121811,-29.469276399999966],[-52.122635,-29.46923609999993],[-52.12364409999998,-29.468454299999955],[-52.12449579999998,-29.4682931],[-52.124792099999986,-29.46836559999997],[-52.125606799999964,-29.469308699999925],[-52.12993959999994,-29.469284499999944],[-52.13297619999998,-29.468865399999967],[-52.13419829999997,-29.469276399999966],[-52.135374,-29.469397299999976],[-52.136401699999965,-29.469856799999945],[-52.13828109999997,-29.46976],[-52.13915129999998,-29.469212],[-52.13945679999995,-29.468414],[-52.13937349999998,-29.466955099999954],[-52.139679,-29.46647139999993],[-52.140471499999926,-29.466094899999987],[-52.14029469999997,-29.465347],[-52.13972989999997,-29.464549],[-52.13978549999996,-29.46323509999996],[-52.14053539999998,-29.461687399999963],[-52.14157229999996,-29.460687899999975],[-52.14205369999996,-29.459696399999928],[-52.14160929999997,-29.45725389999996],[-52.14294249999995,-29.456947599999975],[-52.14341459999997,-29.456173699999965],[-52.14208149999996,-29.455956],[-52.141526,-29.45487579999996],[-52.14075759999997,-29.454351799999987],[-52.14025769999995,-29.45357789999997],[-52.139924399999984,-29.452505699999968],[-52.14050759999998,-29.449684199999986],[-52.14129459999998,-29.448474899999944],[-52.14159079999996,-29.44429069999995],[-52.14110939999995,-29.443363499999972],[-52.14090569999996,-29.44127539999993],[-52.14193339999998,-29.43959029999995],[-52.14190329999996,-29.43669579999994],[-52.13982949999996,-29.439130699999975],[-52.139561,-29.44008209999998],[-52.139653599999974,-29.440888399999952],[-52.13894069999997,-29.441533399999972],[-52.13773719999995,-29.443403799999942],[-52.13470049999995,-29.4446293],[-52.134015399999946,-29.446016],[-52.13237669999996,-29.44619329999996],[-52.131275,-29.445758],[-52.13102509999993,-29.44531459999995],[-52.129941899999956,-29.444943699999943],[-52.12874759999994,-29.444967899999945],[-52.127775499999984,-29.444613199999935],[-52.12717369999996,-29.44487919999994],[-52.12631269999997,-29.444718],[-52.124248199999954,-29.446394899999966],[-52.122646599999946,-29.44654],[-52.12034129999995,-29.44713659999997],[-52.119147,-29.447894399999946],[-52.11731389999994,-29.448450699999977],[-52.115758599999936,-29.44924079999998],[-52.11002779999996,-29.449079499999975],[-52.10948159999999,-29.448781199999928],[-52.108055899999954,-29.447007599999953],[-52.10719489999997,-29.446475499999956],[-52.10327869999998,-29.445685399999952],[-52.09936259999995,-29.444609099999987],[-52.09776089999997,-29.443802899999984],[-52.09361329999996,-29.443464299999956],[-52.08636429999996,-29.44456879999995]]]}},{"type":"Feature","properties":{"setor":"431675805000013","pop":248,"sigilo_pop":false,"dom":118,"sigilo_dom":0,"mulheres":122,"sigilo_mulheres":0,"c0_4":11,"sigilo_c0_4":0,"c5_9":7,"sigilo_c5_9":0,"i60_69":59,"sigilo_i60_69":0,"i70m":37,"sigilo_i70m":0,"indigenas":0,"sigilo_indigenas":0,"pretos_pardos":null,"sigilo_pretos_pardos":1,"dom_ocupados":100,"sigilo_dom_ocupados":0,"dom_agua":95,"sigilo_dom_agua":0,"dom_esgoto":0,"sigilo_dom_esgoto":0,"renda_resp":2417.88,"sigilo_renda_resp":0,"n_resp":100,"sigilo_n_resp":0,"dens":25.4,"sigilo_dens":false,"na_bacia":1,"area_pct_bacia":100.0,"metodo_recorte_bacia":"ponto_representativo_setor_2022; area_pct_geometrica","pop_n_validos":1,"pop_n_total":1,"pop_completude":1.0,"dom_n_validos":1,"dom_n_total":1,"dom_completude":1.0,"dom_ocupados_n_validos":1,"dom_ocupados_n_total":1,"dom_ocupados_completude":1.0,"mulheres_n_validos":1,"mulheres_n_total":1,"mulheres_completude":1.0,"c0_4_n_validos":1,"c0_4_n_total":1,"c0_4_completude":1.0,"c5_9_n_validos":1,"c5_9_n_total":1,"c5_9_completude":1.0,"i60_69_n_validos":1,"i60_69_n_total":1,"i60_69_completude":1.0,"i70m_n_validos":1,"i70m_n_total":1,"i70m_completude":1.0,"indigenas_n_validos":1,"indigenas_n_total":1,"indigenas_completude":1.0,"pretos_pardos_n_validos":0,"pretos_pardos_n_total":1,"pretos_pardos_completude":0.0,"dom_agua_n_validos":1,"dom_agua_n_total":1,"dom_agua_completude":1.0,"dom_esgoto_n_validos":1,"dom_esgoto_n_total":1,"dom_esgoto_completude":1.0,"n_resp_n_validos":1,"n_resp_n_total":1,"n_resp_completude":1.0,"renda_resp_n_validos":1,"renda_resp_n_total":1,"renda_resp_completude":1.0,"dens_n_validos":1,"dens_n_total":1,"dens_completude":1.0,"status_borda_bacia":"total","metodo_area_bacia":"interse??o geom?trica em EPSG:5880","metodo_na_bacia":"ponto_representativo_setor_2022_within_bacia","municipio":"Santa Clara do Sul","cod_mun":"4316758","mun_pct_na_bacia":100.0,"mun_pop_total":6887,"mun_pop_na_bacia":6887.0,"mun_ubs_iede":2,"mun_hospitais_iede":null,"mun_escolas_iede":6,"mun_bombeiros_iede":null,"mun_servicos_cobertura":"cadastro_IEDE_parcial_nao_inventario","mun_icm_faixa":"A","mun_icm_pontos":14,"mun_icm_prioritario":"não","mun_ubs_iede_status":"published","mun_hospitais_iede_status":"unknown","mun_escolas_iede_status":"published","mun_bombeiros_iede_status":"unknown"},"geometry":{"type":"Polygon","coordinates":[[[-52.07984639999995,-29.431413899999928],[-52.07728329999998,-29.431725499999974],[-52.07858189999997,-29.440951099999943],[-52.07733929999995,-29.441093499999965],[-52.079069,-29.441404399999964],[-52.08363319999995,-29.443935899999918],[-52.08582729999994,-29.444250399999927],[-52.08636429999996,-29.44456879999995],[-52.09361329999996,-29.443464299999956],[-52.09776089999997,-29.443802899999984],[-52.09936259999995,-29.444609099999987],[-52.10327869999998,-29.445685399999952],[-52.106963399999984,-29.44637879999994],[-52.108204,-29.447144699999978],[-52.10961119999996,-29.44890219999996],[-52.11070369999994,-29.44920039999994],[-52.11598079999993,-29.44919239999996],[-52.11731389999994,-29.448450699999977],[-52.119147,-29.447894399999946],[-52.12034129999995,-29.44713659999997],[-52.122646599999946,-29.44654],[-52.124248199999954,-29.446394899999966],[-52.12631269999997,-29.444718],[-52.12717369999996,-29.44487919999994],[-52.127775499999984,-29.444613199999935],[-52.12874759999994,-29.444967899999945],[-52.129941899999956,-29.444943699999943],[-52.13102509999993,-29.44531459999995],[-52.131275,-29.445758],[-52.13237669999996,-29.44619329999996],[-52.134015399999946,-29.446016],[-52.13470049999995,-29.4446293],[-52.13773719999995,-29.443403799999942],[-52.13894069999997,-29.441533399999972],[-52.139653599999974,-29.440888399999952],[-52.139561,-29.44008209999998],[-52.13982949999996,-29.439130699999975],[-52.14190329999996,-29.43669579999994],[-52.14194029999993,-29.436091099999967],[-52.14146809999994,-29.435502499999977],[-52.14183849999995,-29.434881599999976],[-52.14183849999994,-29.433938299999962],[-52.14128759999995,-29.43358049999994],[-52.13986089999997,-29.433343299999926],[-52.139395399999955,-29.432922],[-52.13924489999994,-29.432274199999917],[-52.138339599999945,-29.432050299999958],[-52.13760589999998,-29.431474099999942],[-52.134026799999965,-29.42781],[-52.13085479999995,-29.42660639999996],[-52.12767569999995,-29.42420259999995],[-52.12725619999998,-29.42451589999996],[-52.12698009999997,-29.425339],[-52.127291599999985,-29.426666599999965],[-52.12712339999996,-29.427760499999977],[-52.127854499999955,-29.429541199999964],[-52.127898699999946,-29.43108469999993],[-52.128405,-29.431854699999956],[-52.12837489999998,-29.43261049999995],[-52.124494899999945,-29.43148119999995],[-52.12216539999997,-29.429435],[-52.119475499999965,-29.42813739999997],[-52.118512,-29.428018899999984],[-52.11775439999997,-29.428068499999934],[-52.11458239999996,-29.429187199999944],[-52.1117503,-29.432118399999972],[-52.10779949999994,-29.432316699999944],[-52.10262019999994,-29.434136299999974],[-52.10059719999999,-29.433466],[-52.09834729999994,-29.432192799999935],[-52.09439639999994,-29.430422699999955],[-52.09210239999992,-29.43021029999995],[-52.0909554,-29.430380199999934],[-52.088803,-29.432178599999922],[-52.08605579999993,-29.432943299999977],[-52.08449109999998,-29.432844199999977],[-52.08117749999997,-29.431527199999948],[-52.07984639999995,-29.431413899999928]]]}},{"type":"Feature","properties":{"setor":"431675805000014","pop":650,"sigilo_pop":false,"dom":271,"sigilo_dom":0,"mulheres":322,"sigilo_mulheres":0,"c0_4":30,"sigilo_c0_4":0,"c5_9":46,"sigilo_c5_9":0,"i60_69":68,"sigilo_i60_69":0,"i70m":58,"sigilo_i70m":0,"indigenas":null,"sigilo_indigenas":1,"pretos_pardos":78,"sigilo_pretos_pardos":0,"dom_ocupados":251,"sigilo_dom_ocupados":0,"dom_agua":251,"sigilo_dom_agua":0,"dom_esgoto":8,"sigilo_dom_esgoto":0,"renda_resp":2868.73,"sigilo_renda_resp":0,"n_resp":251,"sigilo_n_resp":0,"dens":1855.0,"sigilo_dens":false,"na_bacia":1,"area_pct_bacia":100.0,"metodo_recorte_bacia":"ponto_representativo_setor_2022; area_pct_geometrica","pop_n_validos":1,"pop_n_total":1,"pop_completude":1.0,"dom_n_validos":1,"dom_n_total":1,"dom_completude":1.0,"dom_ocupados_n_validos":1,"dom_ocupados_n_total":1,"dom_ocupados_completude":1.0,"mulheres_n_validos":1,"mulheres_n_total":1,"mulheres_completude":1.0,"c0_4_n_validos":1,"c0_4_n_total":1,"c0_4_completude":1.0,"c5_9_n_validos":1,"c5_9_n_total":1,"c5_9_completude":1.0,"i60_69_n_validos":1,"i60_69_n_total":1,"i60_69_completude":1.0,"i70m_n_validos":1,"i70m_n_total":1,"i70m_completude":1.0,"indigenas_n_validos":0,"indigenas_n_total":1,"indigenas_completude":0.0,"pretos_pardos_n_validos":1,"pretos_pardos_n_total":1,"pretos_pardos_completude":1.0,"dom_agua_n_validos":1,"dom_agua_n_total":1,"dom_agua_completude":1.0,"dom_esgoto_n_validos":1,"dom_esgoto_n_total":1,"dom_esgoto_completude":1.0,"n_resp_n_validos":1,"n_resp_n_total":1,"n_resp_completude":1.0,"renda_resp_n_validos":1,"renda_resp_n_total":1,"renda_resp_completude":1.0,"dens_n_validos":1,"dens_n_total":1,"dens_completude":1.0,"status_borda_bacia":"total","metodo_area_bacia":"interse??o geom?trica em EPSG:5880","metodo_na_bacia":"ponto_representativo_setor_2022_within_bacia","municipio":"Santa Clara do Sul","cod_mun":"4316758","mun_pct_na_bacia":100.0,"mun_pop_total":6887,"mun_pop_na_bacia":6887.0,"mun_ubs_iede":2,"mun_hospitais_iede":null,"mun_escolas_iede":6,"mun_bombeiros_iede":null,"mun_servicos_cobertura":"cadastro_IEDE_parcial_nao_inventario","mun_icm_faixa":"A","mun_icm_pontos":14,"mun_icm_prioritario":"não","mun_ubs_iede_status":"published","mun_hospitais_iede_status":"unknown","mun_escolas_iede_status":"published","mun_bombeiros_iede_status":"unknown"},"geometry":{"type":"Polygon","coordinates":[[[-52.075463899999924,-29.4651636],[-52.07540279999995,-29.469004399999953],[-52.08491269999996,-29.46907249999999],[-52.08488129999996,-29.466679],[-52.08206379999995,-29.466694699999934],[-52.08212849999995,-29.465117799999963],[-52.075463899999924,-29.4651636]]]}},{"type":"Feature","properties":{"setor":"431675805000015","pop":258,"sigilo_pop":false,"dom":105,"sigilo_dom":0,"mulheres":139,"sigilo_mulheres":0,"c0_4":17,"sigilo_c0_4":0,"c5_9":20,"sigilo_c5_9":0,"i60_69":19,"sigilo_i60_69":0,"i70m":14,"sigilo_i70m":0,"indigenas":0,"sigilo_indigenas":0,"pretos_pardos":9,"sigilo_pretos_pardos":0,"dom_ocupados":95,"sigilo_dom_ocupados":0,"dom_agua":95,"sigilo_dom_agua":0,"dom_esgoto":0,"sigilo_dom_esgoto":0,"renda_resp":2304.94,"sigilo_renda_resp":0,"n_resp":95,"sigilo_n_resp":0,"dens":114.1,"sigilo_dens":false,"na_bacia":1,"area_pct_bacia":100.0,"metodo_recorte_bacia":"ponto_representativo_setor_2022; area_pct_geometrica","pop_n_validos":1,"pop_n_total":1,"pop_completude":1.0,"dom_n_validos":1,"dom_n_total":1,"dom_completude":1.0,"dom_ocupados_n_validos":1,"dom_ocupados_n_total":1,"dom_ocupados_completude":1.0,"mulheres_n_validos":1,"mulheres_n_total":1,"mulheres_completude":1.0,"c0_4_n_validos":1,"c0_4_n_total":1,"c0_4_completude":1.0,"c5_9_n_validos":1,"c5_9_n_total":1,"c5_9_completude":1.0,"i60_69_n_validos":1,"i60_69_n_total":1,"i60_69_completude":1.0,"i70m_n_validos":1,"i70m_n_total":1,"i70m_completude":1.0,"indigenas_n_validos":1,"indigenas_n_total":1,"indigenas_completude":1.0,"pretos_pardos_n_validos":1,"pretos_pardos_n_total":1,"pretos_pardos_completude":1.0,"dom_agua_n_validos":1,"dom_agua_n_total":1,"dom_agua_completude":1.0,"dom_esgoto_n_validos":1,"dom_esgoto_n_total":1,"dom_esgoto_completude":1.0,"n_resp_n_validos":1,"n_resp_n_total":1,"n_resp_completude":1.0,"renda_resp_n_validos":1,"renda_resp_n_total":1,"renda_resp_completude":1.0,"dens_n_validos":1,"dens_n_total":1,"dens_completude":1.0,"status_borda_bacia":"total","metodo_area_bacia":"interse??o geom?trica em EPSG:5880","metodo_na_bacia":"ponto_representativo_setor_2022_within_bacia","municipio":"Santa Clara do Sul","cod_mun":"4316758","mun_pct_na_bacia":100.0,"mun_pop_total":6887,"mun_pop_na_bacia":6887.0,"mun_ubs_iede":2,"mun_hospitais_iede":null,"mun_escolas_iede":6,"mun_bombeiros_iede":null,"mun_servicos_cobertura":"cadastro_IEDE_parcial_nao_inventario","mun_icm_faixa":"A","mun_icm_pontos":14,"mun_icm_prioritario":"não","mun_ubs_iede_status":"published","mun_hospitais_iede_status":"unknown","mun_escolas_iede_status":"published","mun_bombeiros_iede_status":"unknown"},"geometry":{"type":"Polygon","coordinates":[[[-52.08357029999996,-29.452722299999937],[-52.08364109999996,-29.460176799999935],[-52.0859847,-29.459932199999955],[-52.08636889999997,-29.460133699999968],[-52.08644449999997,-29.465377899999964],[-52.087624,-29.465496099999942],[-52.089031199999965,-29.465181799999986],[-52.09022549999998,-29.465721799999983],[-52.09103089999997,-29.465826599999957],[-52.09413239999997,-29.46545579999997],[-52.096743099999976,-29.466745499999956],[-52.098178099999984,-29.466705199999968],[-52.09952109999995,-29.46639009999996],[-52.101520499999936,-29.46751239999997],[-52.10513129999999,-29.467898299999938],[-52.10512969999996,-29.469076599999944],[-52.106991799999946,-29.471420399999936],[-52.10964879999995,-29.471702499999935],[-52.11165029999996,-29.47234289999994],[-52.111662799999976,-29.47041949999992],[-52.109235199999944,-29.46985779999994],[-52.108185399999975,-29.468579399999964],[-52.10752819999993,-29.467346],[-52.106635799999935,-29.46437479999998],[-52.106582199999934,-29.460885],[-52.10621069999996,-29.45939539999994],[-52.10523159999997,-29.45911559999996],[-52.10413,-29.459364099999956],[-52.09868,-29.46172949999993],[-52.09761509999998,-29.461933299999934],[-52.097057,-29.461446199999955],[-52.097129299999956,-29.457141799999924],[-52.09655809999999,-29.45636639999998],[-52.09579349999995,-29.456347399999963],[-52.095045,-29.45666769999996],[-52.09096749999998,-29.45924],[-52.09020719999995,-29.459243199999946],[-52.08958709999996,-29.458846199999982],[-52.08940059999997,-29.458108499999984],[-52.08957109999995,-29.45737059999993],[-52.09164529999999,-29.45361],[-52.091693,-29.45306109999997],[-52.09120029999997,-29.452032599999924],[-52.089718,-29.452616599999942],[-52.08764639999998,-29.452357],[-52.0862,-29.452810099999958],[-52.08357029999996,-29.452722299999937]]]}},{"type":"Feature","properties":{"setor":"431675805000016","pop":123,"sigilo_pop":false,"dom":52,"sigilo_dom":0,"mulheres":54,"sigilo_mulheres":0,"c0_4":10,"sigilo_c0_4":0,"c5_9":9,"sigilo_c5_9":0,"i60_69":8,"sigilo_i60_69":0,"i70m":12,"sigilo_i70m":0,"indigenas":0,"sigilo_indigenas":0,"pretos_pardos":12,"sigilo_pretos_pardos":0,"dom_ocupados":49,"sigilo_dom_ocupados":0,"dom_agua":48,"sigilo_dom_agua":0,"dom_esgoto":null,"sigilo_dom_esgoto":1,"renda_resp":2305.22,"sigilo_renda_resp":0,"n_resp":49,"sigilo_n_resp":0,"dens":104.5,"sigilo_dens":false,"na_bacia":1,"area_pct_bacia":100.0,"metodo_recorte_bacia":"ponto_representativo_setor_2022; area_pct_geometrica","pop_n_validos":1,"pop_n_total":1,"pop_completude":1.0,"dom_n_validos":1,"dom_n_total":1,"dom_completude":1.0,"dom_ocupados_n_validos":1,"dom_ocupados_n_total":1,"dom_ocupados_completude":1.0,"mulheres_n_validos":1,"mulheres_n_total":1,"mulheres_completude":1.0,"c0_4_n_validos":1,"c0_4_n_total":1,"c0_4_completude":1.0,"c5_9_n_validos":1,"c5_9_n_total":1,"c5_9_completude":1.0,"i60_69_n_validos":1,"i60_69_n_total":1,"i60_69_completude":1.0,"i70m_n_validos":1,"i70m_n_total":1,"i70m_completude":1.0,"indigenas_n_validos":1,"indigenas_n_total":1,"indigenas_completude":1.0,"pretos_pardos_n_validos":1,"pretos_pardos_n_total":1,"pretos_pardos_completude":1.0,"dom_agua_n_validos":1,"dom_agua_n_total":1,"dom_agua_completude":1.0,"dom_esgoto_n_validos":0,"dom_esgoto_n_total":1,"dom_esgoto_completude":0.0,"n_resp_n_validos":1,"n_resp_n_total":1,"n_resp_completude":1.0,"renda_resp_n_validos":1,"renda_resp_n_total":1,"renda_resp_completude":1.0,"dens_n_validos":1,"dens_n_total":1,"dens_completude":1.0,"status_borda_bacia":"total","metodo_area_bacia":"interse??o geom?trica em EPSG:5880","metodo_na_bacia":"ponto_representativo_setor_2022_within_bacia","municipio":"Santa Clara do Sul","cod_mun":"4316758","mun_pct_na_bacia":100.0,"mun_pop_total":6887,"mun_pop_na_bacia":6887.0,"mun_ubs_iede":2,"mun_hospitais_iede":null,"mun_escolas_iede":6,"mun_bombeiros_iede":null,"mun_servicos_cobertura":"cadastro_IEDE_parcial_nao_inventario","mun_icm_faixa":"A","mun_icm_pontos":14,"mun_icm_prioritario":"não","mun_ubs_iede_status":"published","mun_hospitais_iede_status":"unknown","mun_escolas_iede_status":"published","mun_bombeiros_iede_status":"unknown"},"geometry":{"type":"Polygon","coordinates":[[[-52.066264599999954,-29.456351299999934],[-52.06587519999993,-29.463887],[-52.06642709999994,-29.464567099999947],[-52.075225199999984,-29.462353699999937],[-52.07438959999997,-29.461212399999972],[-52.074468699999954,-29.45905959999993],[-52.078831,-29.460022],[-52.082917899999984,-29.46021349999994],[-52.08363129999997,-29.45977839999995],[-52.08357029999996,-29.452722299999937],[-52.08050659999998,-29.45347519999995],[-52.07891369999999,-29.453616699999934],[-52.077256699999964,-29.454507],[-52.072303699999964,-29.456224099999922],[-52.071589,-29.45835419999998],[-52.06862649999994,-29.457644899999938],[-52.066264599999954,-29.456351299999934]]]}},{"type":"Feature","properties":{"setor":"431675805000017","pop":113,"sigilo_pop":false,"dom":58,"sigilo_dom":0,"mulheres":52,"sigilo_mulheres":0,"c0_4":9,"sigilo_c0_4":0,"c5_9":8,"sigilo_c5_9":0,"i60_69":15,"sigilo_i60_69":0,"i70m":8,"sigilo_i70m":0,"indigenas":0,"sigilo_indigenas":0,"pretos_pardos":11,"sigilo_pretos_pardos":0,"dom_ocupados":45,"sigilo_dom_ocupados":0,"dom_agua":45,"sigilo_dom_agua":0,"dom_esgoto":0,"sigilo_dom_esgoto":0,"renda_resp":2579.64,"sigilo_renda_resp":0,"n_resp":45,"sigilo_n_resp":0,"dens":129.3,"sigilo_dens":false,"na_bacia":1,"area_pct_bacia":100.0,"metodo_recorte_bacia":"ponto_representativo_setor_2022; area_pct_geometrica","pop_n_validos":1,"pop_n_total":1,"pop_completude":1.0,"dom_n_validos":1,"dom_n_total":1,"dom_completude":1.0,"dom_ocupados_n_validos":1,"dom_ocupados_n_total":1,"dom_ocupados_completude":1.0,"mulheres_n_validos":1,"mulheres_n_total":1,"mulheres_completude":1.0,"c0_4_n_validos":1,"c0_4_n_total":1,"c0_4_completude":1.0,"c5_9_n_validos":1,"c5_9_n_total":1,"c5_9_completude":1.0,"i60_69_n_validos":1,"i60_69_n_total":1,"i60_69_completude":1.0,"i70m_n_validos":1,"i70m_n_total":1,"i70m_completude":1.0,"indigenas_n_validos":1,"indigenas_n_total":1,"indigenas_completude":1.0,"pretos_pardos_n_validos":1,"pretos_pardos_n_total":1,"pretos_pardos_completude":1.0,"dom_agua_n_validos":1,"dom_agua_n_total":1,"dom_agua_completude":1.0,"dom_esgoto_n_validos":1,"dom_esgoto_n_total":1,"dom_esgoto_completude":1.0,"n_resp_n_validos":1,"n_resp_n_total":1,"n_resp_completude":1.0,"renda_resp_n_validos":1,"renda_resp_n_total":1,"renda_resp_completude":1.0,"dens_n_validos":1,"dens_n_total":1,"dens_completude":1.0,"status_borda_bacia":"total","metodo_area_bacia":"interse??o geom?trica em EPSG:5880","metodo_na_bacia":"ponto_representativo_setor_2022_within_bacia","municipio":"Santa Clara do Sul","cod_mun":"4316758","mun_pct_na_bacia":100.0,"mun_pop_total":6887,"mun_pop_na_bacia":6887.0,"mun_ubs_iede":2,"mun_hospitais_iede":null,"mun_escolas_iede":6,"mun_bombeiros_iede":null,"mun_servicos_cobertura":"cadastro_IEDE_parcial_nao_inventario","mun_icm_faixa":"A","mun_icm_pontos":14,"mun_icm_prioritario":"não","mun_ubs_iede_status":"published","mun_hospitais_iede_status":"unknown","mun_escolas_iede_status":"published","mun_bombeiros_iede_status":"unknown"},"geometry":{"type":"Polygon","coordinates":[[[-52.04327119999994,-29.454391299999944],[-52.04591649999998,-29.454887899999953],[-52.047657,-29.456355099999943],[-52.05280449999998,-29.458064],[-52.055933699999976,-29.459821299999934],[-52.061488499999946,-29.461433499999938],[-52.06317349999995,-29.46249759999995],[-52.06521029999993,-29.463352],[-52.06587519999993,-29.463887],[-52.06606789999996,-29.460157399999964],[-52.062730599999945,-29.458455899999926],[-52.05745239999993,-29.45692609999997],[-52.05420789999993,-29.45515409999996],[-52.049638899999934,-29.453694],[-52.048416399999944,-29.452583799999953],[-52.047436199999936,-29.452023099999963],[-52.045707,-29.45156349999995],[-52.04187109999999,-29.451269799999988],[-52.04284369999994,-29.452006099999945],[-52.04327119999994,-29.454391299999944]]]}},{"type":"Feature","properties":{"setor":"431675805000018","pop":214,"sigilo_pop":false,"dom":94,"sigilo_dom":0,"mulheres":105,"sigilo_mulheres":0,"c0_4":null,"sigilo_c0_4":1,"c5_9":17,"sigilo_c5_9":0,"i60_69":31,"sigilo_i60_69":0,"i70m":21,"sigilo_i70m":0,"indigenas":0,"sigilo_indigenas":0,"pretos_pardos":null,"sigilo_pretos_pardos":1,"dom_ocupados":77,"sigilo_dom_ocupados":0,"dom_agua":75,"sigilo_dom_agua":0,"dom_esgoto":0,"sigilo_dom_esgoto":0,"renda_resp":2663.68,"sigilo_renda_resp":0,"n_resp":77,"sigilo_n_resp":0,"dens":137.9,"sigilo_dens":false,"na_bacia":1,"area_pct_bacia":100.0,"metodo_recorte_bacia":"ponto_representativo_setor_2022; area_pct_geometrica","pop_n_validos":1,"pop_n_total":1,"pop_completude":1.0,"dom_n_validos":1,"dom_n_total":1,"dom_completude":1.0,"dom_ocupados_n_validos":1,"dom_ocupados_n_total":1,"dom_ocupados_completude":1.0,"mulheres_n_validos":1,"mulheres_n_total":1,"mulheres_completude":1.0,"c0_4_n_validos":0,"c0_4_n_total":1,"c0_4_completude":0.0,"c5_9_n_validos":1,"c5_9_n_total":1,"c5_9_completude":1.0,"i60_69_n_validos":1,"i60_69_n_total":1,"i60_69_completude":1.0,"i70m_n_validos":1,"i70m_n_total":1,"i70m_completude":1.0,"indigenas_n_validos":1,"indigenas_n_total":1,"indigenas_completude":1.0,"pretos_pardos_n_validos":0,"pretos_pardos_n_total":1,"pretos_pardos_completude":0.0,"dom_agua_n_validos":1,"dom_agua_n_total":1,"dom_agua_completude":1.0,"dom_esgoto_n_validos":1,"dom_esgoto_n_total":1,"dom_esgoto_completude":1.0,"n_resp_n_validos":1,"n_resp_n_total":1,"n_resp_completude":1.0,"renda_resp_n_validos":1,"renda_resp_n_total":1,"renda_resp_completude":1.0,"dens_n_validos":1,"dens_n_total":1,"dens_completude":1.0,"status_borda_bacia":"total","metodo_area_bacia":"interse??o geom?trica em EPSG:5880","metodo_na_bacia":"ponto_representativo_setor_2022_within_bacia","municipio":"Santa Clara do Sul","cod_mun":"4316758","mun_pct_na_bacia":100.0,"mun_pop_total":6887,"mun_pop_na_bacia":6887.0,"mun_ubs_iede":2,"mun_hospitais_iede":null,"mun_escolas_iede":6,"mun_bombeiros_iede":null,"mun_servicos_cobertura":"cadastro_IEDE_parcial_nao_inventario","mun_icm_faixa":"A","mun_icm_pontos":14,"mun_icm_prioritario":"não","mun_ubs_iede_status":"published","mun_hospitais_iede_status":"unknown","mun_escolas_iede_status":"published","mun_bombeiros_iede_status":"unknown"},"geometry":{"type":"Polygon","coordinates":[[[-52.04409429999998,-29.45549589999996],[-52.04420069999998,-29.457858199999972],[-52.04542059999994,-29.458868199999984],[-52.046989699999976,-29.459574299999932],[-52.05125659999994,-29.46092059999996],[-52.054868899999974,-29.462839199999962],[-52.05983769999994,-29.464251899999965],[-52.06164309999997,-29.465358],[-52.06241109999996,-29.465594099999972],[-52.06457079999995,-29.473344599999965],[-52.074355399999945,-29.473354199999974],[-52.074267299999974,-29.47182],[-52.07222319999994,-29.471818],[-52.072331,-29.467246399999965],[-52.07148659999996,-29.467299599999944],[-52.06979239999998,-29.466106699999962],[-52.06692239999996,-29.465018499999925],[-52.06561759999994,-29.463609899999945],[-52.06317349999995,-29.46249759999995],[-52.061488499999946,-29.461433499999938],[-52.055933699999976,-29.459821299999934],[-52.05280449999998,-29.458064],[-52.048194,-29.45659689999997],[-52.04724969999995,-29.45614549999993],[-52.04563879999995,-29.454775],[-52.043267,-29.454501899999954],[-52.04331019999996,-29.45482679999998],[-52.04409429999998,-29.45549589999996]]]}},{"type":"Feature","properties":{"setor":"431675805000019","pop":134,"sigilo_pop":false,"dom":66,"sigilo_dom":0,"mulheres":58,"sigilo_mulheres":0,"c0_4":null,"sigilo_c0_4":1,"c5_9":null,"sigilo_c5_9":1,"i60_69":19,"sigilo_i60_69":0,"i70m":21,"sigilo_i70m":0,"indigenas":0,"sigilo_indigenas":0,"pretos_pardos":11,"sigilo_pretos_pardos":0,"dom_ocupados":52,"sigilo_dom_ocupados":0,"dom_agua":51,"sigilo_dom_agua":0,"dom_esgoto":0,"sigilo_dom_esgoto":0,"renda_resp":2977.98,"sigilo_renda_resp":0,"n_resp":52,"sigilo_n_resp":0,"dens":32.7,"sigilo_dens":false,"na_bacia":1,"area_pct_bacia":100.0,"metodo_recorte_bacia":"ponto_representativo_setor_2022; area_pct_geometrica","pop_n_validos":1,"pop_n_total":1,"pop_completude":1.0,"dom_n_validos":1,"dom_n_total":1,"dom_completude":1.0,"dom_ocupados_n_validos":1,"dom_ocupados_n_total":1,"dom_ocupados_completude":1.0,"mulheres_n_validos":1,"mulheres_n_total":1,"mulheres_completude":1.0,"c0_4_n_validos":0,"c0_4_n_total":1,"c0_4_completude":0.0,"c5_9_n_validos":0,"c5_9_n_total":1,"c5_9_completude":0.0,"i60_69_n_validos":1,"i60_69_n_total":1,"i60_69_completude":1.0,"i70m_n_validos":1,"i70m_n_total":1,"i70m_completude":1.0,"indigenas_n_validos":1,"indigenas_n_total":1,"indigenas_completude":1.0,"pretos_pardos_n_validos":1,"pretos_pardos_n_total":1,"pretos_pardos_completude":1.0,"dom_agua_n_validos":1,"dom_agua_n_total":1,"dom_agua_completude":1.0,"dom_esgoto_n_validos":1,"dom_esgoto_n_total":1,"dom_esgoto_completude":1.0,"n_resp_n_validos":1,"n_resp_n_total":1,"n_resp_completude":1.0,"renda_resp_n_validos":1,"renda_resp_n_total":1,"renda_resp_completude":1.0,"dens_n_validos":1,"dens_n_total":1,"dens_completude":1.0,"status_borda_bacia":"total","metodo_area_bacia":"interse??o geom?trica em EPSG:5880","metodo_na_bacia":"ponto_representativo_setor_2022_within_bacia","municipio":"Santa Clara do Sul","cod_mun":"4316758","mun_pct_na_bacia":100.0,"mun_pop_total":6887,"mun_pop_na_bacia":6887.0,"mun_ubs_iede":2,"mun_hospitais_iede":null,"mun_escolas_iede":6,"mun_bombeiros_iede":null,"mun_servicos_cobertura":"cadastro_IEDE_parcial_nao_inventario","mun_icm_faixa":"A","mun_icm_pontos":14,"mun_icm_prioritario":"não","mun_ubs_iede_status":"published","mun_hospitais_iede_status":"unknown","mun_escolas_iede_status":"published","mun_bombeiros_iede_status":"unknown"},"geometry":{"type":"Polygon","coordinates":[[[-52.05337559999998,-29.472826499999936],[-52.05346139999995,-29.484692699999975],[-52.07384379999996,-29.48119439999994],[-52.074033799999945,-29.474494099999955],[-52.074355399999945,-29.473354199999974],[-52.06457079999995,-29.473344599999965],[-52.06241109999996,-29.465594099999972],[-52.06164309999997,-29.465358],[-52.05983769999994,-29.464251899999965],[-52.054868899999974,-29.462839199999962],[-52.05125659999994,-29.46092059999996],[-52.046542599999945,-29.459405299999958],[-52.04542059999994,-29.458868199999984],[-52.04420069999998,-29.457858199999972],[-52.04422529999994,-29.459538699999946],[-52.04475779999996,-29.46137449999997],[-52.04487309999997,-29.46311069999996],[-52.04548209999996,-29.46384359999996],[-52.04606259999997,-29.465546399999937],[-52.04668059999995,-29.466574],[-52.047169899999965,-29.468349499999935],[-52.048017099999974,-29.469548699999972],[-52.048766399999984,-29.472286899999972],[-52.04867379999996,-29.473093599999963],[-52.049081,-29.473281],[-52.04921959999996,-29.47382839999994],[-52.05337559999998,-29.472826499999936]]]}}]}
