{"type":"FeatureCollection","name":"4317558","crs":{"type":"name","properties":{"name":"urn:ogc:def:crs:OGC:1.3:CRS84"}},"features":[{"type":"Feature","properties":{"setor":"431755805000001","pop":786,"sigilo_pop":false,"dom":333,"sigilo_dom":0,"mulheres":406,"sigilo_mulheres":0,"c0_4":44,"sigilo_c0_4":0,"c5_9":49,"sigilo_c5_9":0,"i60_69":84,"sigilo_i60_69":0,"i70m":80,"sigilo_i70m":0,"indigenas":0,"sigilo_indigenas":0,"pretos_pardos":121,"sigilo_pretos_pardos":0,"dom_ocupados":297,"sigilo_dom_ocupados":0,"dom_agua":296,"sigilo_dom_agua":0,"dom_esgoto":7,"sigilo_dom_esgoto":0,"renda_resp":2870.89,"sigilo_renda_resp":0,"n_resp":297,"sigilo_n_resp":0,"dens":603.3,"sigilo_dens":false,"na_bacia":1,"area_pct_bacia":100.0,"metodo_recorte_bacia":"ponto_representativo_setor_2022; area_pct_geometrica","pop_n_validos":1,"pop_n_total":1,"pop_completude":1.0,"dom_n_validos":1,"dom_n_total":1,"dom_completude":1.0,"dom_ocupados_n_validos":1,"dom_ocupados_n_total":1,"dom_ocupados_completude":1.0,"mulheres_n_validos":1,"mulheres_n_total":1,"mulheres_completude":1.0,"c0_4_n_validos":1,"c0_4_n_total":1,"c0_4_completude":1.0,"c5_9_n_validos":1,"c5_9_n_total":1,"c5_9_completude":1.0,"i60_69_n_validos":1,"i60_69_n_total":1,"i60_69_completude":1.0,"i70m_n_validos":1,"i70m_n_total":1,"i70m_completude":1.0,"indigenas_n_validos":1,"indigenas_n_total":1,"indigenas_completude":1.0,"pretos_pardos_n_validos":1,"pretos_pardos_n_total":1,"pretos_pardos_completude":1.0,"dom_agua_n_validos":1,"dom_agua_n_total":1,"dom_agua_completude":1.0,"dom_esgoto_n_validos":1,"dom_esgoto_n_total":1,"dom_esgoto_completude":1.0,"n_resp_n_validos":1,"n_resp_n_total":1,"n_resp_completude":1.0,"renda_resp_n_validos":1,"renda_resp_n_total":1,"renda_resp_completude":1.0,"dens_n_validos":1,"dens_n_total":1,"dens_completude":1.0,"status_borda_bacia":"total","metodo_area_bacia":"interse??o geom?trica em EPSG:5880","metodo_na_bacia":"ponto_representativo_setor_2022_within_bacia","municipio":"Santo Antônio do Palma","cod_mun":"4317558","mun_pct_na_bacia":100.0,"mun_pop_total":2091,"mun_pop_na_bacia":2091.0,"mun_ubs_iede":1,"mun_hospitais_iede":null,"mun_escolas_iede":null,"mun_bombeiros_iede":null,"mun_servicos_cobertura":"cadastro_IEDE_parcial_nao_inventario","mun_icm_faixa":"A","mun_icm_pontos":15,"mun_icm_prioritario":"não","mun_ubs_iede_status":"published","mun_hospitais_iede_status":"unknown","mun_escolas_iede_status":"unknown","mun_bombeiros_iede_status":"unknown"},"geometry":{"type":"Polygon","coordinates":[[[-52.02356369999995,-28.50585829999994],[-52.025897499999985,-28.505776699999952],[-52.02589939999996,-28.505457499999974],[-52.027104099999974,-28.50542529999996],[-52.027129499999944,-28.504296],[-52.027799,-28.504308799999926],[-52.027672,-28.50037189999995],[-52.028854699999954,-28.498214799999964],[-52.027725299999986,-28.497626399999948],[-52.02734409999994,-28.494514099999957],[-52.02733869999998,-28.48665859999994],[-52.02434949999998,-28.48546789999994],[-52.02250989999994,-28.489172799999942],[-52.02126589999994,-28.489178],[-52.02047619999997,-28.504329399999953],[-52.023372499999944,-28.504316399999936],[-52.02356369999995,-28.50585829999994]]]}},{"type":"Feature","properties":{"setor":"431755805000002","pop":366,"sigilo_pop":false,"dom":145,"sigilo_dom":0,"mulheres":183,"sigilo_mulheres":0,"c0_4":26,"sigilo_c0_4":0,"c5_9":23,"sigilo_c5_9":0,"i60_69":46,"sigilo_i60_69":0,"i70m":45,"sigilo_i70m":0,"indigenas":0,"sigilo_indigenas":0,"pretos_pardos":22,"sigilo_pretos_pardos":0,"dom_ocupados":116,"sigilo_dom_ocupados":0,"dom_agua":72,"sigilo_dom_agua":0,"dom_esgoto":0,"sigilo_dom_esgoto":0,"renda_resp":7264.37,"sigilo_renda_resp":0,"n_resp":116,"sigilo_n_resp":0,"dens":11.6,"sigilo_dens":false,"na_bacia":1,"area_pct_bacia":100.0,"metodo_recorte_bacia":"ponto_representativo_setor_2022; area_pct_geometrica","pop_n_validos":1,"pop_n_total":1,"pop_completude":1.0,"dom_n_validos":1,"dom_n_total":1,"dom_completude":1.0,"dom_ocupados_n_validos":1,"dom_ocupados_n_total":1,"dom_ocupados_completude":1.0,"mulheres_n_validos":1,"mulheres_n_total":1,"mulheres_completude":1.0,"c0_4_n_validos":1,"c0_4_n_total":1,"c0_4_completude":1.0,"c5_9_n_validos":1,"c5_9_n_total":1,"c5_9_completude":1.0,"i60_69_n_validos":1,"i60_69_n_total":1,"i60_69_completude":1.0,"i70m_n_validos":1,"i70m_n_total":1,"i70m_completude":1.0,"indigenas_n_validos":1,"indigenas_n_total":1,"indigenas_completude":1.0,"pretos_pardos_n_validos":1,"pretos_pardos_n_total":1,"pretos_pardos_completude":1.0,"dom_agua_n_validos":1,"dom_agua_n_total":1,"dom_agua_completude":1.0,"dom_esgoto_n_validos":1,"dom_esgoto_n_total":1,"dom_esgoto_completude":1.0,"n_resp_n_validos":1,"n_resp_n_total":1,"n_resp_completude":1.0,"renda_resp_n_validos":1,"renda_resp_n_total":1,"renda_resp_completude":1.0,"dens_n_validos":1,"dens_n_total":1,"dens_completude":1.0,"status_borda_bacia":"total","metodo_area_bacia":"interse??o geom?trica em EPSG:5880","metodo_na_bacia":"ponto_representativo_setor_2022_within_bacia","municipio":"Santo Antônio do Palma","cod_mun":"4317558","mun_pct_na_bacia":100.0,"mun_pop_total":2091,"mun_pop_na_bacia":2091.0,"mun_ubs_iede":1,"mun_hospitais_iede":null,"mun_escolas_iede":null,"mun_bombeiros_iede":null,"mun_servicos_cobertura":"cadastro_IEDE_parcial_nao_inventario","mun_icm_faixa":"A","mun_icm_pontos":15,"mun_icm_prioritario":"não","mun_ubs_iede_status":"published","mun_hospitais_iede_status":"unknown","mun_escolas_iede_status":"unknown","mun_bombeiros_iede_status":"unknown"},"geometry":{"type":"Polygon","coordinates":[[[-51.97698989999998,-28.476721799999943],[-51.97637759999997,-28.478146099999943],[-51.9751179,-28.479833199999977],[-51.976252,-28.480439099999952],[-51.97751669999997,-28.47995859999998],[-51.97923419999996,-28.48218869999994],[-51.97999489999996,-28.48576269999995],[-51.98077689999997,-28.485835599999973],[-51.98141719999995,-28.486762],[-51.98118389999996,-28.487732599999955],[-51.981323599999946,-28.489538099999955],[-51.981683199999964,-28.49082429999993],[-51.98229959999998,-28.49176789999996],[-51.982387899999935,-28.492871399999963],[-51.98143729999998,-28.49392079999995],[-51.98104219999993,-28.49530669999995],[-51.980620399999964,-28.495569199999988],[-51.980497699999944,-28.49616719999994],[-51.97989209999998,-28.496799599999978],[-51.979887699999956,-28.49719189999996],[-51.979296399999946,-28.49815],[-51.979526799999974,-28.499138399999925],[-51.97920639999995,-28.499978799999948],[-51.979377699999986,-28.500532499999956],[-51.97928349999995,-28.503275],[-51.97893539999996,-28.50428],[-51.97554119999995,-28.504409899999928],[-51.97054309999998,-28.50507869999996],[-51.96866159999996,-28.506556],[-51.967571,-28.505885699999958],[-51.965765199999964,-28.507075199999978],[-51.96513339999996,-28.50599659999995],[-51.96384539999997,-28.505321799999926],[-51.96363269999995,-28.504514399999945],[-51.962868499999956,-28.503566899999946],[-51.96171659999993,-28.504182499999942],[-51.960372499999956,-28.503796499999964],[-51.958033099999966,-28.505295699999973],[-51.95706809999996,-28.509698699999948],[-51.95752379999993,-28.51067269999993],[-51.95755319999995,-28.51188269999994],[-51.958271299999986,-28.513970599999926],[-51.95634689999997,-28.51750379999991],[-51.956407899999924,-28.520616499999964],[-51.960500499999974,-28.520641899999934],[-51.960412899999945,-28.526097599999964],[-52.01109049999997,-28.52776789999996],[-52.011708399999975,-28.527075199999956],[-52.01269189999993,-28.526502299999954],[-52.01543019999996,-28.526895],[-52.016033,-28.52667739999998],[-52.01663089999994,-28.526014199999956],[-52.01772779999993,-28.525770399999942],[-52.018873499999984,-28.524937399999942],[-52.01992979999994,-28.52472909999994],[-52.02466879999998,-28.526513199999957],[-52.02766669999994,-28.521705],[-52.02791639999998,-28.520979499999946],[-52.027977299999975,-28.520183],[-52.02760939999996,-28.51891809999995],[-52.02722529999995,-28.51526289999999],[-52.02661219999993,-28.51338559999993],[-52.023901799999976,-28.508531899999973],[-52.023372499999944,-28.504316399999936],[-52.02047619999997,-28.504329399999953],[-52.02126589999994,-28.489178],[-52.02250989999994,-28.489172799999942],[-52.02434949999998,-28.48546789999994],[-52.02733869999998,-28.48665859999994],[-52.02734409999994,-28.494514099999957],[-52.027725299999986,-28.497626399999948],[-52.028854699999954,-28.498214799999964],[-52.02782309999998,-28.499852099999934],[-52.02759549999996,-28.50164939999996],[-52.02829589999994,-28.501973899999935],[-52.028382,-28.503049499999968],[-52.02878749999997,-28.503328399999923],[-52.02964939999998,-28.5028392],[-52.030133,-28.50167729999997],[-52.02902809999995,-28.499938299999936],[-52.02919559999998,-28.499247399999934],[-52.031751499999984,-28.498653499999936],[-52.03413489999998,-28.498694499999953],[-52.036721599999964,-28.499117799999965],[-52.04027649999994,-28.49930939999996],[-52.04213869999996,-28.498885899999937],[-52.043783499999954,-28.494692099999952],[-52.04464909999996,-28.493284299999974],[-52.04545759999996,-28.49255],[-52.04693669999995,-28.491577599999967],[-52.04785889999994,-28.491591699999955],[-52.04853259999993,-28.49100659999993],[-52.050351,-28.49056989999996],[-52.05471539999996,-28.490805],[-52.05674189999997,-28.489487399999973],[-52.05784879999993,-28.489088699999964],[-52.058923799999945,-28.487636399999932],[-52.05861829999998,-28.486444],[-52.060975499999984,-28.484870699999927],[-52.06147549999998,-28.484281599999978],[-52.06115919999996,-28.484449299999927],[-52.06082869999994,-28.48411039999996],[-52.05882929999996,-28.48358509999997],[-52.05778559999993,-28.483585299999962],[-52.05497859999998,-28.48266109999998],[-52.05477229999997,-28.48218709999998],[-52.055105499999975,-28.481530899999928],[-52.053332799999964,-28.480415499999935],[-52.053008699999964,-28.479075199999954],[-52.052418199999984,-28.478744],[-52.05037959999998,-28.478668199999944],[-52.04938069999997,-28.478950599999965],[-52.04706759999993,-28.47906],[-52.0451427,-28.478431],[-52.043652599999966,-28.47877569999996],[-52.04237409999997,-28.479462299999955],[-52.04173939999998,-28.47929359999995],[-52.040775,-28.478414],[-52.01379859999997,-28.482004299999968],[-52.01316769999995,-28.482338499999965],[-52.01081549999998,-28.484656799999982],[-52.008554,-28.48502779999995],[-52.006278299999956,-28.484864899999934],[-52.004513599999946,-28.485170599999943],[-52.003099,-28.484908699999952],[-51.99854819999996,-28.484727899999942],[-51.99748419999998,-28.484258499999942],[-51.99517039999995,-28.482441899999976],[-51.99117449999994,-28.484737399999972],[-51.99052679999994,-28.485718499999958],[-51.98999849999996,-28.48594609999998],[-51.98843159999996,-28.485527899999976],[-51.98799059999993,-28.485143399999963],[-51.987865099999965,-28.483653099999966],[-51.98530129999995,-28.481455299999933],[-51.98261259999998,-28.47979929999996],[-51.983085,-28.47882469999996],[-51.98264489999997,-28.47794249999998],[-51.981796699999954,-28.477691199999978],[-51.9798292,-28.476121899999953],[-51.97898139999996,-28.475763699999955],[-51.97698989999998,-28.476721799999943]]]}},{"type":"Feature","properties":{"setor":"431755805000003","pop":419,"sigilo_pop":false,"dom":193,"sigilo_dom":0,"mulheres":196,"sigilo_mulheres":0,"c0_4":23,"sigilo_c0_4":0,"c5_9":18,"sigilo_c5_9":0,"i60_69":63,"sigilo_i60_69":0,"i70m":43,"sigilo_i70m":0,"indigenas":0,"sigilo_indigenas":0,"pretos_pardos":57,"sigilo_pretos_pardos":0,"dom_ocupados":143,"sigilo_dom_ocupados":0,"dom_agua":115,"sigilo_dom_agua":0,"dom_esgoto":0,"sigilo_dom_esgoto":0,"renda_resp":3972.66,"sigilo_renda_resp":0,"n_resp":143,"sigilo_n_resp":0,"dens":12.0,"sigilo_dens":false,"na_bacia":1,"area_pct_bacia":100.0,"metodo_recorte_bacia":"ponto_representativo_setor_2022; area_pct_geometrica","pop_n_validos":1,"pop_n_total":1,"pop_completude":1.0,"dom_n_validos":1,"dom_n_total":1,"dom_completude":1.0,"dom_ocupados_n_validos":1,"dom_ocupados_n_total":1,"dom_ocupados_completude":1.0,"mulheres_n_validos":1,"mulheres_n_total":1,"mulheres_completude":1.0,"c0_4_n_validos":1,"c0_4_n_total":1,"c0_4_completude":1.0,"c5_9_n_validos":1,"c5_9_n_total":1,"c5_9_completude":1.0,"i60_69_n_validos":1,"i60_69_n_total":1,"i60_69_completude":1.0,"i70m_n_validos":1,"i70m_n_total":1,"i70m_completude":1.0,"indigenas_n_validos":1,"indigenas_n_total":1,"indigenas_completude":1.0,"pretos_pardos_n_validos":1,"pretos_pardos_n_total":1,"pretos_pardos_completude":1.0,"dom_agua_n_validos":1,"dom_agua_n_total":1,"dom_agua_completude":1.0,"dom_esgoto_n_validos":1,"dom_esgoto_n_total":1,"dom_esgoto_completude":1.0,"n_resp_n_validos":1,"n_resp_n_total":1,"n_resp_completude":1.0,"renda_resp_n_validos":1,"renda_resp_n_total":1,"renda_resp_completude":1.0,"dens_n_validos":1,"dens_n_total":1,"dens_completude":1.0,"status_borda_bacia":"total","metodo_area_bacia":"interse??o geom?trica em EPSG:5880","metodo_na_bacia":"ponto_representativo_setor_2022_within_bacia","municipio":"Santo Antônio do Palma","cod_mun":"4317558","mun_pct_na_bacia":100.0,"mun_pop_total":2091,"mun_pop_na_bacia":2091.0,"mun_ubs_iede":1,"mun_hospitais_iede":null,"mun_escolas_iede":null,"mun_bombeiros_iede":null,"mun_servicos_cobertura":"cadastro_IEDE_parcial_nao_inventario","mun_icm_faixa":"A","mun_icm_pontos":15,"mun_icm_prioritario":"não","mun_ubs_iede_status":"published","mun_hospitais_iede_status":"unknown","mun_escolas_iede_status":"unknown","mun_bombeiros_iede_status":"unknown"},"geometry":{"type":"Polygon","coordinates":[[[-52.06147549999998,-28.484281599999978],[-52.060975499999984,-28.484870699999927],[-52.05861829999998,-28.486444],[-52.058923799999945,-28.487636399999932],[-52.05784879999993,-28.489088699999964],[-52.05674189999997,-28.489487399999973],[-52.05471539999996,-28.490805],[-52.050351,-28.49056989999996],[-52.04853259999993,-28.49100659999993],[-52.04785889999994,-28.491591699999955],[-52.04693669999995,-28.491577599999967],[-52.04545759999996,-28.49255],[-52.04464909999996,-28.493284299999974],[-52.043783499999954,-28.494692099999952],[-52.04213869999996,-28.498885899999937],[-52.04027649999994,-28.49930939999996],[-52.036721599999964,-28.499117799999965],[-52.03413489999998,-28.498694499999953],[-52.031751499999984,-28.498653499999936],[-52.029043299999955,-28.499376199999976],[-52.02927329999994,-28.500513299999966],[-52.03013489999994,-28.50153939999995],[-52.02964939999998,-28.5028392],[-52.02912429999998,-28.50323089999996],[-52.02859319999993,-28.503298],[-52.02834649999994,-28.50294819999993],[-52.02829589999994,-28.501973899999935],[-52.02759549999996,-28.50164939999996],[-52.027799,-28.504308799999926],[-52.027129499999944,-28.504296],[-52.027104099999974,-28.50542529999996],[-52.02589939999996,-28.505457499999974],[-52.025897499999985,-28.505776699999952],[-52.02356369999995,-28.50585829999994],[-52.023901799999976,-28.508531899999973],[-52.027021699999985,-28.51438439999998],[-52.02760939999996,-28.51891809999995],[-52.027977299999975,-28.520183],[-52.02766669999994,-28.521705],[-52.02466879999998,-28.526513199999957],[-52.01992979999994,-28.52472909999994],[-52.018873499999984,-28.524937399999942],[-52.01772779999993,-28.525770399999942],[-52.01663089999994,-28.526014199999956],[-52.016033,-28.52667739999998],[-52.01543019999996,-28.526895],[-52.01269189999993,-28.526502299999954],[-52.011708399999975,-28.527075199999956],[-52.01109049999997,-28.52776789999996],[-52.01978289999994,-28.528052699999932],[-52.019804299999976,-28.53701529999995],[-52.03491759999997,-28.537158899999948],[-52.035152299999936,-28.545929799999954],[-52.06753579999997,-28.546217599999967],[-52.06738489999998,-28.53769319999997],[-52.06911049999996,-28.537042099999944],[-52.072166299999935,-28.53320679999996],[-52.073461899999984,-28.532874299999946],[-52.0738578,-28.534425099999957],[-52.075373899999924,-28.535739199999963],[-52.07751569999994,-28.534448],[-52.08136659999997,-28.535488399999963],[-52.08578119999998,-28.532605499999924],[-52.08737579999996,-28.53478109999998],[-52.0902536,-28.535674],[-52.090556,-28.534828599999962],[-52.093098,-28.53411469999998],[-52.09443969999995,-28.53235379999995],[-52.09318869999998,-28.530101],[-52.094158099999966,-28.525801199999925],[-52.09605689999995,-28.525216199999935],[-52.096565199999986,-28.523654699999945],[-52.095615,-28.521659599999968],[-52.09648219999997,-28.51917679999997],[-52.095719299999985,-28.51461089999998],[-52.09714079999998,-28.512483],[-52.09608509999998,-28.511819699999926],[-52.092544799999985,-28.512858799999933],[-52.08717629999995,-28.510742099999955],[-52.087965499999946,-28.507717],[-52.09124849999995,-28.50728869999995],[-52.09209829999998,-28.506501399999937],[-52.091923299999955,-28.504703],[-52.08964569999995,-28.50297339999997],[-52.08981349999994,-28.49859009999995],[-52.088560499999964,-28.495623799999976],[-52.08575879999995,-28.495890099999936],[-52.086419099999944,-28.49660569999997],[-52.08510279999995,-28.496861399999943],[-52.083186599999976,-28.494085],[-52.07925639999996,-28.495186],[-52.078445699999975,-28.49285809999997],[-52.06970659999996,-28.49086],[-52.06811669999997,-28.49279389999998],[-52.06705139999997,-28.488025099999938],[-52.06776529999996,-28.486737199999922],[-52.06470309999997,-28.484507899999983],[-52.063663599999984,-28.48418039999995],[-52.062004799999954,-28.48410179999996],[-52.06147549999998,-28.484281599999978]]]}},{"type":"Feature","properties":{"setor":"431755820000003","pop":149,"sigilo_pop":false,"dom":64,"sigilo_dom":0,"mulheres":66,"sigilo_mulheres":0,"c0_4":null,"sigilo_c0_4":1,"c5_9":null,"sigilo_c5_9":1,"i60_69":19,"sigilo_i60_69":0,"i70m":27,"sigilo_i70m":0,"indigenas":0,"sigilo_indigenas":0,"pretos_pardos":null,"sigilo_pretos_pardos":1,"dom_ocupados":52,"sigilo_dom_ocupados":0,"dom_agua":41,"sigilo_dom_agua":0,"dom_esgoto":0,"sigilo_dom_esgoto":0,"renda_resp":5187.58,"sigilo_renda_resp":0,"n_resp":52,"sigilo_n_resp":0,"dens":7.6,"sigilo_dens":false,"na_bacia":1,"area_pct_bacia":100.0,"metodo_recorte_bacia":"ponto_representativo_setor_2022; area_pct_geometrica","pop_n_validos":1,"pop_n_total":1,"pop_completude":1.0,"dom_n_validos":1,"dom_n_total":1,"dom_completude":1.0,"dom_ocupados_n_validos":1,"dom_ocupados_n_total":1,"dom_ocupados_completude":1.0,"mulheres_n_validos":1,"mulheres_n_total":1,"mulheres_completude":1.0,"c0_4_n_validos":0,"c0_4_n_total":1,"c0_4_completude":0.0,"c5_9_n_validos":0,"c5_9_n_total":1,"c5_9_completude":0.0,"i60_69_n_validos":1,"i60_69_n_total":1,"i60_69_completude":1.0,"i70m_n_validos":1,"i70m_n_total":1,"i70m_completude":1.0,"indigenas_n_validos":1,"indigenas_n_total":1,"indigenas_completude":1.0,"pretos_pardos_n_validos":0,"pretos_pardos_n_total":1,"pretos_pardos_completude":0.0,"dom_agua_n_validos":1,"dom_agua_n_total":1,"dom_agua_completude":1.0,"dom_esgoto_n_validos":1,"dom_esgoto_n_total":1,"dom_esgoto_completude":1.0,"n_resp_n_validos":1,"n_resp_n_total":1,"n_resp_completude":1.0,"renda_resp_n_validos":1,"renda_resp_n_total":1,"renda_resp_completude":1.0,"dens_n_validos":1,"dens_n_total":1,"dens_completude":1.0,"status_borda_bacia":"total","metodo_area_bacia":"interse??o geom?trica em EPSG:5880","metodo_na_bacia":"ponto_representativo_setor_2022_within_bacia","municipio":"Santo Antônio do Palma","cod_mun":"4317558","mun_pct_na_bacia":100.0,"mun_pop_total":2091,"mun_pop_na_bacia":2091.0,"mun_ubs_iede":1,"mun_hospitais_iede":null,"mun_escolas_iede":null,"mun_bombeiros_iede":null,"mun_servicos_cobertura":"cadastro_IEDE_parcial_nao_inventario","mun_icm_faixa":"A","mun_icm_pontos":15,"mun_icm_prioritario":"não","mun_ubs_iede_status":"published","mun_hospitais_iede_status":"unknown","mun_escolas_iede_status":"unknown","mun_bombeiros_iede_status":"unknown"},"geometry":{"type":"Polygon","coordinates":[[[-51.924677,-28.488951699999973],[-51.922036399999975,-28.488179],[-51.91962269999994,-28.496249899999945],[-51.915188799999946,-28.49892679999994],[-51.91550719999998,-28.500656199999977],[-51.91417059999998,-28.50369069999993],[-51.914414,-28.504870599999936],[-51.918177699999944,-28.508038299999956],[-51.91652279999994,-28.510262499999957],[-51.92218779999996,-28.509384],[-51.92388439999996,-28.510497799999932],[-51.925007,-28.512853699999937],[-51.92537389999995,-28.520417],[-51.956407899999924,-28.520616499999964],[-51.95634689999997,-28.51750379999991],[-51.958271299999986,-28.513970599999926],[-51.95755319999995,-28.51188269999994],[-51.95752379999993,-28.51067269999993],[-51.95706809999996,-28.509698699999948],[-51.958033099999966,-28.505295699999973],[-51.960372499999956,-28.503796499999964],[-51.96171659999993,-28.504182499999942],[-51.962868499999956,-28.503566899999946],[-51.96363269999995,-28.504514399999945],[-51.96384539999997,-28.505321799999926],[-51.96513339999996,-28.50599659999995],[-51.965765199999964,-28.507075199999978],[-51.967571,-28.505885699999958],[-51.96866159999996,-28.506556],[-51.97054309999998,-28.50507869999996],[-51.97554119999995,-28.504409899999928],[-51.97893539999996,-28.50428],[-51.97928349999995,-28.503275],[-51.979377699999986,-28.500532499999956],[-51.97920639999995,-28.499978799999948],[-51.979526799999974,-28.499138399999925],[-51.979296399999946,-28.49815],[-51.979429299999936,-28.497662199999972],[-51.980497699999944,-28.49616719999994],[-51.980620399999964,-28.495569199999988],[-51.98104219999993,-28.49530669999995],[-51.98143729999998,-28.49392079999995],[-51.982387899999935,-28.492871399999963],[-51.98229959999998,-28.49176789999996],[-51.981683199999964,-28.49082429999993],[-51.981188199999956,-28.48868809999993],[-51.98141719999995,-28.486762],[-51.98077689999997,-28.485835599999973],[-51.97999489999996,-28.48576269999995],[-51.97923419999996,-28.48218869999994],[-51.97751669999997,-28.47995859999998],[-51.976252,-28.480439099999952],[-51.9751179,-28.479833199999977],[-51.97637759999997,-28.478146099999943],[-51.97698989999998,-28.476721799999943],[-51.969172199999946,-28.481316699999965],[-51.967998,-28.48398259999993],[-51.95644139999997,-28.485435899999974],[-51.94750659999994,-28.48767809999999],[-51.945560899999975,-28.487826399999953],[-51.94335049999995,-28.485243899999933],[-51.939648199999965,-28.484537],[-51.93922939999994,-28.48405159999993],[-51.938434,-28.48395029999994],[-51.937927499999944,-28.483312899999923],[-51.93687029999995,-28.482892899999968],[-51.93556659999995,-28.481940599999962],[-51.933677899999964,-28.481244],[-51.93299949999994,-28.481668299999956],[-51.930567799999956,-28.482066399999947],[-51.93008379999997,-28.483000599999965],[-51.929503799999964,-28.483361599999945],[-51.93056009999998,-28.484007499999965],[-51.930487,-28.486126799999973],[-51.924677,-28.488951699999973]]]}},{"type":"Feature","properties":{"setor":"431755825000001","pop":32,"sigilo_pop":false,"dom":13,"sigilo_dom":0,"mulheres":17,"sigilo_mulheres":0,"c0_4":null,"sigilo_c0_4":1,"c5_9":0,"sigilo_c5_9":0,"i60_69":null,"sigilo_i60_69":1,"i70m":null,"sigilo_i70m":1,"indigenas":0,"sigilo_indigenas":0,"pretos_pardos":null,"sigilo_pretos_pardos":1,"dom_ocupados":12,"sigilo_dom_ocupados":0,"dom_agua":8,"sigilo_dom_agua":0,"dom_esgoto":0,"sigilo_dom_esgoto":0,"renda_resp":2762.18,"sigilo_renda_resp":0,"n_resp":12,"sigilo_n_resp":0,"dens":61.2,"sigilo_dens":false,"na_bacia":1,"area_pct_bacia":100.0,"metodo_recorte_bacia":"ponto_representativo_setor_2022; area_pct_geometrica","pop_n_validos":1,"pop_n_total":1,"pop_completude":1.0,"dom_n_validos":1,"dom_n_total":1,"dom_completude":1.0,"dom_ocupados_n_validos":1,"dom_ocupados_n_total":1,"dom_ocupados_completude":1.0,"mulheres_n_validos":1,"mulheres_n_total":1,"mulheres_completude":1.0,"c0_4_n_validos":0,"c0_4_n_total":1,"c0_4_completude":0.0,"c5_9_n_validos":1,"c5_9_n_total":1,"c5_9_completude":1.0,"i60_69_n_validos":0,"i60_69_n_total":1,"i60_69_completude":0.0,"i70m_n_validos":0,"i70m_n_total":1,"i70m_completude":0.0,"indigenas_n_validos":1,"indigenas_n_total":1,"indigenas_completude":1.0,"pretos_pardos_n_validos":0,"pretos_pardos_n_total":1,"pretos_pardos_completude":0.0,"dom_agua_n_validos":1,"dom_agua_n_total":1,"dom_agua_completude":1.0,"dom_esgoto_n_validos":1,"dom_esgoto_n_total":1,"dom_esgoto_completude":1.0,"n_resp_n_validos":1,"n_resp_n_total":1,"n_resp_completude":1.0,"renda_resp_n_validos":1,"renda_resp_n_total":1,"renda_resp_completude":1.0,"dens_n_validos":1,"dens_n_total":1,"dens_completude":1.0,"status_borda_bacia":"total","metodo_area_bacia":"interse??o geom?trica em EPSG:5880","metodo_na_bacia":"ponto_representativo_setor_2022_within_bacia","municipio":"Santo Antônio do Palma","cod_mun":"4317558","mun_pct_na_bacia":100.0,"mun_pop_total":2091,"mun_pop_na_bacia":2091.0,"mun_ubs_iede":1,"mun_hospitais_iede":null,"mun_escolas_iede":null,"mun_bombeiros_iede":null,"mun_servicos_cobertura":"cadastro_IEDE_parcial_nao_inventario","mun_icm_faixa":"A","mun_icm_pontos":15,"mun_icm_prioritario":"não","mun_ubs_iede_status":"published","mun_hospitais_iede_status":"unknown","mun_escolas_iede_status":"unknown","mun_bombeiros_iede_status":"unknown"},"geometry":{"type":"Polygon","coordinates":[[[-51.96900149999994,-28.45891679999993],[-51.96902869999997,-28.463712799999925],[-51.979358899999966,-28.46328719999996],[-51.97917019999994,-28.458696],[-51.96900149999994,-28.45891679999993]]]}},{"type":"Feature","properties":{"setor":"431755825000002","pop":161,"sigilo_pop":false,"dom":81,"sigilo_dom":0,"mulheres":78,"sigilo_mulheres":0,"c0_4":7,"sigilo_c0_4":0,"c5_9":9,"sigilo_c5_9":0,"i60_69":29,"sigilo_i60_69":0,"i70m":13,"sigilo_i70m":0,"indigenas":0,"sigilo_indigenas":0,"pretos_pardos":null,"sigilo_pretos_pardos":1,"dom_ocupados":64,"sigilo_dom_ocupados":0,"dom_agua":55,"sigilo_dom_agua":0,"dom_esgoto":0,"sigilo_dom_esgoto":0,"renda_resp":3685.31,"sigilo_renda_resp":0,"n_resp":64,"sigilo_n_resp":0,"dens":7.7,"sigilo_dens":false,"na_bacia":1,"area_pct_bacia":100.0,"metodo_recorte_bacia":"ponto_representativo_setor_2022; area_pct_geometrica","pop_n_validos":1,"pop_n_total":1,"pop_completude":1.0,"dom_n_validos":1,"dom_n_total":1,"dom_completude":1.0,"dom_ocupados_n_validos":1,"dom_ocupados_n_total":1,"dom_ocupados_completude":1.0,"mulheres_n_validos":1,"mulheres_n_total":1,"mulheres_completude":1.0,"c0_4_n_validos":1,"c0_4_n_total":1,"c0_4_completude":1.0,"c5_9_n_validos":1,"c5_9_n_total":1,"c5_9_completude":1.0,"i60_69_n_validos":1,"i60_69_n_total":1,"i60_69_completude":1.0,"i70m_n_validos":1,"i70m_n_total":1,"i70m_completude":1.0,"indigenas_n_validos":1,"indigenas_n_total":1,"indigenas_completude":1.0,"pretos_pardos_n_validos":0,"pretos_pardos_n_total":1,"pretos_pardos_completude":0.0,"dom_agua_n_validos":1,"dom_agua_n_total":1,"dom_agua_completude":1.0,"dom_esgoto_n_validos":1,"dom_esgoto_n_total":1,"dom_esgoto_completude":1.0,"n_resp_n_validos":1,"n_resp_n_total":1,"n_resp_completude":1.0,"renda_resp_n_validos":1,"renda_resp_n_total":1,"renda_resp_completude":1.0,"dens_n_validos":1,"dens_n_total":1,"dens_completude":1.0,"status_borda_bacia":"total","metodo_area_bacia":"interse??o geom?trica em EPSG:5880","metodo_na_bacia":"ponto_representativo_setor_2022_within_bacia","municipio":"Santo Antônio do Palma","cod_mun":"4317558","mun_pct_na_bacia":100.0,"mun_pop_total":2091,"mun_pop_na_bacia":2091.0,"mun_ubs_iede":1,"mun_hospitais_iede":null,"mun_escolas_iede":null,"mun_bombeiros_iede":null,"mun_servicos_cobertura":"cadastro_IEDE_parcial_nao_inventario","mun_icm_faixa":"A","mun_icm_pontos":15,"mun_icm_prioritario":"não","mun_ubs_iede_status":"published","mun_hospitais_iede_status":"unknown","mun_escolas_iede_status":"unknown","mun_bombeiros_iede_status":"unknown"},"geometry":{"type":"Polygon","coordinates":[[[-51.991050099999946,-28.439433399999935],[-51.984841399999944,-28.443263599999966],[-51.98312009999995,-28.44277349999992],[-51.98199949999997,-28.443397399999988],[-51.976298,-28.443995499999975],[-51.97572989999998,-28.447234299999938],[-51.97180769999994,-28.453138099999933],[-51.97065829999997,-28.452799],[-51.96903569999996,-28.4506641],[-51.964731,-28.453587199999973],[-51.961172799999986,-28.45404719999993],[-51.96134669999998,-28.45589709999996],[-51.96438839999996,-28.458039799999924],[-51.96479069999997,-28.45926439999993],[-51.95826049999994,-28.466162399999973],[-51.95672419999994,-28.47127889999995],[-51.953024099999936,-28.469901],[-51.95035859999996,-28.470323599999972],[-51.94834929999996,-28.46923619999995],[-51.947061099999985,-28.46931239999997],[-51.941354399999966,-28.473626],[-51.94120689999994,-28.476964799999973],[-51.94045689999995,-28.477558599999945],[-51.934102,-28.47541479999995],[-51.930762799999975,-28.476854099999965],[-51.9266583,-28.476422699999944],[-51.92577679999994,-28.477946299999925],[-51.92642509999996,-28.479265799999936],[-51.92617259999997,-28.482932099999953],[-51.93015719999995,-28.484914],[-51.930487,-28.486126799999973],[-51.93056009999998,-28.484007499999965],[-51.929503799999964,-28.483361599999945],[-51.93008379999997,-28.483000599999965],[-51.930567799999956,-28.482066399999947],[-51.93299949999994,-28.481668299999956],[-51.933677899999964,-28.481244],[-51.93556659999995,-28.481940599999962],[-51.93687029999995,-28.482892899999968],[-51.937927499999944,-28.483312899999923],[-51.938434,-28.48395029999994],[-51.93922939999994,-28.48405159999993],[-51.939648199999965,-28.484537],[-51.94335049999995,-28.485243899999933],[-51.945560899999975,-28.487826399999953],[-51.94750659999994,-28.48767809999999],[-51.95644139999997,-28.485435899999974],[-51.967998,-28.48398259999993],[-51.969172199999946,-28.481316699999965],[-51.977869,-28.476154499999947],[-51.97898139999996,-28.475763699999955],[-51.9798292,-28.476121899999953],[-51.981796699999954,-28.477691199999978],[-51.98264489999997,-28.47794249999998],[-51.983085,-28.47882469999996],[-51.98261259999998,-28.47979929999996],[-51.98530129999995,-28.481455299999933],[-51.987865099999965,-28.483653099999966],[-51.98799059999993,-28.485143399999963],[-51.98913479999994,-28.48576989999997],[-51.98999849999996,-28.48594609999998],[-51.99052679999994,-28.485718499999958],[-51.99117449999994,-28.484737399999972],[-51.99517039999995,-28.482441899999976],[-51.99748419999998,-28.484258499999942],[-51.99854819999996,-28.484727899999942],[-52.003099,-28.484908699999952],[-52.004513599999946,-28.485170599999943],[-52.006278299999956,-28.484864899999934],[-52.008208799999984,-28.485043199999957],[-52.008228299999985,-28.483014599999937],[-52.00776349999996,-28.481781299999962],[-52.007594099999956,-28.47959759999997],[-52.007369,-28.479366599999942],[-52.007338199999936,-28.475609399999925],[-52.00724679999997,-28.47527979999995],[-52.00589929999996,-28.474320499999976],[-52.005367699999965,-28.473036699999966],[-52.00585579999994,-28.471321899999953],[-52.00639019999994,-28.470450399999965],[-52.006381,-28.469920599999977],[-52.005161399999956,-28.467231699999953],[-52.00412289999997,-28.46619649999997],[-52.00329169999998,-28.465757],[-52.002882899999975,-28.465189599999977],[-52.002919899999945,-28.464832899999966],[-52.00353859999996,-28.464133099999962],[-52.00332909999998,-28.463314699999952],[-52.002902,-28.462943499999934],[-52.001592199999955,-28.463077899999956],[-52.000782499999964,-28.462780899999924],[-51.99969589999995,-28.463056199999986],[-51.99941989999996,-28.462939799999965],[-52.00326689999998,-28.45137],[-52.00319069999995,-28.450612199999963],[-52.00254749999994,-28.450106199999937],[-52.001189,-28.447172],[-52.000674799999956,-28.446844399999982],[-51.99975869999997,-28.44668539999998],[-51.99906869999995,-28.446216299999943],[-51.99798339999995,-28.44629859999998],[-51.99746819999995,-28.44603819999997],[-51.997472899999934,-28.445469599999967],[-51.99863269999998,-28.44321519999994],[-51.99886089999996,-28.442173399999938],[-51.99875179999998,-28.440808899999986],[-51.999188,-28.440633399999975],[-51.99916079999998,-28.439533],[-51.99822439999997,-28.43775489999996],[-51.99402049999998,-28.43800239999997],[-51.991050099999946,-28.439433399999935]],[[-51.96900149999994,-28.45891679999993],[-51.97917019999994,-28.458696],[-51.979358899999966,-28.46328719999996],[-51.96902869999997,-28.463712799999925],[-51.96900149999994,-28.45891679999993]]]}},{"type":"Feature","properties":{"setor":"431755830000001","pop":53,"sigilo_pop":false,"dom":25,"sigilo_dom":0,"mulheres":27,"sigilo_mulheres":0,"c0_4":null,"sigilo_c0_4":1,"c5_9":null,"sigilo_c5_9":1,"i60_69":9,"sigilo_i60_69":0,"i70m":6,"sigilo_i70m":0,"indigenas":0,"sigilo_indigenas":0,"pretos_pardos":13,"sigilo_pretos_pardos":0,"dom_ocupados":21,"sigilo_dom_ocupados":0,"dom_agua":21,"sigilo_dom_agua":0,"dom_esgoto":0,"sigilo_dom_esgoto":0,"renda_resp":4864.95,"sigilo_renda_resp":0,"n_resp":21,"sigilo_n_resp":0,"dens":191.2,"sigilo_dens":false,"na_bacia":1,"area_pct_bacia":100.0,"metodo_recorte_bacia":"ponto_representativo_setor_2022; area_pct_geometrica","pop_n_validos":1,"pop_n_total":1,"pop_completude":1.0,"dom_n_validos":1,"dom_n_total":1,"dom_completude":1.0,"dom_ocupados_n_validos":1,"dom_ocupados_n_total":1,"dom_ocupados_completude":1.0,"mulheres_n_validos":1,"mulheres_n_total":1,"mulheres_completude":1.0,"c0_4_n_validos":0,"c0_4_n_total":1,"c0_4_completude":0.0,"c5_9_n_validos":0,"c5_9_n_total":1,"c5_9_completude":0.0,"i60_69_n_validos":1,"i60_69_n_total":1,"i60_69_completude":1.0,"i70m_n_validos":1,"i70m_n_total":1,"i70m_completude":1.0,"indigenas_n_validos":1,"indigenas_n_total":1,"indigenas_completude":1.0,"pretos_pardos_n_validos":1,"pretos_pardos_n_total":1,"pretos_pardos_completude":1.0,"dom_agua_n_validos":1,"dom_agua_n_total":1,"dom_agua_completude":1.0,"dom_esgoto_n_validos":1,"dom_esgoto_n_total":1,"dom_esgoto_completude":1.0,"n_resp_n_validos":1,"n_resp_n_total":1,"n_resp_completude":1.0,"renda_resp_n_validos":1,"renda_resp_n_total":1,"renda_resp_completude":1.0,"dens_n_validos":1,"dens_n_total":1,"dens_completude":1.0,"status_borda_bacia":"total","metodo_area_bacia":"interse??o geom?trica em EPSG:5880","metodo_na_bacia":"ponto_representativo_setor_2022_within_bacia","municipio":"Santo Antônio do Palma","cod_mun":"4317558","mun_pct_na_bacia":100.0,"mun_pop_total":2091,"mun_pop_na_bacia":2091.0,"mun_ubs_iede":1,"mun_hospitais_iede":null,"mun_escolas_iede":null,"mun_bombeiros_iede":null,"mun_servicos_cobertura":"cadastro_IEDE_parcial_nao_inventario","mun_icm_faixa":"A","mun_icm_pontos":15,"mun_icm_prioritario":"não","mun_ubs_iede_status":"published","mun_hospitais_iede_status":"unknown","mun_escolas_iede_status":"unknown","mun_bombeiros_iede_status":"unknown"},"geometry":{"type":"Polygon","coordinates":[[[-52.03323159999996,-28.46979079999993],[-52.03380549999997,-28.466857799999957],[-52.035152399999966,-28.464265799999957],[-52.030612,-28.46307979999995],[-52.02992379999995,-28.465993799999968],[-52.029676,-28.470013199999986],[-52.03323159999996,-28.46979079999993]]]}},{"type":"Feature","properties":{"setor":"431755830000002","pop":125,"sigilo_pop":false,"dom":51,"sigilo_dom":0,"mulheres":55,"sigilo_mulheres":0,"c0_4":null,"sigilo_c0_4":1,"c5_9":null,"sigilo_c5_9":1,"i60_69":21,"sigilo_i60_69":0,"i70m":16,"sigilo_i70m":0,"indigenas":0,"sigilo_indigenas":0,"pretos_pardos":null,"sigilo_pretos_pardos":1,"dom_ocupados":43,"sigilo_dom_ocupados":0,"dom_agua":35,"sigilo_dom_agua":0,"dom_esgoto":0,"sigilo_dom_esgoto":0,"renda_resp":2676.0,"sigilo_renda_resp":0,"n_resp":43,"sigilo_n_resp":0,"dens":7.5,"sigilo_dens":false,"na_bacia":1,"area_pct_bacia":100.0,"metodo_recorte_bacia":"ponto_representativo_setor_2022; area_pct_geometrica","pop_n_validos":1,"pop_n_total":1,"pop_completude":1.0,"dom_n_validos":1,"dom_n_total":1,"dom_completude":1.0,"dom_ocupados_n_validos":1,"dom_ocupados_n_total":1,"dom_ocupados_completude":1.0,"mulheres_n_validos":1,"mulheres_n_total":1,"mulheres_completude":1.0,"c0_4_n_validos":0,"c0_4_n_total":1,"c0_4_completude":0.0,"c5_9_n_validos":0,"c5_9_n_total":1,"c5_9_completude":0.0,"i60_69_n_validos":1,"i60_69_n_total":1,"i60_69_completude":1.0,"i70m_n_validos":1,"i70m_n_total":1,"i70m_completude":1.0,"indigenas_n_validos":1,"indigenas_n_total":1,"indigenas_completude":1.0,"pretos_pardos_n_validos":0,"pretos_pardos_n_total":1,"pretos_pardos_completude":0.0,"dom_agua_n_validos":1,"dom_agua_n_total":1,"dom_agua_completude":1.0,"dom_esgoto_n_validos":1,"dom_esgoto_n_total":1,"dom_esgoto_completude":1.0,"n_resp_n_validos":1,"n_resp_n_total":1,"n_resp_completude":1.0,"renda_resp_n_validos":1,"renda_resp_n_total":1,"renda_resp_completude":1.0,"dens_n_validos":1,"dens_n_total":1,"dens_completude":1.0,"status_borda_bacia":"total","metodo_area_bacia":"interse??o geom?trica em EPSG:5880","metodo_na_bacia":"ponto_representativo_setor_2022_within_bacia","municipio":"Santo Antônio do Palma","cod_mun":"4317558","mun_pct_na_bacia":100.0,"mun_pop_total":2091,"mun_pop_na_bacia":2091.0,"mun_ubs_iede":1,"mun_hospitais_iede":null,"mun_escolas_iede":null,"mun_bombeiros_iede":null,"mun_servicos_cobertura":"cadastro_IEDE_parcial_nao_inventario","mun_icm_faixa":"A","mun_icm_pontos":15,"mun_icm_prioritario":"não","mun_ubs_iede_status":"published","mun_hospitais_iede_status":"unknown","mun_escolas_iede_status":"unknown","mun_bombeiros_iede_status":"unknown"},"geometry":{"type":"Polygon","coordinates":[[[-52.008208799999984,-28.485043199999957],[-52.01081549999998,-28.484656799999982],[-52.01316769999995,-28.482338499999965],[-52.01379859999997,-28.482004299999968],[-52.040775,-28.478414],[-52.04173939999998,-28.47929359999995],[-52.04237409999997,-28.479462299999955],[-52.043652599999966,-28.47877569999996],[-52.04534329999996,-28.478417399999955],[-52.046146299999975,-28.478890299999936],[-52.04706759999993,-28.47906],[-52.04938069999997,-28.478950599999965],[-52.05037959999998,-28.478668199999944],[-52.05273,-28.478833199999936],[-52.053008699999964,-28.479075199999954],[-52.053332799999964,-28.480415499999935],[-52.055105499999975,-28.481530899999928],[-52.05477229999997,-28.48218709999998],[-52.05497859999998,-28.48266109999998],[-52.05778559999993,-28.483585299999962],[-52.05882929999996,-28.48358509999997],[-52.06082869999994,-28.48411039999996],[-52.06115919999996,-28.484449299999927],[-52.062004799999954,-28.48410179999996],[-52.063663599999984,-28.48418039999995],[-52.06470309999997,-28.484507899999983],[-52.065513599999974,-28.48508879999997],[-52.065886399999954,-28.48318],[-52.06417709999994,-28.482091299999976],[-52.062351599999936,-28.482782399999955],[-52.06351889999996,-28.479375],[-52.06246459999994,-28.478938699999947],[-52.06245209999997,-28.474087499999943],[-52.061731,-28.472523],[-52.06224449999996,-28.47063429999997],[-52.058092399999964,-28.46843909999994],[-52.058414599999935,-28.464893299999975],[-52.05683129999994,-28.464301599999942],[-52.056391099999985,-28.463018899999955],[-52.05348649999996,-28.465435399999933],[-52.05128569999994,-28.46393989999996],[-52.04952309999993,-28.464386399999963],[-52.04774,-28.461997599999954],[-52.04461949999995,-28.460991199999974],[-52.044257699999946,-28.457400499999935],[-52.04273859999995,-28.45749319999993],[-52.03171969999994,-28.453627899999955],[-52.02719229999996,-28.449988599999976],[-52.022144799999985,-28.44968269999998],[-52.017852,-28.451228499999946],[-52.016166899999966,-28.448508799999946],[-52.01443279999995,-28.44853039999998],[-52.01254909999994,-28.445794199999956],[-52.009212,-28.44434369999994],[-52.00750569999997,-28.441466599999963],[-52.00477,-28.44110989999997],[-51.99834869999995,-28.437818899999957],[-51.99834569999996,-28.438293],[-51.99916079999998,-28.439533],[-51.99920329999998,-28.440585],[-51.99875179999998,-28.440808899999986],[-51.99886089999996,-28.442173399999938],[-51.99863269999998,-28.44321519999994],[-51.997472899999934,-28.445469599999967],[-51.99746819999995,-28.44603819999997],[-51.99798339999995,-28.44629859999998],[-51.99906869999995,-28.446216299999943],[-51.99975869999997,-28.44668539999998],[-52.000674799999956,-28.446844399999982],[-52.001189,-28.447172],[-52.00254749999994,-28.450106199999937],[-52.00319069999995,-28.450612199999963],[-52.00326689999998,-28.45137],[-51.99941989999996,-28.462939799999965],[-51.99969589999995,-28.463056199999986],[-52.000782499999964,-28.462780899999924],[-52.001592199999955,-28.463077899999956],[-52.002902,-28.462943499999934],[-52.00332909999998,-28.463314699999952],[-52.00353859999996,-28.464133099999962],[-52.002919899999945,-28.464832899999966],[-52.002882899999975,-28.465189599999977],[-52.00329169999998,-28.465757],[-52.00412289999997,-28.46619649999997],[-52.005161399999956,-28.467231699999953],[-52.006381,-28.469920599999977],[-52.00639019999994,-28.470450399999965],[-52.00585579999994,-28.471321899999953],[-52.005367699999965,-28.473036699999966],[-52.00589929999996,-28.474320499999976],[-52.00724679999997,-28.47527979999995],[-52.007338199999936,-28.475609399999925],[-52.007369,-28.479366599999942],[-52.007594099999956,-28.47959759999997],[-52.00776349999996,-28.481781299999962],[-52.008228299999985,-28.483014599999937],[-52.008208799999984,-28.485043199999957]],[[-52.03323159999996,-28.46979079999993],[-52.029676,-28.470013199999986],[-52.02992379999995,-28.465993799999968],[-52.030612,-28.46307979999995],[-52.035152399999966,-28.464265799999957],[-52.03380549999997,-28.466857799999957],[-52.03323159999996,-28.46979079999993]]]}}]}
