{"type":"FeatureCollection","name":"4317251","crs":{"type":"name","properties":{"name":"urn:ogc:def:crs:OGC:1.3:CRS84"}},"features":[{"type":"Feature","properties":{"setor":"431725105000003","pop":182,"sigilo_pop":false,"dom":84,"sigilo_dom":false,"mulheres":96,"sigilo_mulheres":false,"c0_4":null,"sigilo_c0_4":true,"c5_9":14,"sigilo_c5_9":false,"i60_69":27,"sigilo_i60_69":false,"i70m":22,"sigilo_i70m":false,"indigenas":0,"sigilo_indigenas":false,"pretos_pardos":11,"sigilo_pretos_pardos":false,"dom_ocupados":72,"sigilo_dom_ocupados":false,"dom_agua":72,"sigilo_dom_agua":false,"dom_esgoto":null,"sigilo_dom_esgoto":true,"renda_resp":3156.67,"sigilo_renda_resp":false,"n_resp":72,"sigilo_n_resp":false,"dens":251.1,"sigilo_dens":false,"na_bacia":1,"area_pct_bacia":100.0,"metodo_recorte_bacia":"ponto_representativo_setor_2022; area_pct_geometrica"},"geometry":{"type":"Polygon","coordinates":[[[-51.71948879999996,-29.175022799999958],[-51.71969969999998,-29.177874399999947],[-51.732079,-29.17484179999997],[-51.733124799999985,-29.17235069999998],[-51.73006009999995,-29.17272849999995],[-51.730820499999936,-29.170054399999962],[-51.733154499999955,-29.164444399999987],[-51.730395,-29.16444619999994],[-51.72799289999995,-29.171035],[-51.72638639999997,-29.171556599999974],[-51.72486489999995,-29.17151959999996],[-51.721494,-29.174462099999985],[-51.71948879999996,-29.175022799999958]]]}},{"type":"Feature","properties":{"setor":"431725105000004","pop":247,"sigilo_pop":false,"dom":184,"sigilo_dom":false,"mulheres":113,"sigilo_mulheres":false,"c0_4":null,"sigilo_c0_4":true,"c5_9":6,"sigilo_c5_9":false,"i60_69":47,"sigilo_i60_69":false,"i70m":67,"sigilo_i70m":false,"indigenas":0,"sigilo_indigenas":false,"pretos_pardos":5,"sigilo_pretos_pardos":false,"dom_ocupados":99,"sigilo_dom_ocupados":false,"dom_agua":88,"sigilo_dom_agua":false,"dom_esgoto":0,"sigilo_dom_esgoto":false,"renda_resp":3340.74,"sigilo_renda_resp":false,"n_resp":99,"sigilo_n_resp":false,"dens":12.9,"sigilo_dens":false,"na_bacia":1,"area_pct_bacia":100.0,"metodo_recorte_bacia":"ponto_representativo_setor_2022; area_pct_geometrica"},"geometry":{"type":"Polygon","coordinates":[[[-51.69547509999995,-29.097251399999966],[-51.69544379999997,-29.140021499999932],[-51.69645649999995,-29.139918799999965],[-51.69720219999994,-29.140334],[-51.69851329999995,-29.140258799999973],[-51.70021909999997,-29.14071009999999],[-51.70103379999995,-29.141692499999976],[-51.70281649999998,-29.142401],[-51.703974,-29.143771499999957],[-51.70446059999995,-29.145864099999987],[-51.70594269999998,-29.148140199999943],[-51.70651539999995,-29.149519599999962],[-51.70825429999997,-29.150037099999974],[-51.710454699999964,-29.15108559999993],[-51.713057299999946,-29.151254099999964],[-51.71441719999996,-29.15107359999996],[-51.71567449999998,-29.152012199999938],[-51.7166486,-29.152364199999973],[-51.72013739999995,-29.152082899999982],[-51.72203469999994,-29.15151279999999],[-51.72615559999997,-29.151861799999942],[-51.728160499999944,-29.15126609999992],[-51.73192579999994,-29.1525688],[-51.73403749999994,-29.152249899999962],[-51.735119199999986,-29.152641],[-51.735449899999935,-29.152935799999966],[-51.736057899999935,-29.15497859999994],[-51.73865019999994,-29.15708149999994],[-51.739146299999966,-29.156973199999978],[-51.739122099999975,-29.156539899999913],[-51.73938829999997,-29.15624859999995],[-51.741444,-29.15715969999995],[-51.742325899999976,-29.157057399999932],[-51.74407069999996,-29.159470099999957],[-51.74485619999996,-29.16019209999996],[-51.74483549999997,-29.16117279999997],[-51.74410519999998,-29.162628699999964],[-51.743092599999954,-29.16312209999995],[-51.742036599999956,-29.16230349999996],[-51.74165819999996,-29.16228549999994],[-51.740728,-29.163632699999923],[-51.74055409999994,-29.16445129999994],[-51.74705729999994,-29.164477299999916],[-51.756492499999986,-29.140705699999963],[-51.75639239999998,-29.13887869999997],[-51.753395,-29.136811],[-51.748713599999974,-29.136653199999948],[-51.739347399999986,-29.137854699999934],[-51.739129,-29.136753499999948],[-51.73610259999998,-29.136304699999982],[-51.73055019999999,-29.133782199999914],[-51.72401019999996,-29.125390599999953],[-51.72262879999994,-29.12190139999996],[-51.71851769999995,-29.118706699999958],[-51.713233799999955,-29.116789599999958],[-51.71222619999997,-29.11565409999998],[-51.71302469999994,-29.112397699999967],[-51.71721,-29.108904399999968],[-51.70590469999996,-29.105380099999937],[-51.702456,-29.096062499999967],[-51.69547509999995,-29.097251399999966]]]}},{"type":"Feature","properties":{"setor":"431725105000006","pop":167,"sigilo_pop":false,"dom":93,"sigilo_dom":false,"mulheres":78,"sigilo_mulheres":false,"c0_4":null,"sigilo_c0_4":true,"c5_9":null,"sigilo_c5_9":true,"i60_69":26,"sigilo_i60_69":false,"i70m":33,"sigilo_i70m":false,"indigenas":0,"sigilo_indigenas":false,"pretos_pardos":null,"sigilo_pretos_pardos":true,"dom_ocupados":59,"sigilo_dom_ocupados":false,"dom_agua":56,"sigilo_dom_agua":false,"dom_esgoto":0,"sigilo_dom_esgoto":false,"renda_resp":2998.1,"sigilo_renda_resp":false,"n_resp":59,"sigilo_n_resp":false,"dens":17.7,"sigilo_dens":false,"na_bacia":1,"area_pct_bacia":100.0,"metodo_recorte_bacia":"ponto_representativo_setor_2022; area_pct_geometrica"},"geometry":{"type":"Polygon","coordinates":[[[-51.677989199999956,-29.19852649999996],[-51.67752569999993,-29.21263409999994],[-51.687176499999964,-29.21266739999993],[-51.688871899999974,-29.210783399999954],[-51.688889899999936,-29.20978349999996],[-51.689636,-29.208118099999975],[-51.69108619999997,-29.207051599999943],[-51.69789469999994,-29.20353989999995],[-51.699225199999944,-29.20249149999995],[-51.70094159999997,-29.20193909999994],[-51.702185,-29.20099909999993],[-51.70426719999995,-29.20024049999996],[-51.70520479999994,-29.200164599999944],[-51.707344399999954,-29.199168599999943],[-51.70868779999996,-29.199041],[-51.709452099999965,-29.197590099999935],[-51.70998,-29.19565719999997],[-51.70885179999994,-29.19450219999993],[-51.70868729999995,-29.19390879999998],[-51.70851849999997,-29.191827299999943],[-51.70885279999993,-29.188469399999985],[-51.70940549999995,-29.188058099999974],[-51.70939109999995,-29.187117899999965],[-51.71016359999993,-29.186023499999973],[-51.71271729999995,-29.184853699999973],[-51.71571469999998,-29.183961699999944],[-51.71649819999994,-29.183335299999946],[-51.71725729999998,-29.183205599999948],[-51.71701859999996,-29.182563499999958],[-51.717603,-29.181206699999954],[-51.71662609999998,-29.177473599999935],[-51.71720479999994,-29.176257099999923],[-51.716589099999965,-29.176762199999914],[-51.71614669999997,-29.17803549999997],[-51.715241,-29.17821469999995],[-51.71529689999995,-29.177329599999943],[-51.71480549999996,-29.176053599999932],[-51.71454279999995,-29.17604219999998],[-51.713797599999964,-29.177613699999934],[-51.713248,-29.177791099999975],[-51.713036699999975,-29.178197599999972],[-51.71348439999998,-29.18098709999998],[-51.70787919999998,-29.183387599999943],[-51.70663949999994,-29.183280199999952],[-51.70547149999994,-29.182852199999946],[-51.703931199999936,-29.18161069999995],[-51.703455199999944,-29.180498199999935],[-51.70282329999998,-29.180118399999973],[-51.702918599999975,-29.180907899999966],[-51.701234899999974,-29.182491099999922],[-51.698918699999986,-29.18320139999998],[-51.69738619999998,-29.18258749999995],[-51.69637749999998,-29.18392049999994],[-51.69507569999996,-29.184249399999945],[-51.694400499999965,-29.184088299999928],[-51.69386109999993,-29.18332639999994],[-51.692338399999976,-29.182816499999944],[-51.691521,-29.18199119999997],[-51.69151519999997,-29.181557],[-51.69285229999997,-29.178542],[-51.68978149999999,-29.179064099999934],[-51.687968,-29.18005659999994],[-51.687485,-29.180741099999988],[-51.68672959999998,-29.181224099999945],[-51.68620069999997,-29.181309799999948],[-51.685665099999945,-29.180789699999924],[-51.68529869999997,-29.18077629999994],[-51.683562699999975,-29.182063],[-51.681917,-29.183759299999956],[-51.680411099999965,-29.184796499999955],[-51.67890719999996,-29.186611],[-51.67732529999995,-29.18698059999997],[-51.67669239999998,-29.190095399999958],[-51.677362599999974,-29.190972399999957],[-51.67741959999995,-29.1914599],[-51.676697599999954,-29.192808099999972],[-51.676071399999955,-29.193156399999957],[-51.67356219999994,-29.19342979999992],[-51.672805,-29.194205199999942],[-51.67262589999996,-29.195011199999946],[-51.67032329999995,-29.196247],[-51.669841899999945,-29.196384],[-51.668312399999934,-29.196030499999956],[-51.667355199999975,-29.19506889999996],[-51.666483,-29.194838199999936],[-51.665743,-29.19493589999996],[-51.66523319999993,-29.19411459999998],[-51.665179199999955,-29.193498199999958],[-51.66425529999998,-29.19325859999998],[-51.663444,-29.193590199999957],[-51.662450699999965,-29.196134899999944],[-51.661156699999935,-29.194850399999954],[-51.66007769999993,-29.194599399999955],[-51.658442199999975,-29.194943],[-51.657575,-29.19697249999996],[-51.65618009999997,-29.19590029999994],[-51.65416479999993,-29.196178399999944],[-51.654082,-29.19814529999995],[-51.66560509999994,-29.198145299999965],[-51.677989199999956,-29.19852649999996]]]}},{"type":"Feature","properties":{"setor":"431725105000007","pop":161,"sigilo_pop":false,"dom":80,"sigilo_dom":false,"mulheres":78,"sigilo_mulheres":false,"c0_4":9,"sigilo_c0_4":false,"c5_9":11,"sigilo_c5_9":false,"i60_69":25,"sigilo_i60_69":false,"i70m":17,"sigilo_i70m":false,"indigenas":0,"sigilo_indigenas":false,"pretos_pardos":40,"sigilo_pretos_pardos":false,"dom_ocupados":54,"sigilo_dom_ocupados":false,"dom_agua":29,"sigilo_dom_agua":false,"dom_esgoto":0,"sigilo_dom_esgoto":false,"renda_resp":2451.92,"sigilo_renda_resp":false,"n_resp":54,"sigilo_n_resp":false,"dens":10.1,"sigilo_dens":false,"na_bacia":1,"area_pct_bacia":100.0,"metodo_recorte_bacia":"ponto_representativo_setor_2022; area_pct_geometrica"},"geometry":{"type":"Polygon","coordinates":[[[-51.745014399999945,-29.207082699999944],[-51.75000329999995,-29.208096399999928],[-51.752056799999934,-29.203875099999948],[-51.752549499999986,-29.199161299999943],[-51.754241199999974,-29.198268],[-51.755144899999955,-29.194414199999986],[-51.75692249999998,-29.19264029999994],[-51.756775699999935,-29.188428099999964],[-51.758011599999975,-29.185171499999974],[-51.754285599999946,-29.186608799999934],[-51.740051899999976,-29.186403699999964],[-51.735808099999986,-29.183733799999978],[-51.73351109999993,-29.180497099999968],[-51.733685699999974,-29.178819899999958],[-51.731077,-29.177832599999924],[-51.7315541,-29.177165299999952],[-51.731595099999936,-29.17627139999996],[-51.732079,-29.17484179999997],[-51.71969969999998,-29.177874399999947],[-51.719530099999986,-29.17565],[-51.71720479999994,-29.176257099999923],[-51.71668589999996,-29.177159899999946],[-51.716683199999984,-29.178060799999955],[-51.717603,-29.181206699999954],[-51.71701859999996,-29.182563499999958],[-51.71725729999998,-29.183205599999948],[-51.71649819999994,-29.183335299999946],[-51.71571469999998,-29.183961699999944],[-51.71148979999998,-29.18534089999996],[-51.710065499999985,-29.186086599999953],[-51.709429899999975,-29.187022],[-51.709433299999944,-29.187995299999958],[-51.70881769999994,-29.18859189999995],[-51.70851849999997,-29.191827299999943],[-51.70885179999994,-29.19450219999993],[-51.70998,-29.19565719999997],[-51.709452099999965,-29.197590099999935],[-51.70868779999996,-29.199041],[-51.707344399999954,-29.199168599999943],[-51.70520479999994,-29.200164599999944],[-51.70426719999995,-29.20024049999996],[-51.702185,-29.20099909999993],[-51.70094159999997,-29.20193909999994],[-51.699225199999944,-29.20249149999995],[-51.69789469999994,-29.20353989999995],[-51.69108619999997,-29.207051599999943],[-51.689636,-29.208118099999975],[-51.688889899999936,-29.20978349999996],[-51.688871899999974,-29.210783399999954],[-51.687176499999964,-29.21266739999993],[-51.73056469999995,-29.212350499999953],[-51.745014399999945,-29.207082699999944]]]}},{"type":"Feature","properties":{"setor":"431725105000009","pop":53,"sigilo_pop":false,"dom":51,"sigilo_dom":false,"mulheres":29,"sigilo_mulheres":false,"c0_4":null,"sigilo_c0_4":true,"c5_9":null,"sigilo_c5_9":true,"i60_69":12,"sigilo_i60_69":false,"i70m":11,"sigilo_i70m":false,"indigenas":0,"sigilo_indigenas":false,"pretos_pardos":0,"sigilo_pretos_pardos":false,"dom_ocupados":22,"sigilo_dom_ocupados":false,"dom_agua":22,"sigilo_dom_agua":false,"dom_esgoto":0,"sigilo_dom_esgoto":false,"renda_resp":2544.0,"sigilo_renda_resp":false,"n_resp":22,"sigilo_n_resp":false,"dens":10.1,"sigilo_dens":false,"na_bacia":1,"area_pct_bacia":100.0,"metodo_recorte_bacia":"ponto_representativo_setor_2022; area_pct_geometrica"},"geometry":{"type":"Polygon","coordinates":[[[-51.71404249999995,-29.09067069999998],[-51.70835539999996,-29.0950577],[-51.702456,-29.096062499999967],[-51.70590469999996,-29.105380099999937],[-51.71721,-29.108904399999968],[-51.72139539999995,-29.105411],[-51.72997209999994,-29.094504299999976],[-51.73074259999998,-29.084763799999966],[-51.728362199999935,-29.079758899999945],[-51.7251596,-29.077543799999948],[-51.72100849999998,-29.077965],[-51.719597799999974,-29.079145],[-51.71644549999997,-29.087276499999973],[-51.71404249999995,-29.09067069999998]]]}},{"type":"Feature","properties":{"setor":"431725105000013","pop":138,"sigilo_pop":false,"dom":80,"sigilo_dom":false,"mulheres":63,"sigilo_mulheres":false,"c0_4":11,"sigilo_c0_4":false,"c5_9":3,"sigilo_c5_9":false,"i60_69":21,"sigilo_i60_69":false,"i70m":28,"sigilo_i70m":false,"indigenas":0,"sigilo_indigenas":false,"pretos_pardos":6,"sigilo_pretos_pardos":false,"dom_ocupados":52,"sigilo_dom_ocupados":false,"dom_agua":47,"sigilo_dom_agua":false,"dom_esgoto":0,"sigilo_dom_esgoto":false,"renda_resp":2627.53,"sigilo_renda_resp":false,"n_resp":52,"sigilo_n_resp":false,"dens":14.7,"sigilo_dens":false,"na_bacia":1,"area_pct_bacia":100.0,"metodo_recorte_bacia":"ponto_representativo_setor_2022; area_pct_geometrica"},"geometry":{"type":"Polygon","coordinates":[[[-51.66514849999999,-29.158889899999956],[-51.66524109999995,-29.16851219999995],[-51.665557399999955,-29.16849829999995],[-51.665532,-29.176092299999933],[-51.66789489999997,-29.17563319999994],[-51.67061119999995,-29.175507699999972],[-51.67138929999993,-29.176352599999976],[-51.67237359999996,-29.17815589999998],[-51.67295489999998,-29.177897499999972],[-51.67350669999996,-29.177235199999984],[-51.67397529999994,-29.17508869999995],[-51.67444359999997,-29.174111],[-51.676198399999976,-29.171901299999945],[-51.677536799999984,-29.170914199999963],[-51.67829379999995,-29.16948829999995],[-51.67890019999998,-29.168916],[-51.680006299999945,-29.168531099999946],[-51.68183619999996,-29.168489299999965],[-51.68376909999994,-29.16748179999995],[-51.68544689999993,-29.165974299999963],[-51.688927199999966,-29.164267],[-51.69002409999997,-29.164131299999948],[-51.69196129999995,-29.164266399999978],[-51.6936396,-29.16260719999997],[-51.69654029999998,-29.162301299999967],[-51.69786859999993,-29.162522499999955],[-51.70097769999995,-29.16035659999993],[-51.70196659999993,-29.159918],[-51.703039699999984,-29.159754699999947],[-51.70458519999994,-29.16004549999997],[-51.708031699999935,-29.16008959999993],[-51.70936249999994,-29.161135099999967],[-51.71146089999997,-29.161760099999977],[-51.71220509999995,-29.161644599999935],[-51.71397929999995,-29.160646399999962],[-51.715381699999966,-29.160289899999952],[-51.71814619999998,-29.16059609999996],[-51.721954299999936,-29.160222599999948],[-51.72397349999994,-29.161221299999962],[-51.72510209999996,-29.161354299999964],[-51.72628409999999,-29.16091149999995],[-51.72789319999998,-29.159867099999943],[-51.72964169999994,-29.159700299999933],[-51.73039019999993,-29.160029399999935],[-51.733091799999954,-29.162623799999945],[-51.73336279999996,-29.1636501],[-51.733154499999955,-29.164444399999987],[-51.74055409999994,-29.16445129999994],[-51.740728,-29.163632699999923],[-51.74165819999996,-29.16228549999994],[-51.742036599999956,-29.16230349999996],[-51.743092599999954,-29.16312209999995],[-51.74410519999998,-29.162628699999964],[-51.74483549999997,-29.16117279999997],[-51.74494569999995,-29.16039659999995],[-51.742325899999976,-29.157057399999932],[-51.741444,-29.15715969999995],[-51.73938829999997,-29.15624859999995],[-51.739122099999975,-29.156539899999913],[-51.739146299999966,-29.156973199999978],[-51.73865019999994,-29.15708149999994],[-51.736057899999935,-29.15497859999994],[-51.735449899999935,-29.152935799999966],[-51.7342235,-29.152274],[-51.73192579999994,-29.1525688],[-51.728160499999944,-29.15126609999992],[-51.72615559999997,-29.151861799999942],[-51.72203469999994,-29.15151279999999],[-51.72013739999995,-29.152082899999982],[-51.71644189999996,-29.152346199999965],[-51.71441719999996,-29.15107359999996],[-51.713057299999946,-29.151254099999964],[-51.71078709999994,-29.15116379999995],[-51.70825429999997,-29.150037099999974],[-51.70670489999998,-29.149643],[-51.70446059999995,-29.145864099999987],[-51.703974,-29.143771499999957],[-51.70281649999998,-29.142401],[-51.70103379999995,-29.141692499999976],[-51.70021909999997,-29.14071009999999],[-51.69851329999995,-29.140258799999973],[-51.69720219999994,-29.140334],[-51.69634039999995,-29.139902599999957],[-51.69544379999997,-29.140021499999932],[-51.695429599999954,-29.15839209999996],[-51.66514849999999,-29.158889899999956]]]}},{"type":"Feature","properties":{"setor":"431725105000014","pop":174,"sigilo_pop":false,"dom":102,"sigilo_dom":false,"mulheres":79,"sigilo_mulheres":false,"c0_4":null,"sigilo_c0_4":true,"c5_9":null,"sigilo_c5_9":true,"i60_69":32,"sigilo_i60_69":false,"i70m":32,"sigilo_i70m":false,"indigenas":0,"sigilo_indigenas":false,"pretos_pardos":null,"sigilo_pretos_pardos":true,"dom_ocupados":67,"sigilo_dom_ocupados":false,"dom_agua":61,"sigilo_dom_agua":false,"dom_esgoto":0,"sigilo_dom_esgoto":false,"renda_resp":4377.06,"sigilo_renda_resp":false,"n_resp":67,"sigilo_n_resp":false,"dens":13.7,"sigilo_dens":false,"na_bacia":1,"area_pct_bacia":100.0,"metodo_recorte_bacia":"ponto_representativo_setor_2022; area_pct_geometrica"},"geometry":{"type":"Polygon","coordinates":[[[-51.672199699999965,-29.178064099999986],[-51.6708584,-29.17566589999995],[-51.67035149999998,-29.175451599999974],[-51.66789489999997,-29.17563319999994],[-51.665532,-29.176092299999933],[-51.66550439999997,-29.18811759999995],[-51.665311,-29.188375],[-51.66310059999996,-29.188980799999975],[-51.66215649999998,-29.189497499999955],[-51.661553799999986,-29.190486799999967],[-51.66171269999995,-29.191241099999953],[-51.661496099999965,-29.191699],[-51.66037159999996,-29.192707899999963],[-51.658773199999985,-29.193418299999962],[-51.65816549999994,-29.193301399999932],[-51.65712189999993,-29.193483099999984],[-51.65586459999998,-29.194212699999984],[-51.654162499999984,-29.19446749999997],[-51.65416479999993,-29.196178399999944],[-51.65618009999997,-29.19590029999994],[-51.657575,-29.19697249999996],[-51.658442199999975,-29.194943],[-51.66007769999993,-29.194599399999955],[-51.661156699999935,-29.194850399999954],[-51.662450699999965,-29.196134899999944],[-51.663444,-29.193590199999957],[-51.66425529999998,-29.19325859999998],[-51.665179199999955,-29.193498199999958],[-51.66523319999993,-29.19411459999998],[-51.665743,-29.19493589999996],[-51.666483,-29.194838199999936],[-51.667355199999975,-29.19506889999996],[-51.668312399999934,-29.196030499999956],[-51.669841899999945,-29.196384],[-51.67032329999995,-29.196247],[-51.67262589999996,-29.195011199999946],[-51.672805,-29.194205199999942],[-51.67356219999994,-29.19342979999992],[-51.676071399999955,-29.193156399999957],[-51.676697599999954,-29.192808099999972],[-51.67741959999995,-29.1914599],[-51.677362599999974,-29.190972399999957],[-51.67669239999998,-29.190095399999958],[-51.67732529999995,-29.18698059999997],[-51.67890719999996,-29.186611],[-51.680411099999965,-29.184796499999955],[-51.681917,-29.183759299999956],[-51.683562699999975,-29.182063],[-51.68529869999997,-29.18077629999994],[-51.685665099999945,-29.180789699999924],[-51.68620069999997,-29.181309799999948],[-51.68672959999998,-29.181224099999945],[-51.687485,-29.180741099999988],[-51.688067099999955,-29.179987699999963],[-51.69008439999993,-29.17897629999993],[-51.69285229999997,-29.178542],[-51.69151519999997,-29.181557],[-51.691521,-29.18199119999997],[-51.692338399999976,-29.182816499999944],[-51.69386109999993,-29.18332639999994],[-51.694400499999965,-29.184088299999928],[-51.69507569999996,-29.184249399999945],[-51.69637749999998,-29.18392049999994],[-51.69738619999998,-29.18258749999995],[-51.698918699999986,-29.18320139999998],[-51.701234899999974,-29.182491099999922],[-51.702918599999975,-29.180907899999966],[-51.70282329999998,-29.180118399999973],[-51.703455199999944,-29.180498199999935],[-51.703931199999936,-29.18161069999995],[-51.70547149999994,-29.182852199999946],[-51.70663949999994,-29.183280199999952],[-51.70827149999997,-29.18325789999993],[-51.709959499999975,-29.18234719999998],[-51.71348439999998,-29.18098709999998],[-51.713036699999975,-29.178197599999972],[-51.713248,-29.177791099999975],[-51.713797599999964,-29.177613699999934],[-51.71454279999995,-29.17604219999998],[-51.71480549999996,-29.176053599999932],[-51.71529689999995,-29.177329599999943],[-51.715183099999926,-29.178167499999965],[-51.715909099999976,-29.178183399999963],[-51.716851,-29.17644879999995],[-51.719469799999956,-29.175678099999974],[-51.71948879999996,-29.175022799999958],[-51.721494,-29.174462099999985],[-51.72486489999995,-29.17151959999996],[-51.72638639999997,-29.171556599999974],[-51.72799289999995,-29.171035],[-51.730395,-29.16444619999994],[-51.733154499999955,-29.164444399999987],[-51.733267799999965,-29.162984099999964],[-51.73039019999993,-29.160029399999935],[-51.72964169999994,-29.159700299999933],[-51.72789319999998,-29.159867099999943],[-51.72628409999999,-29.16091149999995],[-51.72510209999996,-29.161354299999964],[-51.72397349999994,-29.161221299999962],[-51.721954299999936,-29.160222599999948],[-51.71814619999998,-29.16059609999996],[-51.715381699999966,-29.160289899999952],[-51.71397929999995,-29.160646399999962],[-51.71220509999995,-29.161644599999935],[-51.71146089999997,-29.161760099999977],[-51.70936249999994,-29.161135099999967],[-51.708031699999935,-29.16008959999993],[-51.70458519999994,-29.16004549999997],[-51.703039699999984,-29.159754699999947],[-51.70196659999993,-29.159918],[-51.70097769999995,-29.16035659999993],[-51.69786859999993,-29.162522499999955],[-51.69654029999998,-29.162301299999967],[-51.6936396,-29.16260719999997],[-51.69196129999995,-29.164266399999978],[-51.69002409999997,-29.164131299999948],[-51.688927199999966,-29.164267],[-51.68544689999993,-29.165974299999963],[-51.68376909999994,-29.16748179999995],[-51.68183619999996,-29.168489299999965],[-51.680006299999945,-29.168531099999946],[-51.67890019999998,-29.168916],[-51.67829379999995,-29.16948829999995],[-51.677536799999984,-29.170914199999963],[-51.676198399999976,-29.171901299999945],[-51.67444359999997,-29.174111],[-51.67397529999994,-29.17508869999995],[-51.67350669999996,-29.177235199999984],[-51.67277919999999,-29.178036099999925],[-51.672199699999965,-29.178064099999986]]]}},{"type":"Feature","properties":{"setor":"431725105000015","pop":383,"sigilo_pop":false,"dom":220,"sigilo_dom":false,"mulheres":203,"sigilo_mulheres":false,"c0_4":13,"sigilo_c0_4":false,"c5_9":11,"sigilo_c5_9":false,"i60_69":61,"sigilo_i60_69":false,"i70m":92,"sigilo_i70m":false,"indigenas":0,"sigilo_indigenas":false,"pretos_pardos":null,"sigilo_pretos_pardos":true,"dom_ocupados":167,"sigilo_dom_ocupados":false,"dom_agua":166,"sigilo_dom_agua":false,"dom_esgoto":null,"sigilo_dom_esgoto":true,"renda_resp":2609.68,"sigilo_renda_resp":false,"n_resp":167,"sigilo_n_resp":false,"dens":316.8,"sigilo_dens":false,"na_bacia":1,"area_pct_bacia":100.0,"metodo_recorte_bacia":"ponto_representativo_setor_2022; area_pct_geometrica"},"geometry":{"type":"Polygon","coordinates":[[[-51.74705729999994,-29.164477299999916],[-51.733154499999955,-29.164444399999987],[-51.730820499999936,-29.170054399999962],[-51.7301078,-29.17239269999994],[-51.73006009999995,-29.17272849999995],[-51.733124799999985,-29.17235069999998],[-51.731747,-29.17577339999997],[-51.731515799999954,-29.17727739999998],[-51.731077,-29.177832599999924],[-51.733685699999974,-29.178819899999958],[-51.73379649999998,-29.17775849999999],[-51.73842149999996,-29.17203689999997],[-51.74683159999995,-29.165045899999946],[-51.74705729999994,-29.164477299999916]]]}}]}