{"type":"FeatureCollection","name":"4318051","crs":{"type":"name","properties":{"name":"urn:ogc:def:crs:OGC:1.3:CRS84"}},"features":[{"type":"Feature","properties":{"setor":"431805105000001","pop":537,"sigilo_pop":false,"dom":251,"sigilo_dom":0,"mulheres":283,"sigilo_mulheres":0,"c0_4":25,"sigilo_c0_4":0,"c5_9":21,"sigilo_c5_9":0,"i60_69":98,"sigilo_i60_69":0,"i70m":80,"sigilo_i70m":0,"indigenas":0,"sigilo_indigenas":0,"pretos_pardos":44,"sigilo_pretos_pardos":0,"dom_ocupados":219,"sigilo_dom_ocupados":0,"dom_agua":217,"sigilo_dom_agua":0,"dom_esgoto":null,"sigilo_dom_esgoto":1,"renda_resp":3378.44,"sigilo_renda_resp":0,"n_resp":219,"sigilo_n_resp":0,"dens":471.8,"sigilo_dens":false,"na_bacia":1,"area_pct_bacia":100.0,"metodo_recorte_bacia":"ponto_representativo_setor_2022; area_pct_geometrica","pop_n_validos":1,"pop_n_total":1,"pop_completude":1.0,"dom_n_validos":1,"dom_n_total":1,"dom_completude":1.0,"dom_ocupados_n_validos":1,"dom_ocupados_n_total":1,"dom_ocupados_completude":1.0,"mulheres_n_validos":1,"mulheres_n_total":1,"mulheres_completude":1.0,"c0_4_n_validos":1,"c0_4_n_total":1,"c0_4_completude":1.0,"c5_9_n_validos":1,"c5_9_n_total":1,"c5_9_completude":1.0,"i60_69_n_validos":1,"i60_69_n_total":1,"i60_69_completude":1.0,"i70m_n_validos":1,"i70m_n_total":1,"i70m_completude":1.0,"indigenas_n_validos":1,"indigenas_n_total":1,"indigenas_completude":1.0,"pretos_pardos_n_validos":1,"pretos_pardos_n_total":1,"pretos_pardos_completude":1.0,"dom_agua_n_validos":1,"dom_agua_n_total":1,"dom_agua_completude":1.0,"dom_esgoto_n_validos":0,"dom_esgoto_n_total":1,"dom_esgoto_completude":0.0,"n_resp_n_validos":1,"n_resp_n_total":1,"n_resp_completude":1.0,"renda_resp_n_validos":1,"renda_resp_n_total":1,"renda_resp_completude":1.0,"dens_n_validos":1,"dens_n_total":1,"dens_completude":1.0,"status_borda_bacia":"total","metodo_area_bacia":"interse??o geom?trica em EPSG:5880","metodo_na_bacia":"ponto_representativo_setor_2022_within_bacia","municipio":"São Domingos do Sul","cod_mun":"4318051","mun_pct_na_bacia":100.0,"mun_pop_total":2754,"mun_pop_na_bacia":2754.0,"mun_ubs_iede":3,"mun_hospitais_iede":null,"mun_escolas_iede":null,"mun_bombeiros_iede":null,"mun_servicos_cobertura":"cadastro_IEDE_parcial_nao_inventario","mun_icm_faixa":"B","mun_icm_pontos":13,"mun_icm_prioritario":"não","mun_ubs_iede_status":"published","mun_hospitais_iede_status":"unknown","mun_escolas_iede_status":"unknown","mun_bombeiros_iede_status":"unknown"},"geometry":{"type":"Polygon","coordinates":[[[-51.884087499999964,-28.53719279999995],[-51.88406579999998,-28.54001959999993],[-51.89376609999994,-28.539974099999935],[-51.89381769999994,-28.532287099999962],[-51.89648589999996,-28.532293],[-51.8964979,-28.52774459999994],[-51.897244,-28.52784109999993],[-51.89728749999995,-28.52562069999993],[-51.88988629999995,-28.525580899999966],[-51.88981759999996,-28.525995399999946],[-51.889507299999934,-28.525874399999967],[-51.88951979999996,-28.533730499999933],[-51.88881989999994,-28.535053899999966],[-51.88571349999995,-28.53581779999996],[-51.884087499999964,-28.53719279999995]]]}},{"type":"Feature","properties":{"setor":"431805105000002","pop":226,"sigilo_pop":false,"dom":123,"sigilo_dom":0,"mulheres":111,"sigilo_mulheres":0,"c0_4":null,"sigilo_c0_4":1,"c5_9":null,"sigilo_c5_9":1,"i60_69":41,"sigilo_i60_69":0,"i70m":42,"sigilo_i70m":0,"indigenas":0,"sigilo_indigenas":0,"pretos_pardos":22,"sigilo_pretos_pardos":0,"dom_ocupados":87,"sigilo_dom_ocupados":0,"dom_agua":62,"sigilo_dom_agua":0,"dom_esgoto":0,"sigilo_dom_esgoto":0,"renda_resp":5416.48,"sigilo_renda_resp":0,"n_resp":87,"sigilo_n_resp":0,"dens":9.0,"sigilo_dens":false,"na_bacia":1,"area_pct_bacia":100.0,"metodo_recorte_bacia":"ponto_representativo_setor_2022; area_pct_geometrica","pop_n_validos":1,"pop_n_total":1,"pop_completude":1.0,"dom_n_validos":1,"dom_n_total":1,"dom_completude":1.0,"dom_ocupados_n_validos":1,"dom_ocupados_n_total":1,"dom_ocupados_completude":1.0,"mulheres_n_validos":1,"mulheres_n_total":1,"mulheres_completude":1.0,"c0_4_n_validos":0,"c0_4_n_total":1,"c0_4_completude":0.0,"c5_9_n_validos":0,"c5_9_n_total":1,"c5_9_completude":0.0,"i60_69_n_validos":1,"i60_69_n_total":1,"i60_69_completude":1.0,"i70m_n_validos":1,"i70m_n_total":1,"i70m_completude":1.0,"indigenas_n_validos":1,"indigenas_n_total":1,"indigenas_completude":1.0,"pretos_pardos_n_validos":1,"pretos_pardos_n_total":1,"pretos_pardos_completude":1.0,"dom_agua_n_validos":1,"dom_agua_n_total":1,"dom_agua_completude":1.0,"dom_esgoto_n_validos":1,"dom_esgoto_n_total":1,"dom_esgoto_completude":1.0,"n_resp_n_validos":1,"n_resp_n_total":1,"n_resp_completude":1.0,"renda_resp_n_validos":1,"renda_resp_n_total":1,"renda_resp_completude":1.0,"dens_n_validos":1,"dens_n_total":1,"dens_completude":1.0,"status_borda_bacia":"total","metodo_area_bacia":"interse??o geom?trica em EPSG:5880","metodo_na_bacia":"ponto_representativo_setor_2022_within_bacia","municipio":"São Domingos do Sul","cod_mun":"4318051","mun_pct_na_bacia":100.0,"mun_pop_total":2754,"mun_pop_na_bacia":2754.0,"mun_ubs_iede":3,"mun_hospitais_iede":null,"mun_escolas_iede":null,"mun_bombeiros_iede":null,"mun_servicos_cobertura":"cadastro_IEDE_parcial_nao_inventario","mun_icm_faixa":"B","mun_icm_pontos":13,"mun_icm_prioritario":"não","mun_ubs_iede_status":"published","mun_hospitais_iede_status":"unknown","mun_escolas_iede_status":"unknown","mun_bombeiros_iede_status":"unknown"},"geometry":{"type":"Polygon","coordinates":[[[-51.883948,-28.520963299999945],[-51.88822589999995,-28.52196619999995],[-51.888260399999986,-28.522514699999945],[-51.889251599999966,-28.523795099999962],[-51.88988629999995,-28.525580899999966],[-51.90489249999996,-28.525650799999937],[-51.90497239999996,-28.53402329999993],[-51.90633879999996,-28.534253199999963],[-51.913193599999936,-28.537021099999944],[-51.91393769999996,-28.53783239999996],[-51.91438519999997,-28.53866079999993],[-51.91429339999996,-28.538941],[-51.91732169999994,-28.53754949999995],[-51.92319719999995,-28.53788919999993],[-51.924319099999934,-28.537482399999934],[-51.924254099999985,-28.53636659999996],[-51.921187,-28.531753],[-51.91636109999996,-28.532095799999972],[-51.91552189999993,-28.530968099999942],[-51.91607889999995,-28.527278599999928],[-51.913104399999945,-28.524320499999924],[-51.90742759999995,-28.522339099999947],[-51.907312299999944,-28.52113949999994],[-51.90892429999997,-28.51862159999997],[-51.907510699999925,-28.516317899999926],[-51.90768639999993,-28.514044899999938],[-51.910039,-28.511577199999977],[-51.91352429999995,-28.51233429999997],[-51.91652279999994,-28.510262499999957],[-51.918177699999944,-28.508038299999956],[-51.914414,-28.504870599999936],[-51.91417059999998,-28.50369069999993],[-51.91550719999998,-28.500656199999977],[-51.915188799999946,-28.49892679999994],[-51.91962269999994,-28.496249899999945],[-51.920235,-28.49420009999995],[-51.917479699999944,-28.49192369999997],[-51.917897,-28.488669499999954],[-51.914782899999985,-28.490163299999946],[-51.91239379999996,-28.490156399999925],[-51.91161549999998,-28.48657259999993],[-51.912403899999966,-28.48434959999997],[-51.888887,-28.483864599999947],[-51.889030899999966,-28.489996899999937],[-51.876192,-28.490254399999973],[-51.8762617,-28.505849499999954],[-51.86299529999997,-28.506485899999962],[-51.86299859999997,-28.509668],[-51.853668899999946,-28.509714099999933],[-51.85648089999995,-28.51274429999995],[-51.857405599999936,-28.514738199999957],[-51.858887599999946,-28.517122499999967],[-51.858887599999946,-28.518840799999957],[-51.858066099999974,-28.52008629999994],[-51.858181499999944,-28.520845399999924],[-51.85937649999994,-28.522134099999956],[-51.85910489999998,-28.52306479999992],[-51.8603,-28.524305699999957],[-51.86062589999995,-28.526071599999963],[-51.85959379999997,-28.527837399999957],[-51.858779,-28.528219199999953],[-51.85647729999994,-28.532894],[-51.85485959999995,-28.53434549999997],[-51.854777299999974,-28.535755699999974],[-51.85589589999996,-28.53768129999997],[-51.85602129999995,-28.538734499999972],[-51.85696789999997,-28.54027269999994],[-51.85691769999995,-28.54252],[-51.856466,-28.545050599999957],[-51.85659739999994,-28.545771599999973],[-51.857079399999975,-28.545963599999933],[-51.857521,-28.545515],[-51.85835559999998,-28.543134899999977],[-51.858763,-28.54265319999995],[-51.86087629999998,-28.541778199999953],[-51.862228699999946,-28.541495799999954],[-51.86311059999997,-28.541519799999943],[-51.864386299999985,-28.54198419999993],[-51.865111,-28.541913299999976],[-51.868044,-28.53946119999995],[-51.870212899999956,-28.538269699999933],[-51.87185529999994,-28.538138],[-51.87403349999994,-28.538290299999968],[-51.884087499999964,-28.53719279999995],[-51.883948,-28.520963299999945]]]}},{"type":"Feature","properties":{"setor":"431805105000003","pop":59,"sigilo_pop":false,"dom":34,"sigilo_dom":0,"mulheres":27,"sigilo_mulheres":0,"c0_4":null,"sigilo_c0_4":1,"c5_9":0,"sigilo_c5_9":0,"i60_69":11,"sigilo_i60_69":0,"i70m":11,"sigilo_i70m":0,"indigenas":0,"sigilo_indigenas":0,"pretos_pardos":5,"sigilo_pretos_pardos":0,"dom_ocupados":19,"sigilo_dom_ocupados":0,"dom_agua":10,"sigilo_dom_agua":0,"dom_esgoto":0,"sigilo_dom_esgoto":0,"renda_resp":4712.89,"sigilo_renda_resp":0,"n_resp":19,"sigilo_n_resp":0,"dens":6.5,"sigilo_dens":false,"na_bacia":1,"area_pct_bacia":100.0,"metodo_recorte_bacia":"ponto_representativo_setor_2022; area_pct_geometrica","pop_n_validos":1,"pop_n_total":1,"pop_completude":1.0,"dom_n_validos":1,"dom_n_total":1,"dom_completude":1.0,"dom_ocupados_n_validos":1,"dom_ocupados_n_total":1,"dom_ocupados_completude":1.0,"mulheres_n_validos":1,"mulheres_n_total":1,"mulheres_completude":1.0,"c0_4_n_validos":0,"c0_4_n_total":1,"c0_4_completude":0.0,"c5_9_n_validos":1,"c5_9_n_total":1,"c5_9_completude":1.0,"i60_69_n_validos":1,"i60_69_n_total":1,"i60_69_completude":1.0,"i70m_n_validos":1,"i70m_n_total":1,"i70m_completude":1.0,"indigenas_n_validos":1,"indigenas_n_total":1,"indigenas_completude":1.0,"pretos_pardos_n_validos":1,"pretos_pardos_n_total":1,"pretos_pardos_completude":1.0,"dom_agua_n_validos":1,"dom_agua_n_total":1,"dom_agua_completude":1.0,"dom_esgoto_n_validos":1,"dom_esgoto_n_total":1,"dom_esgoto_completude":1.0,"n_resp_n_validos":1,"n_resp_n_total":1,"n_resp_completude":1.0,"renda_resp_n_validos":1,"renda_resp_n_total":1,"renda_resp_completude":1.0,"dens_n_validos":1,"dens_n_total":1,"dens_completude":1.0,"status_borda_bacia":"total","metodo_area_bacia":"interse??o geom?trica em EPSG:5880","metodo_na_bacia":"ponto_representativo_setor_2022_within_bacia","municipio":"São Domingos do Sul","cod_mun":"4318051","mun_pct_na_bacia":100.0,"mun_pop_total":2754,"mun_pop_na_bacia":2754.0,"mun_ubs_iede":3,"mun_hospitais_iede":null,"mun_escolas_iede":null,"mun_bombeiros_iede":null,"mun_servicos_cobertura":"cadastro_IEDE_parcial_nao_inventario","mun_icm_faixa":"B","mun_icm_pontos":13,"mun_icm_prioritario":"não","mun_ubs_iede_status":"published","mun_hospitais_iede_status":"unknown","mun_escolas_iede_status":"unknown","mun_bombeiros_iede_status":"unknown"},"geometry":{"type":"Polygon","coordinates":[[[-51.82484469999997,-28.52115529999997],[-51.825154,-28.534407099999953],[-51.832922,-28.534281399999937],[-51.83298509999997,-28.54063749999994],[-51.843201599999986,-28.540238099999954],[-51.84337189999996,-28.547627799999937],[-51.85365759999996,-28.547979],[-51.85554109999998,-28.547135199999943],[-51.857079399999975,-28.545963599999933],[-51.85659739999994,-28.545771599999973],[-51.856469299999965,-28.54536159999997],[-51.85691769999995,-28.54252],[-51.85694949999998,-28.54018589999998],[-51.85602129999995,-28.538734499999972],[-51.85589589999996,-28.53768129999997],[-51.854777299999974,-28.535755699999974],[-51.85474069999998,-28.53495969999994],[-51.85494729999994,-28.534122599999947],[-51.85647729999994,-28.532894],[-51.858779,-28.528219199999953],[-51.85959379999997,-28.527837399999957],[-51.86062589999995,-28.526071599999963],[-51.8603,-28.524305699999957],[-51.85910489999998,-28.52306479999992],[-51.85937649999994,-28.522134099999956],[-51.858181499999944,-28.520845399999924],[-51.858066099999974,-28.52008629999994],[-51.858887599999946,-28.518840799999957],[-51.858887599999946,-28.517122499999967],[-51.857405599999936,-28.514738199999957],[-51.85648089999995,-28.51274429999995],[-51.853668899999946,-28.509714099999933],[-51.849231299999985,-28.509735899999946],[-51.84906209999997,-28.515606799999933],[-51.836803,-28.515682799999983],[-51.837000899999964,-28.52125279999996],[-51.82484469999997,-28.52115529999997]]]}},{"type":"Feature","properties":{"setor":"431805105000004","pop":217,"sigilo_pop":false,"dom":112,"sigilo_dom":0,"mulheres":96,"sigilo_mulheres":0,"c0_4":null,"sigilo_c0_4":1,"c5_9":7,"sigilo_c5_9":0,"i60_69":29,"sigilo_i60_69":0,"i70m":33,"sigilo_i70m":0,"indigenas":0,"sigilo_indigenas":0,"pretos_pardos":null,"sigilo_pretos_pardos":1,"dom_ocupados":81,"sigilo_dom_ocupados":0,"dom_agua":68,"sigilo_dom_agua":0,"dom_esgoto":null,"sigilo_dom_esgoto":1,"renda_resp":5442.78,"sigilo_renda_resp":0,"n_resp":81,"sigilo_n_resp":0,"dens":11.1,"sigilo_dens":false,"na_bacia":1,"area_pct_bacia":100.0,"metodo_recorte_bacia":"ponto_representativo_setor_2022; area_pct_geometrica","pop_n_validos":1,"pop_n_total":1,"pop_completude":1.0,"dom_n_validos":1,"dom_n_total":1,"dom_completude":1.0,"dom_ocupados_n_validos":1,"dom_ocupados_n_total":1,"dom_ocupados_completude":1.0,"mulheres_n_validos":1,"mulheres_n_total":1,"mulheres_completude":1.0,"c0_4_n_validos":0,"c0_4_n_total":1,"c0_4_completude":0.0,"c5_9_n_validos":1,"c5_9_n_total":1,"c5_9_completude":1.0,"i60_69_n_validos":1,"i60_69_n_total":1,"i60_69_completude":1.0,"i70m_n_validos":1,"i70m_n_total":1,"i70m_completude":1.0,"indigenas_n_validos":1,"indigenas_n_total":1,"indigenas_completude":1.0,"pretos_pardos_n_validos":0,"pretos_pardos_n_total":1,"pretos_pardos_completude":0.0,"dom_agua_n_validos":1,"dom_agua_n_total":1,"dom_agua_completude":1.0,"dom_esgoto_n_validos":0,"dom_esgoto_n_total":1,"dom_esgoto_completude":0.0,"n_resp_n_validos":1,"n_resp_n_total":1,"n_resp_completude":1.0,"renda_resp_n_validos":1,"renda_resp_n_total":1,"renda_resp_completude":1.0,"dens_n_validos":1,"dens_n_total":1,"dens_completude":1.0,"status_borda_bacia":"total","metodo_area_bacia":"interse??o geom?trica em EPSG:5880","metodo_na_bacia":"ponto_representativo_setor_2022_within_bacia","municipio":"São Domingos do Sul","cod_mun":"4318051","mun_pct_na_bacia":100.0,"mun_pop_total":2754,"mun_pop_na_bacia":2754.0,"mun_ubs_iede":3,"mun_hospitais_iede":null,"mun_escolas_iede":null,"mun_bombeiros_iede":null,"mun_servicos_cobertura":"cadastro_IEDE_parcial_nao_inventario","mun_icm_faixa":"B","mun_icm_pontos":13,"mun_icm_prioritario":"não","mun_ubs_iede_status":"published","mun_hospitais_iede_status":"unknown","mun_escolas_iede_status":"unknown","mun_bombeiros_iede_status":"unknown"},"geometry":{"type":"Polygon","coordinates":[[[-51.90501829999994,-28.539881599999937],[-51.88406579999998,-28.54001959999993],[-51.884087499999964,-28.53719279999995],[-51.87403349999994,-28.538290299999968],[-51.870584,-28.538187399999963],[-51.86956319999995,-28.538493199999948],[-51.86849639999997,-28.539144],[-51.865111,-28.541913299999976],[-51.864386299999985,-28.54198419999993],[-51.86311059999997,-28.541519799999943],[-51.862228699999946,-28.541495799999954],[-51.86087629999998,-28.541778199999953],[-51.858763,-28.54265319999995],[-51.85835559999998,-28.543134899999977],[-51.857521,-28.545515],[-51.85598079999994,-28.546867099999933],[-51.85365759999996,-28.547979],[-51.853813499999944,-28.558131299999957],[-51.859256699999946,-28.555642099999933],[-51.859487899999976,-28.57068039999997],[-51.86578739999993,-28.57050979999997],[-51.86592329999996,-28.581293899999924],[-51.87188969999995,-28.57962519999995],[-51.87556609999996,-28.580025499999966],[-51.88476259999994,-28.575657499999977],[-51.888594299999966,-28.57534379999992],[-51.88992859999996,-28.574357899999942],[-51.88991679999998,-28.573158099999944],[-51.887404199999935,-28.570799199999954],[-51.88717989999998,-28.569642099999953],[-51.88871249999994,-28.56697],[-51.89305919999998,-28.563362899999955],[-51.89632489999997,-28.563166399999943],[-51.89910069999997,-28.56437019999993],[-51.902208299999984,-28.564258599999963],[-51.90682149999997,-28.56105479999997],[-51.90811119999995,-28.561223499999972],[-51.91060179999994,-28.56382789999998],[-51.91581309999998,-28.561636899999943],[-51.91686239999996,-28.558962399999935],[-51.91579669999993,-28.556817399999954],[-51.91554979999996,-28.55264379999994],[-51.91222759999994,-28.550334199999956],[-51.91227,-28.548913399999943],[-51.91381849999994,-28.548234599999954],[-51.914395799999966,-28.54663159999995],[-51.91147129999996,-28.540237699999988],[-51.91429339999996,-28.538941],[-51.91438519999997,-28.53866079999993],[-51.913461,-28.53720029999994],[-51.90633879999996,-28.534253199999963],[-51.90497239999996,-28.53402329999993],[-51.90501829999994,-28.539881599999937]]]}},{"type":"Feature","properties":{"setor":"431805105000005","pop":799,"sigilo_pop":false,"dom":346,"sigilo_dom":0,"mulheres":411,"sigilo_mulheres":0,"c0_4":47,"sigilo_c0_4":0,"c5_9":30,"sigilo_c5_9":0,"i60_69":111,"sigilo_i60_69":0,"i70m":114,"sigilo_i70m":0,"indigenas":0,"sigilo_indigenas":0,"pretos_pardos":58,"sigilo_pretos_pardos":0,"dom_ocupados":307,"sigilo_dom_ocupados":0,"dom_agua":303,"sigilo_dom_agua":0,"dom_esgoto":5,"sigilo_dom_esgoto":0,"renda_resp":3352.16,"sigilo_renda_resp":0,"n_resp":307,"sigilo_n_resp":0,"dens":960.9,"sigilo_dens":false,"na_bacia":1,"area_pct_bacia":100.0,"metodo_recorte_bacia":"ponto_representativo_setor_2022; area_pct_geometrica","pop_n_validos":1,"pop_n_total":1,"pop_completude":1.0,"dom_n_validos":1,"dom_n_total":1,"dom_completude":1.0,"dom_ocupados_n_validos":1,"dom_ocupados_n_total":1,"dom_ocupados_completude":1.0,"mulheres_n_validos":1,"mulheres_n_total":1,"mulheres_completude":1.0,"c0_4_n_validos":1,"c0_4_n_total":1,"c0_4_completude":1.0,"c5_9_n_validos":1,"c5_9_n_total":1,"c5_9_completude":1.0,"i60_69_n_validos":1,"i60_69_n_total":1,"i60_69_completude":1.0,"i70m_n_validos":1,"i70m_n_total":1,"i70m_completude":1.0,"indigenas_n_validos":1,"indigenas_n_total":1,"indigenas_completude":1.0,"pretos_pardos_n_validos":1,"pretos_pardos_n_total":1,"pretos_pardos_completude":1.0,"dom_agua_n_validos":1,"dom_agua_n_total":1,"dom_agua_completude":1.0,"dom_esgoto_n_validos":1,"dom_esgoto_n_total":1,"dom_esgoto_completude":1.0,"n_resp_n_validos":1,"n_resp_n_total":1,"n_resp_completude":1.0,"renda_resp_n_validos":1,"renda_resp_n_total":1,"renda_resp_completude":1.0,"dens_n_validos":1,"dens_n_total":1,"dens_completude":1.0,"status_borda_bacia":"total","metodo_area_bacia":"interse??o geom?trica em EPSG:5880","metodo_na_bacia":"ponto_representativo_setor_2022_within_bacia","municipio":"São Domingos do Sul","cod_mun":"4318051","mun_pct_na_bacia":100.0,"mun_pop_total":2754,"mun_pop_na_bacia":2754.0,"mun_ubs_iede":3,"mun_hospitais_iede":null,"mun_escolas_iede":null,"mun_bombeiros_iede":null,"mun_servicos_cobertura":"cadastro_IEDE_parcial_nao_inventario","mun_icm_faixa":"B","mun_icm_pontos":13,"mun_icm_prioritario":"não","mun_ubs_iede_status":"published","mun_hospitais_iede_status":"unknown","mun_escolas_iede_status":"unknown","mun_bombeiros_iede_status":"unknown"},"geometry":{"type":"Polygon","coordinates":[[[-51.88822589999995,-28.52196619999995],[-51.883948,-28.520963299999945],[-51.884087499999964,-28.53719279999995],[-51.88571349999995,-28.53581779999996],[-51.88881989999994,-28.535053899999966],[-51.88951979999996,-28.533730499999933],[-51.889507299999934,-28.525874399999967],[-51.88981759999996,-28.525995399999946],[-51.88984689999995,-28.52541259999999],[-51.889251599999966,-28.523795099999962],[-51.888260399999986,-28.522514699999945],[-51.88822589999995,-28.52196619999995]]]}},{"type":"Feature","properties":{"setor":"431805105000006","pop":18,"sigilo_pop":false,"dom":9,"sigilo_dom":0,"mulheres":9,"sigilo_mulheres":0,"c0_4":0,"sigilo_c0_4":0,"c5_9":0,"sigilo_c5_9":0,"i60_69":null,"sigilo_i60_69":1,"i70m":null,"sigilo_i70m":1,"indigenas":0,"sigilo_indigenas":0,"pretos_pardos":null,"sigilo_pretos_pardos":1,"dom_ocupados":7,"sigilo_dom_ocupados":0,"dom_agua":6,"sigilo_dom_agua":0,"dom_esgoto":0,"sigilo_dom_esgoto":0,"renda_resp":4647.14,"sigilo_renda_resp":0,"n_resp":7,"sigilo_n_resp":0,"dens":24.0,"sigilo_dens":false,"na_bacia":1,"area_pct_bacia":100.0,"metodo_recorte_bacia":"ponto_representativo_setor_2022; area_pct_geometrica","pop_n_validos":1,"pop_n_total":1,"pop_completude":1.0,"dom_n_validos":1,"dom_n_total":1,"dom_completude":1.0,"dom_ocupados_n_validos":1,"dom_ocupados_n_total":1,"dom_ocupados_completude":1.0,"mulheres_n_validos":1,"mulheres_n_total":1,"mulheres_completude":1.0,"c0_4_n_validos":1,"c0_4_n_total":1,"c0_4_completude":1.0,"c5_9_n_validos":1,"c5_9_n_total":1,"c5_9_completude":1.0,"i60_69_n_validos":0,"i60_69_n_total":1,"i60_69_completude":0.0,"i70m_n_validos":0,"i70m_n_total":1,"i70m_completude":0.0,"indigenas_n_validos":1,"indigenas_n_total":1,"indigenas_completude":1.0,"pretos_pardos_n_validos":0,"pretos_pardos_n_total":1,"pretos_pardos_completude":0.0,"dom_agua_n_validos":1,"dom_agua_n_total":1,"dom_agua_completude":1.0,"dom_esgoto_n_validos":1,"dom_esgoto_n_total":1,"dom_esgoto_completude":1.0,"n_resp_n_validos":1,"n_resp_n_total":1,"n_resp_completude":1.0,"renda_resp_n_validos":1,"renda_resp_n_total":1,"renda_resp_completude":1.0,"dens_n_validos":1,"dens_n_total":1,"dens_completude":1.0,"status_borda_bacia":"total","metodo_area_bacia":"interse??o geom?trica em EPSG:5880","metodo_na_bacia":"ponto_representativo_setor_2022_within_bacia","municipio":"São Domingos do Sul","cod_mun":"4318051","mun_pct_na_bacia":100.0,"mun_pop_total":2754,"mun_pop_na_bacia":2754.0,"mun_ubs_iede":3,"mun_hospitais_iede":null,"mun_escolas_iede":null,"mun_bombeiros_iede":null,"mun_servicos_cobertura":"cadastro_IEDE_parcial_nao_inventario","mun_icm_faixa":"B","mun_icm_pontos":13,"mun_icm_prioritario":"não","mun_ubs_iede_status":"published","mun_hospitais_iede_status":"unknown","mun_escolas_iede_status":"unknown","mun_bombeiros_iede_status":"unknown"},"geometry":{"type":"Polygon","coordinates":[[[-51.89728749999995,-28.52562069999993],[-51.897244,-28.52784109999993],[-51.8964979,-28.52774459999994],[-51.89648589999996,-28.532293],[-51.89707539999995,-28.533085299999982],[-51.89746979999995,-28.534822199999944],[-51.89789839999998,-28.534984399999924],[-51.90073319999994,-28.53383039999995],[-51.90497239999996,-28.53402329999993],[-51.90489249999996,-28.525650799999937],[-51.89728749999995,-28.52562069999993]]]}},{"type":"Feature","properties":{"setor":"431805105000007","pop":0,"sigilo_pop":false,"dom":0,"sigilo_dom":0,"mulheres":0,"sigilo_mulheres":0,"c0_4":0,"sigilo_c0_4":0,"c5_9":0,"sigilo_c5_9":0,"i60_69":0,"sigilo_i60_69":0,"i70m":0,"sigilo_i70m":0,"indigenas":0,"sigilo_indigenas":0,"pretos_pardos":0,"sigilo_pretos_pardos":0,"dom_ocupados":0,"sigilo_dom_ocupados":0,"dom_agua":0,"sigilo_dom_agua":0,"dom_esgoto":0,"sigilo_dom_esgoto":0,"renda_resp":0.0,"sigilo_renda_resp":0,"n_resp":0,"sigilo_n_resp":0,"dens":0.0,"sigilo_dens":false,"na_bacia":1,"area_pct_bacia":100.0,"metodo_recorte_bacia":"ponto_representativo_setor_2022; area_pct_geometrica","pop_n_validos":1,"pop_n_total":1,"pop_completude":1.0,"dom_n_validos":1,"dom_n_total":1,"dom_completude":1.0,"dom_ocupados_n_validos":1,"dom_ocupados_n_total":1,"dom_ocupados_completude":1.0,"mulheres_n_validos":1,"mulheres_n_total":1,"mulheres_completude":1.0,"c0_4_n_validos":1,"c0_4_n_total":1,"c0_4_completude":1.0,"c5_9_n_validos":1,"c5_9_n_total":1,"c5_9_completude":1.0,"i60_69_n_validos":1,"i60_69_n_total":1,"i60_69_completude":1.0,"i70m_n_validos":1,"i70m_n_total":1,"i70m_completude":1.0,"indigenas_n_validos":1,"indigenas_n_total":1,"indigenas_completude":1.0,"pretos_pardos_n_validos":1,"pretos_pardos_n_total":1,"pretos_pardos_completude":1.0,"dom_agua_n_validos":1,"dom_agua_n_total":1,"dom_agua_completude":1.0,"dom_esgoto_n_validos":1,"dom_esgoto_n_total":1,"dom_esgoto_completude":1.0,"n_resp_n_validos":1,"n_resp_n_total":1,"n_resp_completude":1.0,"renda_resp_n_validos":1,"renda_resp_n_total":1,"renda_resp_completude":1.0,"dens_n_validos":1,"dens_n_total":1,"dens_completude":1.0,"status_borda_bacia":"total","metodo_area_bacia":"interse??o geom?trica em EPSG:5880","metodo_na_bacia":"ponto_representativo_setor_2022_within_bacia","municipio":"São Domingos do Sul","cod_mun":"4318051","mun_pct_na_bacia":100.0,"mun_pop_total":2754,"mun_pop_na_bacia":2754.0,"mun_ubs_iede":3,"mun_hospitais_iede":null,"mun_escolas_iede":null,"mun_bombeiros_iede":null,"mun_servicos_cobertura":"cadastro_IEDE_parcial_nao_inventario","mun_icm_faixa":"B","mun_icm_pontos":13,"mun_icm_prioritario":"não","mun_ubs_iede_status":"published","mun_hospitais_iede_status":"unknown","mun_escolas_iede_status":"unknown","mun_bombeiros_iede_status":"unknown"},"geometry":{"type":"Polygon","coordinates":[[[-51.893766199999966,-28.539956099999987],[-51.90501829999994,-28.539881599999937],[-51.90497239999996,-28.53402329999993],[-51.900345199999954,-28.533880899999936],[-51.89777059999995,-28.535008],[-51.89730589999994,-28.534457299999932],[-51.89700689999995,-28.53293469999994],[-51.89648589999996,-28.532293],[-51.89381769999994,-28.532287099999962],[-51.893766199999966,-28.539956099999987]]]}},{"type":"Feature","properties":{"setor":"431805115000001","pop":529,"sigilo_pop":false,"dom":215,"sigilo_dom":0,"mulheres":260,"sigilo_mulheres":0,"c0_4":20,"sigilo_c0_4":0,"c5_9":32,"sigilo_c5_9":0,"i60_69":75,"sigilo_i60_69":0,"i70m":51,"sigilo_i70m":0,"indigenas":0,"sigilo_indigenas":0,"pretos_pardos":null,"sigilo_pretos_pardos":1,"dom_ocupados":204,"sigilo_dom_ocupados":0,"dom_agua":204,"sigilo_dom_agua":0,"dom_esgoto":7,"sigilo_dom_esgoto":0,"renda_resp":2647.8,"sigilo_renda_resp":0,"n_resp":204,"sigilo_n_resp":0,"dens":532.4,"sigilo_dens":false,"na_bacia":1,"area_pct_bacia":100.0,"metodo_recorte_bacia":"ponto_representativo_setor_2022; area_pct_geometrica","pop_n_validos":1,"pop_n_total":1,"pop_completude":1.0,"dom_n_validos":1,"dom_n_total":1,"dom_completude":1.0,"dom_ocupados_n_validos":1,"dom_ocupados_n_total":1,"dom_ocupados_completude":1.0,"mulheres_n_validos":1,"mulheres_n_total":1,"mulheres_completude":1.0,"c0_4_n_validos":1,"c0_4_n_total":1,"c0_4_completude":1.0,"c5_9_n_validos":1,"c5_9_n_total":1,"c5_9_completude":1.0,"i60_69_n_validos":1,"i60_69_n_total":1,"i60_69_completude":1.0,"i70m_n_validos":1,"i70m_n_total":1,"i70m_completude":1.0,"indigenas_n_validos":1,"indigenas_n_total":1,"indigenas_completude":1.0,"pretos_pardos_n_validos":0,"pretos_pardos_n_total":1,"pretos_pardos_completude":0.0,"dom_agua_n_validos":1,"dom_agua_n_total":1,"dom_agua_completude":1.0,"dom_esgoto_n_validos":1,"dom_esgoto_n_total":1,"dom_esgoto_completude":1.0,"n_resp_n_validos":1,"n_resp_n_total":1,"n_resp_completude":1.0,"renda_resp_n_validos":1,"renda_resp_n_total":1,"renda_resp_completude":1.0,"dens_n_validos":1,"dens_n_total":1,"dens_completude":1.0,"status_borda_bacia":"total","metodo_area_bacia":"interse??o geom?trica em EPSG:5880","metodo_na_bacia":"ponto_representativo_setor_2022_within_bacia","municipio":"São Domingos do Sul","cod_mun":"4318051","mun_pct_na_bacia":100.0,"mun_pop_total":2754,"mun_pop_na_bacia":2754.0,"mun_ubs_iede":3,"mun_hospitais_iede":null,"mun_escolas_iede":null,"mun_bombeiros_iede":null,"mun_servicos_cobertura":"cadastro_IEDE_parcial_nao_inventario","mun_icm_faixa":"B","mun_icm_pontos":13,"mun_icm_prioritario":"não","mun_ubs_iede_status":"published","mun_hospitais_iede_status":"unknown","mun_escolas_iede_status":"unknown","mun_bombeiros_iede_status":"unknown"},"geometry":{"type":"Polygon","coordinates":[[[-51.83894819999995,-28.565879299999942],[-51.83693429999994,-28.570622499999942],[-51.843195,-28.57487379999998],[-51.84587559999994,-28.57454759999997],[-51.847544099999936,-28.572811499999936],[-51.84579219999995,-28.57069969999998],[-51.84877719999997,-28.568568199999955],[-51.849172099999976,-28.56342279999994],[-51.84706619999997,-28.563309499999928],[-51.84373889999995,-28.56550429999993],[-51.84198289999995,-28.563791199999965],[-51.83894819999995,-28.565879299999942]]]}},{"type":"Feature","properties":{"setor":"431805115000003","pop":74,"sigilo_pop":false,"dom":30,"sigilo_dom":0,"mulheres":37,"sigilo_mulheres":0,"c0_4":null,"sigilo_c0_4":1,"c5_9":null,"sigilo_c5_9":1,"i60_69":14,"sigilo_i60_69":0,"i70m":null,"sigilo_i70m":1,"indigenas":0,"sigilo_indigenas":0,"pretos_pardos":6,"sigilo_pretos_pardos":0,"dom_ocupados":29,"sigilo_dom_ocupados":0,"dom_agua":29,"sigilo_dom_agua":0,"dom_esgoto":0,"sigilo_dom_esgoto":0,"renda_resp":2133.21,"sigilo_renda_resp":0,"n_resp":29,"sigilo_n_resp":0,"dens":242.9,"sigilo_dens":false,"na_bacia":1,"area_pct_bacia":100.0,"metodo_recorte_bacia":"ponto_representativo_setor_2022; area_pct_geometrica","pop_n_validos":1,"pop_n_total":1,"pop_completude":1.0,"dom_n_validos":1,"dom_n_total":1,"dom_completude":1.0,"dom_ocupados_n_validos":1,"dom_ocupados_n_total":1,"dom_ocupados_completude":1.0,"mulheres_n_validos":1,"mulheres_n_total":1,"mulheres_completude":1.0,"c0_4_n_validos":0,"c0_4_n_total":1,"c0_4_completude":0.0,"c5_9_n_validos":0,"c5_9_n_total":1,"c5_9_completude":0.0,"i60_69_n_validos":1,"i60_69_n_total":1,"i60_69_completude":1.0,"i70m_n_validos":0,"i70m_n_total":1,"i70m_completude":0.0,"indigenas_n_validos":1,"indigenas_n_total":1,"indigenas_completude":1.0,"pretos_pardos_n_validos":1,"pretos_pardos_n_total":1,"pretos_pardos_completude":1.0,"dom_agua_n_validos":1,"dom_agua_n_total":1,"dom_agua_completude":1.0,"dom_esgoto_n_validos":1,"dom_esgoto_n_total":1,"dom_esgoto_completude":1.0,"n_resp_n_validos":1,"n_resp_n_total":1,"n_resp_completude":1.0,"renda_resp_n_validos":1,"renda_resp_n_total":1,"renda_resp_completude":1.0,"dens_n_validos":1,"dens_n_total":1,"dens_completude":1.0,"status_borda_bacia":"total","metodo_area_bacia":"interse??o geom?trica em EPSG:5880","metodo_na_bacia":"ponto_representativo_setor_2022_within_bacia","municipio":"São Domingos do Sul","cod_mun":"4318051","mun_pct_na_bacia":100.0,"mun_pop_total":2754,"mun_pop_na_bacia":2754.0,"mun_ubs_iede":3,"mun_hospitais_iede":null,"mun_escolas_iede":null,"mun_bombeiros_iede":null,"mun_servicos_cobertura":"cadastro_IEDE_parcial_nao_inventario","mun_icm_faixa":"B","mun_icm_pontos":13,"mun_icm_prioritario":"não","mun_ubs_iede_status":"published","mun_hospitais_iede_status":"unknown","mun_escolas_iede_status":"unknown","mun_bombeiros_iede_status":"unknown"},"geometry":{"type":"Polygon","coordinates":[[[-51.83693429999994,-28.570622499999942],[-51.83894819999995,-28.565879299999942],[-51.83765749999998,-28.564883199999954],[-51.83667189999994,-28.567845],[-51.835460599999976,-28.567678299999958],[-51.835591299999976,-28.567260099999938],[-51.83417209999994,-28.56648319999994],[-51.83487209999998,-28.56582489999994],[-51.83127419999994,-28.563728299999973],[-51.830195199999935,-28.565061499999953],[-51.829629,-28.564841],[-51.828800799999954,-28.565948699999986],[-51.83096189999998,-28.567208199999985],[-51.83121229999995,-28.566922699999964],[-51.833585,-28.568415799999972],[-51.83302159999994,-28.569058099999943],[-51.83408229999997,-28.570279399999933],[-51.83495869999996,-28.569280299999942],[-51.83693429999994,-28.570622499999942]]]}},{"type":"Feature","properties":{"setor":"431805115000004","pop":62,"sigilo_pop":false,"dom":23,"sigilo_dom":0,"mulheres":34,"sigilo_mulheres":0,"c0_4":null,"sigilo_c0_4":1,"c5_9":6,"sigilo_c5_9":0,"i60_69":8,"sigilo_i60_69":0,"i70m":null,"sigilo_i70m":1,"indigenas":0,"sigilo_indigenas":0,"pretos_pardos":18,"sigilo_pretos_pardos":0,"dom_ocupados":19,"sigilo_dom_ocupados":0,"dom_agua":19,"sigilo_dom_agua":0,"dom_esgoto":0,"sigilo_dom_esgoto":0,"renda_resp":2219.16,"sigilo_renda_resp":0,"n_resp":19,"sigilo_n_resp":0,"dens":452.7,"sigilo_dens":false,"na_bacia":1,"area_pct_bacia":100.0,"metodo_recorte_bacia":"ponto_representativo_setor_2022; area_pct_geometrica","pop_n_validos":1,"pop_n_total":1,"pop_completude":1.0,"dom_n_validos":1,"dom_n_total":1,"dom_completude":1.0,"dom_ocupados_n_validos":1,"dom_ocupados_n_total":1,"dom_ocupados_completude":1.0,"mulheres_n_validos":1,"mulheres_n_total":1,"mulheres_completude":1.0,"c0_4_n_validos":0,"c0_4_n_total":1,"c0_4_completude":0.0,"c5_9_n_validos":1,"c5_9_n_total":1,"c5_9_completude":1.0,"i60_69_n_validos":1,"i60_69_n_total":1,"i60_69_completude":1.0,"i70m_n_validos":0,"i70m_n_total":1,"i70m_completude":0.0,"indigenas_n_validos":1,"indigenas_n_total":1,"indigenas_completude":1.0,"pretos_pardos_n_validos":1,"pretos_pardos_n_total":1,"pretos_pardos_completude":1.0,"dom_agua_n_validos":1,"dom_agua_n_total":1,"dom_agua_completude":1.0,"dom_esgoto_n_validos":1,"dom_esgoto_n_total":1,"dom_esgoto_completude":1.0,"n_resp_n_validos":1,"n_resp_n_total":1,"n_resp_completude":1.0,"renda_resp_n_validos":1,"renda_resp_n_total":1,"renda_resp_completude":1.0,"dens_n_validos":1,"dens_n_total":1,"dens_completude":1.0,"status_borda_bacia":"total","metodo_area_bacia":"interse??o geom?trica em EPSG:5880","metodo_na_bacia":"ponto_representativo_setor_2022_within_bacia","municipio":"São Domingos do Sul","cod_mun":"4318051","mun_pct_na_bacia":100.0,"mun_pop_total":2754,"mun_pop_na_bacia":2754.0,"mun_ubs_iede":3,"mun_hospitais_iede":null,"mun_escolas_iede":null,"mun_bombeiros_iede":null,"mun_servicos_cobertura":"cadastro_IEDE_parcial_nao_inventario","mun_icm_faixa":"B","mun_icm_pontos":13,"mun_icm_prioritario":"não","mun_ubs_iede_status":"published","mun_hospitais_iede_status":"unknown","mun_escolas_iede_status":"unknown","mun_bombeiros_iede_status":"unknown"},"geometry":{"type":"Polygon","coordinates":[[[-51.844804599999975,-28.57480689999994],[-51.844327499999956,-28.57672889999999],[-51.84477479999998,-28.579714199999948],[-51.84550519999994,-28.581479799999947],[-51.84363589999998,-28.581687199999973],[-51.84351459999994,-28.582771399999952],[-51.84512149999995,-28.582747599999944],[-51.84496429999996,-28.583831],[-51.84648649999996,-28.583997499999956],[-51.84676229999997,-28.582033799999973],[-51.845763699999964,-28.57947329999995],[-51.845368,-28.57677809999995],[-51.84587559999994,-28.57454759999997],[-51.844804599999975,-28.57480689999994]]]}},{"type":"Feature","properties":{"setor":"431805115000005","pop":233,"sigilo_pop":false,"dom":111,"sigilo_dom":0,"mulheres":111,"sigilo_mulheres":0,"c0_4":10,"sigilo_c0_4":0,"c5_9":null,"sigilo_c5_9":1,"i60_69":37,"sigilo_i60_69":0,"i70m":39,"sigilo_i70m":0,"indigenas":0,"sigilo_indigenas":0,"pretos_pardos":null,"sigilo_pretos_pardos":1,"dom_ocupados":85,"sigilo_dom_ocupados":0,"dom_agua":73,"sigilo_dom_agua":0,"dom_esgoto":0,"sigilo_dom_esgoto":0,"renda_resp":2709.58,"sigilo_renda_resp":0,"n_resp":85,"sigilo_n_resp":0,"dens":11.7,"sigilo_dens":false,"na_bacia":1,"area_pct_bacia":100.0,"metodo_recorte_bacia":"ponto_representativo_setor_2022; area_pct_geometrica","pop_n_validos":1,"pop_n_total":1,"pop_completude":1.0,"dom_n_validos":1,"dom_n_total":1,"dom_completude":1.0,"dom_ocupados_n_validos":1,"dom_ocupados_n_total":1,"dom_ocupados_completude":1.0,"mulheres_n_validos":1,"mulheres_n_total":1,"mulheres_completude":1.0,"c0_4_n_validos":1,"c0_4_n_total":1,"c0_4_completude":1.0,"c5_9_n_validos":0,"c5_9_n_total":1,"c5_9_completude":0.0,"i60_69_n_validos":1,"i60_69_n_total":1,"i60_69_completude":1.0,"i70m_n_validos":1,"i70m_n_total":1,"i70m_completude":1.0,"indigenas_n_validos":1,"indigenas_n_total":1,"indigenas_completude":1.0,"pretos_pardos_n_validos":0,"pretos_pardos_n_total":1,"pretos_pardos_completude":0.0,"dom_agua_n_validos":1,"dom_agua_n_total":1,"dom_agua_completude":1.0,"dom_esgoto_n_validos":1,"dom_esgoto_n_total":1,"dom_esgoto_completude":1.0,"n_resp_n_validos":1,"n_resp_n_total":1,"n_resp_completude":1.0,"renda_resp_n_validos":1,"renda_resp_n_total":1,"renda_resp_completude":1.0,"dens_n_validos":1,"dens_n_total":1,"dens_completude":1.0,"status_borda_bacia":"total","metodo_area_bacia":"interse??o geom?trica em EPSG:5880","metodo_na_bacia":"ponto_representativo_setor_2022_within_bacia","municipio":"São Domingos do Sul","cod_mun":"4318051","mun_pct_na_bacia":100.0,"mun_pop_total":2754,"mun_pop_na_bacia":2754.0,"mun_ubs_iede":3,"mun_hospitais_iede":null,"mun_escolas_iede":null,"mun_bombeiros_iede":null,"mun_servicos_cobertura":"cadastro_IEDE_parcial_nao_inventario","mun_icm_faixa":"B","mun_icm_pontos":13,"mun_icm_prioritario":"não","mun_ubs_iede_status":"published","mun_hospitais_iede_status":"unknown","mun_escolas_iede_status":"unknown","mun_bombeiros_iede_status":"unknown"},"geometry":{"type":"Polygon","coordinates":[[[-51.80281209999998,-28.53774609999994],[-51.805412599999954,-28.53956769999997],[-51.80598809999998,-28.540536799999984],[-51.80284829999994,-28.542603899999953],[-51.80251979999998,-28.543380099999982],[-51.80293389999997,-28.54396069999994],[-51.804652799999985,-28.544302799999976],[-51.807672,-28.544453299999933],[-51.808656799999945,-28.544835199999966],[-51.80926939999994,-28.545420699999962],[-51.81097009999996,-28.548389],[-51.81204589999999,-28.549691399999976],[-51.813800699999945,-28.55102479999993],[-51.814154199999955,-28.551672599999964],[-51.814093599999985,-28.552069399999944],[-51.812361299999964,-28.55452149999997],[-51.81067749999994,-28.55592349999996],[-51.80843269999997,-28.55721969999996],[-51.808380099999965,-28.557973499999935],[-51.80985309999995,-28.559683599999964],[-51.813224799999944,-28.562046899999928],[-51.81675069999995,-28.564004899999922],[-51.816700499999975,-28.564261],[-51.81748019999998,-28.564820499999943],[-51.81929839999999,-28.56756419999992],[-51.81992759999997,-28.567939399999933],[-51.820968599999965,-28.56801729999995],[-51.82156029999993,-28.567745],[-51.82285429999996,-28.56348169999996],[-51.82373129999996,-28.563001499999928],[-51.82458719999994,-28.562995599999965],[-51.82812249999995,-28.56489769999997],[-51.828641599999976,-28.56538519999998],[-51.82833169999998,-28.568682299999963],[-51.82742889999997,-28.571397],[-51.82679519999994,-28.57202809999997],[-51.82649619999996,-28.572850599999974],[-51.82681,-28.574775499999934],[-51.82677229999996,-28.578678099999934],[-51.827949399999966,-28.579396799999973],[-51.82826329999995,-28.579391599999944],[-51.82902219999994,-28.577674199999926],[-51.83099979999997,-28.57470779999993],[-51.83277419999997,-28.57359929999996],[-51.83454429999994,-28.57411509999997],[-51.83545539999994,-28.57487649999996],[-51.83595129999998,-28.576034399999976],[-51.836964799999976,-28.577188299999936],[-51.83891059999997,-28.577628799999953],[-51.84037319999993,-28.57759859999993],[-51.84060429999994,-28.57788239999997],[-51.84038929999998,-28.57904089999994],[-51.837950199999966,-28.58004979999998],[-51.83711619999997,-28.580970299999944],[-51.83685989999997,-28.582862599999945],[-51.83727209999995,-28.585047699999972],[-51.83770849999997,-28.585825299999943],[-51.83852369999994,-28.58615769999994],[-51.83994649999994,-28.585844499999947],[-51.84124849999995,-28.585114],[-51.84281609999994,-28.584881399999983],[-51.84351419999995,-28.585995599999936],[-51.84372119999995,-28.588487599999954],[-51.844366,-28.58919029999993],[-51.84586149999996,-28.589552799999975],[-51.84899919999998,-28.589765599999975],[-51.85113219999994,-28.59042279999994],[-51.85365239999994,-28.59042579999994],[-51.85443589999994,-28.58781129999994],[-51.85612669999995,-28.587413499999965],[-51.85766359999997,-28.585182],[-51.857299199999936,-28.583387599999966],[-51.858707599999946,-28.578313],[-51.85698759999996,-28.574657299999952],[-51.85788289999994,-28.572698899999974],[-51.85891049999998,-28.573448399999958],[-51.859924599999935,-28.57617289999996],[-51.862031799999954,-28.57798109999993],[-51.86286339999998,-28.58139729999994],[-51.86375389999995,-28.58190109999998],[-51.86592329999996,-28.581293899999924],[-51.86578739999993,-28.57050979999997],[-51.859487899999976,-28.57068039999997],[-51.859256699999946,-28.555642099999933],[-51.853813499999944,-28.558131299999957],[-51.85365759999996,-28.547979],[-51.84337189999996,-28.547627799999937],[-51.843201599999986,-28.540238099999954],[-51.83298509999997,-28.54063749999994],[-51.832922,-28.534281399999937],[-51.825154,-28.534407099999953],[-51.825017,-28.527745],[-51.80311729999994,-28.527277299999973],[-51.80982369999998,-28.533102899999946],[-51.80281209999998,-28.53774609999994]],[[-51.84587559999994,-28.57454759999997],[-51.845368,-28.57677809999995],[-51.845763699999964,-28.57947329999995],[-51.84676229999997,-28.582033799999973],[-51.84648649999996,-28.583997499999956],[-51.84496429999996,-28.583831],[-51.84512149999995,-28.582747599999944],[-51.84351459999994,-28.582771399999952],[-51.84363589999998,-28.581687199999973],[-51.84550519999994,-28.581479799999947],[-51.84477479999998,-28.579714199999948],[-51.844327499999956,-28.57672889999999],[-51.844804599999975,-28.57480689999994],[-51.843195,-28.57487379999998],[-51.83495869999996,-28.569280299999942],[-51.83408229999997,-28.570279399999933],[-51.83302159999994,-28.569058099999943],[-51.833585,-28.568415799999972],[-51.83121229999995,-28.566922699999964],[-51.83096189999998,-28.567208199999985],[-51.828800799999954,-28.565948699999986],[-51.829629,-28.564841],[-51.830195199999935,-28.565061499999953],[-51.83127419999994,-28.563728299999973],[-51.83487209999998,-28.56582489999994],[-51.83417209999994,-28.56648319999994],[-51.835591299999976,-28.567260099999938],[-51.835460599999976,-28.567678299999958],[-51.83667189999994,-28.567845],[-51.83765749999998,-28.564883199999954],[-51.83894819999995,-28.565879299999942],[-51.84198289999995,-28.563791199999965],[-51.84373889999995,-28.56550429999993],[-51.84706619999997,-28.563309499999928],[-51.849172099999976,-28.56342279999994],[-51.84877719999997,-28.568568199999955],[-51.84579219999995,-28.57069969999998],[-51.847544099999936,-28.572811499999936],[-51.84587559999994,-28.57454759999997]]]}}]}
