{"type":"FeatureCollection","name":"4319711","crs":{"type":"name","properties":{"name":"urn:ogc:def:crs:OGC:1.3:CRS84"}},"features":[{"type":"Feature","properties":{"setor":"431971105000003","pop":185,"sigilo_pop":false,"dom":121,"sigilo_dom":false,"mulheres":84,"sigilo_mulheres":false,"c0_4":null,"sigilo_c0_4":true,"c5_9":9,"sigilo_c5_9":false,"i60_69":46,"sigilo_i60_69":false,"i70m":32,"sigilo_i70m":false,"indigenas":0,"sigilo_indigenas":false,"pretos_pardos":8,"sigilo_pretos_pardos":false,"dom_ocupados":71,"sigilo_dom_ocupados":false,"dom_agua":45,"sigilo_dom_agua":false,"dom_esgoto":44,"sigilo_dom_esgoto":false,"renda_resp":2551.73,"sigilo_renda_resp":false,"n_resp":71,"sigilo_n_resp":false,"dens":14.6,"sigilo_dens":false,"na_bacia":1,"area_pct_bacia":100.0,"metodo_recorte_bacia":"ponto_representativo_setor_2022; area_pct_geometrica"},"geometry":{"type":"Polygon","coordinates":[[[-51.76060039999993,-29.008092799999922],[-51.75236069999995,-29.007746099999963],[-51.756894699999975,-29.016734099999965],[-51.75047729999994,-29.017676599999948],[-51.746093,-29.01883509999993],[-51.74680879999995,-29.021189299999946],[-51.74007989999996,-29.022182],[-51.74190009999995,-29.02577039999994],[-51.74197769999995,-29.028572899999958],[-51.74500359999996,-29.028569599999965],[-51.74701149999998,-29.031897699999956],[-51.746840199999944,-29.034774499999962],[-51.74995649999994,-29.03487359999997],[-51.74960959999998,-29.03846169999998],[-51.73981019999997,-29.057446399999943],[-51.74448619999998,-29.057733299999935],[-51.7467233,-29.058150499999957],[-51.747383899999924,-29.057809899999935],[-51.74765639999998,-29.056611399999955],[-51.746235799999965,-29.05336609999995],[-51.74636919999995,-29.052567499999956],[-51.7469938,-29.052134199999948],[-51.749447799999984,-29.051398899999988],[-51.75412629999994,-29.049399099999963],[-51.75528279999997,-29.049151699999978],[-51.75614609999997,-29.049457799999974],[-51.75723489999996,-29.04914369999995],[-51.75679349999995,-29.048018699999933],[-51.76356159999994,-29.044260899999987],[-51.76366639999997,-29.041183],[-51.763474,-29.04043639999998],[-51.76363669999995,-29.040039599999933],[-51.76479029999996,-29.038301399999966],[-51.765276,-29.038298699999917],[-51.765609199999965,-29.039405099999946],[-51.76636259999999,-29.038321],[-51.76630309999996,-29.03750739999998],[-51.76581219999997,-29.037080799999956],[-51.76469289999994,-29.03674919999997],[-51.76479269999999,-29.036073599999956],[-51.765521699999965,-29.035456199999935],[-51.766950399999985,-29.035294099999927],[-51.76919439999995,-29.036754599999945],[-51.769679199999985,-29.0363225],[-51.769776899999954,-29.03530859999995],[-51.76914259999995,-29.03439169999995],[-51.76572539999996,-29.032389599999924],[-51.767048099999954,-29.031952499999928],[-51.767074099999945,-29.030694],[-51.76752079999994,-29.02974],[-51.76949349999995,-29.027672299999942],[-51.770829,-29.024197899999955],[-51.771677499999946,-29.02331819999994],[-51.772280299999984,-29.01972529999995],[-51.773040099999946,-29.018861199999947],[-51.77648149999993,-29.017276799999927],[-51.77749339999997,-29.017054499999965],[-51.77892689999993,-29.01780689999997],[-51.78210649999994,-29.018377099999956],[-51.78353409999994,-29.017968599999964],[-51.78495809999998,-29.01710109999994],[-51.788335,-29.015975199999946],[-51.790209799999964,-29.01495349999994],[-51.791496199999976,-29.014516499999946],[-51.790367,-29.01234519999997],[-51.788347399999964,-29.01009339999996],[-51.79480989999996,-29.008873699999985],[-51.792821699999934,-28.998676099999944],[-51.779674399999976,-29.000764],[-51.779876,-29.00808959999996],[-51.76060039999993,-29.008092799999922]]]}},{"type":"Feature","properties":{"setor":"431971105000004","pop":158,"sigilo_pop":false,"dom":86,"sigilo_dom":false,"mulheres":83,"sigilo_mulheres":false,"c0_4":7,"sigilo_c0_4":false,"c5_9":12,"sigilo_c5_9":false,"i60_69":26,"sigilo_i60_69":false,"i70m":23,"sigilo_i70m":false,"indigenas":0,"sigilo_indigenas":false,"pretos_pardos":24,"sigilo_pretos_pardos":false,"dom_ocupados":59,"sigilo_dom_ocupados":false,"dom_agua":4,"sigilo_dom_agua":false,"dom_esgoto":0,"sigilo_dom_esgoto":false,"renda_resp":1796.2,"sigilo_renda_resp":false,"n_resp":59,"sigilo_n_resp":false,"dens":27.7,"sigilo_dens":false,"na_bacia":1,"area_pct_bacia":100.0,"metodo_recorte_bacia":"ponto_representativo_setor_2022; area_pct_geometrica"},"geometry":{"type":"Polygon","coordinates":[[[-51.73981019999997,-29.057446399999943],[-51.73745629999996,-29.06200529999995],[-51.73009639999998,-29.062087599999973],[-51.73078959999998,-29.069452099999985],[-51.733164,-29.06956169999995],[-51.735764699999955,-29.06928629999993],[-51.73684389999994,-29.068971699999974],[-51.73981029999993,-29.06883229999994],[-51.741483,-29.068149699999935],[-51.74476569999996,-29.06853049999995],[-51.746788599999945,-29.068274],[-51.74945989999998,-29.068336],[-51.75116439999993,-29.067649299999978],[-51.75619249999994,-29.067592699999977],[-51.756593099999975,-29.07088569999996],[-51.760508899999934,-29.069904099999974],[-51.76303169999995,-29.067148299999936],[-51.76732229999993,-29.063086599999963],[-51.77025279999998,-29.062383499999953],[-51.771484899999955,-29.06155409999997],[-51.77256369999998,-29.05964159999997],[-51.77398429999994,-29.058287199999945],[-51.77447009999998,-29.056949699999954],[-51.77056259999995,-29.058461499999957],[-51.77000849999996,-29.056875299999952],[-51.7687653,-29.05728],[-51.76756629999994,-29.054483299999973],[-51.769333,-29.053729199999964],[-51.76805359999997,-29.052598299999936],[-51.76672979999996,-29.053228],[-51.76577179999998,-29.051426299999957],[-51.76496909999997,-29.05172489999994],[-51.76122309999993,-29.050491299999976],[-51.756555099999964,-29.05251919999995],[-51.756358,-29.05189859999996],[-51.760358,-29.050199],[-51.75723489999996,-29.04914369999995],[-51.756034399999976,-29.04946239999998],[-51.75528279999997,-29.049151699999978],[-51.75333189999998,-29.04969719999996],[-51.749447799999984,-29.051398899999988],[-51.7469938,-29.052134199999948],[-51.74636919999995,-29.052567499999956],[-51.746235799999965,-29.05336609999995],[-51.74765639999998,-29.056611399999955],[-51.747383899999924,-29.057809899999935],[-51.7467233,-29.058150499999957],[-51.74448619999998,-29.057733299999935],[-51.73981019999997,-29.057446399999943]]]}},{"type":"Feature","properties":{"setor":"431971105000005","pop":348,"sigilo_pop":false,"dom":146,"sigilo_dom":false,"mulheres":159,"sigilo_mulheres":false,"c0_4":13,"sigilo_c0_4":false,"c5_9":19,"sigilo_c5_9":false,"i60_69":61,"sigilo_i60_69":false,"i70m":60,"sigilo_i70m":false,"indigenas":0,"sigilo_indigenas":false,"pretos_pardos":33,"sigilo_pretos_pardos":false,"dom_ocupados":125,"sigilo_dom_ocupados":false,"dom_agua":86,"sigilo_dom_agua":false,"dom_esgoto":null,"sigilo_dom_esgoto":true,"renda_resp":2771.49,"sigilo_renda_resp":false,"n_resp":125,"sigilo_n_resp":false,"dens":20.4,"sigilo_dens":false,"na_bacia":1,"area_pct_bacia":100.0,"metodo_recorte_bacia":"ponto_representativo_setor_2022; area_pct_geometrica"},"geometry":{"type":"Polygon","coordinates":[[[-51.774635299999936,-29.05436019999997],[-51.77447009999998,-29.056949699999954],[-51.77398429999994,-29.058287199999945],[-51.77256369999998,-29.05964159999997],[-51.771615499999946,-29.061396299999945],[-51.77104819999994,-29.06195889999998],[-51.77025279999998,-29.062383499999953],[-51.76732229999993,-29.063086599999963],[-51.76303169999995,-29.067148299999936],[-51.760508899999934,-29.069904099999974],[-51.756593099999975,-29.07088569999996],[-51.75911909999997,-29.09216609999993],[-51.752718399999935,-29.094336],[-51.752999,-29.100118499999944],[-51.74755609999995,-29.10036029999997],[-51.74755609999994,-29.106551499999973],[-51.74043169999993,-29.106672599999968],[-51.740426699999944,-29.115520199999935],[-51.74418079999998,-29.115601799999983],[-51.74412009999998,-29.11707119999994],[-51.74697829999997,-29.114744599999938],[-51.75221609999994,-29.114374899999977],[-51.75508949999994,-29.10844639999993],[-51.75851139999998,-29.103653399999928],[-51.808399399999985,-29.081724099999974],[-51.804269399999946,-29.067726499999935],[-51.800338,-29.069206299999962],[-51.798846699999956,-29.07031749999993],[-51.796770599999945,-29.070668399999935],[-51.795045399999935,-29.07145789999992],[-51.793875699999944,-29.072364399999962],[-51.79245679999997,-29.07162],[-51.79060969999995,-29.073517799999944],[-51.789913,-29.073767799999928],[-51.78884869999996,-29.071946599999933],[-51.78874179999997,-29.066851099999955],[-51.789382,-29.063899899999978],[-51.787041,-29.063349099999968],[-51.786751899999956,-29.06423269999993],[-51.785764799999974,-29.064093599999982],[-51.784709299999975,-29.06473349999993],[-51.784063,-29.06250129999995],[-51.782856599999946,-29.06130519999994],[-51.78046159999997,-29.05487289999997],[-51.77731319999999,-29.05398519999995],[-51.774635299999936,-29.05436019999997]]]}},{"type":"Feature","properties":{"setor":"431971105000006","pop":196,"sigilo_pop":false,"dom":105,"sigilo_dom":false,"mulheres":95,"sigilo_mulheres":false,"c0_4":9,"sigilo_c0_4":false,"c5_9":9,"sigilo_c5_9":false,"i60_69":22,"sigilo_i60_69":false,"i70m":28,"sigilo_i70m":false,"indigenas":0,"sigilo_indigenas":false,"pretos_pardos":null,"sigilo_pretos_pardos":true,"dom_ocupados":69,"sigilo_dom_ocupados":false,"dom_agua":36,"sigilo_dom_agua":false,"dom_esgoto":29,"sigilo_dom_esgoto":false,"renda_resp":1580.72,"sigilo_renda_resp":false,"n_resp":69,"sigilo_n_resp":false,"dens":13.8,"sigilo_dens":false,"na_bacia":1,"area_pct_bacia":100.0,"metodo_recorte_bacia":"ponto_representativo_setor_2022; area_pct_geometrica"},"geometry":{"type":"Polygon","coordinates":[[[-51.765609199999965,-29.039405099999946],[-51.76657339999997,-29.044186],[-51.76780009999994,-29.044343799999986],[-51.76812309999997,-29.044698399999962],[-51.769776399999955,-29.050886799999937],[-51.77759189999995,-29.05131889999997],[-51.78231349999999,-29.053628299999957],[-51.78287369999998,-29.056036199999937],[-51.784550199999956,-29.06041559999995],[-51.78632649999997,-29.06243139999998],[-51.78733009999996,-29.062465599999943],[-51.787041,-29.063349099999968],[-51.789382,-29.063899899999978],[-51.78874179999997,-29.066851099999955],[-51.78884869999996,-29.071946599999933],[-51.789913,-29.073767799999928],[-51.79060969999995,-29.073517799999944],[-51.79245679999997,-29.07162],[-51.793875699999944,-29.072364399999962],[-51.795045399999935,-29.07145789999992],[-51.796770599999945,-29.070668399999935],[-51.798846699999956,-29.07031749999993],[-51.800338,-29.069206299999962],[-51.804269399999946,-29.067726499999935],[-51.803597099999934,-29.065448],[-51.80903729999994,-29.06430129999994],[-51.805329,-29.04570269999993],[-51.808991,-29.032680699999965],[-51.781648,-29.031177],[-51.77892689999993,-29.01780689999997],[-51.77749339999997,-29.017054499999965],[-51.77648149999993,-29.017276799999927],[-51.773040099999946,-29.018861199999947],[-51.772280299999984,-29.01972529999995],[-51.771677499999946,-29.02331819999994],[-51.770829,-29.024197899999955],[-51.76949349999995,-29.027672299999942],[-51.76752079999994,-29.02974],[-51.767074099999945,-29.030694],[-51.767048099999954,-29.031952499999928],[-51.76572539999996,-29.032389599999924],[-51.76914259999995,-29.03439169999995],[-51.769776899999954,-29.03530859999995],[-51.769679199999985,-29.0363225],[-51.76919439999995,-29.036754599999945],[-51.766950399999985,-29.035294099999927],[-51.765521699999965,-29.035456199999935],[-51.76479269999999,-29.036073599999956],[-51.76469289999994,-29.03674919999997],[-51.76581219999997,-29.037080799999956],[-51.76630309999996,-29.03750739999998],[-51.76636259999999,-29.038321],[-51.765609199999965,-29.039405099999946]]]}},{"type":"Feature","properties":{"setor":"431971105000011","pop":146,"sigilo_pop":false,"dom":66,"sigilo_dom":false,"mulheres":69,"sigilo_mulheres":false,"c0_4":6,"sigilo_c0_4":false,"c5_9":null,"sigilo_c5_9":true,"i60_69":7,"sigilo_i60_69":false,"i70m":7,"sigilo_i70m":false,"indigenas":0,"sigilo_indigenas":false,"pretos_pardos":35,"sigilo_pretos_pardos":false,"dom_ocupados":56,"sigilo_dom_ocupados":false,"dom_agua":52,"sigilo_dom_agua":false,"dom_esgoto":null,"sigilo_dom_esgoto":true,"renda_resp":2519.7,"sigilo_renda_resp":false,"n_resp":56,"sigilo_n_resp":false,"dens":620.2,"sigilo_dens":false,"na_bacia":1,"area_pct_bacia":100.0,"metodo_recorte_bacia":"ponto_representativo_setor_2022; area_pct_geometrica"},"geometry":{"type":"Polygon","coordinates":[[[-51.77447009999998,-29.056949699999954],[-51.774635299999936,-29.05436019999997],[-51.77191689999995,-29.054288199999966],[-51.769333,-29.053729199999964],[-51.76756629999994,-29.054483299999973],[-51.7687653,-29.05728],[-51.77000849999996,-29.056875299999952],[-51.77056259999995,-29.058461499999957],[-51.77447009999998,-29.056949699999954]]]}},{"type":"Feature","properties":{"setor":"431971105000012","pop":603,"sigilo_pop":false,"dom":278,"sigilo_dom":false,"mulheres":319,"sigilo_mulheres":false,"c0_4":33,"sigilo_c0_4":false,"c5_9":27,"sigilo_c5_9":false,"i60_69":83,"sigilo_i60_69":false,"i70m":81,"sigilo_i70m":false,"indigenas":0,"sigilo_indigenas":false,"pretos_pardos":56,"sigilo_pretos_pardos":false,"dom_ocupados":241,"sigilo_dom_ocupados":false,"dom_agua":104,"sigilo_dom_agua":false,"dom_esgoto":3,"sigilo_dom_esgoto":false,"renda_resp":3375.08,"sigilo_renda_resp":false,"n_resp":241,"sigilo_n_resp":false,"dens":388.7,"sigilo_dens":false,"na_bacia":1,"area_pct_bacia":100.0,"metodo_recorte_bacia":"ponto_representativo_setor_2022; area_pct_geometrica"},"geometry":{"type":"Polygon","coordinates":[[[-51.75723489999996,-29.04914369999995],[-51.760358,-29.050199],[-51.756358,-29.05189859999996],[-51.756555099999964,-29.05251919999995],[-51.76122309999993,-29.050491299999976],[-51.76496909999997,-29.05172489999994],[-51.76577179999998,-29.051426299999957],[-51.76672979999996,-29.053228],[-51.76805359999997,-29.052598299999936],[-51.769333,-29.053729199999964],[-51.77191689999995,-29.054288199999966],[-51.774635299999936,-29.05436019999997],[-51.77731319999999,-29.05398519999995],[-51.78046159999997,-29.05487289999997],[-51.782856599999946,-29.06130519999994],[-51.784063,-29.06250129999995],[-51.784709299999975,-29.06473349999993],[-51.785764799999974,-29.064093599999982],[-51.786751899999956,-29.06423269999993],[-51.78733009999996,-29.062465599999943],[-51.78632649999997,-29.06243139999998],[-51.784550199999956,-29.06041559999995],[-51.78287369999998,-29.056036199999937],[-51.78231349999999,-29.053628299999957],[-51.77759189999995,-29.05131889999997],[-51.769776399999955,-29.050886799999937],[-51.76812309999997,-29.044698399999962],[-51.76780009999994,-29.044343799999986],[-51.76657339999997,-29.044186],[-51.765276,-29.038298699999917],[-51.76460069999996,-29.03843569999998],[-51.763474,-29.04043639999998],[-51.76366639999997,-29.041183],[-51.76356159999994,-29.044260899999987],[-51.75679349999995,-29.048018699999933],[-51.75723489999996,-29.04914369999995]]]}},{"type":"Feature","properties":{"setor":"431971110000001","pop":41,"sigilo_pop":false,"dom":30,"sigilo_dom":false,"mulheres":24,"sigilo_mulheres":false,"c0_4":0,"sigilo_c0_4":false,"c5_9":null,"sigilo_c5_9":true,"i60_69":null,"sigilo_i60_69":true,"i70m":null,"sigilo_i70m":true,"indigenas":0,"sigilo_indigenas":false,"pretos_pardos":0,"sigilo_pretos_pardos":false,"dom_ocupados":17,"sigilo_dom_ocupados":false,"dom_agua":7,"sigilo_dom_agua":false,"dom_esgoto":0,"sigilo_dom_esgoto":false,"renda_resp":1569.41,"sigilo_renda_resp":false,"n_resp":17,"sigilo_n_resp":false,"dens":309.3,"sigilo_dens":false,"na_bacia":1,"area_pct_bacia":100.0,"metodo_recorte_bacia":"ponto_representativo_setor_2022; area_pct_geometrica"},"geometry":{"type":"Polygon","coordinates":[[[-51.79354349999994,-29.024011799999986],[-51.79454389999995,-29.024510499999963],[-51.794943099999955,-29.023781599999957],[-51.79509929999995,-29.022532],[-51.79551579999997,-29.021889799999947],[-51.79728609999995,-29.02091789999997],[-51.80151159999998,-29.016578799999934],[-51.800471,-29.016132799999983],[-51.796296799999936,-29.020310399999964],[-51.79471749999993,-29.02098729999995],[-51.79402329999993,-29.02195919999997],[-51.79354349999994,-29.024011799999986]]]}},{"type":"Feature","properties":{"setor":"431971110000002","pop":123,"sigilo_pop":false,"dom":60,"sigilo_dom":false,"mulheres":58,"sigilo_mulheres":false,"c0_4":null,"sigilo_c0_4":true,"c5_9":7,"sigilo_c5_9":false,"i60_69":18,"sigilo_i60_69":false,"i70m":20,"sigilo_i70m":false,"indigenas":0,"sigilo_indigenas":false,"pretos_pardos":4,"sigilo_pretos_pardos":false,"dom_ocupados":44,"sigilo_dom_ocupados":false,"dom_agua":0,"sigilo_dom_agua":false,"dom_esgoto":0,"sigilo_dom_esgoto":false,"renda_resp":1641.0,"sigilo_renda_resp":false,"n_resp":44,"sigilo_n_resp":false,"dens":19.4,"sigilo_dens":false,"na_bacia":1,"area_pct_bacia":100.0,"metodo_recorte_bacia":"ponto_representativo_setor_2022; area_pct_geometrica"},"geometry":{"type":"Polygon","coordinates":[[[-51.77892689999993,-29.01780689999997],[-51.781648,-29.031177],[-51.808991,-29.032680699999965],[-51.814099099999964,-29.014511599999924],[-51.79480989999996,-29.008873699999985],[-51.788347399999964,-29.01009339999996],[-51.790367,-29.01234519999997],[-51.791496199999976,-29.014516499999946],[-51.790209799999964,-29.01495349999994],[-51.788335,-29.015975199999946],[-51.78495809999998,-29.01710109999994],[-51.78353409999994,-29.017968599999964],[-51.78210649999994,-29.018377099999956],[-51.77892689999993,-29.01780689999997]],[[-51.79454389999995,-29.024510499999963],[-51.79354349999994,-29.024011799999986],[-51.79402329999993,-29.02195919999997],[-51.79471749999993,-29.02098729999995],[-51.796296799999936,-29.020310399999964],[-51.800471,-29.016132799999983],[-51.80151159999998,-29.016578799999934],[-51.79728609999995,-29.02091789999997],[-51.79551579999997,-29.021889799999947],[-51.79509929999995,-29.022532],[-51.794943099999955,-29.023781599999957],[-51.79454389999995,-29.024510499999963]]]}},{"type":"Feature","properties":{"setor":"431971120000001","pop":177,"sigilo_pop":false,"dom":139,"sigilo_dom":false,"mulheres":85,"sigilo_mulheres":false,"c0_4":6,"sigilo_c0_4":false,"c5_9":10,"sigilo_c5_9":false,"i60_69":35,"sigilo_i60_69":false,"i70m":35,"sigilo_i70m":false,"indigenas":0,"sigilo_indigenas":false,"pretos_pardos":null,"sigilo_pretos_pardos":true,"dom_ocupados":69,"sigilo_dom_ocupados":false,"dom_agua":59,"sigilo_dom_agua":false,"dom_esgoto":null,"sigilo_dom_esgoto":true,"renda_resp":2328.78,"sigilo_renda_resp":false,"n_resp":69,"sigilo_n_resp":false,"dens":153.5,"sigilo_dens":false,"na_bacia":1,"area_pct_bacia":100.0,"metodo_recorte_bacia":"ponto_representativo_setor_2022; area_pct_geometrica"},"geometry":{"type":"Polygon","coordinates":[[[-51.71890139999993,-29.080941499999934],[-51.718964899999946,-29.075380199999984],[-51.71735069999993,-29.075589799999925],[-51.71670569999998,-29.075053399999945],[-51.718512,-29.073597699999944],[-51.71834239999998,-29.072575],[-51.718507399999964,-29.071722299999976],[-51.71799989999994,-29.071963],[-51.71478019999995,-29.070903],[-51.71067379999994,-29.08049739999995],[-51.711473599999984,-29.08720809999994],[-51.71404249999995,-29.09067069999998],[-51.71644549999997,-29.087276499999973],[-51.71890139999993,-29.080941499999934]]]}},{"type":"Feature","properties":{"setor":"431971120000002","pop":125,"sigilo_pop":false,"dom":165,"sigilo_dom":false,"mulheres":59,"sigilo_mulheres":false,"c0_4":0,"sigilo_c0_4":false,"c5_9":null,"sigilo_c5_9":true,"i60_69":29,"sigilo_i60_69":false,"i70m":29,"sigilo_i70m":false,"indigenas":0,"sigilo_indigenas":false,"pretos_pardos":8,"sigilo_pretos_pardos":false,"dom_ocupados":54,"sigilo_dom_ocupados":false,"dom_agua":18,"sigilo_dom_agua":false,"dom_esgoto":16,"sigilo_dom_esgoto":false,"renda_resp":1662.12,"sigilo_renda_resp":false,"n_resp":54,"sigilo_n_resp":false,"dens":7.6,"sigilo_dens":false,"na_bacia":1,"area_pct_bacia":100.0,"metodo_recorte_bacia":"ponto_representativo_setor_2022; area_pct_geometrica"},"geometry":{"type":"Polygon","coordinates":[[[-51.718964899999946,-29.075380199999984],[-51.71890139999993,-29.080941499999934],[-51.719597799999974,-29.079145],[-51.72100849999998,-29.077965],[-51.7251596,-29.077543799999948],[-51.728362199999935,-29.079758899999945],[-51.73074259999998,-29.084763799999966],[-51.72997209999994,-29.094504299999976],[-51.72139539999995,-29.105411],[-51.71302469999994,-29.112397699999967],[-51.71222619999997,-29.11565409999998],[-51.713233799999955,-29.116789599999958],[-51.71851769999995,-29.118706699999958],[-51.72262879999994,-29.12190139999996],[-51.72401019999996,-29.125390599999953],[-51.73055019999999,-29.133782199999914],[-51.73610259999998,-29.136304699999982],[-51.739129,-29.136753499999948],[-51.73716489999998,-29.136007],[-51.73606829999994,-29.13411119999995],[-51.73588249999994,-29.132921699999933],[-51.734916,-29.132141099999945],[-51.73476729999993,-29.131527799999954],[-51.73309459999995,-29.130338199999983],[-51.73212809999995,-29.128981499999956],[-51.735733799999934,-29.122643599999943],[-51.736773599999935,-29.121517599999937],[-51.73710919999997,-29.120747899999973],[-51.73900489999995,-29.118833499999944],[-51.740008599999946,-29.118573299999976],[-51.74091929999997,-29.11892639999995],[-51.74216459999996,-29.11870339999996],[-51.74303809999998,-29.117755499999937],[-51.74412009999998,-29.11707119999994],[-51.74418079999998,-29.115601799999983],[-51.740426699999944,-29.115520199999935],[-51.74043169999993,-29.106672599999968],[-51.74755609999994,-29.106551499999973],[-51.74755609999995,-29.10036029999997],[-51.752999,-29.100118499999944],[-51.752718399999935,-29.094336],[-51.75911909999997,-29.09216609999993],[-51.756593099999975,-29.07088569999996],[-51.750966399999974,-29.06953359999994],[-51.74723289999997,-29.070230399999957],[-51.744138,-29.06961749999993],[-51.740297699999985,-29.069700799999964],[-51.738066799999956,-29.07054169999998],[-51.73684439999994,-29.070641],[-51.73516639999997,-29.07043419999998],[-51.731354099999976,-29.07219069999997],[-51.727127,-29.072152499999966],[-51.723812,-29.07263119999994],[-51.72108369999996,-29.072216099999928],[-51.71944519999994,-29.072593199999975],[-51.719092,-29.07228619999995],[-51.71845379999996,-29.072800599999944],[-51.718512,-29.073597699999944],[-51.71670569999998,-29.075053399999945],[-51.71735069999993,-29.075589799999925],[-51.718964899999946,-29.075380199999984]]]}},{"type":"Feature","properties":{"setor":"431971120000003","pop":105,"sigilo_pop":false,"dom":117,"sigilo_dom":false,"mulheres":48,"sigilo_mulheres":false,"c0_4":null,"sigilo_c0_4":true,"c5_9":null,"sigilo_c5_9":true,"i60_69":17,"sigilo_i60_69":false,"i70m":26,"sigilo_i70m":false,"indigenas":0,"sigilo_indigenas":false,"pretos_pardos":null,"sigilo_pretos_pardos":true,"dom_ocupados":41,"sigilo_dom_ocupados":false,"dom_agua":0,"sigilo_dom_agua":false,"dom_esgoto":0,"sigilo_dom_esgoto":false,"renda_resp":1726.73,"sigilo_renda_resp":false,"n_resp":41,"sigilo_n_resp":false,"dens":6.4,"sigilo_dens":false,"na_bacia":1,"area_pct_bacia":100.0,"metodo_recorte_bacia":"ponto_representativo_setor_2022; area_pct_geometrica"},"geometry":{"type":"Polygon","coordinates":[[[-51.71845379999996,-29.072800599999944],[-51.719092,-29.07228619999995],[-51.71944519999994,-29.072593199999975],[-51.72108369999996,-29.072216099999928],[-51.723812,-29.07263119999994],[-51.727127,-29.072152499999966],[-51.731354099999976,-29.07219069999997],[-51.73516639999997,-29.07043419999998],[-51.73684439999994,-29.070641],[-51.738066799999956,-29.07054169999998],[-51.740297699999985,-29.069700799999964],[-51.744138,-29.06961749999993],[-51.74723289999997,-29.070230399999957],[-51.750966399999974,-29.06953359999994],[-51.756593099999975,-29.07088569999996],[-51.75619249999994,-29.067592699999977],[-51.75116439999993,-29.067649299999978],[-51.74945989999998,-29.068336],[-51.746788599999945,-29.068274],[-51.74476569999996,-29.06853049999995],[-51.741483,-29.068149699999935],[-51.73981029999993,-29.06883229999994],[-51.73684389999994,-29.068971699999974],[-51.735764699999955,-29.06928629999993],[-51.733164,-29.06956169999995],[-51.73078959999998,-29.069452099999985],[-51.73009639999998,-29.062087599999973],[-51.73745629999996,-29.06200529999995],[-51.74960959999998,-29.03846169999998],[-51.74995649999994,-29.03487359999997],[-51.746840199999944,-29.034774499999962],[-51.74701149999998,-29.031897699999956],[-51.74500359999996,-29.028569599999965],[-51.74197769999995,-29.028572899999958],[-51.74190009999995,-29.02577039999994],[-51.74007989999996,-29.022182],[-51.74680879999995,-29.021189299999946],[-51.746093,-29.01883509999993],[-51.75047729999994,-29.017676599999948],[-51.756894699999975,-29.016734099999965],[-51.75236069999995,-29.007746099999963],[-51.76060039999993,-29.008092799999922],[-51.76001609999998,-28.996492299999936],[-51.759099299999946,-28.997075],[-51.75570109999996,-28.996866799999953],[-51.75075769999995,-28.99440779999997],[-51.74118289999996,-28.99451879999997],[-51.738184699999984,-28.995935799999987],[-51.738535,-29.000116399999957],[-51.74160249999994,-29.00203209999995],[-51.742853499999974,-29.005637099999937],[-51.74168789999993,-29.014056199999967],[-51.73947539999995,-29.01755339999994],[-51.73752679999996,-29.019061899999933],[-51.73173269999995,-29.020641699999953],[-51.728154699999955,-29.022610499999924],[-51.727731,-29.023861399999934],[-51.72914819999995,-29.035569799999948],[-51.72826969999994,-29.039064899999968],[-51.72659939999994,-29.04040119999996],[-51.72352379999995,-29.039239899999988],[-51.71780059999998,-29.040427899999944],[-51.71454029999995,-29.041961599999986],[-51.710330799999944,-29.045975299999963],[-51.7134794,-29.050254],[-51.72000749999995,-29.054798499999933],[-51.719633,-29.059543899999934],[-51.71478019999995,-29.070903],[-51.71799989999994,-29.071963],[-51.718507399999964,-29.071722299999976],[-51.71845379999996,-29.072800599999944]]]}}]}