{"type":"FeatureCollection","name":"4320453","crs":{"type":"name","properties":{"name":"urn:ogc:def:crs:OGC:1.3:CRS84"}},"features":[{"type":"Feature","properties":{"setor":"432045305000001","pop":629,"sigilo_pop":false,"dom":287,"sigilo_dom":0,"mulheres":326,"sigilo_mulheres":0,"c0_4":27,"sigilo_c0_4":0,"c5_9":34,"sigilo_c5_9":0,"i60_69":60,"sigilo_i60_69":0,"i70m":101,"sigilo_i70m":0,"indigenas":0,"sigilo_indigenas":0,"pretos_pardos":44,"sigilo_pretos_pardos":0,"dom_ocupados":261,"sigilo_dom_ocupados":0,"dom_agua":249,"sigilo_dom_agua":0,"dom_esgoto":0,"sigilo_dom_esgoto":0,"renda_resp":2398.94,"sigilo_renda_resp":0,"n_resp":261,"sigilo_n_resp":0,"dens":579.6,"sigilo_dens":false,"na_bacia":1,"area_pct_bacia":100.0,"metodo_recorte_bacia":"ponto_representativo_setor_2022; area_pct_geometrica","pop_n_validos":1,"pop_n_total":1,"pop_completude":1.0,"dom_n_validos":1,"dom_n_total":1,"dom_completude":1.0,"dom_ocupados_n_validos":1,"dom_ocupados_n_total":1,"dom_ocupados_completude":1.0,"mulheres_n_validos":1,"mulheres_n_total":1,"mulheres_completude":1.0,"c0_4_n_validos":1,"c0_4_n_total":1,"c0_4_completude":1.0,"c5_9_n_validos":1,"c5_9_n_total":1,"c5_9_completude":1.0,"i60_69_n_validos":1,"i60_69_n_total":1,"i60_69_completude":1.0,"i70m_n_validos":1,"i70m_n_total":1,"i70m_completude":1.0,"indigenas_n_validos":1,"indigenas_n_total":1,"indigenas_completude":1.0,"pretos_pardos_n_validos":1,"pretos_pardos_n_total":1,"pretos_pardos_completude":1.0,"dom_agua_n_validos":1,"dom_agua_n_total":1,"dom_agua_completude":1.0,"dom_esgoto_n_validos":1,"dom_esgoto_n_total":1,"dom_esgoto_completude":1.0,"n_resp_n_validos":1,"n_resp_n_total":1,"n_resp_completude":1.0,"renda_resp_n_validos":1,"renda_resp_n_total":1,"renda_resp_completude":1.0,"dens_n_validos":1,"dens_n_total":1,"dens_completude":1.0,"status_borda_bacia":"total","metodo_area_bacia":"interse??o geom?trica em EPSG:5880","metodo_na_bacia":"ponto_representativo_setor_2022_within_bacia","municipio":"Sério","cod_mun":"4320453","mun_pct_na_bacia":100.0,"mun_pop_total":1941,"mun_pop_na_bacia":1941.0,"mun_ubs_iede":2,"mun_hospitais_iede":1,"mun_escolas_iede":3,"mun_bombeiros_iede":null,"mun_servicos_cobertura":"cadastro_IEDE_parcial_nao_inventario","mun_icm_faixa":"A","mun_icm_pontos":9,"mun_icm_prioritario":"não","mun_ubs_iede_status":"published","mun_hospitais_iede_status":"published","mun_escolas_iede_status":"published","mun_bombeiros_iede_status":"unknown"},"geometry":{"type":"Polygon","coordinates":[[[-52.268016899999964,-29.381020299999943],[-52.26808379999995,-29.38324829999994],[-52.265412099999935,-29.38469819999994],[-52.26642009999995,-29.386100699999925],[-52.26577759999998,-29.38643679999996],[-52.26359569999994,-29.386610599999983],[-52.262352599999986,-29.387426499999943],[-52.26134059999998,-29.387581899999923],[-52.26005869999995,-29.387270099999956],[-52.26010439999994,-29.388638199999946],[-52.261068799999975,-29.38896909999994],[-52.261794,-29.388883],[-52.26156579999998,-29.391793899999975],[-52.26194879999997,-29.391628499999968],[-52.26225029999995,-29.392281099999938],[-52.261695,-29.39259619999996],[-52.26202409999996,-29.39338759999997],[-52.267379499999954,-29.390466399999973],[-52.26745059999996,-29.39308539999996],[-52.27099709999993,-29.391150799999927],[-52.26882159999997,-29.38808509999994],[-52.276196699999964,-29.384062],[-52.27685709999997,-29.37929229999997],[-52.268016899999964,-29.381020299999943]]]}},{"type":"Feature","properties":{"setor":"432045305000002","pop":170,"sigilo_pop":false,"dom":95,"sigilo_dom":0,"mulheres":81,"sigilo_mulheres":0,"c0_4":null,"sigilo_c0_4":1,"c5_9":null,"sigilo_c5_9":1,"i60_69":32,"sigilo_i60_69":0,"i70m":24,"sigilo_i70m":0,"indigenas":0,"sigilo_indigenas":0,"pretos_pardos":18,"sigilo_pretos_pardos":0,"dom_ocupados":70,"sigilo_dom_ocupados":0,"dom_agua":45,"sigilo_dom_agua":0,"dom_esgoto":0,"sigilo_dom_esgoto":0,"renda_resp":3116.17,"sigilo_renda_resp":0,"n_resp":70,"sigilo_n_resp":0,"dens":17.9,"sigilo_dens":false,"na_bacia":1,"area_pct_bacia":100.0,"metodo_recorte_bacia":"ponto_representativo_setor_2022; area_pct_geometrica","pop_n_validos":1,"pop_n_total":1,"pop_completude":1.0,"dom_n_validos":1,"dom_n_total":1,"dom_completude":1.0,"dom_ocupados_n_validos":1,"dom_ocupados_n_total":1,"dom_ocupados_completude":1.0,"mulheres_n_validos":1,"mulheres_n_total":1,"mulheres_completude":1.0,"c0_4_n_validos":0,"c0_4_n_total":1,"c0_4_completude":0.0,"c5_9_n_validos":0,"c5_9_n_total":1,"c5_9_completude":0.0,"i60_69_n_validos":1,"i60_69_n_total":1,"i60_69_completude":1.0,"i70m_n_validos":1,"i70m_n_total":1,"i70m_completude":1.0,"indigenas_n_validos":1,"indigenas_n_total":1,"indigenas_completude":1.0,"pretos_pardos_n_validos":1,"pretos_pardos_n_total":1,"pretos_pardos_completude":1.0,"dom_agua_n_validos":1,"dom_agua_n_total":1,"dom_agua_completude":1.0,"dom_esgoto_n_validos":1,"dom_esgoto_n_total":1,"dom_esgoto_completude":1.0,"n_resp_n_validos":1,"n_resp_n_total":1,"n_resp_completude":1.0,"renda_resp_n_validos":1,"renda_resp_n_total":1,"renda_resp_completude":1.0,"dens_n_validos":1,"dens_n_total":1,"dens_completude":1.0,"status_borda_bacia":"total","metodo_area_bacia":"interse??o geom?trica em EPSG:5880","metodo_na_bacia":"ponto_representativo_setor_2022_within_bacia","municipio":"Sério","cod_mun":"4320453","mun_pct_na_bacia":100.0,"mun_pop_total":1941,"mun_pop_na_bacia":1941.0,"mun_ubs_iede":2,"mun_hospitais_iede":1,"mun_escolas_iede":3,"mun_bombeiros_iede":null,"mun_servicos_cobertura":"cadastro_IEDE_parcial_nao_inventario","mun_icm_faixa":"A","mun_icm_pontos":9,"mun_icm_prioritario":"não","mun_ubs_iede_status":"published","mun_hospitais_iede_status":"published","mun_escolas_iede_status":"published","mun_bombeiros_iede_status":"unknown"},"geometry":{"type":"Polygon","coordinates":[[[-52.26707039999997,-29.35555639999995],[-52.26569969999997,-29.358269699999934],[-52.26423379999994,-29.358681599999954],[-52.26466979999998,-29.35966859999996],[-52.26323179999998,-29.361504099999927],[-52.26421519999997,-29.36170629999997],[-52.264270899999985,-29.362636099999975],[-52.265328599999975,-29.36274129999998],[-52.265695,-29.363206199999976],[-52.265676499999984,-29.363715599999967],[-52.26524619999998,-29.36419239999997],[-52.26553269999994,-29.364689899999966],[-52.26542129999996,-29.365587399999985],[-52.264688399999955,-29.36645259999993],[-52.26471619999995,-29.366695199999974],[-52.265133699999986,-29.36686489999994],[-52.265282199999945,-29.36758459999993],[-52.265811,-29.367689699999968],[-52.26624709999999,-29.368692299999967],[-52.266970699999945,-29.367851399999946],[-52.26766649999997,-29.367422799999915],[-52.267917,-29.36748749999998],[-52.268510799999945,-29.370099099999948],[-52.27017149999995,-29.370883399999965],[-52.27039419999995,-29.371352299999952],[-52.269837499999944,-29.37186979999996],[-52.26888189999994,-29.372225499999963],[-52.26951279999997,-29.372759099999946],[-52.26951279999997,-29.372993599999976],[-52.26864069999993,-29.374497399999942],[-52.26757379999999,-29.37478839999994],[-52.26645119999995,-29.37460249999998],[-52.264270899999985,-29.375079499999977],[-52.26338019999997,-29.375726299999943],[-52.262396799999976,-29.375710099999935],[-52.26211939999996,-29.376351299999957],[-52.264331199999965,-29.37807889999993],[-52.26506409999997,-29.378208299999987],[-52.265426,-29.37950379999995],[-52.26627949999993,-29.380229399999966],[-52.267290799999955,-29.380641699999956],[-52.268025799999975,-29.381408899999943],[-52.268016899999964,-29.381020299999943],[-52.27685709999997,-29.37929229999997],[-52.276681399999966,-29.380561],[-52.277148,-29.380468199999935],[-52.27878539999995,-29.38103519999992],[-52.28345429999996,-29.381595899999976],[-52.28584239999998,-29.380624],[-52.287508299999956,-29.380580399999936],[-52.28831629999996,-29.38033739999996],[-52.29127629999994,-29.378792199999964],[-52.29465829999998,-29.378169199999935],[-52.29523739999996,-29.377782899999936],[-52.295394699999974,-29.377153599999925],[-52.29452239999995,-29.37588259999996],[-52.29470829999997,-29.37363959999993],[-52.294167399999935,-29.37258249999996],[-52.29402909999993,-29.370922899999975],[-52.29477269999995,-29.370424399999923],[-52.295852299999986,-29.37034339999997],[-52.29785239999996,-29.37134879999996],[-52.30032069999998,-29.370368399999965],[-52.30087879999996,-29.369649699999965],[-52.30190179999994,-29.36908229999995],[-52.30485609999994,-29.368815099999956],[-52.30548969999995,-29.368584899999973],[-52.30572159999996,-29.36821149999997],[-52.30550039999997,-29.36767339999993],[-52.305617199999965,-29.367280399999974],[-52.30730229999994,-29.366600699999932],[-52.30815549999994,-29.36548019999998],[-52.308203299999946,-29.36409069999996],[-52.30739079999995,-29.362832199999954],[-52.30740139999995,-29.362418],[-52.308687,-29.360152899999953],[-52.30967389999995,-29.359729],[-52.308939899999984,-29.359013899999983],[-52.30662929999994,-29.358060399999946],[-52.304821499999946,-29.35647209999995],[-52.30438719999995,-29.35645789999996],[-52.30253449999998,-29.357191899999968],[-52.30126009999998,-29.357158899999938],[-52.30091549999997,-29.356894499999953],[-52.30041989999995,-29.3554195],[-52.26707039999997,-29.35555639999995]]]}},{"type":"Feature","properties":{"setor":"432045305000003","pop":125,"sigilo_pop":false,"dom":72,"sigilo_dom":0,"mulheres":55,"sigilo_mulheres":0,"c0_4":null,"sigilo_c0_4":1,"c5_9":10,"sigilo_c5_9":0,"i60_69":18,"sigilo_i60_69":0,"i70m":11,"sigilo_i70m":0,"indigenas":0,"sigilo_indigenas":0,"pretos_pardos":7,"sigilo_pretos_pardos":0,"dom_ocupados":50,"sigilo_dom_ocupados":0,"dom_agua":24,"sigilo_dom_agua":0,"dom_esgoto":0,"sigilo_dom_esgoto":0,"renda_resp":3554.34,"sigilo_renda_resp":0,"n_resp":50,"sigilo_n_resp":0,"dens":14.3,"sigilo_dens":false,"na_bacia":1,"area_pct_bacia":100.0,"metodo_recorte_bacia":"ponto_representativo_setor_2022; area_pct_geometrica","pop_n_validos":1,"pop_n_total":1,"pop_completude":1.0,"dom_n_validos":1,"dom_n_total":1,"dom_completude":1.0,"dom_ocupados_n_validos":1,"dom_ocupados_n_total":1,"dom_ocupados_completude":1.0,"mulheres_n_validos":1,"mulheres_n_total":1,"mulheres_completude":1.0,"c0_4_n_validos":0,"c0_4_n_total":1,"c0_4_completude":0.0,"c5_9_n_validos":1,"c5_9_n_total":1,"c5_9_completude":1.0,"i60_69_n_validos":1,"i60_69_n_total":1,"i60_69_completude":1.0,"i70m_n_validos":1,"i70m_n_total":1,"i70m_completude":1.0,"indigenas_n_validos":1,"indigenas_n_total":1,"indigenas_completude":1.0,"pretos_pardos_n_validos":1,"pretos_pardos_n_total":1,"pretos_pardos_completude":1.0,"dom_agua_n_validos":1,"dom_agua_n_total":1,"dom_agua_completude":1.0,"dom_esgoto_n_validos":1,"dom_esgoto_n_total":1,"dom_esgoto_completude":1.0,"n_resp_n_validos":1,"n_resp_n_total":1,"n_resp_completude":1.0,"renda_resp_n_validos":1,"renda_resp_n_total":1,"renda_resp_completude":1.0,"dens_n_validos":1,"dens_n_total":1,"dens_completude":1.0,"status_borda_bacia":"total","metodo_area_bacia":"interse??o geom?trica em EPSG:5880","metodo_na_bacia":"ponto_representativo_setor_2022_within_bacia","municipio":"Sério","cod_mun":"4320453","mun_pct_na_bacia":100.0,"mun_pop_total":1941,"mun_pop_na_bacia":1941.0,"mun_ubs_iede":2,"mun_hospitais_iede":1,"mun_escolas_iede":3,"mun_bombeiros_iede":null,"mun_servicos_cobertura":"cadastro_IEDE_parcial_nao_inventario","mun_icm_faixa":"A","mun_icm_pontos":9,"mun_icm_prioritario":"não","mun_ubs_iede_status":"published","mun_hospitais_iede_status":"published","mun_escolas_iede_status":"published","mun_bombeiros_iede_status":"unknown"},"geometry":{"type":"Polygon","coordinates":[[[-52.220310799999936,-29.35644139999993],[-52.221383499999945,-29.35601839999998],[-52.22219769999999,-29.356514],[-52.22233929999993,-29.356872699999936],[-52.221233599999955,-29.35679069999997],[-52.21967289999998,-29.35761469999994],[-52.21800289999994,-29.358868099999935],[-52.219069799999936,-29.360169899999967],[-52.219951199999976,-29.362401599999938],[-52.22068419999993,-29.36338],[-52.22130579999998,-29.363905599999946],[-52.222307799999946,-29.363824799999982],[-52.22363539999997,-29.366040299999945],[-52.22589819999996,-29.367099399999983],[-52.22731769999996,-29.36807779999998],[-52.23093139999998,-29.36938759999998],[-52.23384459999994,-29.36925819999994],[-52.23454969999995,-29.371311899999974],[-52.23593209999996,-29.372597399999968],[-52.237017599999945,-29.37322],[-52.23946689999997,-29.37386679999998],[-52.24432839999997,-29.374246799999984],[-52.24495929999994,-29.374723799999973],[-52.246657099999936,-29.375378599999973],[-52.24730659999995,-29.37591219999994],[-52.24831789999996,-29.37527349999992],[-52.24867039999998,-29.374287199999966],[-52.24961669999993,-29.374214399999975],[-52.250294,-29.373761699999925],[-52.251797,-29.373397799999967],[-52.252298,-29.375289699999943],[-52.25311439999996,-29.375985],[-52.25354119999998,-29.37670449999995],[-52.254663799999946,-29.37752109999997],[-52.25882949999993,-29.37767469999994],[-52.26036959999993,-29.37732709999995],[-52.26111179999998,-29.377561499999956],[-52.26154789999998,-29.37729469999994],[-52.262396799999976,-29.375710099999935],[-52.26338019999997,-29.375726299999943],[-52.264270899999985,-29.375079499999977],[-52.265792399999945,-29.374723799999966],[-52.26663669999994,-29.37459439999998],[-52.26797269999997,-29.37476419999996],[-52.26864069999993,-29.374497399999942],[-52.26951279999997,-29.372993599999976],[-52.26951279999997,-29.372759099999946],[-52.26888189999994,-29.372225499999963],[-52.270357099999956,-29.371481699999954],[-52.27017149999995,-29.370883399999965],[-52.268510799999945,-29.370099099999948],[-52.267917,-29.36748749999998],[-52.26766649999997,-29.367422799999915],[-52.266970699999945,-29.367851399999946],[-52.26624709999999,-29.368692299999967],[-52.265811,-29.367689699999968],[-52.265282199999945,-29.36758459999993],[-52.265133699999986,-29.36686489999994],[-52.26471619999995,-29.366695199999974],[-52.264688399999955,-29.36645259999993],[-52.26542129999996,-29.365587399999985],[-52.26553269999994,-29.364689899999966],[-52.26524619999998,-29.36419239999997],[-52.265676499999984,-29.363715599999967],[-52.265695,-29.363206199999976],[-52.265328599999975,-29.36274129999998],[-52.264270899999985,-29.362636099999975],[-52.26421519999997,-29.36170629999997],[-52.26323179999998,-29.361504099999927],[-52.26466979999998,-29.35966859999996],[-52.26423379999994,-29.358681599999954],[-52.26569969999997,-29.358269699999934],[-52.26707039999997,-29.35555639999995],[-52.24746619999996,-29.355639],[-52.243002,-29.354553299999964],[-52.24078829999996,-29.354746899999963],[-52.23895559999995,-29.35388779999994],[-52.237951399999986,-29.354234699999953],[-52.23553469999996,-29.354461299999976],[-52.23371269999996,-29.353904299999954],[-52.23246039999998,-29.354378399999973],[-52.23146109999993,-29.354340899999947],[-52.22959659999998,-29.355112699999943],[-52.228334,-29.355056],[-52.22715389999996,-29.355563399999948],[-52.226709,-29.356065],[-52.22505959999995,-29.356523199999955],[-52.22390759999996,-29.35621959999997],[-52.222524599999986,-29.356323399999944],[-52.22146719999995,-29.355806499999975],[-52.22070019999996,-29.355952899999977],[-52.220310799999936,-29.35644139999993]]]}},{"type":"Feature","properties":{"setor":"432045305000004","pop":101,"sigilo_pop":false,"dom":54,"sigilo_dom":0,"mulheres":51,"sigilo_mulheres":0,"c0_4":null,"sigilo_c0_4":1,"c5_9":null,"sigilo_c5_9":1,"i60_69":16,"sigilo_i60_69":0,"i70m":14,"sigilo_i70m":0,"indigenas":0,"sigilo_indigenas":0,"pretos_pardos":null,"sigilo_pretos_pardos":1,"dom_ocupados":39,"sigilo_dom_ocupados":0,"dom_agua":12,"sigilo_dom_agua":0,"dom_esgoto":0,"sigilo_dom_esgoto":0,"renda_resp":3000.51,"sigilo_renda_resp":0,"n_resp":39,"sigilo_n_resp":0,"dens":10.5,"sigilo_dens":false,"na_bacia":1,"area_pct_bacia":100.0,"metodo_recorte_bacia":"ponto_representativo_setor_2022; area_pct_geometrica","pop_n_validos":1,"pop_n_total":1,"pop_completude":1.0,"dom_n_validos":1,"dom_n_total":1,"dom_completude":1.0,"dom_ocupados_n_validos":1,"dom_ocupados_n_total":1,"dom_ocupados_completude":1.0,"mulheres_n_validos":1,"mulheres_n_total":1,"mulheres_completude":1.0,"c0_4_n_validos":0,"c0_4_n_total":1,"c0_4_completude":0.0,"c5_9_n_validos":0,"c5_9_n_total":1,"c5_9_completude":0.0,"i60_69_n_validos":1,"i60_69_n_total":1,"i60_69_completude":1.0,"i70m_n_validos":1,"i70m_n_total":1,"i70m_completude":1.0,"indigenas_n_validos":1,"indigenas_n_total":1,"indigenas_completude":1.0,"pretos_pardos_n_validos":0,"pretos_pardos_n_total":1,"pretos_pardos_completude":0.0,"dom_agua_n_validos":1,"dom_agua_n_total":1,"dom_agua_completude":1.0,"dom_esgoto_n_validos":1,"dom_esgoto_n_total":1,"dom_esgoto_completude":1.0,"n_resp_n_validos":1,"n_resp_n_total":1,"n_resp_completude":1.0,"renda_resp_n_validos":1,"renda_resp_n_total":1,"renda_resp_completude":1.0,"dens_n_validos":1,"dens_n_total":1,"dens_completude":1.0,"status_borda_bacia":"total","metodo_area_bacia":"interse??o geom?trica em EPSG:5880","metodo_na_bacia":"ponto_representativo_setor_2022_within_bacia","municipio":"Sério","cod_mun":"4320453","mun_pct_na_bacia":100.0,"mun_pop_total":1941,"mun_pop_na_bacia":1941.0,"mun_ubs_iede":2,"mun_hospitais_iede":1,"mun_escolas_iede":3,"mun_bombeiros_iede":null,"mun_servicos_cobertura":"cadastro_IEDE_parcial_nao_inventario","mun_icm_faixa":"A","mun_icm_pontos":9,"mun_icm_prioritario":"não","mun_ubs_iede_status":"published","mun_hospitais_iede_status":"published","mun_escolas_iede_status":"published","mun_bombeiros_iede_status":"unknown"},"geometry":{"type":"Polygon","coordinates":[[[-52.213493899999946,-29.383564199999963],[-52.21041569999994,-29.383834599999943],[-52.21158269999996,-29.38428369999996],[-52.21355889999995,-29.384453499999942],[-52.21384649999993,-29.384817199999926],[-52.213596,-29.385189099999923],[-52.21639779999998,-29.38573879999995],[-52.21729779999998,-29.386822099999943],[-52.21498759999998,-29.387008],[-52.21445879999994,-29.38721819999996],[-52.214421699999946,-29.387444499999962],[-52.21463509999996,-29.38867329999994],[-52.215368,-29.389627199999957],[-52.21530309999997,-29.390985199999932],[-52.216240099999936,-29.39320819999995],[-52.216908099999955,-29.393968],[-52.21950589999995,-29.395851399999977],[-52.21976569999999,-29.396296],[-52.21957079999998,-29.39809849999994],[-52.21925539999995,-29.398688599999943],[-52.220044,-29.399488799999965],[-52.219218299999966,-29.401574199999956],[-52.21932549999997,-29.403942799999975],[-52.21981779999992,-29.40337859999994],[-52.22015179999993,-29.40203689999993],[-52.22053219999999,-29.401616599999954],[-52.225004099999985,-29.399110899999975],[-52.226701899999966,-29.398763399999943],[-52.231415,-29.396322299999962],[-52.23224069999997,-29.395263399999973],[-52.23363239999998,-29.394729899999962],[-52.23636,-29.39262009999994],[-52.237195,-29.39221589999994],[-52.237788799999976,-29.39143989999997],[-52.23783519999994,-29.39030009999994],[-52.23880009999993,-29.388998699999945],[-52.239727799999976,-29.38832769999993],[-52.24352239999997,-29.3880286],[-52.24499759999998,-29.38834389999994],[-52.24608309999997,-29.38928159999996],[-52.247641699999974,-29.38967769999994],[-52.24859729999997,-29.390469899999967],[-52.25014669999995,-29.393],[-52.251389899999936,-29.39305659999997],[-52.25163119999996,-29.39283029999994],[-52.25075909999999,-29.390688099999974],[-52.250981699999954,-29.39032439999994],[-52.25413609999998,-29.38984739999995],[-52.255110299999956,-29.38914419999997],[-52.25722559999997,-29.38875609999997],[-52.25811629999998,-29.388352],[-52.26010439999994,-29.388638199999946],[-52.26005869999995,-29.387270099999956],[-52.26134059999998,-29.387581899999923],[-52.262352599999986,-29.387426499999943],[-52.26359569999994,-29.386610599999983],[-52.26577759999998,-29.38643679999996],[-52.26642009999995,-29.386100699999925],[-52.265412099999935,-29.38469819999994],[-52.26808379999995,-29.38324829999994],[-52.268025799999975,-29.381408899999943],[-52.267290799999955,-29.380641699999956],[-52.26627949999993,-29.380229399999966],[-52.265426,-29.37950379999995],[-52.26506409999997,-29.378208299999987],[-52.264331199999965,-29.37807889999993],[-52.26211939999996,-29.376351299999957],[-52.26154789999998,-29.37729469999994],[-52.26111179999998,-29.377561499999956],[-52.26036959999993,-29.37732709999995],[-52.25882949999993,-29.37767469999994],[-52.254663799999946,-29.37752109999997],[-52.25354119999998,-29.37670449999995],[-52.25311439999996,-29.375985],[-52.252298,-29.375289699999943],[-52.251797,-29.373397799999967],[-52.250294,-29.373761699999925],[-52.24961669999993,-29.374214399999975],[-52.24867039999998,-29.374287199999966],[-52.24831789999996,-29.37527349999992],[-52.24730659999995,-29.37591219999994],[-52.246657099999936,-29.375378599999973],[-52.24495929999994,-29.374723799999973],[-52.24432839999997,-29.374246799999984],[-52.23946689999997,-29.37386679999998],[-52.23677639999994,-29.373131],[-52.23454969999995,-29.371311899999974],[-52.23384459999994,-29.36925819999994],[-52.23093139999998,-29.36938759999998],[-52.23012289999997,-29.36900019999996],[-52.22804139999994,-29.36968269999994],[-52.22728989999996,-29.369318899999953],[-52.22629719999998,-29.370256799999932],[-52.22497049999998,-29.37021629999998],[-52.22439519999995,-29.371154199999964],[-52.22385709999998,-29.371324],[-52.22344889999994,-29.372261899999955],[-52.2236994,-29.373102699999958],[-52.22370869999998,-29.37576269999993],[-52.223439599999956,-29.375875899999986],[-52.22240979999999,-29.37562519999994],[-52.221639799999934,-29.376652],[-52.220044,-29.376894499999924],[-52.21986769999995,-29.377120899999966],[-52.22143559999995,-29.380338599999966],[-52.220981,-29.380556799999958],[-52.219505899999945,-29.38067],[-52.216156599999984,-29.383725899999938],[-52.21561849999995,-29.38386329999998],[-52.213493899999946,-29.383564199999963]]]}},{"type":"Feature","properties":{"setor":"432045305000005","pop":142,"sigilo_pop":false,"dom":89,"sigilo_dom":0,"mulheres":68,"sigilo_mulheres":0,"c0_4":null,"sigilo_c0_4":1,"c5_9":null,"sigilo_c5_9":1,"i60_69":24,"sigilo_i60_69":0,"i70m":30,"sigilo_i70m":0,"indigenas":0,"sigilo_indigenas":0,"pretos_pardos":null,"sigilo_pretos_pardos":1,"dom_ocupados":55,"sigilo_dom_ocupados":0,"dom_agua":34,"sigilo_dom_agua":0,"dom_esgoto":0,"sigilo_dom_esgoto":0,"renda_resp":1750.04,"sigilo_renda_resp":0,"n_resp":55,"sigilo_n_resp":0,"dens":19.1,"sigilo_dens":false,"na_bacia":1,"area_pct_bacia":100.0,"metodo_recorte_bacia":"ponto_representativo_setor_2022; area_pct_geometrica","pop_n_validos":1,"pop_n_total":1,"pop_completude":1.0,"dom_n_validos":1,"dom_n_total":1,"dom_completude":1.0,"dom_ocupados_n_validos":1,"dom_ocupados_n_total":1,"dom_ocupados_completude":1.0,"mulheres_n_validos":1,"mulheres_n_total":1,"mulheres_completude":1.0,"c0_4_n_validos":0,"c0_4_n_total":1,"c0_4_completude":0.0,"c5_9_n_validos":0,"c5_9_n_total":1,"c5_9_completude":0.0,"i60_69_n_validos":1,"i60_69_n_total":1,"i60_69_completude":1.0,"i70m_n_validos":1,"i70m_n_total":1,"i70m_completude":1.0,"indigenas_n_validos":1,"indigenas_n_total":1,"indigenas_completude":1.0,"pretos_pardos_n_validos":0,"pretos_pardos_n_total":1,"pretos_pardos_completude":0.0,"dom_agua_n_validos":1,"dom_agua_n_total":1,"dom_agua_completude":1.0,"dom_esgoto_n_validos":1,"dom_esgoto_n_total":1,"dom_esgoto_completude":1.0,"n_resp_n_validos":1,"n_resp_n_total":1,"n_resp_completude":1.0,"renda_resp_n_validos":1,"renda_resp_n_total":1,"renda_resp_completude":1.0,"dens_n_validos":1,"dens_n_total":1,"dens_completude":1.0,"status_borda_bacia":"total","metodo_area_bacia":"interse??o geom?trica em EPSG:5880","metodo_na_bacia":"ponto_representativo_setor_2022_within_bacia","municipio":"Sério","cod_mun":"4320453","mun_pct_na_bacia":100.0,"mun_pop_total":1941,"mun_pop_na_bacia":1941.0,"mun_ubs_iede":2,"mun_hospitais_iede":1,"mun_escolas_iede":3,"mun_bombeiros_iede":null,"mun_servicos_cobertura":"cadastro_IEDE_parcial_nao_inventario","mun_icm_faixa":"A","mun_icm_pontos":9,"mun_icm_prioritario":"não","mun_ubs_iede_status":"published","mun_hospitais_iede_status":"published","mun_escolas_iede_status":"published","mun_bombeiros_iede_status":"unknown"},"geometry":{"type":"Polygon","coordinates":[[[-52.209119199999975,-29.42320819999998],[-52.22374709999996,-29.420915399999952],[-52.224328199999945,-29.42052219999993],[-52.224098499999975,-29.419709599999965],[-52.22478749999994,-29.419167799999947],[-52.22507459999998,-29.417942499999977],[-52.225438199999985,-29.41755909999995],[-52.22671089999995,-29.417367399999932],[-52.22747639999995,-29.417650799999937],[-52.229839899999945,-29.417167299999956],[-52.229533699999934,-29.41675059999995],[-52.22883519999994,-29.416525499999977],[-52.227256299999965,-29.415341899999927],[-52.22667259999998,-29.415308499999977],[-52.22601229999999,-29.414691699999924],[-52.22550519999998,-29.414666699999938],[-52.22517019999998,-29.414341599999936],[-52.224854499999935,-29.412799499999945],[-52.225935799999945,-29.41158249999995],[-52.22508409999995,-29.410557199999968],[-52.224739599999964,-29.409431899999955],[-52.225409499999955,-29.408298199999948],[-52.22727539999995,-29.40712279999996],[-52.22638549999994,-29.40644759999998],[-52.22362009999995,-29.406147499999967],[-52.22309379999996,-29.405780699999987],[-52.223132,-29.402004299999923],[-52.22420379999994,-29.399695099999978],[-52.22053219999999,-29.401616599999954],[-52.22015179999993,-29.40203689999993],[-52.21981779999992,-29.40337859999994],[-52.21925189999996,-29.403992899999942],[-52.21656139999993,-29.404025199999975],[-52.21463159999996,-29.403047299999965],[-52.213648199999966,-29.403556499999983],[-52.21407489999996,-29.404607199999948],[-52.214158399999974,-29.405827599999952],[-52.214733699999954,-29.406724799999957],[-52.21471509999998,-29.407145099999966],[-52.21279459999994,-29.40891509999995],[-52.21222869999997,-29.40906059999996],[-52.210744199999965,-29.408866599999953],[-52.21067929999998,-29.40964249999995],[-52.21025249999997,-29.40999],[-52.20921339999995,-29.409666699999946],[-52.20802589999994,-29.409618199999958],[-52.207691899999986,-29.40987689999997],[-52.207534099999975,-29.410523399999917],[-52.206717699999956,-29.410701199999952],[-52.204027199999985,-29.40881809999996],[-52.20353539999996,-29.40798559999996],[-52.20333129999995,-29.40682179999993],[-52.20306229999994,-29.406514599999976],[-52.20272829999993,-29.40653889999992],[-52.201949,-29.407751199999943],[-52.20090059999995,-29.4081796],[-52.20116029999997,-29.409246399999965],[-52.200585099999955,-29.409917299999947],[-52.20013979999993,-29.411267],[-52.19942539999994,-29.411622599999927],[-52.198636799999974,-29.412527699999934],[-52.19731939999997,-29.412931799999967],[-52.19547309999996,-29.412729799999976],[-52.19467519999995,-29.411921599999964],[-52.19289389999995,-29.41167909999998],[-52.19107549999996,-29.413166199999974],[-52.18859829999997,-29.413586499999955],[-52.18806019999993,-29.413352099999933],[-52.18767049999997,-29.412810599999943],[-52.187531399999955,-29.41088709999998],[-52.186418,-29.41058],[-52.184803699999975,-29.411323499999988],[-52.18169569999998,-29.412042799999938],[-52.18091639999995,-29.412584299999935],[-52.18022049999996,-29.41272169999996],[-52.17621249999996,-29.411000299999955],[-52.17293749999993,-29.411703399999958],[-52.172854,-29.411509399999936],[-52.17367049999996,-29.410491099999938],[-52.173726099999946,-29.409383799999944],[-52.17287329999994,-29.410393899999974],[-52.17038609999998,-29.40984449999996],[-52.16778839999995,-29.41007079999997],[-52.16720389999995,-29.409901099999953],[-52.165738,-29.408866599999953],[-52.16365979999995,-29.408575599999928],[-52.162611399999946,-29.407840099999945],[-52.161897,-29.407694699999972],[-52.16094139999996,-29.408018],[-52.16031049999998,-29.40876959999997],[-52.159410599999944,-29.409004],[-52.158288,-29.40973139999994],[-52.15813949999995,-29.410992199999946],[-52.15882609999995,-29.412948],[-52.15826019999997,-29.412996499999956],[-52.15698149999997,-29.412262099999957],[-52.156415,-29.412179499999976],[-52.15717029999996,-29.413187199999975],[-52.15737319999994,-29.41457849999995],[-52.15803169999998,-29.414308299999963],[-52.15863829999994,-29.41339249999993],[-52.160722599999986,-29.412106],[-52.16126509999997,-29.41238239999995],[-52.16139719999996,-29.41335949999996],[-52.16256669999996,-29.415375],[-52.164031699999946,-29.4143903],[-52.16553509999994,-29.41392769999993],[-52.16614159999995,-29.414878799999947],[-52.16607549999998,-29.416710299999984],[-52.166430899999966,-29.41718409999993],[-52.167958899999974,-29.41635269999995],[-52.169727799999976,-29.415774499999948],[-52.17045,-29.415960899999963],[-52.17080169999997,-29.41668549999996],[-52.172708599999964,-29.41656159999996],[-52.17423669999994,-29.416160199999986],[-52.17618509999994,-29.4168],[-52.17623289999995,-29.418137099999967],[-52.17653629999995,-29.418528799999923],[-52.177149799999945,-29.418446899999925],[-52.17867169999994,-29.41737189999998],[-52.17992579999998,-29.416932099999936],[-52.180155499999955,-29.417094699999954],[-52.180256199999974,-29.41776519999996],[-52.18207619999998,-29.417496],[-52.18300929999999,-29.41757519999993],[-52.18400759999997,-29.41824549999994],[-52.18490209999993,-29.41933],[-52.18565259999996,-29.419387799999978],[-52.185915799999975,-29.419713499999943],[-52.187009,-29.41831049999997],[-52.188586,-29.417621099999955],[-52.1891184,-29.418054299999934],[-52.18947949999995,-29.419437399999943],[-52.190508499999964,-29.420466399999945],[-52.191362899999945,-29.419984899999964],[-52.191521399999935,-29.417967499999985],[-52.191816,-29.417523299999967],[-52.192514599999974,-29.417570499999957],[-52.19315419999999,-29.419406699999968],[-52.19355539999999,-29.419774899999936],[-52.19381979999997,-29.41968989999997],[-52.194268799999975,-29.41868209999995],[-52.19482809999994,-29.418162899999967],[-52.19521759999998,-29.419612],[-52.196540399999954,-29.420667],[-52.19625719999994,-29.42186119999996],[-52.19697819999994,-29.422959799999948],[-52.196932799999956,-29.423634799999952],[-52.19827089999996,-29.423569299999947],[-52.20071009999999,-29.424638499999947],[-52.201499499999954,-29.425374399999953],[-52.20265359999996,-29.425268199999945],[-52.206213899999966,-29.423642499999985],[-52.20815029999994,-29.423608299999962],[-52.209119199999975,-29.42320819999998]]]}},{"type":"Feature","properties":{"setor":"432045305000006","pop":363,"sigilo_pop":false,"dom":186,"sigilo_dom":0,"mulheres":172,"sigilo_mulheres":0,"c0_4":12,"sigilo_c0_4":0,"c5_9":9,"sigilo_c5_9":0,"i60_69":54,"sigilo_i60_69":0,"i70m":54,"sigilo_i70m":0,"indigenas":0,"sigilo_indigenas":0,"pretos_pardos":14,"sigilo_pretos_pardos":0,"dom_ocupados":149,"sigilo_dom_ocupados":0,"dom_agua":76,"sigilo_dom_agua":0,"dom_esgoto":0,"sigilo_dom_esgoto":0,"renda_resp":1699.27,"sigilo_renda_resp":0,"n_resp":149,"sigilo_n_resp":0,"dens":13.8,"sigilo_dens":false,"na_bacia":1,"area_pct_bacia":100.0,"metodo_recorte_bacia":"ponto_representativo_setor_2022; area_pct_geometrica","pop_n_validos":1,"pop_n_total":1,"pop_completude":1.0,"dom_n_validos":1,"dom_n_total":1,"dom_completude":1.0,"dom_ocupados_n_validos":1,"dom_ocupados_n_total":1,"dom_ocupados_completude":1.0,"mulheres_n_validos":1,"mulheres_n_total":1,"mulheres_completude":1.0,"c0_4_n_validos":1,"c0_4_n_total":1,"c0_4_completude":1.0,"c5_9_n_validos":1,"c5_9_n_total":1,"c5_9_completude":1.0,"i60_69_n_validos":1,"i60_69_n_total":1,"i60_69_completude":1.0,"i70m_n_validos":1,"i70m_n_total":1,"i70m_completude":1.0,"indigenas_n_validos":1,"indigenas_n_total":1,"indigenas_completude":1.0,"pretos_pardos_n_validos":1,"pretos_pardos_n_total":1,"pretos_pardos_completude":1.0,"dom_agua_n_validos":1,"dom_agua_n_total":1,"dom_agua_completude":1.0,"dom_esgoto_n_validos":1,"dom_esgoto_n_total":1,"dom_esgoto_completude":1.0,"n_resp_n_validos":1,"n_resp_n_total":1,"n_resp_completude":1.0,"renda_resp_n_validos":1,"renda_resp_n_total":1,"renda_resp_completude":1.0,"dens_n_validos":1,"dens_n_total":1,"dens_completude":1.0,"status_borda_bacia":"total","metodo_area_bacia":"interse??o geom?trica em EPSG:5880","metodo_na_bacia":"ponto_representativo_setor_2022_within_bacia","municipio":"Sério","cod_mun":"4320453","mun_pct_na_bacia":100.0,"mun_pop_total":1941,"mun_pop_na_bacia":1941.0,"mun_ubs_iede":2,"mun_hospitais_iede":1,"mun_escolas_iede":3,"mun_bombeiros_iede":null,"mun_servicos_cobertura":"cadastro_IEDE_parcial_nao_inventario","mun_icm_faixa":"A","mun_icm_pontos":9,"mun_icm_prioritario":"não","mun_ubs_iede_status":"published","mun_hospitais_iede_status":"published","mun_escolas_iede_status":"published","mun_bombeiros_iede_status":"unknown"},"geometry":{"type":"Polygon","coordinates":[[[-52.28670609999995,-29.41583719999994],[-52.286357399999986,-29.41564959999995],[-52.28519689999996,-29.41766329999996],[-52.28482369999994,-29.41788],[-52.283024699999935,-29.41676309999996],[-52.28207019999996,-29.416546299999933],[-52.280804699999976,-29.416804699999958],[-52.27808709999994,-29.418338399999975],[-52.27795309999994,-29.419997099999925],[-52.277254599999935,-29.4203472],[-52.27477619999996,-29.419563699999962],[-52.274211599999944,-29.41888019999994],[-52.273915,-29.418838499999946],[-52.273264299999944,-29.420830599999938],[-52.27441259999995,-29.423631099999973],[-52.27380019999998,-29.424656299999977],[-52.27300589999999,-29.425173099999927],[-52.27346529999994,-29.424681299999968],[-52.27334089999994,-29.423756199999964],[-52.27308249999999,-29.423572799999942],[-52.27247959999994,-29.423614499999925],[-52.272173399999986,-29.422439299999958],[-52.270604099999964,-29.42065559999997],[-52.269876899999986,-29.41920529999993],[-52.27007779999997,-29.41727989999998],[-52.27094859999994,-29.41635459999998],[-52.27114,-29.415829499999976],[-52.27071889999996,-29.415254399999966],[-52.26983859999996,-29.414820899999928],[-52.26952279999995,-29.413954],[-52.27016389999995,-29.412420299999958],[-52.27008739999997,-29.410453],[-52.26951319999995,-29.408527399999965],[-52.26961849999998,-29.407377099999966],[-52.26737929999996,-29.405201299999934],[-52.26719749999995,-29.40473449999995],[-52.265963099999965,-29.40386749999994],[-52.26486269999997,-29.403400699999953],[-52.265255,-29.402592],[-52.26478609999999,-29.40119149999999],[-52.264279,-29.400708],[-52.264259799999934,-29.399724199999984],[-52.26058809999995,-29.39820679999996],[-52.26087239999998,-29.395105599999972],[-52.261561399999955,-29.393788299999983],[-52.26155179999994,-29.392829599999974],[-52.26225029999995,-29.392281099999938],[-52.26194879999997,-29.391628499999968],[-52.26156579999998,-29.391793899999975],[-52.261794,-29.388883],[-52.261068799999975,-29.38896909999994],[-52.258236899999986,-29.388335799999943],[-52.25722559999997,-29.38875609999997],[-52.255110299999956,-29.38914419999997],[-52.25413609999998,-29.38984739999995],[-52.250981699999954,-29.39032439999994],[-52.25081469999998,-29.391003399999935],[-52.25163119999996,-29.39283029999994],[-52.251389899999936,-29.39305659999997],[-52.250517799999955,-29.393121299999958],[-52.24978489999995,-29.3926767],[-52.24909829999996,-29.391173199999983],[-52.24783659999997,-29.389790899999987],[-52.24608309999997,-29.38928159999996],[-52.24499759999998,-29.38834389999994],[-52.24352239999997,-29.3880286],[-52.24151839999996,-29.38808519999997],[-52.23952369999995,-29.38842469999996],[-52.23880009999993,-29.388998699999945],[-52.23783519999994,-29.39030009999994],[-52.23783519999996,-29.391278299999943],[-52.237362,-29.392078499999958],[-52.23363239999998,-29.394729899999962],[-52.23224069999997,-29.395263399999973],[-52.231415,-29.396322299999962],[-52.226701899999966,-29.398763399999943],[-52.22482779999996,-29.399199799999963],[-52.22420379999994,-29.399695099999978],[-52.223132,-29.402004299999923],[-52.223237299999944,-29.403771599999963],[-52.222988499999985,-29.40496369999995],[-52.223199,-29.405939099999962],[-52.22400749999998,-29.40622249999996],[-52.22614629999998,-29.40638089999993],[-52.227265899999956,-29.407039499999932],[-52.227179699999965,-29.40727289999996],[-52.225409499999955,-29.408298199999948],[-52.224739599999964,-29.409431899999955],[-52.22508409999995,-29.410557199999968],[-52.225935799999945,-29.41158249999995],[-52.224854499999935,-29.412799499999945],[-52.22517019999998,-29.414341599999936],[-52.22550519999998,-29.414666699999938],[-52.22601229999999,-29.414691699999924],[-52.22667259999998,-29.415308499999977],[-52.227256299999965,-29.415341899999927],[-52.22986869999994,-29.417100599999966],[-52.22747639999995,-29.417650799999937],[-52.22671089999995,-29.417367399999932],[-52.225438199999985,-29.41755909999995],[-52.22507459999998,-29.417942499999977],[-52.22478749999994,-29.419167799999947],[-52.224098499999975,-29.419709599999965],[-52.224328199999945,-29.42052219999993],[-52.22374709999996,-29.420915399999952],[-52.22340019999996,-29.421772099999945],[-52.22397369999993,-29.421783899999973],[-52.22437609999997,-29.42216859999996],[-52.22478429999996,-29.42357639999995],[-52.224266299999954,-29.425106499999966],[-52.224131299999954,-29.426471499999916],[-52.224996799999985,-29.428548],[-52.22518319999995,-29.433331899999935],[-52.225457,-29.43364819999993],[-52.22625889999995,-29.433876499999936],[-52.226024,-29.434722599999926],[-52.22712859999996,-29.434904299999964],[-52.22692679999995,-29.43554359999996],[-52.22739409999996,-29.437548799999952],[-52.22552249999995,-29.43928109999995],[-52.224106399999975,-29.441152699999968],[-52.223602599999936,-29.441349499999948],[-52.22327169999994,-29.44214949999997],[-52.222659299999975,-29.44238309999997],[-52.222108799999944,-29.44305749999996],[-52.22074759999999,-29.44327079999993],[-52.22066179999995,-29.443685],[-52.22125919999997,-29.444409899999986],[-52.220155499999976,-29.444957699999968],[-52.220129,-29.44674369999994],[-52.21959439999995,-29.446989699999968],[-52.21905929999998,-29.44796239999993],[-52.21783519999997,-29.448512099999952],[-52.21794649999999,-29.44929969999998],[-52.218682799999954,-29.449991799999967],[-52.21773489999999,-29.450775099999934],[-52.218574,-29.451817599999977],[-52.21769419999998,-29.453448799999933],[-52.21843769999998,-29.455282599999975],[-52.22017589999995,-29.45506309999996],[-52.22131229999997,-29.45519759999996],[-52.22329119999995,-29.45695],[-52.22420459999995,-29.45807579999996],[-52.224599,-29.45795839999993],[-52.22559059999998,-29.456609399999934],[-52.228188299999935,-29.45433769999994],[-52.22979149999997,-29.453812799999987],[-52.230546799999956,-29.453978],[-52.23133619999993,-29.455934],[-52.232401799999934,-29.45678359999993],[-52.23578109999993,-29.45670879999994],[-52.23677749999996,-29.456330499999986],[-52.23694379999995,-29.456079099999965],[-52.236698699999984,-29.45442229999998],[-52.238030699999975,-29.454098399999957],[-52.23925909999998,-29.45324169999997],[-52.24001319999996,-29.452296399999973],[-52.24038129999997,-29.45128039999997],[-52.241808,-29.449659],[-52.242193899999954,-29.44827129999992],[-52.24454459999998,-29.448809399999963],[-52.245530499999965,-29.44882969999998],[-52.245792499999936,-29.44852879999996],[-52.245811899999985,-29.447286199999944],[-52.24604029999994,-29.446962299999935],[-52.24789439999995,-29.448032299999966],[-52.2489432,-29.448088099999957],[-52.250310599999985,-29.447781],[-52.250882299999944,-29.44725169999998],[-52.25074069999994,-29.445444499999958],[-52.25215149999997,-29.445094],[-52.25518889999996,-29.443196499999935],[-52.25533589999998,-29.442231799999938],[-52.254904,-29.44088649999997],[-52.255608399999964,-29.439282799999944],[-52.25688289999994,-29.438111],[-52.259253,-29.43731629999996],[-52.25953449999997,-29.436928599999927],[-52.259529199999974,-29.43547539999997],[-52.25980709999994,-29.43505759999994],[-52.26152229999997,-29.434845199999977],[-52.261826,-29.43160739999996],[-52.26229929999994,-29.430365199999983],[-52.26284449999998,-29.430181099999977],[-52.263747299999984,-29.43046429999998],[-52.264430499999946,-29.431041299999944],[-52.26533149999995,-29.4325052],[-52.266059,-29.432538799999968],[-52.26689449999998,-29.43178119999994],[-52.26710019999996,-29.431113799999927],[-52.268420299999946,-29.430115599999965],[-52.268511599999954,-29.42834979999997],[-52.268769899999945,-29.42778529999998],[-52.27057179999997,-29.42721879999993],[-52.27168249999995,-29.42647189999996],[-52.272914399999934,-29.426096],[-52.273626099999944,-29.42530719999997],[-52.274702299999944,-29.424758399999966],[-52.27491119999997,-29.423707],[-52.27377479999995,-29.421136799999953],[-52.27367369999997,-29.42052659999995],[-52.27386249999996,-29.420148699999967],[-52.274511099999984,-29.419913699999935],[-52.27541249999996,-29.42011139999995],[-52.27631659999997,-29.421457199999956],[-52.27732909999997,-29.42231039999997],[-52.278621299999934,-29.422013],[-52.279672,-29.421538799999954],[-52.279853199999934,-29.421053599999937],[-52.279524,-29.420462399999963],[-52.278345099999974,-29.420377499999976],[-52.2783841,-29.419485399999928],[-52.280402099999954,-29.417508],[-52.28172769999998,-29.41708869999996],[-52.28366779999993,-29.417835599999933],[-52.28424889999997,-29.418893],[-52.28441829999998,-29.420099599999954],[-52.28515459999995,-29.42026419999995],[-52.285596699999985,-29.420021399999936],[-52.28594279999999,-29.419383099999944],[-52.28594409999993,-29.41786929999994],[-52.28659639999995,-29.416624899999924],[-52.28670609999995,-29.41583719999994]]]}},{"type":"Feature","properties":{"setor":"432045305000007","pop":142,"sigilo_pop":false,"dom":62,"sigilo_dom":0,"mulheres":57,"sigilo_mulheres":0,"c0_4":null,"sigilo_c0_4":1,"c5_9":9,"sigilo_c5_9":0,"i60_69":null,"sigilo_i60_69":1,"i70m":16,"sigilo_i70m":0,"indigenas":0,"sigilo_indigenas":0,"pretos_pardos":null,"sigilo_pretos_pardos":1,"dom_ocupados":49,"sigilo_dom_ocupados":0,"dom_agua":17,"sigilo_dom_agua":0,"dom_esgoto":0,"sigilo_dom_esgoto":0,"renda_resp":1681.96,"sigilo_renda_resp":0,"n_resp":49,"sigilo_n_resp":0,"dens":8.8,"sigilo_dens":false,"na_bacia":1,"area_pct_bacia":100.0,"metodo_recorte_bacia":"ponto_representativo_setor_2022; area_pct_geometrica","pop_n_validos":1,"pop_n_total":1,"pop_completude":1.0,"dom_n_validos":1,"dom_n_total":1,"dom_completude":1.0,"dom_ocupados_n_validos":1,"dom_ocupados_n_total":1,"dom_ocupados_completude":1.0,"mulheres_n_validos":1,"mulheres_n_total":1,"mulheres_completude":1.0,"c0_4_n_validos":0,"c0_4_n_total":1,"c0_4_completude":0.0,"c5_9_n_validos":1,"c5_9_n_total":1,"c5_9_completude":1.0,"i60_69_n_validos":0,"i60_69_n_total":1,"i60_69_completude":0.0,"i70m_n_validos":1,"i70m_n_total":1,"i70m_completude":1.0,"indigenas_n_validos":1,"indigenas_n_total":1,"indigenas_completude":1.0,"pretos_pardos_n_validos":0,"pretos_pardos_n_total":1,"pretos_pardos_completude":0.0,"dom_agua_n_validos":1,"dom_agua_n_total":1,"dom_agua_completude":1.0,"dom_esgoto_n_validos":1,"dom_esgoto_n_total":1,"dom_esgoto_completude":1.0,"n_resp_n_validos":1,"n_resp_n_total":1,"n_resp_completude":1.0,"renda_resp_n_validos":1,"renda_resp_n_total":1,"renda_resp_completude":1.0,"dens_n_validos":1,"dens_n_total":1,"dens_completude":1.0,"status_borda_bacia":"total","metodo_area_bacia":"interse??o geom?trica em EPSG:5880","metodo_na_bacia":"ponto_representativo_setor_2022_within_bacia","municipio":"Sério","cod_mun":"4320453","mun_pct_na_bacia":100.0,"mun_pop_total":1941,"mun_pop_na_bacia":1941.0,"mun_ubs_iede":2,"mun_hospitais_iede":1,"mun_escolas_iede":3,"mun_bombeiros_iede":null,"mun_servicos_cobertura":"cadastro_IEDE_parcial_nao_inventario","mun_icm_faixa":"A","mun_icm_pontos":9,"mun_icm_prioritario":"não","mun_ubs_iede_status":"published","mun_hospitais_iede_status":"published","mun_escolas_iede_status":"published","mun_bombeiros_iede_status":"unknown"},"geometry":{"type":"Polygon","coordinates":[[[-52.301185799999985,-29.372174899999944],[-52.30193189999994,-29.37026469999994],[-52.30115919999998,-29.36946729999994],[-52.30032069999998,-29.370368399999965],[-52.297769899999935,-29.371362699999963],[-52.296031,-29.37038079999995],[-52.294601099999966,-29.370511699999938],[-52.293921799999964,-29.371178399999966],[-52.294167399999935,-29.37258249999996],[-52.29470829999997,-29.37363959999993],[-52.29452239999995,-29.37588259999996],[-52.295394699999974,-29.377153599999925],[-52.295330399999955,-29.377639599999945],[-52.29498719999998,-29.37797609999996],[-52.29392179999997,-29.378437099999935],[-52.29127629999994,-29.378792199999964],[-52.28831629999996,-29.38033739999996],[-52.287508299999956,-29.380580399999936],[-52.28584239999998,-29.380624],[-52.28345429999996,-29.381595899999976],[-52.27878539999995,-29.38103519999992],[-52.277148,-29.380468199999935],[-52.276681399999966,-29.380561],[-52.276196699999964,-29.384062],[-52.26882159999997,-29.38808509999994],[-52.27099709999993,-29.391150799999927],[-52.26745059999996,-29.39308539999996],[-52.267379499999954,-29.390466399999973],[-52.26202409999996,-29.39338759999997],[-52.261695,-29.39259619999996],[-52.26155179999994,-29.392829599999974],[-52.261561399999955,-29.393788299999983],[-52.26077669999996,-29.395472399999953],[-52.26058809999995,-29.39820679999996],[-52.264259799999934,-29.399724199999984],[-52.264279,-29.400708],[-52.26478609999999,-29.40119149999999],[-52.265255,-29.402592],[-52.26486269999997,-29.403400699999953],[-52.265963099999965,-29.40386749999994],[-52.26719749999995,-29.40473449999995],[-52.26737929999996,-29.405201299999934],[-52.26970459999995,-29.407577099999973],[-52.26951319999995,-29.408527399999965],[-52.27008739999997,-29.410453],[-52.27016389999995,-29.412420299999958],[-52.26952279999995,-29.413954],[-52.26983859999996,-29.414820899999928],[-52.27071889999996,-29.415254399999966],[-52.27114,-29.415829499999976],[-52.27094859999994,-29.41635459999998],[-52.27007779999997,-29.41727989999998],[-52.269876899999986,-29.41920529999993],[-52.270604099999964,-29.42065559999997],[-52.272173399999986,-29.422439299999958],[-52.27247959999994,-29.423614499999925],[-52.27308249999999,-29.423572799999942],[-52.27334089999994,-29.423756199999964],[-52.27346529999994,-29.424681299999968],[-52.27300589999999,-29.425173099999927],[-52.27380019999998,-29.424656299999977],[-52.27441259999995,-29.423631099999973],[-52.273264299999944,-29.420830599999938],[-52.273915,-29.418838499999946],[-52.274211599999944,-29.41888019999994],[-52.27477619999996,-29.419563699999962],[-52.27649859999997,-29.420247199999945],[-52.27760869999997,-29.420263799999937],[-52.278001,-29.419822099999976],[-52.27808709999994,-29.418338399999975],[-52.280804699999976,-29.416804699999958],[-52.28207019999996,-29.416546299999933],[-52.283024699999935,-29.41676309999996],[-52.284728,-29.417855],[-52.28519689999996,-29.41766329999996],[-52.286357399999986,-29.41564959999995],[-52.28377659999996,-29.41485389999997],[-52.283636799999954,-29.414475099999933],[-52.28422619999998,-29.413947699999934],[-52.285489699999964,-29.413552899999956],[-52.28707429999997,-29.413632599999968],[-52.28838939999997,-29.41325559999996],[-52.28945569999996,-29.412215899999982],[-52.29012179999996,-29.411893699999954],[-52.29078689999995,-29.412072],[-52.29199859999995,-29.413179399999926],[-52.29301369999996,-29.412906899999943],[-52.293634099999956,-29.411961699999956],[-52.29370589999996,-29.409788399999975],[-52.29345009999998,-29.40945169999998],[-52.291584399999984,-29.408920599999938],[-52.29138539999997,-29.40846109999995],[-52.29159149999998,-29.40808519999996],[-52.29325959999994,-29.40777579999996],[-52.294307799999956,-29.406930199999984],[-52.29509009999998,-29.4066898],[-52.29605569999996,-29.40721069999994],[-52.29685929999994,-29.40852769999998],[-52.29742219999998,-29.40878259999993],[-52.29791889999996,-29.408368899999974],[-52.29854079999996,-29.407033699999943],[-52.299401099999955,-29.406686799999928],[-52.30009849999993,-29.406938099999934],[-52.30088439999997,-29.408156],[-52.30186859999998,-29.40830109999996],[-52.30165619999997,-29.407178899999963],[-52.30195359999994,-29.406545199999975],[-52.302866799999954,-29.405710499999945],[-52.304913099999965,-29.404582199999936],[-52.305194599999936,-29.404118399999966],[-52.30467179999994,-29.40331369999996],[-52.30231639999994,-29.40304039999995],[-52.30015339999994,-29.40177309999995],[-52.29951039999998,-29.40109259999997],[-52.29992509999994,-29.40054459999994],[-52.3020863,-29.400155199999983],[-52.302266,-29.39982069999997],[-52.3019786,-29.399253],[-52.302135,-29.397970899999958],[-52.30329169999994,-29.39787529999996],[-52.30409359999993,-29.399240099999922],[-52.305058299999985,-29.399643599999948],[-52.305755699999956,-29.400415399999925],[-52.30658409999995,-29.400857899999945],[-52.30747619999993,-29.400953499999964],[-52.30785149999998,-29.40051449999994],[-52.307056699999976,-29.400050799999967],[-52.30711329999996,-29.39883649999996],[-52.307761199999966,-29.397268199999928],[-52.309177699999964,-29.397129799999963],[-52.312547499999944,-29.39573],[-52.31310329999997,-29.395882199999964],[-52.31374049999994,-29.396816799999947],[-52.31419009999996,-29.396898299999975],[-52.315744299999956,-29.395296299999977],[-52.31667889999995,-29.39467329999996],[-52.316537299999936,-29.393703299999963],[-52.315302799999984,-29.39281629999993],[-52.31454849999995,-29.391866799999953],[-52.31431759999998,-29.38926389999994],[-52.31541319999996,-29.388673599999954],[-52.315799199999965,-29.38814579999997],[-52.316061299999944,-29.38655989999995],[-52.315563699999984,-29.385680399999963],[-52.31560259999997,-29.384728099999958],[-52.316211599999974,-29.38381819999995],[-52.316462899999976,-29.38265349999995],[-52.317403699999936,-29.381386799999973],[-52.317628499999955,-29.380265699999924],[-52.31675409999997,-29.38000729999993],[-52.31618059999994,-29.379577099999953],[-52.31374049999994,-29.379676299999964],[-52.31072649999993,-29.377816799999934],[-52.30933879999998,-29.378020399999972],[-52.30887769999998,-29.378503599999924],[-52.30759259999996,-29.378924],[-52.30606319999998,-29.377786699999938],[-52.30522069999995,-29.37646979999993],[-52.30408959999995,-29.37584489999994],[-52.30268149999995,-29.375877699999933],[-52.30063,-29.374498799999973],[-52.30015909999998,-29.373206599999932],[-52.301185799999985,-29.372174899999944]]]}},{"type":"Feature","properties":{"setor":"432045305000008","pop":140,"sigilo_pop":false,"dom":68,"sigilo_dom":0,"mulheres":72,"sigilo_mulheres":0,"c0_4":9,"sigilo_c0_4":0,"c5_9":8,"sigilo_c5_9":0,"i60_69":21,"sigilo_i60_69":0,"i70m":22,"sigilo_i70m":0,"indigenas":0,"sigilo_indigenas":0,"pretos_pardos":7,"sigilo_pretos_pardos":0,"dom_ocupados":51,"sigilo_dom_ocupados":0,"dom_agua":44,"sigilo_dom_agua":0,"dom_esgoto":0,"sigilo_dom_esgoto":0,"renda_resp":2326.49,"sigilo_renda_resp":0,"n_resp":51,"sigilo_n_resp":0,"dens":17.6,"sigilo_dens":false,"na_bacia":1,"area_pct_bacia":100.0,"metodo_recorte_bacia":"ponto_representativo_setor_2022; area_pct_geometrica","pop_n_validos":1,"pop_n_total":1,"pop_completude":1.0,"dom_n_validos":1,"dom_n_total":1,"dom_completude":1.0,"dom_ocupados_n_validos":1,"dom_ocupados_n_total":1,"dom_ocupados_completude":1.0,"mulheres_n_validos":1,"mulheres_n_total":1,"mulheres_completude":1.0,"c0_4_n_validos":1,"c0_4_n_total":1,"c0_4_completude":1.0,"c5_9_n_validos":1,"c5_9_n_total":1,"c5_9_completude":1.0,"i60_69_n_validos":1,"i60_69_n_total":1,"i60_69_completude":1.0,"i70m_n_validos":1,"i70m_n_total":1,"i70m_completude":1.0,"indigenas_n_validos":1,"indigenas_n_total":1,"indigenas_completude":1.0,"pretos_pardos_n_validos":1,"pretos_pardos_n_total":1,"pretos_pardos_completude":1.0,"dom_agua_n_validos":1,"dom_agua_n_total":1,"dom_agua_completude":1.0,"dom_esgoto_n_validos":1,"dom_esgoto_n_total":1,"dom_esgoto_completude":1.0,"n_resp_n_validos":1,"n_resp_n_total":1,"n_resp_completude":1.0,"renda_resp_n_validos":1,"renda_resp_n_total":1,"renda_resp_completude":1.0,"dens_n_validos":1,"dens_n_total":1,"dens_completude":1.0,"status_borda_bacia":"total","metodo_area_bacia":"interse??o geom?trica em EPSG:5880","metodo_na_bacia":"ponto_representativo_setor_2022_within_bacia","municipio":"Sério","cod_mun":"4320453","mun_pct_na_bacia":100.0,"mun_pop_total":1941,"mun_pop_na_bacia":1941.0,"mun_ubs_iede":2,"mun_hospitais_iede":1,"mun_escolas_iede":3,"mun_bombeiros_iede":null,"mun_servicos_cobertura":"cadastro_IEDE_parcial_nao_inventario","mun_icm_faixa":"A","mun_icm_pontos":9,"mun_icm_prioritario":"não","mun_ubs_iede_status":"published","mun_hospitais_iede_status":"published","mun_escolas_iede_status":"published","mun_bombeiros_iede_status":"unknown"},"geometry":{"type":"Polygon","coordinates":[[[-52.19974479999996,-29.358277599999962],[-52.198353499999946,-29.359095299999964],[-52.19705889999995,-29.35902979999996],[-52.196214399999974,-29.36116609999993],[-52.19445689999998,-29.360159299999967],[-52.193640399999936,-29.360242399999947],[-52.192399,-29.360771],[-52.193026799999984,-29.362942299999922],[-52.193166,-29.364518899999943],[-52.193006699999955,-29.365062899999945],[-52.19186329999996,-29.366471899999976],[-52.19080589999999,-29.367401699999956],[-52.19064309999993,-29.368367],[-52.19119059999998,-29.3707472],[-52.19096979999995,-29.371004799999984],[-52.18970379999996,-29.371357299999946],[-52.18721379999993,-29.371654699999965],[-52.185606599999964,-29.373143899999945],[-52.18763629999995,-29.374663799999954],[-52.187801499999985,-29.37545909999994],[-52.18844349999995,-29.37649289999997],[-52.18806349999995,-29.378423399999974],[-52.18814139999996,-29.379603499999963],[-52.18876679999994,-29.37963419999994],[-52.18952029999997,-29.379112799999973],[-52.19044809999997,-29.37887019999994],[-52.19182119999993,-29.379209799999952],[-52.19267469999994,-29.378336599999958],[-52.19569919999997,-29.37832049999998],[-52.2000412,-29.379533099999936],[-52.201136,-29.38063259999996],[-52.20241629999999,-29.37977569999997],[-52.20315849999997,-29.379727199999934],[-52.20456869999998,-29.380276899999956],[-52.20543159999994,-29.381263199999967],[-52.206201599999986,-29.38121469999993],[-52.20735209999998,-29.381683599999967],[-52.20844679999994,-29.38232229999995],[-52.208753,-29.38275879999997],[-52.20986629999994,-29.38293669999996],[-52.21107239999998,-29.383631899999955],[-52.213493899999946,-29.383564199999963],[-52.21561849999995,-29.38386329999998],[-52.21633289999994,-29.38361269999995],[-52.219505899999945,-29.38067],[-52.220981,-29.380556799999958],[-52.22143559999995,-29.380338599999966],[-52.21986769999995,-29.377120899999966],[-52.220044,-29.376894499999924],[-52.221639799999934,-29.376652],[-52.22240979999999,-29.37562519999994],[-52.223439599999956,-29.375875899999986],[-52.22370869999998,-29.37576269999993],[-52.2236994,-29.373102699999958],[-52.22344889999994,-29.372261899999955],[-52.22385709999998,-29.371324],[-52.22439519999995,-29.371154199999964],[-52.22497049999998,-29.37021629999998],[-52.22629719999998,-29.370256799999932],[-52.22728989999996,-29.369318899999953],[-52.22804139999994,-29.36968269999994],[-52.23012289999997,-29.36900019999996],[-52.22731769999996,-29.36807779999998],[-52.22589819999996,-29.367099399999983],[-52.22382,-29.366193799999966],[-52.222307799999946,-29.363824799999982],[-52.22119439999995,-29.363857099999954],[-52.220121499999955,-29.362673799999985],[-52.219069799999936,-29.360169899999967],[-52.218012199999976,-29.358795299999937],[-52.221233599999955,-29.35679069999997],[-52.222299199999945,-29.356929399999952],[-52.22219769999999,-29.356514],[-52.221105,-29.356016],[-52.22007949999994,-29.356717499999938],[-52.21931249999995,-29.356566499999914],[-52.21807809999996,-29.357125799999956],[-52.21715769999998,-29.35688039999997],[-52.215968199999956,-29.356927599999942],[-52.21485359999997,-29.357546],[-52.21383579999997,-29.357417299999945],[-52.21390659999998,-29.35653819999993],[-52.212985,-29.35615819999999],[-52.211979,-29.356822599999926],[-52.209931,-29.357291],[-52.20843709999997,-29.35737839999995],[-52.20718429999994,-29.358095899999967],[-52.20687879999998,-29.35807139999998],[-52.20659389999998,-29.35728869999998],[-52.20600429999997,-29.357052899999925],[-52.20453349999997,-29.357904699999946],[-52.20292059999997,-29.357922099999936],[-52.200940199999934,-29.358780699999958],[-52.2002452,-29.358740199999943],[-52.19974479999996,-29.358277599999962]]]}},{"type":"Feature","properties":{"setor":"432045305000009","pop":129,"sigilo_pop":false,"dom":71,"sigilo_dom":0,"mulheres":59,"sigilo_mulheres":0,"c0_4":null,"sigilo_c0_4":1,"c5_9":6,"sigilo_c5_9":0,"i60_69":27,"sigilo_i60_69":0,"i70m":20,"sigilo_i70m":0,"indigenas":0,"sigilo_indigenas":0,"pretos_pardos":null,"sigilo_pretos_pardos":1,"dom_ocupados":56,"sigilo_dom_ocupados":0,"dom_agua":25,"sigilo_dom_agua":0,"dom_esgoto":0,"sigilo_dom_esgoto":0,"renda_resp":1806.82,"sigilo_renda_resp":0,"n_resp":56,"sigilo_n_resp":0,"dens":11.2,"sigilo_dens":false,"na_bacia":1,"area_pct_bacia":100.0,"metodo_recorte_bacia":"ponto_representativo_setor_2022; area_pct_geometrica","pop_n_validos":1,"pop_n_total":1,"pop_completude":1.0,"dom_n_validos":1,"dom_n_total":1,"dom_completude":1.0,"dom_ocupados_n_validos":1,"dom_ocupados_n_total":1,"dom_ocupados_completude":1.0,"mulheres_n_validos":1,"mulheres_n_total":1,"mulheres_completude":1.0,"c0_4_n_validos":0,"c0_4_n_total":1,"c0_4_completude":0.0,"c5_9_n_validos":1,"c5_9_n_total":1,"c5_9_completude":1.0,"i60_69_n_validos":1,"i60_69_n_total":1,"i60_69_completude":1.0,"i70m_n_validos":1,"i70m_n_total":1,"i70m_completude":1.0,"indigenas_n_validos":1,"indigenas_n_total":1,"indigenas_completude":1.0,"pretos_pardos_n_validos":0,"pretos_pardos_n_total":1,"pretos_pardos_completude":0.0,"dom_agua_n_validos":1,"dom_agua_n_total":1,"dom_agua_completude":1.0,"dom_esgoto_n_validos":1,"dom_esgoto_n_total":1,"dom_esgoto_completude":1.0,"n_resp_n_validos":1,"n_resp_n_total":1,"n_resp_completude":1.0,"renda_resp_n_validos":1,"renda_resp_n_total":1,"renda_resp_completude":1.0,"dens_n_validos":1,"dens_n_total":1,"dens_completude":1.0,"status_borda_bacia":"total","metodo_area_bacia":"interse??o geom?trica em EPSG:5880","metodo_na_bacia":"ponto_representativo_setor_2022_within_bacia","municipio":"Sério","cod_mun":"4320453","mun_pct_na_bacia":100.0,"mun_pop_total":1941,"mun_pop_na_bacia":1941.0,"mun_ubs_iede":2,"mun_hospitais_iede":1,"mun_escolas_iede":3,"mun_bombeiros_iede":null,"mun_servicos_cobertura":"cadastro_IEDE_parcial_nao_inventario","mun_icm_faixa":"A","mun_icm_pontos":9,"mun_icm_prioritario":"não","mun_ubs_iede_status":"published","mun_hospitais_iede_status":"published","mun_escolas_iede_status":"published","mun_bombeiros_iede_status":"unknown"},"geometry":{"type":"Polygon","coordinates":[[[-52.156415,-29.412179499999976],[-52.15826019999997,-29.412996499999956],[-52.15882609999995,-29.412948],[-52.15813949999995,-29.410992199999946],[-52.158288,-29.40973139999994],[-52.159410599999944,-29.409004],[-52.16031049999998,-29.40876959999997],[-52.16094139999996,-29.408018],[-52.161897,-29.407694699999972],[-52.162611399999946,-29.407840099999945],[-52.16365979999995,-29.408575599999928],[-52.165738,-29.408866599999953],[-52.16720389999995,-29.409901099999953],[-52.16778839999995,-29.41007079999997],[-52.17038609999998,-29.40984449999996],[-52.17287329999994,-29.410393899999974],[-52.173726099999946,-29.409383799999944],[-52.17367049999996,-29.410491099999938],[-52.17286329999996,-29.411679099999947],[-52.17621249999996,-29.411000299999955],[-52.17857839999994,-29.411921599999964],[-52.179858699999954,-29.412681299999974],[-52.18091639999995,-29.412584299999935],[-52.18169569999998,-29.412042799999938],[-52.184803699999975,-29.411323499999988],[-52.18609329999998,-29.4105881],[-52.187318,-29.410717399999953],[-52.187587,-29.411048799999936],[-52.18776329999997,-29.413004599999958],[-52.18806019999993,-29.413352099999933],[-52.188765299999936,-29.41359449999992],[-52.19107549999996,-29.413166199999974],[-52.19289389999995,-29.41167909999998],[-52.19467519999995,-29.411921599999964],[-52.19567719999997,-29.412770199999947],[-52.19714309999995,-29.412956099999978],[-52.198636799999974,-29.412527699999934],[-52.19928619999996,-29.411743799999957],[-52.200232599999936,-29.411137699999973],[-52.200585099999955,-29.409917299999947],[-52.20116029999997,-29.409246399999965],[-52.20090059999995,-29.4081796],[-52.201949,-29.407751199999943],[-52.20283959999995,-29.406498499999937],[-52.20316429999996,-29.406587399999985],[-52.203461199999936,-29.407056199999946],[-52.20353539999996,-29.40798559999996],[-52.204027199999985,-29.40881809999996],[-52.206717699999956,-29.410701199999952],[-52.207534099999975,-29.410523399999917],[-52.207691899999986,-29.40987689999997],[-52.20802589999994,-29.409618199999958],[-52.20921339999995,-29.409666699999946],[-52.21025249999997,-29.40999],[-52.21067929999998,-29.40964249999995],[-52.210744199999965,-29.408866599999953],[-52.21222869999997,-29.40906059999996],[-52.21279459999994,-29.40891509999995],[-52.21471509999998,-29.407145099999966],[-52.214733699999954,-29.406724799999957],[-52.214158399999974,-29.405827599999952],[-52.21407489999996,-29.404607199999948],[-52.213648199999966,-29.403556499999983],[-52.21463159999996,-29.403047299999965],[-52.21656139999993,-29.404025199999975],[-52.21829629999996,-29.404130299999967],[-52.21932549999997,-29.403942799999975],[-52.219218299999966,-29.401574199999956],[-52.220044,-29.399488799999965],[-52.21925539999995,-29.398688599999943],[-52.21957079999998,-29.39809849999994],[-52.21976569999999,-29.396296],[-52.21950589999995,-29.395851399999977],[-52.216908099999955,-29.393968],[-52.216240099999936,-29.39320819999995],[-52.21530309999997,-29.390985199999932],[-52.215368,-29.389627199999957],[-52.21463509999996,-29.38867329999994],[-52.214421699999946,-29.387444499999962],[-52.21445879999994,-29.38721819999996],[-52.21498759999998,-29.387008],[-52.21729779999998,-29.386822099999943],[-52.21639779999998,-29.38573879999995],[-52.213596,-29.385189099999923],[-52.21384649999993,-29.384817199999926],[-52.21355889999995,-29.384453499999942],[-52.21158269999996,-29.38428369999996],[-52.21041569999994,-29.383834599999943],[-52.21247859999994,-29.383674799999934],[-52.21107239999998,-29.383631899999955],[-52.20986629999994,-29.38293669999996],[-52.208753,-29.38275879999997],[-52.207695299999955,-29.381861499999946],[-52.206201599999986,-29.38121469999993],[-52.20543159999994,-29.381263199999967],[-52.20456869999998,-29.380276899999956],[-52.20315849999997,-29.379727199999934],[-52.20241629999999,-29.37977569999997],[-52.201136,-29.38063259999996],[-52.2000412,-29.379533099999936],[-52.197202199999936,-29.37862769999998],[-52.19536519999997,-29.378288099999956],[-52.19267469999994,-29.378336599999958],[-52.19182119999993,-29.379209799999952],[-52.190633599999956,-29.378870199999948],[-52.18952029999997,-29.379112799999973],[-52.18864639999998,-29.379815899999986],[-52.18916559999997,-29.380187599999935],[-52.18898629999996,-29.380470799999955],[-52.18709109999998,-29.38060179999996],[-52.185770599999955,-29.380953499999965],[-52.18506729999995,-29.381822],[-52.18358519999998,-29.38227039999998],[-52.181834,-29.38362279999995],[-52.182218699999964,-29.384724299999956],[-52.18347429999994,-29.385112599999964],[-52.183510399999925,-29.385941199999937],[-52.184825,-29.38625559999998],[-52.18437229999994,-29.387482099999943],[-52.18456579999997,-29.388584299999927],[-52.18406309999994,-29.38951419999996],[-52.184334499999984,-29.391706699999922],[-52.18527059999997,-29.39308789999995],[-52.18617589999997,-29.393743599999933],[-52.18979109999999,-29.394527],[-52.188329,-29.395624499999936],[-52.18642229999995,-29.39566869999992],[-52.18620079999993,-29.396021599999983],[-52.186709399999984,-29.396462899999964],[-52.18670819999994,-29.396778],[-52.18625919999994,-29.39674909999996],[-52.183117899999964,-29.399021899999987],[-52.182601,-29.400506399999987],[-52.18279689999998,-29.40241809999997],[-52.18249479999997,-29.403628799999975],[-52.181451599999946,-29.40404419999992],[-52.18076679999996,-29.404705],[-52.179747599999985,-29.40516289999995],[-52.17886869999995,-29.406301899999963],[-52.17760789999995,-29.405878],[-52.176375599999965,-29.40651049999998],[-52.17229759999998,-29.4067525],[-52.17114269999997,-29.407674599999957],[-52.169601,-29.408205],[-52.16839969999995,-29.408242799999982],[-52.167731799999956,-29.40856849999994],[-52.16753109999996,-29.407947799999935],[-52.166109799999965,-29.407170099999973],[-52.165353899999964,-29.407243899999965],[-52.164833,-29.40669989999998],[-52.163620399999964,-29.406604899999927],[-52.16253009999998,-29.406017199999948],[-52.16160609999997,-29.40616],[-52.16047679999997,-29.405876599999935],[-52.16000829999996,-29.4067606],[-52.15875509999995,-29.406694599999977],[-52.15767419999998,-29.408762],[-52.156419,-29.40963689999995],[-52.15633049999997,-29.410045299999975],[-52.15664339999996,-29.41059519999993],[-52.15622509999998,-29.41068789999997],[-52.156415,-29.412179499999976]]]}}]}
