{"type":"FeatureCollection","name":"4320859","crs":{"type":"name","properties":{"name":"urn:ogc:def:crs:OGC:1.3:CRS84"}},"features":[{"type":"Feature","properties":{"setor":"432085905000002","pop":495,"sigilo_pop":false,"dom":249,"sigilo_dom":0,"mulheres":269,"sigilo_mulheres":0,"c0_4":32,"sigilo_c0_4":0,"c5_9":27,"sigilo_c5_9":0,"i60_69":51,"sigilo_i60_69":0,"i70m":61,"sigilo_i70m":0,"indigenas":0,"sigilo_indigenas":0,"pretos_pardos":null,"sigilo_pretos_pardos":1,"dom_ocupados":206,"sigilo_dom_ocupados":0,"dom_agua":151,"sigilo_dom_agua":0,"dom_esgoto":null,"sigilo_dom_esgoto":1,"renda_resp":2311.21,"sigilo_renda_resp":0,"n_resp":206,"sigilo_n_resp":0,"dens":316.2,"sigilo_dens":false,"na_bacia":1,"area_pct_bacia":100.0,"metodo_recorte_bacia":"ponto_representativo_setor_2022; area_pct_geometrica","pop_n_validos":1,"pop_n_total":1,"pop_completude":1.0,"dom_n_validos":1,"dom_n_total":1,"dom_completude":1.0,"dom_ocupados_n_validos":1,"dom_ocupados_n_total":1,"dom_ocupados_completude":1.0,"mulheres_n_validos":1,"mulheres_n_total":1,"mulheres_completude":1.0,"c0_4_n_validos":1,"c0_4_n_total":1,"c0_4_completude":1.0,"c5_9_n_validos":1,"c5_9_n_total":1,"c5_9_completude":1.0,"i60_69_n_validos":1,"i60_69_n_total":1,"i60_69_completude":1.0,"i70m_n_validos":1,"i70m_n_total":1,"i70m_completude":1.0,"indigenas_n_validos":1,"indigenas_n_total":1,"indigenas_completude":1.0,"pretos_pardos_n_validos":0,"pretos_pardos_n_total":1,"pretos_pardos_completude":0.0,"dom_agua_n_validos":1,"dom_agua_n_total":1,"dom_agua_completude":1.0,"dom_esgoto_n_validos":0,"dom_esgoto_n_total":1,"dom_esgoto_completude":0.0,"n_resp_n_validos":1,"n_resp_n_total":1,"n_resp_completude":1.0,"renda_resp_n_validos":1,"renda_resp_n_total":1,"renda_resp_completude":1.0,"dens_n_validos":1,"dens_n_total":1,"dens_completude":1.0,"status_borda_bacia":"total","metodo_area_bacia":"interse??o geom?trica em EPSG:5880","metodo_na_bacia":"ponto_representativo_setor_2022_within_bacia","municipio":"Tabaí","cod_mun":"4320859","mun_pct_na_bacia":100.0,"mun_pop_total":4461,"mun_pop_na_bacia":4461.0,"mun_ubs_iede":1,"mun_hospitais_iede":null,"mun_escolas_iede":2,"mun_bombeiros_iede":null,"mun_servicos_cobertura":"cadastro_IEDE_parcial_nao_inventario","mun_icm_faixa":"B","mun_icm_pontos":6,"mun_icm_prioritario":"não","mun_ubs_iede_status":"published","mun_hospitais_iede_status":"unknown","mun_escolas_iede_status":"published","mun_bombeiros_iede_status":"unknown"},"geometry":{"type":"Polygon","coordinates":[[[-51.703354099999956,-29.691286499999926],[-51.70353149999994,-29.694166199999977],[-51.705255,-29.693999499999947],[-51.70768159999995,-29.69531749999993],[-51.70846509999996,-29.697728],[-51.71653969999994,-29.697126599999923],[-51.71637869999995,-29.693863399999934],[-51.71585309999995,-29.691287],[-51.719817199999966,-29.690931499999966],[-51.7199485,-29.685296],[-51.71977789999993,-29.68432359999996],[-51.71863939999997,-29.683067899999955],[-51.71830359999996,-29.682219599999936],[-51.716723,-29.68374049999995],[-51.71549029999994,-29.686089199999962],[-51.715062099999955,-29.686257899999923],[-51.71074709999994,-29.685715299999963],[-51.709071199999975,-29.68599989999996],[-51.706842,-29.687992],[-51.70508049999995,-29.690922299999947],[-51.703354099999956,-29.691286499999926]]]}},{"type":"Feature","properties":{"setor":"432085905000003","pop":167,"sigilo_pop":false,"dom":99,"sigilo_dom":0,"mulheres":85,"sigilo_mulheres":0,"c0_4":9,"sigilo_c0_4":0,"c5_9":13,"sigilo_c5_9":0,"i60_69":15,"sigilo_i60_69":0,"i70m":16,"sigilo_i70m":0,"indigenas":0,"sigilo_indigenas":0,"pretos_pardos":null,"sigilo_pretos_pardos":1,"dom_ocupados":65,"sigilo_dom_ocupados":0,"dom_agua":11,"sigilo_dom_agua":0,"dom_esgoto":0,"sigilo_dom_esgoto":0,"renda_resp":2546.47,"sigilo_renda_resp":0,"n_resp":65,"sigilo_n_resp":0,"dens":17.5,"sigilo_dens":false,"na_bacia":1,"area_pct_bacia":100.0,"metodo_recorte_bacia":"ponto_representativo_setor_2022; area_pct_geometrica","pop_n_validos":1,"pop_n_total":1,"pop_completude":1.0,"dom_n_validos":1,"dom_n_total":1,"dom_completude":1.0,"dom_ocupados_n_validos":1,"dom_ocupados_n_total":1,"dom_ocupados_completude":1.0,"mulheres_n_validos":1,"mulheres_n_total":1,"mulheres_completude":1.0,"c0_4_n_validos":1,"c0_4_n_total":1,"c0_4_completude":1.0,"c5_9_n_validos":1,"c5_9_n_total":1,"c5_9_completude":1.0,"i60_69_n_validos":1,"i60_69_n_total":1,"i60_69_completude":1.0,"i70m_n_validos":1,"i70m_n_total":1,"i70m_completude":1.0,"indigenas_n_validos":1,"indigenas_n_total":1,"indigenas_completude":1.0,"pretos_pardos_n_validos":0,"pretos_pardos_n_total":1,"pretos_pardos_completude":0.0,"dom_agua_n_validos":1,"dom_agua_n_total":1,"dom_agua_completude":1.0,"dom_esgoto_n_validos":1,"dom_esgoto_n_total":1,"dom_esgoto_completude":1.0,"n_resp_n_validos":1,"n_resp_n_total":1,"n_resp_completude":1.0,"renda_resp_n_validos":1,"renda_resp_n_total":1,"renda_resp_completude":1.0,"dens_n_validos":1,"dens_n_total":1,"dens_completude":1.0,"status_borda_bacia":"total","metodo_area_bacia":"interse??o geom?trica em EPSG:5880","metodo_na_bacia":"ponto_representativo_setor_2022_within_bacia","municipio":"Tabaí","cod_mun":"4320859","mun_pct_na_bacia":100.0,"mun_pop_total":4461,"mun_pop_na_bacia":4461.0,"mun_ubs_iede":1,"mun_hospitais_iede":null,"mun_escolas_iede":2,"mun_bombeiros_iede":null,"mun_servicos_cobertura":"cadastro_IEDE_parcial_nao_inventario","mun_icm_faixa":"B","mun_icm_pontos":6,"mun_icm_prioritario":"não","mun_ubs_iede_status":"published","mun_hospitais_iede_status":"unknown","mun_escolas_iede_status":"published","mun_bombeiros_iede_status":"unknown"},"geometry":{"type":"Polygon","coordinates":[[[-51.743411099999946,-29.712389399999935],[-51.74657169999995,-29.715517],[-51.750345799999934,-29.716115],[-51.75048879999997,-29.71998879999997],[-51.75381719999996,-29.722597299999965],[-51.75398869999998,-29.725847499999936],[-51.75600529999997,-29.730783799999983],[-51.756077599999976,-29.733247799999948],[-51.75819839999997,-29.73356059999997],[-51.76027829999999,-29.732547899999926],[-51.76324559999995,-29.732957],[-51.76822089999997,-29.731911],[-51.77567759999994,-29.732681199999945],[-51.77788449999998,-29.729179599999956],[-51.778957099999964,-29.725496699999937],[-51.78495659999999,-29.723967599999984],[-51.78665639999997,-29.720234599999955],[-51.79352659999995,-29.720324],[-51.79806959999996,-29.713467499999986],[-51.796943399999975,-29.711649699999963],[-51.795285,-29.71162029999994],[-51.791757899999936,-29.70762519999994],[-51.786725,-29.708489],[-51.786272699999984,-29.70714949999996],[-51.78635009999994,-29.70745779999993],[-51.78542139999996,-29.70795249999998],[-51.77560749999998,-29.711736699999964],[-51.77372419999995,-29.71170019999994],[-51.76828469999998,-29.710722199999953],[-51.76199419999995,-29.70746659999997],[-51.756535699999965,-29.705941599999953],[-51.75443229999996,-29.704221099999987],[-51.75277779999993,-29.70179939999997],[-51.751727799999976,-29.70229719999998],[-51.75152949999995,-29.702824899999936],[-51.751246899999956,-29.70293629999998],[-51.75156449999997,-29.705279499999975],[-51.750913799999985,-29.705527899999943],[-51.75077719999996,-29.705928099999944],[-51.75035609999998,-29.705880399999952],[-51.75004739999997,-29.70610119999999],[-51.74995819999998,-29.706619299999936],[-51.75032139999996,-29.707005499999983],[-51.750206599999956,-29.707183599999947],[-51.74867879999994,-29.707660199999964],[-51.74880169999994,-29.708939599999955],[-51.74765259999999,-29.70936529999994],[-51.74656429999993,-29.710078899999925],[-51.74604109999996,-29.71115519999996],[-51.7453187,-29.711622799999937],[-51.744727699999935,-29.712428199999973],[-51.74395859999998,-29.712183],[-51.743411099999946,-29.712389399999935]]]}},{"type":"Feature","properties":{"setor":"432085905000006","pop":124,"sigilo_pop":false,"dom":63,"sigilo_dom":0,"mulheres":60,"sigilo_mulheres":0,"c0_4":10,"sigilo_c0_4":0,"c5_9":13,"sigilo_c5_9":0,"i60_69":17,"sigilo_i60_69":0,"i70m":13,"sigilo_i70m":0,"indigenas":0,"sigilo_indigenas":0,"pretos_pardos":5,"sigilo_pretos_pardos":0,"dom_ocupados":50,"sigilo_dom_ocupados":0,"dom_agua":19,"sigilo_dom_agua":0,"dom_esgoto":0,"sigilo_dom_esgoto":0,"renda_resp":2195.26,"sigilo_renda_resp":0,"n_resp":50,"sigilo_n_resp":0,"dens":20.9,"sigilo_dens":false,"na_bacia":1,"area_pct_bacia":100.0,"metodo_recorte_bacia":"ponto_representativo_setor_2022; area_pct_geometrica","pop_n_validos":1,"pop_n_total":1,"pop_completude":1.0,"dom_n_validos":1,"dom_n_total":1,"dom_completude":1.0,"dom_ocupados_n_validos":1,"dom_ocupados_n_total":1,"dom_ocupados_completude":1.0,"mulheres_n_validos":1,"mulheres_n_total":1,"mulheres_completude":1.0,"c0_4_n_validos":1,"c0_4_n_total":1,"c0_4_completude":1.0,"c5_9_n_validos":1,"c5_9_n_total":1,"c5_9_completude":1.0,"i60_69_n_validos":1,"i60_69_n_total":1,"i60_69_completude":1.0,"i70m_n_validos":1,"i70m_n_total":1,"i70m_completude":1.0,"indigenas_n_validos":1,"indigenas_n_total":1,"indigenas_completude":1.0,"pretos_pardos_n_validos":1,"pretos_pardos_n_total":1,"pretos_pardos_completude":1.0,"dom_agua_n_validos":1,"dom_agua_n_total":1,"dom_agua_completude":1.0,"dom_esgoto_n_validos":1,"dom_esgoto_n_total":1,"dom_esgoto_completude":1.0,"n_resp_n_validos":1,"n_resp_n_total":1,"n_resp_completude":1.0,"renda_resp_n_validos":1,"renda_resp_n_total":1,"renda_resp_completude":1.0,"dens_n_validos":1,"dens_n_total":1,"dens_completude":1.0,"status_borda_bacia":"total","metodo_area_bacia":"interse??o geom?trica em EPSG:5880","metodo_na_bacia":"ponto_representativo_setor_2022_within_bacia","municipio":"Tabaí","cod_mun":"4320859","mun_pct_na_bacia":100.0,"mun_pop_total":4461,"mun_pop_na_bacia":4461.0,"mun_ubs_iede":1,"mun_hospitais_iede":null,"mun_escolas_iede":2,"mun_bombeiros_iede":null,"mun_servicos_cobertura":"cadastro_IEDE_parcial_nao_inventario","mun_icm_faixa":"B","mun_icm_pontos":6,"mun_icm_prioritario":"não","mun_ubs_iede_status":"published","mun_hospitais_iede_status":"unknown","mun_escolas_iede_status":"published","mun_bombeiros_iede_status":"unknown"},"geometry":{"type":"Polygon","coordinates":[[[-51.72693189999995,-29.622881599999968],[-51.7278697,-29.62334849999996],[-51.727134099999944,-29.62347019999992],[-51.72585739999994,-29.624782699999958],[-51.726458699999974,-29.62592159999996],[-51.726175,-29.62631069999997],[-51.72497869999995,-29.627009399999974],[-51.724730499999964,-29.629752],[-51.724253499999975,-29.630768899999953],[-51.72351789999993,-29.631394],[-51.721655699999985,-29.631990899999938],[-51.71833129999993,-29.632596099999947],[-51.71786819999994,-29.633356299999946],[-51.71806569999995,-29.639332799999984],[-51.71765089999997,-29.641197699999967],[-51.71780179999996,-29.642089099999957],[-51.717125,-29.643083599999947],[-51.71723549999996,-29.643465599999956],[-51.718683099999964,-29.644344499999935],[-51.71928559999997,-29.645060799999953],[-51.71801659999994,-29.646783],[-51.717891899999984,-29.647443899999928],[-51.718376,-29.648942299999927],[-51.718990799999965,-29.64868229999996],[-51.71971289999994,-29.649317599999957],[-51.722095699999954,-29.649948899999973],[-51.72320949999994,-29.650568499999963],[-51.72350489999997,-29.650574799999944],[-51.72379579999995,-29.649755899999942],[-51.72522779999997,-29.648735899999973],[-51.72582579999994,-29.647825799999957],[-51.726216799999975,-29.64484029999994],[-51.726639499999976,-29.644100299999927],[-51.72901609999997,-29.644219799999973],[-51.730894,-29.642693599999976],[-51.731677099999956,-29.641519599999985],[-51.73304749999994,-29.641512699999964],[-51.734303299999965,-29.640762299999942],[-51.736186799999984,-29.640198499999947],[-51.73827169999998,-29.64013589999995],[-51.739694,-29.639742],[-51.74026839999994,-29.639333899999933],[-51.74197369999995,-29.639418399999954],[-51.74256929999996,-29.638904399999948],[-51.743023799999946,-29.637742899999978],[-51.7441654,-29.63746319999996],[-51.74607649999996,-29.63640259999994],[-51.74746519999996,-29.63604359999994],[-51.748608099999956,-29.63459639999996],[-51.75113459999994,-29.635071199999974],[-51.75447429999997,-29.634494799999988],[-51.75235019999997,-29.63177869999998],[-51.75109819999995,-29.628579599999966],[-51.74294249999997,-29.62454359999998],[-51.740858199999934,-29.621036199999935],[-51.737444,-29.621778],[-51.734093299999984,-29.62134019999996],[-51.73161639999996,-29.623433399999954],[-51.72974369999998,-29.623725099999945],[-51.72693189999995,-29.622881599999968]]]}},{"type":"Feature","properties":{"setor":"432085905000007","pop":174,"sigilo_pop":false,"dom":114,"sigilo_dom":0,"mulheres":81,"sigilo_mulheres":0,"c0_4":null,"sigilo_c0_4":1,"c5_9":null,"sigilo_c5_9":1,"i60_69":22,"sigilo_i60_69":0,"i70m":33,"sigilo_i70m":0,"indigenas":0,"sigilo_indigenas":0,"pretos_pardos":9,"sigilo_pretos_pardos":0,"dom_ocupados":81,"sigilo_dom_ocupados":0,"dom_agua":9,"sigilo_dom_agua":0,"dom_esgoto":0,"sigilo_dom_esgoto":0,"renda_resp":1968.57,"sigilo_renda_resp":0,"n_resp":81,"sigilo_n_resp":0,"dens":26.8,"sigilo_dens":false,"na_bacia":1,"area_pct_bacia":100.0,"metodo_recorte_bacia":"ponto_representativo_setor_2022; area_pct_geometrica","pop_n_validos":1,"pop_n_total":1,"pop_completude":1.0,"dom_n_validos":1,"dom_n_total":1,"dom_completude":1.0,"dom_ocupados_n_validos":1,"dom_ocupados_n_total":1,"dom_ocupados_completude":1.0,"mulheres_n_validos":1,"mulheres_n_total":1,"mulheres_completude":1.0,"c0_4_n_validos":0,"c0_4_n_total":1,"c0_4_completude":0.0,"c5_9_n_validos":0,"c5_9_n_total":1,"c5_9_completude":0.0,"i60_69_n_validos":1,"i60_69_n_total":1,"i60_69_completude":1.0,"i70m_n_validos":1,"i70m_n_total":1,"i70m_completude":1.0,"indigenas_n_validos":1,"indigenas_n_total":1,"indigenas_completude":1.0,"pretos_pardos_n_validos":1,"pretos_pardos_n_total":1,"pretos_pardos_completude":1.0,"dom_agua_n_validos":1,"dom_agua_n_total":1,"dom_agua_completude":1.0,"dom_esgoto_n_validos":1,"dom_esgoto_n_total":1,"dom_esgoto_completude":1.0,"n_resp_n_validos":1,"n_resp_n_total":1,"n_resp_completude":1.0,"renda_resp_n_validos":1,"renda_resp_n_total":1,"renda_resp_completude":1.0,"dens_n_validos":1,"dens_n_total":1,"dens_completude":1.0,"status_borda_bacia":"total","metodo_area_bacia":"interse??o geom?trica em EPSG:5880","metodo_na_bacia":"ponto_representativo_setor_2022_within_bacia","municipio":"Tabaí","cod_mun":"4320859","mun_pct_na_bacia":100.0,"mun_pop_total":4461,"mun_pop_na_bacia":4461.0,"mun_ubs_iede":1,"mun_hospitais_iede":null,"mun_escolas_iede":2,"mun_bombeiros_iede":null,"mun_servicos_cobertura":"cadastro_IEDE_parcial_nao_inventario","mun_icm_faixa":"B","mun_icm_pontos":6,"mun_icm_prioritario":"não","mun_ubs_iede_status":"published","mun_hospitais_iede_status":"unknown","mun_escolas_iede_status":"published","mun_bombeiros_iede_status":"unknown"},"geometry":{"type":"Polygon","coordinates":[[[-51.683790599999945,-29.644010799999936],[-51.684922099999945,-29.644316299999954],[-51.685950099999964,-29.645089499999973],[-51.68735959999998,-29.645538499999937],[-51.68889649999994,-29.647027599999937],[-51.69052579999993,-29.647749199999957],[-51.69218859999995,-29.64811759999997],[-51.69268509999995,-29.648964899999957],[-51.69297889999996,-29.65099979999995],[-51.69470739999997,-29.653120399999974],[-51.69568609999993,-29.653959],[-51.69852089999995,-29.65537429999996],[-51.70034089999995,-29.655310799999924],[-51.70251609999997,-29.65588579999997],[-51.70397389999994,-29.656908099999967],[-51.70495779999993,-29.657314],[-51.70630689999996,-29.65750249999996],[-51.707676699999986,-29.65732019999995],[-51.70833929999998,-29.657442799999963],[-51.70872079999997,-29.657776899999945],[-51.708870499999925,-29.66022079999993],[-51.70944339999995,-29.661445099999966],[-51.71036269999996,-29.66194249999996],[-51.71674829999994,-29.663940399999927],[-51.71934129999994,-29.663960799999973],[-51.718925599999984,-29.65834549999994],[-51.71745209999995,-29.656689599999936],[-51.71709709999993,-29.655954199999943],[-51.717601,-29.654361499999936],[-51.717686,-29.653229899999932],[-51.71813759999998,-29.65238159999995],[-51.71770769999995,-29.6502662],[-51.718399199999965,-29.64884019999994],[-51.717873,-29.647094799999937],[-51.71928559999997,-29.645060799999953],[-51.718683099999964,-29.644344499999935],[-51.717160099999944,-29.643335899999958],[-51.717164799999985,-29.642838799999932],[-51.71780179999996,-29.642089099999957],[-51.71765089999997,-29.641197699999967],[-51.718015,-29.639900799999964],[-51.71776579999994,-29.636750199999945],[-51.715742399999954,-29.63574149999993],[-51.71001359999997,-29.635059499999944],[-51.707597,-29.634907899999984],[-51.70589729999995,-29.635242599999973],[-51.705084099999965,-29.63586769999994],[-51.703333,-29.635886699999954],[-51.70214779999998,-29.635775799999976],[-51.700188,-29.634514599999925],[-51.698392799999965,-29.63480419999996],[-51.696545399999934,-29.635769199999977],[-51.69565759999995,-29.63703079999993],[-51.69469449999997,-29.63777989999994],[-51.69343189999995,-29.63813749999997],[-51.69309639999995,-29.64081589999994],[-51.69182829999995,-29.640856099999947],[-51.69018029999995,-29.641749399999973],[-51.689039899999955,-29.641995399999928],[-51.68836069999998,-29.64252439999996],[-51.68457919999997,-29.64355],[-51.683790599999945,-29.644010799999936]]]}},{"type":"Feature","properties":{"setor":"432085905000008","pop":239,"sigilo_pop":false,"dom":118,"sigilo_dom":0,"mulheres":117,"sigilo_mulheres":0,"c0_4":12,"sigilo_c0_4":0,"c5_9":null,"sigilo_c5_9":1,"i60_69":27,"sigilo_i60_69":0,"i70m":39,"sigilo_i70m":0,"indigenas":0,"sigilo_indigenas":0,"pretos_pardos":null,"sigilo_pretos_pardos":1,"dom_ocupados":98,"sigilo_dom_ocupados":0,"dom_agua":62,"sigilo_dom_agua":0,"dom_esgoto":0,"sigilo_dom_esgoto":0,"renda_resp":2686.15,"sigilo_renda_resp":0,"n_resp":98,"sigilo_n_resp":0,"dens":19.0,"sigilo_dens":false,"na_bacia":1,"area_pct_bacia":100.0,"metodo_recorte_bacia":"ponto_representativo_setor_2022; area_pct_geometrica","pop_n_validos":1,"pop_n_total":1,"pop_completude":1.0,"dom_n_validos":1,"dom_n_total":1,"dom_completude":1.0,"dom_ocupados_n_validos":1,"dom_ocupados_n_total":1,"dom_ocupados_completude":1.0,"mulheres_n_validos":1,"mulheres_n_total":1,"mulheres_completude":1.0,"c0_4_n_validos":1,"c0_4_n_total":1,"c0_4_completude":1.0,"c5_9_n_validos":0,"c5_9_n_total":1,"c5_9_completude":0.0,"i60_69_n_validos":1,"i60_69_n_total":1,"i60_69_completude":1.0,"i70m_n_validos":1,"i70m_n_total":1,"i70m_completude":1.0,"indigenas_n_validos":1,"indigenas_n_total":1,"indigenas_completude":1.0,"pretos_pardos_n_validos":0,"pretos_pardos_n_total":1,"pretos_pardos_completude":0.0,"dom_agua_n_validos":1,"dom_agua_n_total":1,"dom_agua_completude":1.0,"dom_esgoto_n_validos":1,"dom_esgoto_n_total":1,"dom_esgoto_completude":1.0,"n_resp_n_validos":1,"n_resp_n_total":1,"n_resp_completude":1.0,"renda_resp_n_validos":1,"renda_resp_n_total":1,"renda_resp_completude":1.0,"dens_n_validos":1,"dens_n_total":1,"dens_completude":1.0,"status_borda_bacia":"total","metodo_area_bacia":"interse??o geom?trica em EPSG:5880","metodo_na_bacia":"ponto_representativo_setor_2022_within_bacia","municipio":"Tabaí","cod_mun":"4320859","mun_pct_na_bacia":100.0,"mun_pop_total":4461,"mun_pop_na_bacia":4461.0,"mun_ubs_iede":1,"mun_hospitais_iede":null,"mun_escolas_iede":2,"mun_bombeiros_iede":null,"mun_servicos_cobertura":"cadastro_IEDE_parcial_nao_inventario","mun_icm_faixa":"B","mun_icm_pontos":6,"mun_icm_prioritario":"não","mun_ubs_iede_status":"published","mun_hospitais_iede_status":"unknown","mun_escolas_iede_status":"published","mun_bombeiros_iede_status":"unknown"},"geometry":{"type":"Polygon","coordinates":[[[-51.679183,-29.614468699999982],[-51.67918189999995,-29.61870879999998],[-51.678497099999966,-29.619446199999985],[-51.67813639999998,-29.623723699999974],[-51.677581499999974,-29.624649299999938],[-51.67756529999997,-29.625243399999935],[-51.677715399999954,-29.625724899999963],[-51.67958539999995,-29.626860299999976],[-51.680442599999935,-29.627829599999984],[-51.68067929999995,-29.62961969999999],[-51.68018689999997,-29.63146569999997],[-51.68028239999995,-29.632002199999924],[-51.684244399999955,-29.638751899999935],[-51.684162399999934,-29.640736499999935],[-51.68342039999993,-29.643666499999938],[-51.68378689999998,-29.644011599999953],[-51.68457919999997,-29.64355],[-51.68836069999998,-29.64252439999996],[-51.689039899999955,-29.641995399999928],[-51.69018029999995,-29.641749399999973],[-51.69182829999995,-29.640856099999947],[-51.69309639999995,-29.64081589999994],[-51.69343189999995,-29.63813749999997],[-51.69469449999997,-29.63777989999994],[-51.69565759999995,-29.63703079999993],[-51.696545399999934,-29.635769199999977],[-51.698392799999965,-29.63480419999996],[-51.700188,-29.634514599999925],[-51.70214779999998,-29.635775799999976],[-51.703333,-29.635886699999954],[-51.705084099999965,-29.63586769999994],[-51.70589729999995,-29.635242599999973],[-51.707597,-29.634907899999984],[-51.71001359999997,-29.635059499999944],[-51.715742399999954,-29.63574149999993],[-51.71786609999998,-29.636835299999973],[-51.71786819999994,-29.633356299999946],[-51.718157099999985,-29.632707599999943],[-51.721655699999985,-29.631990899999938],[-51.72351789999993,-29.631394],[-51.724093699999976,-29.630929499999983],[-51.724697299999946,-29.62990379999997],[-51.72497869999995,-29.627009399999974],[-51.726175,-29.62631069999997],[-51.726458699999974,-29.62592159999996],[-51.72585739999994,-29.624782699999958],[-51.727134099999944,-29.62347019999992],[-51.7278697,-29.62334849999996],[-51.72693189999995,-29.622881599999968],[-51.718382899999945,-29.62031629999995],[-51.71647159999998,-29.617925299999964],[-51.714913499999966,-29.617639699999984],[-51.71381059999993,-29.615172399999942],[-51.709671199999946,-29.61592249999996],[-51.70550369999995,-29.614403199999966],[-51.70431179999998,-29.611908099999944],[-51.70517559999996,-29.608603599999974],[-51.709246399999984,-29.60653759999996],[-51.710544099999936,-29.603486699999955],[-51.709555799999976,-29.60175629999998],[-51.704961699999956,-29.601548899999948],[-51.70305259999998,-29.59990619999997],[-51.69965129999998,-29.600144899999968],[-51.69767749999994,-29.60226419999997],[-51.694615399999975,-29.602882899999944],[-51.695102099999986,-29.606089],[-51.69391879999995,-29.607991899999952],[-51.68890569999996,-29.60834939999995],[-51.68389279999997,-29.610684199999987],[-51.681991,-29.612837799999962],[-51.679183,-29.614468699999982]]]}},{"type":"Feature","properties":{"setor":"432085905000009","pop":125,"sigilo_pop":false,"dom":60,"sigilo_dom":0,"mulheres":64,"sigilo_mulheres":0,"c0_4":6,"sigilo_c0_4":0,"c5_9":6,"sigilo_c5_9":0,"i60_69":14,"sigilo_i60_69":0,"i70m":16,"sigilo_i70m":0,"indigenas":0,"sigilo_indigenas":0,"pretos_pardos":3,"sigilo_pretos_pardos":0,"dom_ocupados":47,"sigilo_dom_ocupados":0,"dom_agua":4,"sigilo_dom_agua":0,"dom_esgoto":0,"sigilo_dom_esgoto":0,"renda_resp":2322.62,"sigilo_renda_resp":0,"n_resp":47,"sigilo_n_resp":0,"dens":25.2,"sigilo_dens":false,"na_bacia":1,"area_pct_bacia":100.0,"metodo_recorte_bacia":"ponto_representativo_setor_2022; area_pct_geometrica","pop_n_validos":1,"pop_n_total":1,"pop_completude":1.0,"dom_n_validos":1,"dom_n_total":1,"dom_completude":1.0,"dom_ocupados_n_validos":1,"dom_ocupados_n_total":1,"dom_ocupados_completude":1.0,"mulheres_n_validos":1,"mulheres_n_total":1,"mulheres_completude":1.0,"c0_4_n_validos":1,"c0_4_n_total":1,"c0_4_completude":1.0,"c5_9_n_validos":1,"c5_9_n_total":1,"c5_9_completude":1.0,"i60_69_n_validos":1,"i60_69_n_total":1,"i60_69_completude":1.0,"i70m_n_validos":1,"i70m_n_total":1,"i70m_completude":1.0,"indigenas_n_validos":1,"indigenas_n_total":1,"indigenas_completude":1.0,"pretos_pardos_n_validos":1,"pretos_pardos_n_total":1,"pretos_pardos_completude":1.0,"dom_agua_n_validos":1,"dom_agua_n_total":1,"dom_agua_completude":1.0,"dom_esgoto_n_validos":1,"dom_esgoto_n_total":1,"dom_esgoto_completude":1.0,"n_resp_n_validos":1,"n_resp_n_total":1,"n_resp_completude":1.0,"renda_resp_n_validos":1,"renda_resp_n_total":1,"renda_resp_completude":1.0,"dens_n_validos":1,"dens_n_total":1,"dens_completude":1.0,"status_borda_bacia":"total","metodo_area_bacia":"interse??o geom?trica em EPSG:5880","metodo_na_bacia":"ponto_representativo_setor_2022_within_bacia","municipio":"Tabaí","cod_mun":"4320859","mun_pct_na_bacia":100.0,"mun_pop_total":4461,"mun_pop_na_bacia":4461.0,"mun_ubs_iede":1,"mun_hospitais_iede":null,"mun_escolas_iede":2,"mun_bombeiros_iede":null,"mun_servicos_cobertura":"cadastro_IEDE_parcial_nao_inventario","mun_icm_faixa":"B","mun_icm_pontos":6,"mun_icm_prioritario":"não","mun_ubs_iede_status":"published","mun_hospitais_iede_status":"unknown","mun_escolas_iede_status":"published","mun_bombeiros_iede_status":"unknown"},"geometry":{"type":"Polygon","coordinates":[[[-51.68378689999998,-29.644011599999953],[-51.68136479999998,-29.64495629999994],[-51.68083319999994,-29.646558699999957],[-51.68036909999996,-29.647171199999942],[-51.678771299999944,-29.647257499999952],[-51.676930299999974,-29.64796979999995],[-51.67586439999996,-29.648023399999936],[-51.67471479999995,-29.648879199999953],[-51.67343009999996,-29.64925679999993],[-51.672705399999984,-29.650363],[-51.671603,-29.651002799999958],[-51.67055869999996,-29.652098799999965],[-51.67058539999994,-29.654317599999953],[-51.67299709999997,-29.65319319999997],[-51.674389399999946,-29.655316],[-51.67593869999997,-29.654563199999984],[-51.67790949999994,-29.654983599999976],[-51.67829389999997,-29.655744199999962],[-51.67951419999997,-29.655283099999973],[-51.680053499999985,-29.656720099999962],[-51.68186179999998,-29.657786],[-51.681082699999926,-29.658645299999936],[-51.681541099999954,-29.659652499999936],[-51.68545459999996,-29.66082369999997],[-51.68590949999997,-29.66261439999994],[-51.68523909999993,-29.66666519999995],[-51.686709199999946,-29.666764799999942],[-51.68840539999996,-29.66813169999994],[-51.691268599999944,-29.668346599999943],[-51.691406599999944,-29.667510299999957],[-51.693432,-29.667086599999948],[-51.694720199999956,-29.669812499999964],[-51.696179,-29.671720699999984],[-51.696304,-29.673469799999953],[-51.69647719999994,-29.67298829999992],[-51.697086799999965,-29.672495599999934],[-51.69963789999997,-29.671463399999936],[-51.70058459999996,-29.67135989999997],[-51.702426499999945,-29.668939399999935],[-51.702136,-29.666908099999954],[-51.70410909999998,-29.662125399999983],[-51.70443869999997,-29.66043939999996],[-51.70522539999996,-29.65953449999996],[-51.70618909999996,-29.657496099999943],[-51.70446839999994,-29.657164399999935],[-51.70251609999997,-29.65588579999997],[-51.70095729999997,-29.65541859999996],[-51.69852089999995,-29.65537429999996],[-51.69568609999993,-29.653959],[-51.69470739999997,-29.653120399999974],[-51.69297889999996,-29.65099979999995],[-51.69268509999995,-29.648964899999957],[-51.69218859999995,-29.64811759999997],[-51.69052579999993,-29.647749199999957],[-51.68889649999994,-29.647027599999937],[-51.68735959999998,-29.645538499999937],[-51.685950099999964,-29.645089499999973],[-51.684922099999945,-29.644316299999954],[-51.68378689999998,-29.644011599999953]]]}},{"type":"Feature","properties":{"setor":"432085905000010","pop":301,"sigilo_pop":false,"dom":138,"sigilo_dom":0,"mulheres":152,"sigilo_mulheres":0,"c0_4":34,"sigilo_c0_4":0,"c5_9":23,"sigilo_c5_9":0,"i60_69":24,"sigilo_i60_69":0,"i70m":14,"sigilo_i70m":0,"indigenas":0,"sigilo_indigenas":0,"pretos_pardos":27,"sigilo_pretos_pardos":0,"dom_ocupados":106,"sigilo_dom_ocupados":0,"dom_agua":9,"sigilo_dom_agua":0,"dom_esgoto":0,"sigilo_dom_esgoto":0,"renda_resp":1938.58,"sigilo_renda_resp":0,"n_resp":106,"sigilo_n_resp":0,"dens":55.0,"sigilo_dens":false,"na_bacia":1,"area_pct_bacia":100.0,"metodo_recorte_bacia":"ponto_representativo_setor_2022; area_pct_geometrica","pop_n_validos":1,"pop_n_total":1,"pop_completude":1.0,"dom_n_validos":1,"dom_n_total":1,"dom_completude":1.0,"dom_ocupados_n_validos":1,"dom_ocupados_n_total":1,"dom_ocupados_completude":1.0,"mulheres_n_validos":1,"mulheres_n_total":1,"mulheres_completude":1.0,"c0_4_n_validos":1,"c0_4_n_total":1,"c0_4_completude":1.0,"c5_9_n_validos":1,"c5_9_n_total":1,"c5_9_completude":1.0,"i60_69_n_validos":1,"i60_69_n_total":1,"i60_69_completude":1.0,"i70m_n_validos":1,"i70m_n_total":1,"i70m_completude":1.0,"indigenas_n_validos":1,"indigenas_n_total":1,"indigenas_completude":1.0,"pretos_pardos_n_validos":1,"pretos_pardos_n_total":1,"pretos_pardos_completude":1.0,"dom_agua_n_validos":1,"dom_agua_n_total":1,"dom_agua_completude":1.0,"dom_esgoto_n_validos":1,"dom_esgoto_n_total":1,"dom_esgoto_completude":1.0,"n_resp_n_validos":1,"n_resp_n_total":1,"n_resp_completude":1.0,"renda_resp_n_validos":1,"renda_resp_n_total":1,"renda_resp_completude":1.0,"dens_n_validos":1,"dens_n_total":1,"dens_completude":1.0,"status_borda_bacia":"total","metodo_area_bacia":"interse??o geom?trica em EPSG:5880","metodo_na_bacia":"ponto_representativo_setor_2022_within_bacia","municipio":"Tabaí","cod_mun":"4320859","mun_pct_na_bacia":100.0,"mun_pop_total":4461,"mun_pop_na_bacia":4461.0,"mun_ubs_iede":1,"mun_hospitais_iede":null,"mun_escolas_iede":2,"mun_bombeiros_iede":null,"mun_servicos_cobertura":"cadastro_IEDE_parcial_nao_inventario","mun_icm_faixa":"B","mun_icm_pontos":6,"mun_icm_prioritario":"não","mun_ubs_iede_status":"published","mun_hospitais_iede_status":"unknown","mun_escolas_iede_status":"published","mun_bombeiros_iede_status":"unknown"},"geometry":{"type":"Polygon","coordinates":[[[-51.70618909999996,-29.657496099999943],[-51.70522539999996,-29.65953449999996],[-51.70443869999997,-29.66043939999996],[-51.70410909999998,-29.662125399999983],[-51.702136,-29.666908099999954],[-51.702426499999945,-29.668939399999935],[-51.701704,-29.67007349999994],[-51.70058459999996,-29.67135989999997],[-51.69963789999997,-29.671463399999936],[-51.697086799999965,-29.672495599999934],[-51.69647719999994,-29.67298829999992],[-51.696304,-29.673469799999953],[-51.69623349999995,-29.67295439999998],[-51.69629319999996,-29.674279199999937],[-51.69545039999998,-29.680330799999982],[-51.69692729999998,-29.68140789999995],[-51.69694579999998,-29.683629299999946],[-51.70051529999995,-29.68570489999997],[-51.70315019999999,-29.68616989999998],[-51.704718699999944,-29.687722899999986],[-51.703181299999976,-29.68848169999997],[-51.703354099999956,-29.691286499999926],[-51.70508049999995,-29.690922299999947],[-51.706842,-29.687992],[-51.709071199999975,-29.68599989999996],[-51.71074709999994,-29.685715299999963],[-51.715062099999955,-29.686257899999923],[-51.71549029999994,-29.686089199999962],[-51.716723,-29.68374049999995],[-51.71830359999996,-29.682219599999936],[-51.71830489999997,-29.68011349999996],[-51.718769099999975,-29.678412299999927],[-51.71929069999993,-29.677744899999926],[-51.71901319999995,-29.676825699999924],[-51.719181099999965,-29.67609979999997],[-51.71900059999996,-29.67520729999995],[-51.7202774,-29.67308839999997],[-51.719874,-29.671089499999923],[-51.72139789999995,-29.66891919999996],[-51.72147649999994,-29.666810199999933],[-51.72179419999998,-29.665794699999935],[-51.721546899999964,-29.665027199999937],[-51.720901,-29.664404099999956],[-51.71934129999994,-29.663960799999973],[-51.71674829999994,-29.663940399999927],[-51.709969,-29.661746199999985],[-51.70927579999994,-29.661272799999956],[-51.70897019999996,-29.660621],[-51.70863319999996,-29.657629599999936],[-51.707676699999986,-29.65732019999995],[-51.70618909999996,-29.657496099999943]]]}},{"type":"Feature","properties":{"setor":"432085905000011","pop":144,"sigilo_pop":false,"dom":85,"sigilo_dom":0,"mulheres":71,"sigilo_mulheres":0,"c0_4":null,"sigilo_c0_4":1,"c5_9":9,"sigilo_c5_9":0,"i60_69":27,"sigilo_i60_69":0,"i70m":28,"sigilo_i70m":0,"indigenas":0,"sigilo_indigenas":0,"pretos_pardos":0,"sigilo_pretos_pardos":0,"dom_ocupados":60,"sigilo_dom_ocupados":0,"dom_agua":null,"sigilo_dom_agua":1,"dom_esgoto":0,"sigilo_dom_esgoto":0,"renda_resp":2299.05,"sigilo_renda_resp":0,"n_resp":60,"sigilo_n_resp":0,"dens":34.4,"sigilo_dens":false,"na_bacia":1,"area_pct_bacia":100.0,"metodo_recorte_bacia":"ponto_representativo_setor_2022; area_pct_geometrica","pop_n_validos":1,"pop_n_total":1,"pop_completude":1.0,"dom_n_validos":1,"dom_n_total":1,"dom_completude":1.0,"dom_ocupados_n_validos":1,"dom_ocupados_n_total":1,"dom_ocupados_completude":1.0,"mulheres_n_validos":1,"mulheres_n_total":1,"mulheres_completude":1.0,"c0_4_n_validos":0,"c0_4_n_total":1,"c0_4_completude":0.0,"c5_9_n_validos":1,"c5_9_n_total":1,"c5_9_completude":1.0,"i60_69_n_validos":1,"i60_69_n_total":1,"i60_69_completude":1.0,"i70m_n_validos":1,"i70m_n_total":1,"i70m_completude":1.0,"indigenas_n_validos":1,"indigenas_n_total":1,"indigenas_completude":1.0,"pretos_pardos_n_validos":1,"pretos_pardos_n_total":1,"pretos_pardos_completude":1.0,"dom_agua_n_validos":0,"dom_agua_n_total":1,"dom_agua_completude":0.0,"dom_esgoto_n_validos":1,"dom_esgoto_n_total":1,"dom_esgoto_completude":1.0,"n_resp_n_validos":1,"n_resp_n_total":1,"n_resp_completude":1.0,"renda_resp_n_validos":1,"renda_resp_n_total":1,"renda_resp_completude":1.0,"dens_n_validos":1,"dens_n_total":1,"dens_completude":1.0,"status_borda_bacia":"total","metodo_area_bacia":"interse??o geom?trica em EPSG:5880","metodo_na_bacia":"ponto_representativo_setor_2022_within_bacia","municipio":"Tabaí","cod_mun":"4320859","mun_pct_na_bacia":100.0,"mun_pop_total":4461,"mun_pop_na_bacia":4461.0,"mun_ubs_iede":1,"mun_hospitais_iede":null,"mun_escolas_iede":2,"mun_bombeiros_iede":null,"mun_servicos_cobertura":"cadastro_IEDE_parcial_nao_inventario","mun_icm_faixa":"B","mun_icm_pontos":6,"mun_icm_prioritario":"não","mun_ubs_iede_status":"published","mun_hospitais_iede_status":"unknown","mun_escolas_iede_status":"published","mun_bombeiros_iede_status":"unknown"},"geometry":{"type":"Polygon","coordinates":[[[-51.658764099999985,-29.64442929999997],[-51.659551599999986,-29.645528899999924],[-51.662252799999976,-29.645978699999947],[-51.662986699999976,-29.649980099999944],[-51.66465629999993,-29.65135669999995],[-51.66546349999993,-29.653307],[-51.670370799999944,-29.654417699999957],[-51.67060139999995,-29.654172299999964],[-51.67055869999996,-29.652098799999965],[-51.671603,-29.651002799999958],[-51.672705399999984,-29.650363],[-51.67343009999996,-29.64925679999993],[-51.67471479999995,-29.648879199999953],[-51.67586439999996,-29.648023399999936],[-51.676930299999974,-29.64796979999995],[-51.678771299999944,-29.647257499999952],[-51.68036909999996,-29.647171199999942],[-51.68083319999994,-29.646558699999957],[-51.68136479999998,-29.64495629999994],[-51.68378689999998,-29.644011599999953],[-51.68342039999993,-29.643666499999938],[-51.684162399999934,-29.640736499999935],[-51.684244399999955,-29.638751899999935],[-51.68028239999995,-29.632002199999924],[-51.68018689999997,-29.63146569999997],[-51.68067929999995,-29.62961969999999],[-51.680442599999935,-29.627829599999984],[-51.67958539999995,-29.626860299999976],[-51.677715399999954,-29.625724899999963],[-51.67756529999997,-29.625243399999935],[-51.677581499999974,-29.624649299999938],[-51.67813639999998,-29.623723699999974],[-51.678497099999966,-29.619446199999985],[-51.67918189999995,-29.61870879999998],[-51.67604339999997,-29.619476299999974],[-51.67498009999997,-29.622562499999958],[-51.67585759999997,-29.623972],[-51.67528519999996,-29.627535699999953],[-51.67177159999994,-29.629108099999932],[-51.66963649999997,-29.631632499999967],[-51.66372,-29.64381869999995],[-51.66089309999995,-29.643042899999962],[-51.658764099999985,-29.64442929999997]]]}},{"type":"Feature","properties":{"setor":"432085905000012","pop":238,"sigilo_pop":false,"dom":117,"sigilo_dom":0,"mulheres":121,"sigilo_mulheres":0,"c0_4":19,"sigilo_c0_4":0,"c5_9":20,"sigilo_c5_9":0,"i60_69":20,"sigilo_i60_69":0,"i70m":18,"sigilo_i70m":0,"indigenas":0,"sigilo_indigenas":0,"pretos_pardos":20,"sigilo_pretos_pardos":0,"dom_ocupados":90,"sigilo_dom_ocupados":0,"dom_agua":6,"sigilo_dom_agua":0,"dom_esgoto":0,"sigilo_dom_esgoto":0,"renda_resp":2086.33,"sigilo_renda_resp":0,"n_resp":90,"sigilo_n_resp":0,"dens":35.3,"sigilo_dens":false,"na_bacia":1,"area_pct_bacia":100.0,"metodo_recorte_bacia":"ponto_representativo_setor_2022; area_pct_geometrica","pop_n_validos":1,"pop_n_total":1,"pop_completude":1.0,"dom_n_validos":1,"dom_n_total":1,"dom_completude":1.0,"dom_ocupados_n_validos":1,"dom_ocupados_n_total":1,"dom_ocupados_completude":1.0,"mulheres_n_validos":1,"mulheres_n_total":1,"mulheres_completude":1.0,"c0_4_n_validos":1,"c0_4_n_total":1,"c0_4_completude":1.0,"c5_9_n_validos":1,"c5_9_n_total":1,"c5_9_completude":1.0,"i60_69_n_validos":1,"i60_69_n_total":1,"i60_69_completude":1.0,"i70m_n_validos":1,"i70m_n_total":1,"i70m_completude":1.0,"indigenas_n_validos":1,"indigenas_n_total":1,"indigenas_completude":1.0,"pretos_pardos_n_validos":1,"pretos_pardos_n_total":1,"pretos_pardos_completude":1.0,"dom_agua_n_validos":1,"dom_agua_n_total":1,"dom_agua_completude":1.0,"dom_esgoto_n_validos":1,"dom_esgoto_n_total":1,"dom_esgoto_completude":1.0,"n_resp_n_validos":1,"n_resp_n_total":1,"n_resp_completude":1.0,"renda_resp_n_validos":1,"renda_resp_n_total":1,"renda_resp_completude":1.0,"dens_n_validos":1,"dens_n_total":1,"dens_completude":1.0,"status_borda_bacia":"total","metodo_area_bacia":"interse??o geom?trica em EPSG:5880","metodo_na_bacia":"ponto_representativo_setor_2022_within_bacia","municipio":"Tabaí","cod_mun":"4320859","mun_pct_na_bacia":100.0,"mun_pop_total":4461,"mun_pop_na_bacia":4461.0,"mun_ubs_iede":1,"mun_hospitais_iede":null,"mun_escolas_iede":2,"mun_bombeiros_iede":null,"mun_servicos_cobertura":"cadastro_IEDE_parcial_nao_inventario","mun_icm_faixa":"B","mun_icm_pontos":6,"mun_icm_prioritario":"não","mun_ubs_iede_status":"published","mun_hospitais_iede_status":"unknown","mun_escolas_iede_status":"published","mun_bombeiros_iede_status":"unknown"},"geometry":{"type":"Polygon","coordinates":[[[-51.73549889999998,-29.69572939999995],[-51.70846509999996,-29.697728],[-51.709486099999936,-29.70087019999994],[-51.71106019999997,-29.699593499999935],[-51.71308319999997,-29.701354399999953],[-51.71668519999997,-29.702308299999963],[-51.716772299999946,-29.704077299999923],[-51.718122899999976,-29.70468129999995],[-51.720832299999984,-29.70813939999994],[-51.72074539999994,-29.713269],[-51.72224609999995,-29.713642799999942],[-51.72422569999998,-29.715742799999916],[-51.734697499999974,-29.71479779999993],[-51.735165799999955,-29.71428819999995],[-51.73325109999996,-29.712280499999956],[-51.742799599999955,-29.71178439999995],[-51.743411099999946,-29.712389399999935],[-51.74395859999998,-29.712183],[-51.744727699999935,-29.712428199999973],[-51.7453187,-29.711622799999937],[-51.74604109999996,-29.71115519999996],[-51.74656429999993,-29.710078899999925],[-51.74765259999999,-29.70936529999994],[-51.74880169999994,-29.708939599999955],[-51.74867879999994,-29.707660199999964],[-51.750206599999956,-29.707183599999947],[-51.75032139999996,-29.707005499999983],[-51.74995819999998,-29.706619299999936],[-51.75004739999997,-29.70610119999999],[-51.75035609999998,-29.705880399999952],[-51.75077719999996,-29.705928099999944],[-51.750913799999985,-29.705527899999943],[-51.75156449999997,-29.705279499999975],[-51.751246899999956,-29.70293629999998],[-51.75152949999995,-29.702824899999936],[-51.751727799999976,-29.70229719999998],[-51.75277779999993,-29.70179939999997],[-51.750639299999925,-29.698508799999953],[-51.74673039999994,-29.693424699999966],[-51.745663899999954,-29.69249609999998],[-51.74420319999996,-29.691772],[-51.73622939999996,-29.689489399999967],[-51.735350799999935,-29.68938849999994],[-51.73549889999998,-29.69572939999995]]]}},{"type":"Feature","properties":{"setor":"432085905000013","pop":424,"sigilo_pop":false,"dom":232,"sigilo_dom":0,"mulheres":208,"sigilo_mulheres":0,"c0_4":20,"sigilo_c0_4":0,"c5_9":23,"sigilo_c5_9":0,"i60_69":56,"sigilo_i60_69":0,"i70m":40,"sigilo_i70m":0,"indigenas":0,"sigilo_indigenas":0,"pretos_pardos":39,"sigilo_pretos_pardos":0,"dom_ocupados":173,"sigilo_dom_ocupados":0,"dom_agua":0,"sigilo_dom_agua":0,"dom_esgoto":0,"sigilo_dom_esgoto":0,"renda_resp":2164.94,"sigilo_renda_resp":0,"n_resp":173,"sigilo_n_resp":0,"dens":38.2,"sigilo_dens":false,"na_bacia":1,"area_pct_bacia":100.0,"metodo_recorte_bacia":"ponto_representativo_setor_2022; area_pct_geometrica","pop_n_validos":1,"pop_n_total":1,"pop_completude":1.0,"dom_n_validos":1,"dom_n_total":1,"dom_completude":1.0,"dom_ocupados_n_validos":1,"dom_ocupados_n_total":1,"dom_ocupados_completude":1.0,"mulheres_n_validos":1,"mulheres_n_total":1,"mulheres_completude":1.0,"c0_4_n_validos":1,"c0_4_n_total":1,"c0_4_completude":1.0,"c5_9_n_validos":1,"c5_9_n_total":1,"c5_9_completude":1.0,"i60_69_n_validos":1,"i60_69_n_total":1,"i60_69_completude":1.0,"i70m_n_validos":1,"i70m_n_total":1,"i70m_completude":1.0,"indigenas_n_validos":1,"indigenas_n_total":1,"indigenas_completude":1.0,"pretos_pardos_n_validos":1,"pretos_pardos_n_total":1,"pretos_pardos_completude":1.0,"dom_agua_n_validos":1,"dom_agua_n_total":1,"dom_agua_completude":1.0,"dom_esgoto_n_validos":1,"dom_esgoto_n_total":1,"dom_esgoto_completude":1.0,"n_resp_n_validos":1,"n_resp_n_total":1,"n_resp_completude":1.0,"renda_resp_n_validos":1,"renda_resp_n_total":1,"renda_resp_completude":1.0,"dens_n_validos":1,"dens_n_total":1,"dens_completude":1.0,"status_borda_bacia":"total","metodo_area_bacia":"interse??o geom?trica em EPSG:5880","metodo_na_bacia":"ponto_representativo_setor_2022_within_bacia","municipio":"Tabaí","cod_mun":"4320859","mun_pct_na_bacia":100.0,"mun_pop_total":4461,"mun_pop_na_bacia":4461.0,"mun_ubs_iede":1,"mun_hospitais_iede":null,"mun_escolas_iede":2,"mun_bombeiros_iede":null,"mun_servicos_cobertura":"cadastro_IEDE_parcial_nao_inventario","mun_icm_faixa":"B","mun_icm_pontos":6,"mun_icm_prioritario":"não","mun_ubs_iede_status":"published","mun_hospitais_iede_status":"unknown","mun_escolas_iede_status":"published","mun_bombeiros_iede_status":"unknown"},"geometry":{"type":"Polygon","coordinates":[[[-51.718376,-29.648942299999927],[-51.71770769999995,-29.6502662],[-51.71813759999998,-29.65238159999995],[-51.717686,-29.653229899999932],[-51.717601,-29.654361499999936],[-51.71709709999993,-29.655954199999943],[-51.71745209999995,-29.656689599999936],[-51.718925599999984,-29.65834549999994],[-51.71934129999994,-29.663960799999973],[-51.720901,-29.664404099999956],[-51.721797299999935,-29.665575],[-51.72147649999994,-29.666810199999933],[-51.72139789999995,-29.66891919999996],[-51.719874,-29.671089499999923],[-51.7202774,-29.67308839999997],[-51.71900059999996,-29.67520729999995],[-51.719181099999965,-29.67609979999997],[-51.71901319999995,-29.676825699999924],[-51.71929069999993,-29.677744899999926],[-51.718769099999975,-29.678412299999927],[-51.71830489999997,-29.68011349999996],[-51.718273,-29.682077],[-51.71830359999996,-29.682219599999936],[-51.720016499999986,-29.680582],[-51.723401499999966,-29.682997499999942],[-51.72538529999997,-29.681151299999957],[-51.731686899999936,-29.676127799999954],[-51.733726899999965,-29.673361899999982],[-51.736190499999964,-29.668581799999956],[-51.740755399999955,-29.663995],[-51.74587809999997,-29.660298],[-51.749113799999975,-29.65718229999993],[-51.75465029999998,-29.652855099999947],[-51.75625349999996,-29.651938299999966],[-51.75874529999999,-29.650973],[-51.76110449999993,-29.650320699999945],[-51.761411,-29.65077839999997],[-51.758412699999944,-29.645256599999982],[-51.75563539999996,-29.635978],[-51.75447429999997,-29.634494799999988],[-51.75113459999994,-29.635071199999974],[-51.748608099999956,-29.63459639999996],[-51.74746519999996,-29.63604359999994],[-51.74607649999996,-29.63640259999994],[-51.7441654,-29.63746319999996],[-51.743023799999946,-29.637742899999978],[-51.74256929999996,-29.638904399999948],[-51.74197369999995,-29.639418399999954],[-51.74026839999994,-29.639333899999933],[-51.739694,-29.639742],[-51.73827169999998,-29.64013589999995],[-51.736186799999984,-29.640198499999947],[-51.734303299999965,-29.640762299999942],[-51.73304749999994,-29.641512699999964],[-51.731677099999956,-29.641519599999985],[-51.730894,-29.642693599999976],[-51.72901609999997,-29.644219799999973],[-51.726639499999976,-29.644100299999927],[-51.726216799999975,-29.64484029999994],[-51.72582579999994,-29.647825799999957],[-51.72522779999997,-29.648735899999973],[-51.72379579999995,-29.649755899999942],[-51.72350489999997,-29.650574799999944],[-51.72294019999999,-29.650490399999963],[-51.722095699999954,-29.649948899999973],[-51.71971289999994,-29.649317599999957],[-51.718990799999965,-29.64868229999996],[-51.718376,-29.648942299999927]],[[-51.72670889999995,-29.673540399999975],[-51.72800149999995,-29.673045099999964],[-51.72931879999993,-29.673496699999948],[-51.7298287,-29.673217299999973],[-51.73066359999996,-29.67363589999995],[-51.72824819999994,-29.67617089999993],[-51.72758259999995,-29.676188799999984],[-51.726874399999986,-29.675700899999974],[-51.72594939999994,-29.675904399999972],[-51.726012699999956,-29.675617399999968],[-51.72553709999994,-29.6755434],[-51.72670889999995,-29.673540399999975]]]}},{"type":"Feature","properties":{"setor":"432085905000014","pop":30,"sigilo_pop":false,"dom":10,"sigilo_dom":0,"mulheres":16,"sigilo_mulheres":0,"c0_4":null,"sigilo_c0_4":1,"c5_9":null,"sigilo_c5_9":1,"i60_69":null,"sigilo_i60_69":1,"i70m":0,"sigilo_i70m":0,"indigenas":30,"sigilo_indigenas":0,"pretos_pardos":0,"sigilo_pretos_pardos":0,"dom_ocupados":8,"sigilo_dom_ocupados":0,"dom_agua":0,"sigilo_dom_agua":0,"dom_esgoto":0,"sigilo_dom_esgoto":0,"renda_resp":860.0,"sigilo_renda_resp":0,"n_resp":8,"sigilo_n_resp":0,"dens":290.7,"sigilo_dens":false,"na_bacia":1,"area_pct_bacia":100.0,"metodo_recorte_bacia":"ponto_representativo_setor_2022; area_pct_geometrica","pop_n_validos":1,"pop_n_total":1,"pop_completude":1.0,"dom_n_validos":1,"dom_n_total":1,"dom_completude":1.0,"dom_ocupados_n_validos":1,"dom_ocupados_n_total":1,"dom_ocupados_completude":1.0,"mulheres_n_validos":1,"mulheres_n_total":1,"mulheres_completude":1.0,"c0_4_n_validos":0,"c0_4_n_total":1,"c0_4_completude":0.0,"c5_9_n_validos":0,"c5_9_n_total":1,"c5_9_completude":0.0,"i60_69_n_validos":0,"i60_69_n_total":1,"i60_69_completude":0.0,"i70m_n_validos":1,"i70m_n_total":1,"i70m_completude":1.0,"indigenas_n_validos":1,"indigenas_n_total":1,"indigenas_completude":1.0,"pretos_pardos_n_validos":1,"pretos_pardos_n_total":1,"pretos_pardos_completude":1.0,"dom_agua_n_validos":1,"dom_agua_n_total":1,"dom_agua_completude":1.0,"dom_esgoto_n_validos":1,"dom_esgoto_n_total":1,"dom_esgoto_completude":1.0,"n_resp_n_validos":1,"n_resp_n_total":1,"n_resp_completude":1.0,"renda_resp_n_validos":1,"renda_resp_n_total":1,"renda_resp_completude":1.0,"dens_n_validos":1,"dens_n_total":1,"dens_completude":1.0,"status_borda_bacia":"total","metodo_area_bacia":"interse??o geom?trica em EPSG:5880","metodo_na_bacia":"ponto_representativo_setor_2022_within_bacia","municipio":"Tabaí","cod_mun":"4320859","mun_pct_na_bacia":100.0,"mun_pop_total":4461,"mun_pop_na_bacia":4461.0,"mun_ubs_iede":1,"mun_hospitais_iede":null,"mun_escolas_iede":2,"mun_bombeiros_iede":null,"mun_servicos_cobertura":"cadastro_IEDE_parcial_nao_inventario","mun_icm_faixa":"B","mun_icm_pontos":6,"mun_icm_prioritario":"não","mun_ubs_iede_status":"published","mun_hospitais_iede_status":"unknown","mun_escolas_iede_status":"published","mun_bombeiros_iede_status":"unknown"},"geometry":{"type":"Polygon","coordinates":[[[-51.72800149999995,-29.673045099999964],[-51.72670889999995,-29.673540399999975],[-51.72553709999994,-29.6755434],[-51.726012699999956,-29.675617399999968],[-51.72594939999994,-29.675904399999972],[-51.726874399999986,-29.675700899999974],[-51.72758259999995,-29.676188799999984],[-51.72824819999994,-29.67617089999993],[-51.73066359999996,-29.67363589999995],[-51.7298287,-29.673217299999973],[-51.72931879999993,-29.673496699999948],[-51.72800149999995,-29.673045099999964]]]}},{"type":"Feature","properties":{"setor":"432085905000015","pop":107,"sigilo_pop":false,"dom":67,"sigilo_dom":0,"mulheres":44,"sigilo_mulheres":0,"c0_4":null,"sigilo_c0_4":1,"c5_9":null,"sigilo_c5_9":1,"i60_69":18,"sigilo_i60_69":0,"i70m":10,"sigilo_i70m":0,"indigenas":0,"sigilo_indigenas":0,"pretos_pardos":null,"sigilo_pretos_pardos":1,"dom_ocupados":47,"sigilo_dom_ocupados":0,"dom_agua":0,"sigilo_dom_agua":0,"dom_esgoto":0,"sigilo_dom_esgoto":0,"renda_resp":1977.06,"sigilo_renda_resp":0,"n_resp":47,"sigilo_n_resp":0,"dens":30.2,"sigilo_dens":false,"na_bacia":1,"area_pct_bacia":100.0,"metodo_recorte_bacia":"ponto_representativo_setor_2022; area_pct_geometrica","pop_n_validos":1,"pop_n_total":1,"pop_completude":1.0,"dom_n_validos":1,"dom_n_total":1,"dom_completude":1.0,"dom_ocupados_n_validos":1,"dom_ocupados_n_total":1,"dom_ocupados_completude":1.0,"mulheres_n_validos":1,"mulheres_n_total":1,"mulheres_completude":1.0,"c0_4_n_validos":0,"c0_4_n_total":1,"c0_4_completude":0.0,"c5_9_n_validos":0,"c5_9_n_total":1,"c5_9_completude":0.0,"i60_69_n_validos":1,"i60_69_n_total":1,"i60_69_completude":1.0,"i70m_n_validos":1,"i70m_n_total":1,"i70m_completude":1.0,"indigenas_n_validos":1,"indigenas_n_total":1,"indigenas_completude":1.0,"pretos_pardos_n_validos":0,"pretos_pardos_n_total":1,"pretos_pardos_completude":0.0,"dom_agua_n_validos":1,"dom_agua_n_total":1,"dom_agua_completude":1.0,"dom_esgoto_n_validos":1,"dom_esgoto_n_total":1,"dom_esgoto_completude":1.0,"n_resp_n_validos":1,"n_resp_n_total":1,"n_resp_completude":1.0,"renda_resp_n_validos":1,"renda_resp_n_total":1,"renda_resp_completude":1.0,"dens_n_validos":1,"dens_n_total":1,"dens_completude":1.0,"status_borda_bacia":"total","metodo_area_bacia":"interse??o geom?trica em EPSG:5880","metodo_na_bacia":"ponto_representativo_setor_2022_within_bacia","municipio":"Tabaí","cod_mun":"4320859","mun_pct_na_bacia":100.0,"mun_pop_total":4461,"mun_pop_na_bacia":4461.0,"mun_ubs_iede":1,"mun_hospitais_iede":null,"mun_escolas_iede":2,"mun_bombeiros_iede":null,"mun_servicos_cobertura":"cadastro_IEDE_parcial_nao_inventario","mun_icm_faixa":"B","mun_icm_pontos":6,"mun_icm_prioritario":"não","mun_ubs_iede_status":"published","mun_hospitais_iede_status":"unknown","mun_escolas_iede_status":"published","mun_bombeiros_iede_status":"unknown"},"geometry":{"type":"Polygon","coordinates":[[[-51.78674439999998,-29.681362099999944],[-51.78759319999995,-29.68086079999994],[-51.786181399999975,-29.677953199999926],[-51.787796,-29.672877799999977],[-51.7867682,-29.67050429999995],[-51.784352,-29.669116599999946],[-51.78229469999997,-29.66658609999995],[-51.78322919999994,-29.65907349999998],[-51.78173839999994,-29.65573259999997],[-51.77986779999998,-29.653179],[-51.771969599999984,-29.656538299999962],[-51.76770869999996,-29.655673099999937],[-51.76359559999998,-29.657165099999933],[-51.762857,-29.65817],[-51.76276959999996,-29.658662],[-51.76311539999995,-29.65927119999997],[-51.764705,-29.660405],[-51.767137099999964,-29.665122],[-51.76966759999994,-29.66878679999997],[-51.770823,-29.669917],[-51.774754,-29.671035],[-51.776384,-29.671855],[-51.777191,-29.673539],[-51.778427,-29.675045],[-51.78016019999996,-29.676100199999954],[-51.782598,-29.678846],[-51.785592,-29.680910399999956],[-51.78674439999998,-29.681362099999944]]]}},{"type":"Feature","properties":{"setor":"432085905000016","pop":238,"sigilo_pop":false,"dom":116,"sigilo_dom":0,"mulheres":126,"sigilo_mulheres":0,"c0_4":14,"sigilo_c0_4":0,"c5_9":20,"sigilo_c5_9":0,"i60_69":18,"sigilo_i60_69":0,"i70m":21,"sigilo_i70m":0,"indigenas":0,"sigilo_indigenas":0,"pretos_pardos":16,"sigilo_pretos_pardos":0,"dom_ocupados":93,"sigilo_dom_ocupados":0,"dom_agua":28,"sigilo_dom_agua":0,"dom_esgoto":null,"sigilo_dom_esgoto":1,"renda_resp":2473.07,"sigilo_renda_resp":0,"n_resp":93,"sigilo_n_resp":0,"dens":37.8,"sigilo_dens":false,"na_bacia":1,"area_pct_bacia":100.0,"metodo_recorte_bacia":"ponto_representativo_setor_2022; area_pct_geometrica","pop_n_validos":1,"pop_n_total":1,"pop_completude":1.0,"dom_n_validos":1,"dom_n_total":1,"dom_completude":1.0,"dom_ocupados_n_validos":1,"dom_ocupados_n_total":1,"dom_ocupados_completude":1.0,"mulheres_n_validos":1,"mulheres_n_total":1,"mulheres_completude":1.0,"c0_4_n_validos":1,"c0_4_n_total":1,"c0_4_completude":1.0,"c5_9_n_validos":1,"c5_9_n_total":1,"c5_9_completude":1.0,"i60_69_n_validos":1,"i60_69_n_total":1,"i60_69_completude":1.0,"i70m_n_validos":1,"i70m_n_total":1,"i70m_completude":1.0,"indigenas_n_validos":1,"indigenas_n_total":1,"indigenas_completude":1.0,"pretos_pardos_n_validos":1,"pretos_pardos_n_total":1,"pretos_pardos_completude":1.0,"dom_agua_n_validos":1,"dom_agua_n_total":1,"dom_agua_completude":1.0,"dom_esgoto_n_validos":0,"dom_esgoto_n_total":1,"dom_esgoto_completude":0.0,"n_resp_n_validos":1,"n_resp_n_total":1,"n_resp_completude":1.0,"renda_resp_n_validos":1,"renda_resp_n_total":1,"renda_resp_completude":1.0,"dens_n_validos":1,"dens_n_total":1,"dens_completude":1.0,"status_borda_bacia":"total","metodo_area_bacia":"interse??o geom?trica em EPSG:5880","metodo_na_bacia":"ponto_representativo_setor_2022_within_bacia","municipio":"Tabaí","cod_mun":"4320859","mun_pct_na_bacia":100.0,"mun_pop_total":4461,"mun_pop_na_bacia":4461.0,"mun_ubs_iede":1,"mun_hospitais_iede":null,"mun_escolas_iede":2,"mun_bombeiros_iede":null,"mun_servicos_cobertura":"cadastro_IEDE_parcial_nao_inventario","mun_icm_faixa":"B","mun_icm_pontos":6,"mun_icm_prioritario":"não","mun_ubs_iede_status":"published","mun_hospitais_iede_status":"unknown","mun_escolas_iede_status":"published","mun_bombeiros_iede_status":"unknown"},"geometry":{"type":"Polygon","coordinates":[[[-51.77611429999995,-29.683688899999936],[-51.77464029999993,-29.683894899999924],[-51.77393729999994,-29.683113699999982],[-51.77304179999993,-29.682779599999943],[-51.771835399999986,-29.679965599999935],[-51.771765699999946,-29.67956619999994],[-51.77226739999998,-29.678532],[-51.768061,-29.679043],[-51.7660087,-29.678948199999983],[-51.765267,-29.679393],[-51.764516,-29.680444],[-51.763617,-29.680525],[-51.763892,-29.681702],[-51.763754,-29.68364],[-51.764235,-29.685786],[-51.764784,-29.686904],[-51.764904,-29.687962],[-51.764699,-29.688573],[-51.763377,-29.689676],[-51.761935,-29.690198],[-51.76027,-29.690004],[-51.759892,-29.690526],[-51.760201,-29.691077],[-51.759636599999965,-29.694630099999983],[-51.75977969999996,-29.695702699999966],[-51.759308,-29.695965],[-51.758227,-29.695474],[-51.755841,-29.695354],[-51.753129,-29.696561],[-51.74988179999997,-29.69752429999994],[-51.751555499999945,-29.69974669999993],[-51.753925799999934,-29.703629199999966],[-51.7554416,-29.705204799999926],[-51.756535699999965,-29.705941599999953],[-51.76199419999995,-29.70746659999997],[-51.76828469999998,-29.710722199999953],[-51.774912599999936,-29.711778699999964],[-51.776429299999954,-29.71155979999998],[-51.78635009999994,-29.70745779999993],[-51.784651,-29.702348299999986],[-51.781309599999986,-29.69826139999999],[-51.77900779999993,-29.69714339999996],[-51.77073529999996,-29.695620199999965],[-51.7722725,-29.69386679999997],[-51.772982,-29.69009669999997],[-51.775503399999934,-29.686913299999947],[-51.77611429999995,-29.683688899999936]]]}},{"type":"Feature","properties":{"setor":"432085905000017","pop":593,"sigilo_pop":false,"dom":292,"sigilo_dom":0,"mulheres":305,"sigilo_mulheres":0,"c0_4":50,"sigilo_c0_4":0,"c5_9":41,"sigilo_c5_9":0,"i60_69":81,"sigilo_i60_69":0,"i70m":42,"sigilo_i70m":0,"indigenas":0,"sigilo_indigenas":0,"pretos_pardos":94,"sigilo_pretos_pardos":0,"dom_ocupados":227,"sigilo_dom_ocupados":0,"dom_agua":17,"sigilo_dom_agua":0,"dom_esgoto":3,"sigilo_dom_esgoto":0,"renda_resp":2099.84,"sigilo_renda_resp":0,"n_resp":227,"sigilo_n_resp":0,"dens":42.5,"sigilo_dens":false,"na_bacia":1,"area_pct_bacia":100.0,"metodo_recorte_bacia":"ponto_representativo_setor_2022; area_pct_geometrica","pop_n_validos":1,"pop_n_total":1,"pop_completude":1.0,"dom_n_validos":1,"dom_n_total":1,"dom_completude":1.0,"dom_ocupados_n_validos":1,"dom_ocupados_n_total":1,"dom_ocupados_completude":1.0,"mulheres_n_validos":1,"mulheres_n_total":1,"mulheres_completude":1.0,"c0_4_n_validos":1,"c0_4_n_total":1,"c0_4_completude":1.0,"c5_9_n_validos":1,"c5_9_n_total":1,"c5_9_completude":1.0,"i60_69_n_validos":1,"i60_69_n_total":1,"i60_69_completude":1.0,"i70m_n_validos":1,"i70m_n_total":1,"i70m_completude":1.0,"indigenas_n_validos":1,"indigenas_n_total":1,"indigenas_completude":1.0,"pretos_pardos_n_validos":1,"pretos_pardos_n_total":1,"pretos_pardos_completude":1.0,"dom_agua_n_validos":1,"dom_agua_n_total":1,"dom_agua_completude":1.0,"dom_esgoto_n_validos":1,"dom_esgoto_n_total":1,"dom_esgoto_completude":1.0,"n_resp_n_validos":1,"n_resp_n_total":1,"n_resp_completude":1.0,"renda_resp_n_validos":1,"renda_resp_n_total":1,"renda_resp_completude":1.0,"dens_n_validos":1,"dens_n_total":1,"dens_completude":1.0,"status_borda_bacia":"total","metodo_area_bacia":"interse??o geom?trica em EPSG:5880","metodo_na_bacia":"ponto_representativo_setor_2022_within_bacia","municipio":"Tabaí","cod_mun":"4320859","mun_pct_na_bacia":100.0,"mun_pop_total":4461,"mun_pop_na_bacia":4461.0,"mun_ubs_iede":1,"mun_hospitais_iede":null,"mun_escolas_iede":2,"mun_bombeiros_iede":null,"mun_servicos_cobertura":"cadastro_IEDE_parcial_nao_inventario","mun_icm_faixa":"B","mun_icm_pontos":6,"mun_icm_prioritario":"não","mun_ubs_iede_status":"published","mun_hospitais_iede_status":"unknown","mun_escolas_iede_status":"published","mun_bombeiros_iede_status":"unknown"},"geometry":{"type":"Polygon","coordinates":[[[-51.76359559999998,-29.657165099999933],[-51.76300249999997,-29.65738029999995],[-51.76356479999998,-29.65475109999994],[-51.76110449999993,-29.650320699999945],[-51.757113,-29.651546],[-51.75465029999998,-29.652855099999947],[-51.749113799999975,-29.65718229999993],[-51.74587809999997,-29.660298],[-51.740755399999955,-29.663995],[-51.737987,-29.66663649999998],[-51.736190499999964,-29.668581799999956],[-51.733726899999965,-29.673361899999982],[-51.731686899999936,-29.676127799999954],[-51.72538529999997,-29.681151299999957],[-51.723401499999966,-29.682997499999942],[-51.728378599999985,-29.68654029999993],[-51.730124599999954,-29.68530459999994],[-51.73161509999994,-29.685275099999952],[-51.73263349999996,-29.68338049999994],[-51.73330389999995,-29.682750099999968],[-51.73492149999998,-29.682831399999944],[-51.73536379999996,-29.686904299999977],[-51.73501479999994,-29.688779299999954],[-51.735350799999935,-29.68938849999994],[-51.73718309999999,-29.68970749999994],[-51.74420319999996,-29.691772],[-51.74526309999993,-29.692250399999974],[-51.74673039999994,-29.693424699999966],[-51.74988179999997,-29.69752429999994],[-51.753129,-29.696561],[-51.755841,-29.695354],[-51.758227,-29.695474],[-51.759308,-29.695965],[-51.75977969999996,-29.695702699999966],[-51.759636599999965,-29.694630099999983],[-51.760201,-29.691077],[-51.759892,-29.690526],[-51.76027,-29.690004],[-51.761935,-29.690198],[-51.763377,-29.689676],[-51.764699,-29.688573],[-51.764904,-29.687962],[-51.764784,-29.686904],[-51.764235,-29.685786],[-51.763754,-29.68364],[-51.763892,-29.681702],[-51.763617,-29.680525],[-51.764516,-29.680444],[-51.765267,-29.679393],[-51.7660087,-29.678948199999983],[-51.768061,-29.679043],[-51.77226739999998,-29.678532],[-51.771765699999946,-29.67956619999994],[-51.771835399999986,-29.679965599999935],[-51.77304179999993,-29.682779599999943],[-51.77393729999994,-29.683113699999982],[-51.77464029999993,-29.683894899999924],[-51.77611429999995,-29.683688899999936],[-51.77539489999999,-29.68231679999996],[-51.78052669999994,-29.68235139999996],[-51.78353229999994,-29.68325929999998],[-51.78674439999998,-29.681362099999944],[-51.785592,-29.680910399999956],[-51.782598,-29.678846],[-51.78016019999996,-29.676100199999954],[-51.778427,-29.675045],[-51.777191,-29.673539],[-51.776384,-29.671855],[-51.774754,-29.671035],[-51.770823,-29.669917],[-51.76966759999994,-29.66878679999997],[-51.767137099999964,-29.665122],[-51.764705,-29.660405],[-51.76311539999995,-29.65927119999997],[-51.76276959999996,-29.658662],[-51.762857,-29.65817],[-51.76359559999998,-29.657165099999933]]]}},{"type":"Feature","properties":{"setor":"432085905000018","pop":647,"sigilo_pop":false,"dom":294,"sigilo_dom":0,"mulheres":314,"sigilo_mulheres":0,"c0_4":46,"sigilo_c0_4":0,"c5_9":50,"sigilo_c5_9":0,"i60_69":45,"sigilo_i60_69":0,"i70m":46,"sigilo_i70m":0,"indigenas":0,"sigilo_indigenas":0,"pretos_pardos":126,"sigilo_pretos_pardos":0,"dom_ocupados":234,"sigilo_dom_ocupados":0,"dom_agua":190,"sigilo_dom_agua":0,"dom_esgoto":null,"sigilo_dom_esgoto":1,"renda_resp":2086.43,"sigilo_renda_resp":0,"n_resp":234,"sigilo_n_resp":0,"dens":512.7,"sigilo_dens":false,"na_bacia":1,"area_pct_bacia":100.0,"metodo_recorte_bacia":"ponto_representativo_setor_2022; area_pct_geometrica","pop_n_validos":1,"pop_n_total":1,"pop_completude":1.0,"dom_n_validos":1,"dom_n_total":1,"dom_completude":1.0,"dom_ocupados_n_validos":1,"dom_ocupados_n_total":1,"dom_ocupados_completude":1.0,"mulheres_n_validos":1,"mulheres_n_total":1,"mulheres_completude":1.0,"c0_4_n_validos":1,"c0_4_n_total":1,"c0_4_completude":1.0,"c5_9_n_validos":1,"c5_9_n_total":1,"c5_9_completude":1.0,"i60_69_n_validos":1,"i60_69_n_total":1,"i60_69_completude":1.0,"i70m_n_validos":1,"i70m_n_total":1,"i70m_completude":1.0,"indigenas_n_validos":1,"indigenas_n_total":1,"indigenas_completude":1.0,"pretos_pardos_n_validos":1,"pretos_pardos_n_total":1,"pretos_pardos_completude":1.0,"dom_agua_n_validos":1,"dom_agua_n_total":1,"dom_agua_completude":1.0,"dom_esgoto_n_validos":0,"dom_esgoto_n_total":1,"dom_esgoto_completude":0.0,"n_resp_n_validos":1,"n_resp_n_total":1,"n_resp_completude":1.0,"renda_resp_n_validos":1,"renda_resp_n_total":1,"renda_resp_completude":1.0,"dens_n_validos":1,"dens_n_total":1,"dens_completude":1.0,"status_borda_bacia":"total","metodo_area_bacia":"interse??o geom?trica em EPSG:5880","metodo_na_bacia":"ponto_representativo_setor_2022_within_bacia","municipio":"Tabaí","cod_mun":"4320859","mun_pct_na_bacia":100.0,"mun_pop_total":4461,"mun_pop_na_bacia":4461.0,"mun_ubs_iede":1,"mun_hospitais_iede":null,"mun_escolas_iede":2,"mun_bombeiros_iede":null,"mun_servicos_cobertura":"cadastro_IEDE_parcial_nao_inventario","mun_icm_faixa":"B","mun_icm_pontos":6,"mun_icm_prioritario":"não","mun_ubs_iede_status":"published","mun_hospitais_iede_status":"unknown","mun_escolas_iede_status":"published","mun_bombeiros_iede_status":"unknown"},"geometry":{"type":"Polygon","coordinates":[[[-51.735350799999935,-29.68938849999994],[-51.71585309999995,-29.691287],[-51.71637869999995,-29.693863399999934],[-51.71653969999994,-29.697126599999923],[-51.73549889999998,-29.69572939999995],[-51.735350799999935,-29.68938849999994]]]}},{"type":"Feature","properties":{"setor":"432085905000019","pop":415,"sigilo_pop":false,"dom":183,"sigilo_dom":0,"mulheres":211,"sigilo_mulheres":0,"c0_4":30,"sigilo_c0_4":0,"c5_9":32,"sigilo_c5_9":0,"i60_69":47,"sigilo_i60_69":0,"i70m":30,"sigilo_i70m":0,"indigenas":0,"sigilo_indigenas":0,"pretos_pardos":58,"sigilo_pretos_pardos":0,"dom_ocupados":159,"sigilo_dom_ocupados":0,"dom_agua":131,"sigilo_dom_agua":0,"dom_esgoto":7,"sigilo_dom_esgoto":0,"renda_resp":2494.24,"sigilo_renda_resp":0,"n_resp":159,"sigilo_n_resp":0,"dens":396.1,"sigilo_dens":false,"na_bacia":1,"area_pct_bacia":100.0,"metodo_recorte_bacia":"ponto_representativo_setor_2022; area_pct_geometrica","pop_n_validos":1,"pop_n_total":1,"pop_completude":1.0,"dom_n_validos":1,"dom_n_total":1,"dom_completude":1.0,"dom_ocupados_n_validos":1,"dom_ocupados_n_total":1,"dom_ocupados_completude":1.0,"mulheres_n_validos":1,"mulheres_n_total":1,"mulheres_completude":1.0,"c0_4_n_validos":1,"c0_4_n_total":1,"c0_4_completude":1.0,"c5_9_n_validos":1,"c5_9_n_total":1,"c5_9_completude":1.0,"i60_69_n_validos":1,"i60_69_n_total":1,"i60_69_completude":1.0,"i70m_n_validos":1,"i70m_n_total":1,"i70m_completude":1.0,"indigenas_n_validos":1,"indigenas_n_total":1,"indigenas_completude":1.0,"pretos_pardos_n_validos":1,"pretos_pardos_n_total":1,"pretos_pardos_completude":1.0,"dom_agua_n_validos":1,"dom_agua_n_total":1,"dom_agua_completude":1.0,"dom_esgoto_n_validos":1,"dom_esgoto_n_total":1,"dom_esgoto_completude":1.0,"n_resp_n_validos":1,"n_resp_n_total":1,"n_resp_completude":1.0,"renda_resp_n_validos":1,"renda_resp_n_total":1,"renda_resp_completude":1.0,"dens_n_validos":1,"dens_n_total":1,"dens_completude":1.0,"status_borda_bacia":"total","metodo_area_bacia":"interse??o geom?trica em EPSG:5880","metodo_na_bacia":"ponto_representativo_setor_2022_within_bacia","municipio":"Tabaí","cod_mun":"4320859","mun_pct_na_bacia":100.0,"mun_pop_total":4461,"mun_pop_na_bacia":4461.0,"mun_ubs_iede":1,"mun_hospitais_iede":null,"mun_escolas_iede":2,"mun_bombeiros_iede":null,"mun_servicos_cobertura":"cadastro_IEDE_parcial_nao_inventario","mun_icm_faixa":"B","mun_icm_pontos":6,"mun_icm_prioritario":"não","mun_ubs_iede_status":"published","mun_hospitais_iede_status":"unknown","mun_escolas_iede_status":"published","mun_bombeiros_iede_status":"unknown"},"geometry":{"type":"Polygon","coordinates":[[[-51.719817199999966,-29.690931499999966],[-51.735350799999935,-29.68938849999994],[-51.73500749999994,-29.68864779999995],[-51.73536379999996,-29.686904299999977],[-51.734920199999976,-29.683510099999975],[-51.73503059999996,-29.682901899999944],[-51.73330389999995,-29.682750099999968],[-51.73263349999996,-29.68338049999994],[-51.73161509999994,-29.685275099999952],[-51.730124599999954,-29.68530459999994],[-51.728378599999985,-29.68654029999993],[-51.720016499999986,-29.680582],[-51.71830359999996,-29.682219599999936],[-51.71863939999997,-29.683067899999955],[-51.71990289999996,-29.68462149999994],[-51.719817199999966,-29.690931499999966]]]}}]}
