{"type":"FeatureCollection","name":"4321626","crs":{"type":"name","properties":{"name":"urn:ogc:def:crs:OGC:1.3:CRS84"}},"features":[{"type":"Feature","properties":{"setor":"432162605000001","pop":422,"sigilo_pop":false,"dom":207,"sigilo_dom":false,"mulheres":217,"sigilo_mulheres":false,"c0_4":20,"sigilo_c0_4":false,"c5_9":18,"sigilo_c5_9":false,"i60_69":62,"sigilo_i60_69":false,"i70m":75,"sigilo_i70m":false,"indigenas":0,"sigilo_indigenas":false,"pretos_pardos":35,"sigilo_pretos_pardos":false,"dom_ocupados":165,"sigilo_dom_ocupados":false,"dom_agua":158,"sigilo_dom_agua":false,"dom_esgoto":null,"sigilo_dom_esgoto":true,"renda_resp":2455.37,"sigilo_renda_resp":false,"n_resp":165,"sigilo_n_resp":false,"dens":252.2,"sigilo_dens":false,"na_bacia":1,"area_pct_bacia":100.0,"metodo_recorte_bacia":"ponto_representativo_setor_2022; area_pct_geometrica"},"geometry":{"type":"Polygon","coordinates":[[[-52.057534499999974,-29.309800199999984],[-52.059819299999965,-29.309774],[-52.059504699999934,-29.31183749999997],[-52.06045029999996,-29.314142],[-52.06332979999997,-29.31428329999994],[-52.06339039999995,-29.313055899999938],[-52.06292529999996,-29.310586899999972],[-52.06444639999995,-29.310591699999982],[-52.06362189999999,-29.307573699999978],[-52.06335149999995,-29.304882399999947],[-52.06162609999996,-29.299972699999948],[-52.062241599999936,-29.295256099999964],[-52.06132649999995,-29.295495699999943],[-52.06133879999993,-29.29449779999993],[-52.06040979999994,-29.292978399999978],[-52.06165689999994,-29.29022749999996],[-52.06186059999993,-29.288659299999942],[-52.06155419999993,-29.28767239999997],[-52.05909849999995,-29.286741899999985],[-52.05934,-29.287673199999972],[-52.06003039999997,-29.288583299999967],[-52.06005059999996,-29.28903949999994],[-52.05981849999995,-29.29024329999993],[-52.05897029999995,-29.292152299999938],[-52.058036,-29.292799199999934],[-52.056923799999936,-29.29273919999997],[-52.05465329999998,-29.293149099999948],[-52.05294879999997,-29.291987899999985],[-52.05215039999997,-29.29176309999997],[-52.05229639999993,-29.29429249999998],[-52.053003099999955,-29.29455019999995],[-52.05346159999994,-29.296479199999965],[-52.054026799999974,-29.301309499999945],[-52.0563964,-29.30532149999992],[-52.05654979999997,-29.306429199999968],[-52.05764,-29.30905369999994],[-52.057534499999974,-29.309800199999984]],[[-52.05759149999995,-29.302032099999956],[-52.05670089999995,-29.300335599999986],[-52.05678169999994,-29.29960819999997],[-52.05895359999993,-29.2995218],[-52.058843,-29.30048079999994],[-52.05827759999995,-29.30157889999999],[-52.05759149999995,-29.302032099999956]]]}},{"type":"Feature","properties":{"setor":"432162605000002","pop":377,"sigilo_pop":false,"dom":181,"sigilo_dom":false,"mulheres":181,"sigilo_mulheres":false,"c0_4":21,"sigilo_c0_4":false,"c5_9":20,"sigilo_c5_9":false,"i60_69":44,"sigilo_i60_69":false,"i70m":64,"sigilo_i70m":false,"indigenas":0,"sigilo_indigenas":false,"pretos_pardos":33,"sigilo_pretos_pardos":false,"dom_ocupados":133,"sigilo_dom_ocupados":false,"dom_agua":117,"sigilo_dom_agua":false,"dom_esgoto":0,"sigilo_dom_esgoto":false,"renda_resp":2863.37,"sigilo_renda_resp":false,"n_resp":133,"sigilo_n_resp":false,"dens":14.6,"sigilo_dens":false,"na_bacia":1,"area_pct_bacia":100.0,"metodo_recorte_bacia":"ponto_representativo_setor_2022; area_pct_geometrica"},"geometry":{"type":"Polygon","coordinates":[[[-52.05754489999998,-29.250409499999932],[-52.042033,-29.251431599999922],[-52.04216439999993,-29.262953799999934],[-52.036627299999964,-29.262998],[-52.03701349999995,-29.328675899999954],[-52.033506799999934,-29.32876139999996],[-52.03351829999997,-29.341142099999967],[-52.03669219999995,-29.34093079999997],[-52.036637299999946,-29.353941],[-52.06366289999995,-29.354055],[-52.06312469999994,-29.35157719999995],[-52.06200409999996,-29.349941499999947],[-52.06269659999998,-29.34854309999998],[-52.065664,-29.346366],[-52.067402,-29.346157399999974],[-52.06894529999994,-29.345032299999943],[-52.069059599999946,-29.344222299999952],[-52.06392409999995,-29.34075929999994],[-52.061856399999954,-29.33809549999993],[-52.060395,-29.33556649999997],[-52.06176109999996,-29.333280699999914],[-52.06311229999994,-29.331822],[-52.06333059999998,-29.330529499999958],[-52.063121699999954,-29.329543099999967],[-52.063674299999946,-29.329072599999957],[-52.063879799999945,-29.32799719999997],[-52.063348,-29.327160399999972],[-52.06285489999994,-29.327165599999937],[-52.06086549999998,-29.328273],[-52.06099619999998,-29.328866599999976],[-52.05995029999997,-29.328854],[-52.05856,-29.326805699999973],[-52.057965199999956,-29.324696699999947],[-52.05789569999996,-29.314119399999985],[-52.05950389999998,-29.31412139999998],[-52.05868149999997,-29.31185149999994],[-52.05897139999996,-29.30978369999996],[-52.057534499999974,-29.309800199999984],[-52.05764,-29.30905369999994],[-52.05654979999997,-29.306429199999968],[-52.0563964,-29.30532149999992],[-52.054026799999974,-29.301309499999945],[-52.053264299999974,-29.29558369999994],[-52.053003099999955,-29.29455019999995],[-52.05250189999999,-29.294483],[-52.05227709999997,-29.294174799999944],[-52.05215039999997,-29.29176309999997],[-52.05294879999997,-29.291987899999985],[-52.05465329999998,-29.293149099999948],[-52.056923799999936,-29.29273919999997],[-52.058036,-29.292799199999934],[-52.059100599999965,-29.291912099999923],[-52.05981849999995,-29.29024329999993],[-52.06003039999997,-29.288583299999967],[-52.05954649999995,-29.28804],[-52.05909849999995,-29.286741899999985],[-52.05853459999997,-29.285946499999955],[-52.058560299999954,-29.285285299999934],[-52.05922849999997,-29.28465769999996],[-52.060462,-29.28433269999993],[-52.06061619999997,-29.283996499999947],[-52.06033349999996,-29.283604299999986],[-52.059318399999945,-29.283144799999945],[-52.05877869999995,-29.282618],[-52.05879159999994,-29.281923199999934],[-52.059267,-29.28112749999997],[-52.05868879999997,-29.280432599999976],[-52.05868879999997,-29.27884109999997],[-52.05903569999999,-29.278168699999974],[-52.060462,-29.277126299999964],[-52.061740199999974,-29.275450799999916],[-52.06177259999998,-29.275108899999953],[-52.06047479999995,-29.272609499999934],[-52.06039769999995,-29.27153349999997],[-52.06334019999997,-29.26682579999994],[-52.06478619999996,-29.265414699999955],[-52.06648179999996,-29.265284599999966],[-52.066794,-29.26472819999997],[-52.06642649999998,-29.264136599999972],[-52.06533189999993,-29.263297299999977],[-52.065142,-29.262839099999958],[-52.06551019999995,-29.259950099999973],[-52.06502679999994,-29.259061],[-52.06375169999995,-29.258088299999933],[-52.06158219999998,-29.255384499999938],[-52.05956,-29.252129],[-52.05754489999998,-29.250409499999932]]]}},{"type":"Feature","properties":{"setor":"432162605000005","pop":236,"sigilo_pop":false,"dom":132,"sigilo_dom":false,"mulheres":117,"sigilo_mulheres":false,"c0_4":null,"sigilo_c0_4":true,"c5_9":3,"sigilo_c5_9":false,"i60_69":50,"sigilo_i60_69":false,"i70m":37,"sigilo_i70m":false,"indigenas":0,"sigilo_indigenas":false,"pretos_pardos":3,"sigilo_pretos_pardos":false,"dom_ocupados":98,"sigilo_dom_ocupados":false,"dom_agua":81,"sigilo_dom_agua":false,"dom_esgoto":null,"sigilo_dom_esgoto":true,"renda_resp":2102.63,"sigilo_renda_resp":false,"n_resp":98,"sigilo_n_resp":false,"dens":25.3,"sigilo_dens":false,"na_bacia":1,"area_pct_bacia":100.0,"metodo_recorte_bacia":"ponto_representativo_setor_2022; area_pct_geometrica"},"geometry":{"type":"Polygon","coordinates":[[[-52.113438299999984,-29.231668599999974],[-52.112318,-29.25780139999994],[-52.11223659999996,-29.270630299999933],[-52.0908922,-29.270539899999953],[-52.091457299999945,-29.271527899999967],[-52.09382149999994,-29.273758299999933],[-52.094090599999966,-29.274561899999988],[-52.094066,-29.275051199999947],[-52.09350029999996,-29.276089599999978],[-52.09426479999997,-29.277686699999936],[-52.09447679999994,-29.286714199999953],[-52.09377009999998,-29.28793009999998],[-52.094104199999954,-29.289364599999946],[-52.093684199999984,-29.29627279999994],[-52.097794799999974,-29.294003699999973],[-52.0978722,-29.29430089999995],[-52.09774369999997,-29.295029299999946],[-52.097332499999936,-29.295343],[-52.096934199999964,-29.297225599999933],[-52.096099,-29.29843579999993],[-52.096163299999944,-29.298738399999927],[-52.095251,-29.298850399999925],[-52.09468559999993,-29.299668399999966],[-52.094223,-29.29952269999996],[-52.09331079999998,-29.300845],[-52.09305439999997,-29.302009499999933],[-52.09657029999993,-29.302687699999975],[-52.099465,-29.302375299999927],[-52.10301809999998,-29.301639399999942],[-52.10546939999995,-29.300566499999935],[-52.105595,-29.29948039999993],[-52.10538989999998,-29.298405399999986],[-52.104632699999975,-29.296223],[-52.105420899999956,-29.292966],[-52.10633539999998,-29.291149899999933],[-52.111216,-29.291928799999933],[-52.114808,-29.289246899999966],[-52.11894079999996,-29.287329],[-52.118572799999974,-29.283851799999972],[-52.11797069999994,-29.282323899999934],[-52.11873809999998,-29.280070899999945],[-52.12034829999993,-29.277962799999944],[-52.11977669999993,-29.276106399999943],[-52.11985379999992,-29.27568049999997],[-52.120277899999955,-29.27547879999997],[-52.1208946,-29.275568399999933],[-52.12144709999996,-29.274795099999942],[-52.120946,-29.274223499999938],[-52.11962249999994,-29.274268299999953],[-52.118761699999936,-29.27361819999993],[-52.11877449999997,-29.27300179999997],[-52.11989239999997,-29.272284399999936],[-52.11976389999995,-29.271690399999954],[-52.11844039999993,-29.271264499999965],[-52.117695199999964,-29.268462299999953],[-52.11662869999997,-29.267475899999962],[-52.11644879999995,-29.26682579999994],[-52.116782899999976,-29.266198099999926],[-52.117541,-29.265660099999934],[-52.117284,-29.264158],[-52.117566699999934,-29.263754499999948],[-52.11841469999996,-29.263306099999966],[-52.11945549999996,-29.260021699999978],[-52.120406299999956,-29.259450099999977],[-52.12007229999995,-29.25908009999994],[-52.118710299999975,-29.258799899999918],[-52.11855609999997,-29.25807119999995],[-52.11924989999994,-29.257309],[-52.11931419999996,-29.256916599999947],[-52.11912139999998,-29.256692399999963],[-52.118087099999975,-29.2567036],[-52.11784939999996,-29.256445799999938],[-52.117117,-29.255033299999965],[-52.117181199999955,-29.253822599999978],[-52.11623039999995,-29.25322279999995],[-52.11639539999993,-29.251661799999972],[-52.115549399999956,-29.250896599999987],[-52.115408,-29.250392199999954],[-52.116705799999984,-29.24914779999995],[-52.117309699999964,-29.247096099999965],[-52.11851749999994,-29.246221699999985],[-52.119185699999946,-29.245403199999934],[-52.119751,-29.241176499999927],[-52.120316399999986,-29.240313199999957],[-52.120689,-29.238934099999938],[-52.12149849999998,-29.238373499999962],[-52.12229519999993,-29.23728589999995],[-52.12310469999995,-29.236747699999952],[-52.122989,-29.23486409999999],[-52.12372139999997,-29.234090399999957],[-52.12379849999996,-29.23360829999996],[-52.122860499999945,-29.23244819999997],[-52.12264419999997,-29.231619199999948],[-52.113438299999984,-29.231668599999974]]]}},{"type":"Feature","properties":{"setor":"432162605000006","pop":468,"sigilo_pop":false,"dom":220,"sigilo_dom":false,"mulheres":240,"sigilo_mulheres":false,"c0_4":22,"sigilo_c0_4":false,"c5_9":16,"sigilo_c5_9":false,"i60_69":73,"sigilo_i60_69":false,"i70m":73,"sigilo_i70m":false,"indigenas":0,"sigilo_indigenas":false,"pretos_pardos":null,"sigilo_pretos_pardos":true,"dom_ocupados":184,"sigilo_dom_ocupados":false,"dom_agua":181,"sigilo_dom_agua":false,"dom_esgoto":null,"sigilo_dom_esgoto":true,"renda_resp":1898.87,"sigilo_renda_resp":false,"n_resp":184,"sigilo_n_resp":false,"dens":315.9,"sigilo_dens":false,"na_bacia":1,"area_pct_bacia":100.0,"metodo_recorte_bacia":"ponto_representativo_setor_2022; area_pct_geometrica"},"geometry":{"type":"Polygon","coordinates":[[[-52.05897139999996,-29.30978369999996],[-52.05868149999997,-29.31185149999994],[-52.05950389999998,-29.31412139999998],[-52.05789569999996,-29.314119399999985],[-52.057965199999956,-29.324696699999947],[-52.05856,-29.326805699999973],[-52.05911659999998,-29.327840599999934],[-52.05995029999997,-29.328854],[-52.06099619999998,-29.328866599999976],[-52.06086549999998,-29.328273],[-52.06285489999994,-29.327165599999937],[-52.06750709999994,-29.327238399999942],[-52.069402199999956,-29.326594499999945],[-52.06744819999995,-29.325639099999936],[-52.066312599999954,-29.324528799999932],[-52.070019,-29.324548599999957],[-52.06826719999997,-29.32278959999996],[-52.06623669999993,-29.314532299999932],[-52.06495619999998,-29.314504099999972],[-52.06444639999995,-29.310591699999982],[-52.06292529999996,-29.310586899999972],[-52.06339039999995,-29.313055899999938],[-52.06332979999997,-29.31428329999994],[-52.06045029999996,-29.314142],[-52.059504699999934,-29.31183749999997],[-52.059819299999965,-29.309774],[-52.05897139999996,-29.30978369999996]]]}},{"type":"Feature","properties":{"setor":"432162605000007","pop":391,"sigilo_pop":false,"dom":208,"sigilo_dom":false,"mulheres":182,"sigilo_mulheres":false,"c0_4":11,"sigilo_c0_4":false,"c5_9":20,"sigilo_c5_9":false,"i60_69":59,"sigilo_i60_69":false,"i70m":73,"sigilo_i70m":false,"indigenas":0,"sigilo_indigenas":false,"pretos_pardos":15,"sigilo_pretos_pardos":false,"dom_ocupados":147,"sigilo_dom_ocupados":false,"dom_agua":116,"sigilo_dom_agua":false,"dom_esgoto":null,"sigilo_dom_esgoto":true,"renda_resp":3223.83,"sigilo_renda_resp":false,"n_resp":147,"sigilo_n_resp":false,"dens":18.0,"sigilo_dens":false,"na_bacia":1,"area_pct_bacia":100.0,"metodo_recorte_bacia":"ponto_representativo_setor_2022; area_pct_geometrica"},"geometry":{"type":"Polygon","coordinates":[[[-52.13912769999996,-29.208222799999945],[-52.140349399999934,-29.216546399999956],[-52.12120379999994,-29.21701279999995],[-52.121217899999984,-29.217361599999943],[-52.12189559999997,-29.217997899999933],[-52.12198259999997,-29.218976899999973],[-52.12139839999997,-29.221984499999955],[-52.12170089999995,-29.222531399999983],[-52.12165679999998,-29.223624299999987],[-52.12146829999994,-29.224472899999967],[-52.120849,-29.22546869999997],[-52.12123139999994,-29.225898199999946],[-52.12091869999995,-29.22797509999998],[-52.12123249999996,-29.228356],[-52.12102029999995,-29.228612799999954],[-52.121133499999985,-29.229035899999918],[-52.121962799999956,-29.23053249999998],[-52.12238549999995,-29.230703399999978],[-52.122860499999945,-29.23244819999997],[-52.12365719999997,-29.233215799999986],[-52.123785699999985,-29.233877399999987],[-52.122989,-29.23486409999999],[-52.12310469999995,-29.236747699999952],[-52.12229519999993,-29.23728589999995],[-52.12149849999998,-29.238373499999962],[-52.120689,-29.238934099999938],[-52.120316399999986,-29.240313199999957],[-52.119751,-29.241176499999927],[-52.119185699999946,-29.245403199999934],[-52.11851749999994,-29.246221699999985],[-52.117309699999964,-29.247096099999965],[-52.116705799999984,-29.24914779999995],[-52.115472299999965,-29.25028],[-52.115395199999966,-29.25058269999994],[-52.11639539999993,-29.251661799999972],[-52.11623039999995,-29.25322279999995],[-52.117181199999955,-29.253822599999978],[-52.117117,-29.255033299999965],[-52.11784939999996,-29.256445799999938],[-52.118087099999975,-29.2567036],[-52.11912139999998,-29.256692399999963],[-52.11931419999996,-29.256916599999947],[-52.11924989999994,-29.257309],[-52.11855609999997,-29.25807119999995],[-52.118710299999975,-29.258799899999918],[-52.12007229999995,-29.25908009999994],[-52.12039349999998,-29.25932669999997],[-52.11935269999998,-29.260223499999928],[-52.11841469999996,-29.263306099999966],[-52.11737389999996,-29.2639339],[-52.117541,-29.265660099999934],[-52.116782899999976,-29.266198099999926],[-52.11644879999995,-29.26682579999994],[-52.11662869999997,-29.267475899999962],[-52.117695199999964,-29.268462299999953],[-52.11844039999993,-29.271264499999965],[-52.11976389999995,-29.271690399999954],[-52.11989239999997,-29.272284399999936],[-52.11877449999997,-29.27300179999997],[-52.118761699999936,-29.27361819999993],[-52.11932059999998,-29.274167399999964],[-52.120946,-29.274223499999938],[-52.12142139999998,-29.274627],[-52.12104879999998,-29.275467599999956],[-52.120046599999974,-29.275546],[-52.11977669999993,-29.275871],[-52.12034829999993,-29.277962799999944],[-52.125290399999976,-29.27563469999995],[-52.12630549999995,-29.27493749999996],[-52.127345899999966,-29.275179499999965],[-52.128772699999956,-29.27635269999997],[-52.13012979999997,-29.27803939999995],[-52.130939799999965,-29.278321799999958],[-52.13496689999994,-29.27738679999993],[-52.13631139999996,-29.276579599999945],[-52.136873899999955,-29.271548],[-52.13887619999997,-29.26386769999993],[-52.13968579999993,-29.2632738],[-52.13976549999995,-29.262777],[-52.14089549999994,-29.26134679999995],[-52.140976,-29.258852299999937],[-52.142024,-29.25830869999993],[-52.148748799999964,-29.258775399999944],[-52.15433329999996,-29.25854319999996],[-52.15703859999997,-29.257970399999966],[-52.15814729999994,-29.25717179999998],[-52.157768199999964,-29.25360309999997],[-52.15726429999996,-29.25156869999995],[-52.15855639999995,-29.247351399999957],[-52.158001799999965,-29.243696],[-52.15666869999996,-29.241537199999975],[-52.151472799999965,-29.23593919999996],[-52.15105329999994,-29.233624099999926],[-52.15167259999998,-29.228002],[-52.15292069999999,-29.22387479999998],[-52.15360339999995,-29.222811],[-52.15492509999996,-29.222318699999967],[-52.15811569999993,-29.221683199999966],[-52.16307279999995,-29.225087099999936],[-52.166213599999935,-29.226566499999922],[-52.16694869999998,-29.22661749999997],[-52.169407399999955,-29.220415899999963],[-52.168997899999965,-29.219443399999935],[-52.16814549999998,-29.218729099999962],[-52.16339469999997,-29.218142699999923],[-52.16010689999996,-29.214651499999952],[-52.159258,-29.21443979999998],[-52.15867629999996,-29.213880699999955],[-52.15797979999997,-29.215016199999972],[-52.157342,-29.215102099999964],[-52.15682009999995,-29.21493969999993],[-52.156387,-29.213947599999987],[-52.155582299999935,-29.21355179999994],[-52.15431709999995,-29.213662],[-52.15318869999993,-29.213076399999974],[-52.15175489999995,-29.213275],[-52.15021369999994,-29.213030199999924],[-52.149314199999935,-29.21232969999994],[-52.148289599999934,-29.210367],[-52.14582409999998,-29.20967039999993],[-52.14451259999998,-29.208075099999977],[-52.141976899999975,-29.207424899999975],[-52.140244,-29.20806559999994],[-52.13912769999996,-29.208222799999945]]]}},{"type":"Feature","properties":{"setor":"432162605000008","pop":0,"sigilo_pop":false,"dom":0,"sigilo_dom":false,"mulheres":0,"sigilo_mulheres":false,"c0_4":0,"sigilo_c0_4":false,"c5_9":0,"sigilo_c5_9":false,"i60_69":0,"sigilo_i60_69":false,"i70m":0,"sigilo_i70m":false,"indigenas":0,"sigilo_indigenas":false,"pretos_pardos":0,"sigilo_pretos_pardos":false,"dom_ocupados":0,"sigilo_dom_ocupados":false,"dom_agua":0,"sigilo_dom_agua":false,"dom_esgoto":0,"sigilo_dom_esgoto":false,"renda_resp":0.0,"sigilo_renda_resp":false,"n_resp":0,"sigilo_n_resp":false,"dens":0.0,"sigilo_dens":false,"na_bacia":1,"area_pct_bacia":100.0,"metodo_recorte_bacia":"ponto_representativo_setor_2022; area_pct_geometrica"},"geometry":{"type":"Polygon","coordinates":[[[-52.05670089999995,-29.300335599999986],[-52.05759149999995,-29.302032099999956],[-52.05827759999995,-29.30157889999999],[-52.058843,-29.30048079999994],[-52.05895359999993,-29.2995218],[-52.05678169999994,-29.29960819999997],[-52.05670089999995,-29.300335599999986]]]}},{"type":"Feature","properties":{"setor":"432162605000011","pop":258,"sigilo_pop":false,"dom":142,"sigilo_dom":false,"mulheres":132,"sigilo_mulheres":false,"c0_4":8,"sigilo_c0_4":false,"c5_9":10,"sigilo_c5_9":false,"i60_69":50,"sigilo_i60_69":false,"i70m":40,"sigilo_i70m":false,"indigenas":0,"sigilo_indigenas":false,"pretos_pardos":12,"sigilo_pretos_pardos":false,"dom_ocupados":103,"sigilo_dom_ocupados":false,"dom_agua":99,"sigilo_dom_agua":false,"dom_esgoto":null,"sigilo_dom_esgoto":true,"renda_resp":1502.41,"sigilo_renda_resp":false,"n_resp":103,"sigilo_n_resp":false,"dens":12.5,"sigilo_dens":false,"na_bacia":1,"area_pct_bacia":100.0,"metodo_recorte_bacia":"ponto_representativo_setor_2022; area_pct_geometrica"},"geometry":{"type":"Polygon","coordinates":[[[-52.066745199999964,-29.265082799999956],[-52.06616059999994,-29.265351799999962],[-52.06478619999996,-29.265414699999955],[-52.06334019999997,-29.26682579999994],[-52.0606547,-29.270995499999977],[-52.060320599999955,-29.272194799999966],[-52.06168259999998,-29.27469419999995],[-52.061740199999974,-29.275450799999916],[-52.060462,-29.277126299999964],[-52.05903569999999,-29.278168699999974],[-52.058598899999936,-29.27971529999996],[-52.05868879999997,-29.280432599999976],[-52.059267,-29.28112749999997],[-52.05879159999994,-29.281923199999934],[-52.05877869999995,-29.282618],[-52.059318399999945,-29.283144799999945],[-52.06033349999996,-29.283604299999986],[-52.06061619999997,-29.283996499999947],[-52.060462,-29.28433269999993],[-52.05893289999994,-29.284837],[-52.058560299999954,-29.285285299999934],[-52.05853459999997,-29.285946499999955],[-52.059215599999966,-29.28685429999997],[-52.06155419999993,-29.28767239999997],[-52.061798299999964,-29.288255099999954],[-52.06165689999994,-29.29022749999996],[-52.06040979999994,-29.292978399999978],[-52.06133879999993,-29.29449779999993],[-52.06132649999995,-29.295495699999943],[-52.062241599999936,-29.295256099999964],[-52.06162609999996,-29.299972699999948],[-52.06335149999995,-29.304882399999947],[-52.06362189999999,-29.307573699999978],[-52.064773199999934,-29.312121],[-52.06495619999998,-29.314504099999972],[-52.06623669999993,-29.314532299999932],[-52.06826719999997,-29.32278959999996],[-52.070019,-29.324548599999957],[-52.066312599999954,-29.324528799999932],[-52.06744819999995,-29.325639099999936],[-52.069402199999956,-29.326594499999945],[-52.06750709999994,-29.327238399999942],[-52.063348,-29.327160399999972],[-52.06391839999998,-29.328266099999944],[-52.063674299999946,-29.329072599999957],[-52.06317309999998,-29.329386299999953],[-52.063108899999975,-29.329856799999963],[-52.06333059999998,-29.330529499999958],[-52.064133899999945,-29.330059099999954],[-52.067656599999964,-29.329909199999975],[-52.06881409999995,-29.32966269999998],[-52.06975239999997,-29.330799899999928],[-52.071958699999975,-29.331326099999945],[-52.07527909999994,-29.32977249999993],[-52.07763739999996,-29.327939299999976],[-52.08005179999998,-29.328392699999945],[-52.082606899999966,-29.329423899999945],[-52.083514399999956,-29.331201199999956],[-52.08317839999995,-29.333006],[-52.08439729999998,-29.333564099999933],[-52.088059,-29.333170199999973],[-52.08933089999993,-29.332834899999966],[-52.089983099999976,-29.332290699999927],[-52.09042709999994,-29.331202199999954],[-52.09077769999993,-29.328321499999955],[-52.09128339999995,-29.327277399999964],[-52.0905853,-29.32377909999996],[-52.09068049999997,-29.32264329999998],[-52.091082,-29.321623499999927],[-52.09225129999999,-29.321556399999963],[-52.09644169999996,-29.322881499999934],[-52.09758849999997,-29.322788699999936],[-52.100017599999944,-29.32155979999993],[-52.100604,-29.320760399999976],[-52.10077229999995,-29.319623099999948],[-52.10023039999999,-29.318532299999955],[-52.09849779999996,-29.316869],[-52.09718419999996,-29.31494269999996],[-52.09436769999996,-29.312960699999955],[-52.091623899999945,-29.31007689999996],[-52.09030909999996,-29.30689119999993],[-52.08854629999996,-29.30445079999998],[-52.08780249999995,-29.302506399999974],[-52.08848419999998,-29.30148059999992],[-52.090926,-29.30153789999998],[-52.09305439999997,-29.302009499999933],[-52.09331079999998,-29.300845],[-52.094223,-29.29952269999996],[-52.09468559999993,-29.299668399999966],[-52.095251,-29.298850399999925],[-52.09611189999998,-29.29881679999994],[-52.096099,-29.29843579999993],[-52.096934199999964,-29.297225599999933],[-52.097332499999936,-29.295343],[-52.09780789999996,-29.294861199999964],[-52.097794799999974,-29.294003699999973],[-52.093684199999984,-29.29627279999994],[-52.094104199999954,-29.289364599999946],[-52.09377009999998,-29.28793009999998],[-52.09447679999994,-29.286714199999953],[-52.09426479999997,-29.277686699999936],[-52.09350029999996,-29.276089599999978],[-52.094066,-29.275051199999947],[-52.09400779999998,-29.274122599999934],[-52.091457299999945,-29.271527899999967],[-52.0908922,-29.270539899999953],[-52.072818599999955,-29.270460299999954],[-52.07393229999997,-29.265568099999932],[-52.07275019999997,-29.265222699999985],[-52.07205659999995,-29.264566],[-52.07422279999997,-29.264673],[-52.074294899999984,-29.264450399999927],[-52.07396829999994,-29.26408579999997],[-52.07078339999998,-29.263757599999956],[-52.068611799999985,-29.26388139999995],[-52.06759519999997,-29.26415349999996],[-52.066794,-29.26472819999997],[-52.066745199999964,-29.265082799999956]]]}}]}