{"type":"FeatureCollection","name":"4322350","crs":{"type":"name","properties":{"name":"urn:ogc:def:crs:OGC:1.3:CRS84"}},"features":[{"type":"Feature","properties":{"setor":"432235005000001","pop":37,"sigilo_pop":false,"dom":15,"sigilo_dom":0,"mulheres":16,"sigilo_mulheres":0,"c0_4":null,"sigilo_c0_4":1,"c5_9":6,"sigilo_c5_9":0,"i60_69":6,"sigilo_i60_69":0,"i70m":null,"sigilo_i70m":1,"indigenas":0,"sigilo_indigenas":0,"pretos_pardos":null,"sigilo_pretos_pardos":1,"dom_ocupados":14,"sigilo_dom_ocupados":0,"dom_agua":0,"sigilo_dom_agua":0,"dom_esgoto":0,"sigilo_dom_esgoto":0,"renda_resp":2432.0,"sigilo_renda_resp":0,"n_resp":14,"sigilo_n_resp":0,"dens":63.2,"sigilo_dens":false,"na_bacia":1,"area_pct_bacia":100.0,"metodo_recorte_bacia":"ponto_representativo_setor_2022; area_pct_geometrica","pop_n_validos":1,"pop_n_total":1,"pop_completude":1.0,"dom_n_validos":1,"dom_n_total":1,"dom_completude":1.0,"dom_ocupados_n_validos":1,"dom_ocupados_n_total":1,"dom_ocupados_completude":1.0,"mulheres_n_validos":1,"mulheres_n_total":1,"mulheres_completude":1.0,"c0_4_n_validos":0,"c0_4_n_total":1,"c0_4_completude":0.0,"c5_9_n_validos":1,"c5_9_n_total":1,"c5_9_completude":1.0,"i60_69_n_validos":1,"i60_69_n_total":1,"i60_69_completude":1.0,"i70m_n_validos":0,"i70m_n_total":1,"i70m_completude":0.0,"indigenas_n_validos":1,"indigenas_n_total":1,"indigenas_completude":1.0,"pretos_pardos_n_validos":0,"pretos_pardos_n_total":1,"pretos_pardos_completude":0.0,"dom_agua_n_validos":1,"dom_agua_n_total":1,"dom_agua_completude":1.0,"dom_esgoto_n_validos":1,"dom_esgoto_n_total":1,"dom_esgoto_completude":1.0,"n_resp_n_validos":1,"n_resp_n_total":1,"n_resp_completude":1.0,"renda_resp_n_validos":1,"renda_resp_n_total":1,"renda_resp_completude":1.0,"dens_n_validos":1,"dens_n_total":1,"dens_completude":1.0,"status_borda_bacia":"total","metodo_area_bacia":"interse??o geom?trica em EPSG:5880","metodo_na_bacia":"ponto_representativo_setor_2022_within_bacia","municipio":"União da Serra","cod_mun":"4322350","mun_pct_na_bacia":100.0,"mun_pop_total":1170,"mun_pop_na_bacia":1170.0,"mun_ubs_iede":2,"mun_hospitais_iede":null,"mun_escolas_iede":3,"mun_bombeiros_iede":null,"mun_servicos_cobertura":"cadastro_IEDE_parcial_nao_inventario","mun_icm_faixa":"D","mun_icm_pontos":7,"mun_icm_prioritario":"não","mun_ubs_iede_status":"published","mun_hospitais_iede_status":"unknown","mun_escolas_iede_status":"published","mun_bombeiros_iede_status":"unknown"},"geometry":{"type":"Polygon","coordinates":[[[-52.00055619999995,-28.784478099999955],[-52.00278809999997,-28.785716699999963],[-52.00349839999996,-28.776918099999932],[-52.002801499999975,-28.77661679999994],[-52.001482099999976,-28.77655],[-52.001457899999934,-28.77435119999996],[-51.997946,-28.774103899999936],[-51.99720849999995,-28.783984],[-52.00045469999998,-28.78419819999994],[-52.00055619999995,-28.784478099999955]]]}},{"type":"Feature","properties":{"setor":"432235020000001","pop":154,"sigilo_pop":false,"dom":78,"sigilo_dom":0,"mulheres":74,"sigilo_mulheres":0,"c0_4":null,"sigilo_c0_4":1,"c5_9":11,"sigilo_c5_9":0,"i60_69":21,"sigilo_i60_69":0,"i70m":18,"sigilo_i70m":0,"indigenas":0,"sigilo_indigenas":0,"pretos_pardos":null,"sigilo_pretos_pardos":1,"dom_ocupados":59,"sigilo_dom_ocupados":0,"dom_agua":59,"sigilo_dom_agua":0,"dom_esgoto":0,"sigilo_dom_esgoto":0,"renda_resp":3212.0,"sigilo_renda_resp":0,"n_resp":59,"sigilo_n_resp":0,"dens":480.4,"sigilo_dens":false,"na_bacia":1,"area_pct_bacia":100.0,"metodo_recorte_bacia":"ponto_representativo_setor_2022; area_pct_geometrica","pop_n_validos":1,"pop_n_total":1,"pop_completude":1.0,"dom_n_validos":1,"dom_n_total":1,"dom_completude":1.0,"dom_ocupados_n_validos":1,"dom_ocupados_n_total":1,"dom_ocupados_completude":1.0,"mulheres_n_validos":1,"mulheres_n_total":1,"mulheres_completude":1.0,"c0_4_n_validos":0,"c0_4_n_total":1,"c0_4_completude":0.0,"c5_9_n_validos":1,"c5_9_n_total":1,"c5_9_completude":1.0,"i60_69_n_validos":1,"i60_69_n_total":1,"i60_69_completude":1.0,"i70m_n_validos":1,"i70m_n_total":1,"i70m_completude":1.0,"indigenas_n_validos":1,"indigenas_n_total":1,"indigenas_completude":1.0,"pretos_pardos_n_validos":0,"pretos_pardos_n_total":1,"pretos_pardos_completude":0.0,"dom_agua_n_validos":1,"dom_agua_n_total":1,"dom_agua_completude":1.0,"dom_esgoto_n_validos":1,"dom_esgoto_n_total":1,"dom_esgoto_completude":1.0,"n_resp_n_validos":1,"n_resp_n_total":1,"n_resp_completude":1.0,"renda_resp_n_validos":1,"renda_resp_n_total":1,"renda_resp_completude":1.0,"dens_n_validos":1,"dens_n_total":1,"dens_completude":1.0,"status_borda_bacia":"total","metodo_area_bacia":"interse??o geom?trica em EPSG:5880","metodo_na_bacia":"ponto_representativo_setor_2022_within_bacia","municipio":"União da Serra","cod_mun":"4322350","mun_pct_na_bacia":100.0,"mun_pop_total":1170,"mun_pop_na_bacia":1170.0,"mun_ubs_iede":2,"mun_hospitais_iede":null,"mun_escolas_iede":3,"mun_bombeiros_iede":null,"mun_servicos_cobertura":"cadastro_IEDE_parcial_nao_inventario","mun_icm_faixa":"D","mun_icm_pontos":7,"mun_icm_prioritario":"não","mun_ubs_iede_status":"published","mun_hospitais_iede_status":"unknown","mun_escolas_iede_status":"published","mun_bombeiros_iede_status":"unknown"},"geometry":{"type":"Polygon","coordinates":[[[-52.013563499999975,-28.75669849999996],[-52.01756729999994,-28.756258499999937],[-52.01787919999998,-28.751642299999947],[-52.017270099999955,-28.74971779999994],[-52.012610799999955,-28.75057249999998],[-52.013563499999975,-28.75669849999996]]]}},{"type":"Feature","properties":{"setor":"432235020000002","pop":149,"sigilo_pop":false,"dom":69,"sigilo_dom":0,"mulheres":68,"sigilo_mulheres":0,"c0_4":7,"sigilo_c0_4":0,"c5_9":null,"sigilo_c5_9":1,"i60_69":26,"sigilo_i60_69":0,"i70m":23,"sigilo_i70m":0,"indigenas":0,"sigilo_indigenas":0,"pretos_pardos":null,"sigilo_pretos_pardos":1,"dom_ocupados":52,"sigilo_dom_ocupados":0,"dom_agua":35,"sigilo_dom_agua":0,"dom_esgoto":0,"sigilo_dom_esgoto":0,"renda_resp":7238.6,"sigilo_renda_resp":0,"n_resp":52,"sigilo_n_resp":0,"dens":9.4,"sigilo_dens":false,"na_bacia":1,"area_pct_bacia":100.0,"metodo_recorte_bacia":"ponto_representativo_setor_2022; area_pct_geometrica","pop_n_validos":1,"pop_n_total":1,"pop_completude":1.0,"dom_n_validos":1,"dom_n_total":1,"dom_completude":1.0,"dom_ocupados_n_validos":1,"dom_ocupados_n_total":1,"dom_ocupados_completude":1.0,"mulheres_n_validos":1,"mulheres_n_total":1,"mulheres_completude":1.0,"c0_4_n_validos":1,"c0_4_n_total":1,"c0_4_completude":1.0,"c5_9_n_validos":0,"c5_9_n_total":1,"c5_9_completude":0.0,"i60_69_n_validos":1,"i60_69_n_total":1,"i60_69_completude":1.0,"i70m_n_validos":1,"i70m_n_total":1,"i70m_completude":1.0,"indigenas_n_validos":1,"indigenas_n_total":1,"indigenas_completude":1.0,"pretos_pardos_n_validos":0,"pretos_pardos_n_total":1,"pretos_pardos_completude":0.0,"dom_agua_n_validos":1,"dom_agua_n_total":1,"dom_agua_completude":1.0,"dom_esgoto_n_validos":1,"dom_esgoto_n_total":1,"dom_esgoto_completude":1.0,"n_resp_n_validos":1,"n_resp_n_total":1,"n_resp_completude":1.0,"renda_resp_n_validos":1,"renda_resp_n_total":1,"renda_resp_completude":1.0,"dens_n_validos":1,"dens_n_total":1,"dens_completude":1.0,"status_borda_bacia":"total","metodo_area_bacia":"interse??o geom?trica em EPSG:5880","metodo_na_bacia":"ponto_representativo_setor_2022_within_bacia","municipio":"União da Serra","cod_mun":"4322350","mun_pct_na_bacia":100.0,"mun_pop_total":1170,"mun_pop_na_bacia":1170.0,"mun_ubs_iede":2,"mun_hospitais_iede":null,"mun_escolas_iede":3,"mun_bombeiros_iede":null,"mun_servicos_cobertura":"cadastro_IEDE_parcial_nao_inventario","mun_icm_faixa":"D","mun_icm_pontos":7,"mun_icm_prioritario":"não","mun_ubs_iede_status":"published","mun_hospitais_iede_status":"unknown","mun_escolas_iede_status":"published","mun_bombeiros_iede_status":"unknown"},"geometry":{"type":"Polygon","coordinates":[[[-52.01948,-28.736050599999928],[-52.018981199999985,-28.743560399999964],[-52.01927169999993,-28.746080199999934],[-52.01915329999997,-28.747798],[-52.01831229999993,-28.749876],[-52.01748269999995,-28.75023959999992],[-52.01787919999998,-28.751642299999947],[-52.01756729999994,-28.756258499999937],[-52.01549689999996,-28.756491799999935],[-52.01562029999997,-28.757610799999966],[-52.015433299999984,-28.757905],[-52.01356919999995,-28.759380599999933],[-52.01089879999994,-28.763086199999982],[-52.07919469999996,-28.7618045],[-52.07962009999994,-28.761113299999977],[-52.079485199999965,-28.760036199999938],[-52.07713769999998,-28.757707299999925],[-52.07358289999996,-28.756167499999947],[-52.07118709999998,-28.754135399999935],[-52.06856809999994,-28.749775699999923],[-52.06852139999995,-28.747364],[-52.072333399999934,-28.742910199999983],[-52.07845459999998,-28.74143509999993],[-52.079143,-28.74102179999993],[-52.079107599999986,-28.740673499999954],[-52.07586409999993,-28.737845299999947],[-52.07495959999994,-28.738731299999984],[-52.07348639999998,-28.73878],[-52.072263299999975,-28.739337399999954],[-52.06569369999994,-28.73882209999994],[-52.06543149999993,-28.739308599999966],[-52.06511139999998,-28.743044399999967],[-52.063092899999965,-28.742636499999936],[-52.060230299999944,-28.74156429999993],[-52.05771129999994,-28.740945],[-52.05655729999996,-28.739974699999934],[-52.055037899999945,-28.73978449999993],[-52.05430639999997,-28.739349],[-52.052736299999935,-28.738399299999973],[-52.05215659999994,-28.737606899999953],[-52.051508,-28.737836],[-52.05021129999995,-28.73778119999997],[-52.046687799999965,-28.73746929999993],[-52.045791899999976,-28.73718649999995],[-52.043030399999964,-28.73494429999993],[-52.04190259999996,-28.733227899999974],[-52.04066229999995,-28.732343099999987],[-52.03749239999996,-28.732245299999935],[-52.03532519999993,-28.732579399999967],[-52.03478329999995,-28.732947699999958],[-52.03420319999998,-28.733007199999964],[-52.03208159999997,-28.732088099999935],[-52.03077379999996,-28.731232899999956],[-52.02970889999994,-28.730957],[-52.02588519999995,-28.731408499999926],[-52.02406439999998,-28.73203959999995],[-52.022836899999966,-28.733107899999943],[-52.02186409999996,-28.734893199999924],[-52.020553399999976,-28.736032199999954],[-52.01948,-28.736050599999928]]]}},{"type":"Feature","properties":{"setor":"432235020000003","pop":91,"sigilo_pop":false,"dom":51,"sigilo_dom":0,"mulheres":41,"sigilo_mulheres":0,"c0_4":null,"sigilo_c0_4":1,"c5_9":null,"sigilo_c5_9":1,"i60_69":25,"sigilo_i60_69":0,"i70m":18,"sigilo_i70m":0,"indigenas":0,"sigilo_indigenas":0,"pretos_pardos":null,"sigilo_pretos_pardos":1,"dom_ocupados":36,"sigilo_dom_ocupados":0,"dom_agua":22,"sigilo_dom_agua":0,"dom_esgoto":0,"sigilo_dom_esgoto":0,"renda_resp":5381.11,"sigilo_renda_resp":0,"n_resp":36,"sigilo_n_resp":0,"dens":5.1,"sigilo_dens":false,"na_bacia":1,"area_pct_bacia":100.0,"metodo_recorte_bacia":"ponto_representativo_setor_2022; area_pct_geometrica","pop_n_validos":1,"pop_n_total":1,"pop_completude":1.0,"dom_n_validos":1,"dom_n_total":1,"dom_completude":1.0,"dom_ocupados_n_validos":1,"dom_ocupados_n_total":1,"dom_ocupados_completude":1.0,"mulheres_n_validos":1,"mulheres_n_total":1,"mulheres_completude":1.0,"c0_4_n_validos":0,"c0_4_n_total":1,"c0_4_completude":0.0,"c5_9_n_validos":0,"c5_9_n_total":1,"c5_9_completude":0.0,"i60_69_n_validos":1,"i60_69_n_total":1,"i60_69_completude":1.0,"i70m_n_validos":1,"i70m_n_total":1,"i70m_completude":1.0,"indigenas_n_validos":1,"indigenas_n_total":1,"indigenas_completude":1.0,"pretos_pardos_n_validos":0,"pretos_pardos_n_total":1,"pretos_pardos_completude":0.0,"dom_agua_n_validos":1,"dom_agua_n_total":1,"dom_agua_completude":1.0,"dom_esgoto_n_validos":1,"dom_esgoto_n_total":1,"dom_esgoto_completude":1.0,"n_resp_n_validos":1,"n_resp_n_total":1,"n_resp_completude":1.0,"renda_resp_n_validos":1,"renda_resp_n_total":1,"renda_resp_completude":1.0,"dens_n_validos":1,"dens_n_total":1,"dens_completude":1.0,"status_borda_bacia":"total","metodo_area_bacia":"interse??o geom?trica em EPSG:5880","metodo_na_bacia":"ponto_representativo_setor_2022_within_bacia","municipio":"União da Serra","cod_mun":"4322350","mun_pct_na_bacia":100.0,"mun_pop_total":1170,"mun_pop_na_bacia":1170.0,"mun_ubs_iede":2,"mun_hospitais_iede":null,"mun_escolas_iede":3,"mun_bombeiros_iede":null,"mun_servicos_cobertura":"cadastro_IEDE_parcial_nao_inventario","mun_icm_faixa":"D","mun_icm_pontos":7,"mun_icm_prioritario":"não","mun_ubs_iede_status":"published","mun_hospitais_iede_status":"unknown","mun_escolas_iede_status":"published","mun_bombeiros_iede_status":"unknown"},"geometry":{"type":"Polygon","coordinates":[[[-52.01889689999996,-28.735923099999976],[-52.020553399999976,-28.736032199999954],[-52.02128069999998,-28.735491399999937],[-52.02231089999999,-28.734272599999947],[-52.022836899999966,-28.733107899999943],[-52.02428489999995,-28.731879099999972],[-52.02588519999995,-28.731408499999926],[-52.02970889999994,-28.730957],[-52.03077379999996,-28.731232899999956],[-52.03208159999997,-28.732088099999935],[-52.03420319999998,-28.733007199999964],[-52.03478329999995,-28.732947699999958],[-52.03532519999993,-28.732579399999967],[-52.03749239999996,-28.732245299999935],[-52.04066229999995,-28.732343099999987],[-52.04190259999996,-28.733227899999974],[-52.043030399999964,-28.73494429999993],[-52.045791899999976,-28.73718649999995],[-52.046687799999965,-28.73746929999993],[-52.05021129999995,-28.73778119999997],[-52.051508,-28.737836],[-52.05215659999994,-28.737606899999953],[-52.052736299999935,-28.738399299999973],[-52.05430639999997,-28.739349],[-52.055037899999945,-28.73978449999993],[-52.05655729999996,-28.739974699999934],[-52.05771129999994,-28.740945],[-52.064878299999975,-28.743024599999952],[-52.065213699999966,-28.74289959999993],[-52.06549149999995,-28.738950499999934],[-52.06606819999996,-28.738756499999962],[-52.06759939999995,-28.739045599999937],[-52.072263299999975,-28.739337399999954],[-52.07348639999998,-28.73878],[-52.07495959999994,-28.738731299999984],[-52.07586409999993,-28.737845299999947],[-52.079107599999986,-28.740673499999954],[-52.079143,-28.74102179999993],[-52.079758,-28.74065259999997],[-52.07875149999995,-28.73651169999993],[-52.07963719999997,-28.733821],[-52.08507479999998,-28.730837599999965],[-52.08427279999995,-28.730016199999962],[-52.077446,-28.730089899999932],[-52.076672899999956,-28.729145299999967],[-52.079695399999935,-28.722459299999972],[-52.08543719999994,-28.717861099999933],[-52.085470499999985,-28.71485219999993],[-52.08436,-28.713599],[-52.08163029999998,-28.711988899999948],[-52.013043299999936,-28.70849939999993],[-52.013129799999945,-28.71069559999995],[-52.01278519999994,-28.711841399999958],[-52.01207509999995,-28.712710899999934],[-52.01202169999994,-28.713609399999932],[-52.01264749999996,-28.714583399999977],[-52.015622,-28.71445039999997],[-52.016403,-28.71479619999996],[-52.01669289999995,-28.715533599999958],[-52.01577319999996,-28.716656399999977],[-52.01605109999997,-28.718227],[-52.01927009999997,-28.718337899999934],[-52.02072629999998,-28.71743709999998],[-52.021569799999945,-28.717195599999965],[-52.022758899999985,-28.717600799999953],[-52.02367119999997,-28.718908399999968],[-52.02337419999998,-28.719716699999932],[-52.02180069999997,-28.721572899999945],[-52.02159889999996,-28.722094699999953],[-52.01969929999996,-28.72344479999999],[-52.01832919999998,-28.725359299999983],[-52.01856029999994,-28.72632439999996],[-52.018401199999964,-28.728016899999936],[-52.01996609999998,-28.730960699999972],[-52.019999499999976,-28.73136639999995],[-52.019394499999976,-28.732705299999957],[-52.01931909999996,-28.73404219999998],[-52.01884919999998,-28.73519409999995],[-52.01889689999996,-28.735923099999976]]]}},{"type":"Feature","properties":{"setor":"432235020000004","pop":139,"sigilo_pop":false,"dom":55,"sigilo_dom":0,"mulheres":66,"sigilo_mulheres":0,"c0_4":null,"sigilo_c0_4":1,"c5_9":null,"sigilo_c5_9":1,"i60_69":27,"sigilo_i60_69":0,"i70m":20,"sigilo_i70m":0,"indigenas":0,"sigilo_indigenas":0,"pretos_pardos":12,"sigilo_pretos_pardos":0,"dom_ocupados":47,"sigilo_dom_ocupados":0,"dom_agua":22,"sigilo_dom_agua":0,"dom_esgoto":0,"sigilo_dom_esgoto":0,"renda_resp":5821.96,"sigilo_renda_resp":0,"n_resp":47,"sigilo_n_resp":0,"dens":8.1,"sigilo_dens":false,"na_bacia":1,"area_pct_bacia":100.0,"metodo_recorte_bacia":"ponto_representativo_setor_2022; area_pct_geometrica","pop_n_validos":1,"pop_n_total":1,"pop_completude":1.0,"dom_n_validos":1,"dom_n_total":1,"dom_completude":1.0,"dom_ocupados_n_validos":1,"dom_ocupados_n_total":1,"dom_ocupados_completude":1.0,"mulheres_n_validos":1,"mulheres_n_total":1,"mulheres_completude":1.0,"c0_4_n_validos":0,"c0_4_n_total":1,"c0_4_completude":0.0,"c5_9_n_validos":0,"c5_9_n_total":1,"c5_9_completude":0.0,"i60_69_n_validos":1,"i60_69_n_total":1,"i60_69_completude":1.0,"i70m_n_validos":1,"i70m_n_total":1,"i70m_completude":1.0,"indigenas_n_validos":1,"indigenas_n_total":1,"indigenas_completude":1.0,"pretos_pardos_n_validos":1,"pretos_pardos_n_total":1,"pretos_pardos_completude":1.0,"dom_agua_n_validos":1,"dom_agua_n_total":1,"dom_agua_completude":1.0,"dom_esgoto_n_validos":1,"dom_esgoto_n_total":1,"dom_esgoto_completude":1.0,"n_resp_n_validos":1,"n_resp_n_total":1,"n_resp_completude":1.0,"renda_resp_n_validos":1,"renda_resp_n_total":1,"renda_resp_completude":1.0,"dens_n_validos":1,"dens_n_total":1,"dens_completude":1.0,"status_borda_bacia":"total","metodo_area_bacia":"interse??o geom?trica em EPSG:5880","metodo_na_bacia":"ponto_representativo_setor_2022_within_bacia","municipio":"União da Serra","cod_mun":"4322350","mun_pct_na_bacia":100.0,"mun_pop_total":1170,"mun_pop_na_bacia":1170.0,"mun_ubs_iede":2,"mun_hospitais_iede":null,"mun_escolas_iede":3,"mun_bombeiros_iede":null,"mun_servicos_cobertura":"cadastro_IEDE_parcial_nao_inventario","mun_icm_faixa":"D","mun_icm_pontos":7,"mun_icm_prioritario":"não","mun_ubs_iede_status":"published","mun_hospitais_iede_status":"unknown","mun_escolas_iede_status":"published","mun_bombeiros_iede_status":"unknown"},"geometry":{"type":"Polygon","coordinates":[[[-51.98589259999995,-28.715043299999937],[-51.98750689999997,-28.71792659999994],[-51.98692319999997,-28.721466299999985],[-51.988782,-28.724415399999938],[-51.98955279999995,-28.727522399999938],[-51.9916042,-28.729834],[-51.99187989999996,-28.735497899999935],[-51.98997849999995,-28.738498499999935],[-51.99230719999998,-28.744255199999944],[-51.992496499999966,-28.74710189999996],[-51.992173899999955,-28.748279599999925],[-51.98944939999995,-28.749283599999956],[-51.98769479999998,-28.753530099999974],[-51.98554119999994,-28.75348089999993],[-51.98519,-28.763448699999966],[-52.01089879999994,-28.763086199999982],[-52.01356919999995,-28.759380599999933],[-52.01562029999997,-28.757610799999966],[-52.01549689999996,-28.756491799999935],[-52.013563499999975,-28.75669849999996],[-52.012610799999955,-28.75057249999998],[-52.017270099999955,-28.74971779999994],[-52.01748269999995,-28.75023959999992],[-52.01831229999993,-28.749876],[-52.01894939999994,-28.748665],[-52.01927169999993,-28.746080199999934],[-52.018981199999985,-28.743560399999964],[-52.01948,-28.736050599999928],[-52.01889689999996,-28.735923099999976],[-52.01884919999998,-28.73519409999995],[-52.01931909999996,-28.73404219999998],[-52.019394499999976,-28.732705299999957],[-52.019999499999976,-28.73136639999995],[-52.018401199999964,-28.728016899999936],[-52.01856029999994,-28.72632439999996],[-52.01832919999998,-28.725359299999983],[-52.01969929999996,-28.72344479999999],[-52.02159889999996,-28.722094699999953],[-52.02180069999997,-28.721572899999945],[-52.02337419999998,-28.719716699999932],[-52.02358539999995,-28.718660399999973],[-52.022758899999985,-28.717600799999953],[-52.021569799999945,-28.717195599999965],[-52.02072629999998,-28.71743709999998],[-52.01927009999997,-28.718337899999934],[-52.01605109999997,-28.718227],[-52.01577319999996,-28.716656399999977],[-52.01669289999995,-28.715533599999958],[-52.016403,-28.71479619999996],[-52.015622,-28.71445039999997],[-52.01264749999996,-28.714583399999977],[-52.01202169999994,-28.713609399999932],[-52.01207509999995,-28.712710899999934],[-52.01278519999994,-28.711841399999958],[-52.013129799999945,-28.71069559999995],[-52.013043299999936,-28.70849939999993],[-51.98606349999995,-28.70688649999995],[-51.98589259999995,-28.715043299999937]]]}},{"type":"Feature","properties":{"setor":"432235025000001","pop":122,"sigilo_pop":false,"dom":56,"sigilo_dom":0,"mulheres":57,"sigilo_mulheres":0,"c0_4":null,"sigilo_c0_4":1,"c5_9":null,"sigilo_c5_9":1,"i60_69":22,"sigilo_i60_69":0,"i70m":27,"sigilo_i70m":0,"indigenas":0,"sigilo_indigenas":0,"pretos_pardos":null,"sigilo_pretos_pardos":1,"dom_ocupados":48,"sigilo_dom_ocupados":0,"dom_agua":6,"sigilo_dom_agua":0,"dom_esgoto":0,"sigilo_dom_esgoto":0,"renda_resp":2681.16,"sigilo_renda_resp":0,"n_resp":48,"sigilo_n_resp":0,"dens":145.8,"sigilo_dens":false,"na_bacia":1,"area_pct_bacia":100.0,"metodo_recorte_bacia":"ponto_representativo_setor_2022; area_pct_geometrica","pop_n_validos":1,"pop_n_total":1,"pop_completude":1.0,"dom_n_validos":1,"dom_n_total":1,"dom_completude":1.0,"dom_ocupados_n_validos":1,"dom_ocupados_n_total":1,"dom_ocupados_completude":1.0,"mulheres_n_validos":1,"mulheres_n_total":1,"mulheres_completude":1.0,"c0_4_n_validos":0,"c0_4_n_total":1,"c0_4_completude":0.0,"c5_9_n_validos":0,"c5_9_n_total":1,"c5_9_completude":0.0,"i60_69_n_validos":1,"i60_69_n_total":1,"i60_69_completude":1.0,"i70m_n_validos":1,"i70m_n_total":1,"i70m_completude":1.0,"indigenas_n_validos":1,"indigenas_n_total":1,"indigenas_completude":1.0,"pretos_pardos_n_validos":0,"pretos_pardos_n_total":1,"pretos_pardos_completude":0.0,"dom_agua_n_validos":1,"dom_agua_n_total":1,"dom_agua_completude":1.0,"dom_esgoto_n_validos":1,"dom_esgoto_n_total":1,"dom_esgoto_completude":1.0,"n_resp_n_validos":1,"n_resp_n_total":1,"n_resp_completude":1.0,"renda_resp_n_validos":1,"renda_resp_n_total":1,"renda_resp_completude":1.0,"dens_n_validos":1,"dens_n_total":1,"dens_completude":1.0,"status_borda_bacia":"total","metodo_area_bacia":"interse??o geom?trica em EPSG:5880","metodo_na_bacia":"ponto_representativo_setor_2022_within_bacia","municipio":"União da Serra","cod_mun":"4322350","mun_pct_na_bacia":100.0,"mun_pop_total":1170,"mun_pop_na_bacia":1170.0,"mun_ubs_iede":2,"mun_hospitais_iede":null,"mun_escolas_iede":3,"mun_bombeiros_iede":null,"mun_servicos_cobertura":"cadastro_IEDE_parcial_nao_inventario","mun_icm_faixa":"D","mun_icm_pontos":7,"mun_icm_prioritario":"não","mun_ubs_iede_status":"published","mun_hospitais_iede_status":"unknown","mun_escolas_iede_status":"published","mun_bombeiros_iede_status":"unknown"},"geometry":{"type":"Polygon","coordinates":[[[-52.02900729999993,-28.792765599999942],[-52.02877349999994,-28.799396599999966],[-52.040565199999946,-28.799504099999968],[-52.04076679999997,-28.793015599999926],[-52.02900729999993,-28.792765599999942]]]}},{"type":"Feature","properties":{"setor":"432235025000002","pop":249,"sigilo_pop":false,"dom":134,"sigilo_dom":0,"mulheres":116,"sigilo_mulheres":0,"c0_4":null,"sigilo_c0_4":1,"c5_9":null,"sigilo_c5_9":1,"i60_69":60,"sigilo_i60_69":0,"i70m":57,"sigilo_i70m":0,"indigenas":0,"sigilo_indigenas":0,"pretos_pardos":null,"sigilo_pretos_pardos":1,"dom_ocupados":95,"sigilo_dom_ocupados":0,"dom_agua":57,"sigilo_dom_agua":0,"dom_esgoto":0,"sigilo_dom_esgoto":0,"renda_resp":4077.91,"sigilo_renda_resp":0,"n_resp":95,"sigilo_n_resp":0,"dens":6.3,"sigilo_dens":false,"na_bacia":1,"area_pct_bacia":100.0,"metodo_recorte_bacia":"ponto_representativo_setor_2022; area_pct_geometrica","pop_n_validos":1,"pop_n_total":1,"pop_completude":1.0,"dom_n_validos":1,"dom_n_total":1,"dom_completude":1.0,"dom_ocupados_n_validos":1,"dom_ocupados_n_total":1,"dom_ocupados_completude":1.0,"mulheres_n_validos":1,"mulheres_n_total":1,"mulheres_completude":1.0,"c0_4_n_validos":0,"c0_4_n_total":1,"c0_4_completude":0.0,"c5_9_n_validos":0,"c5_9_n_total":1,"c5_9_completude":0.0,"i60_69_n_validos":1,"i60_69_n_total":1,"i60_69_completude":1.0,"i70m_n_validos":1,"i70m_n_total":1,"i70m_completude":1.0,"indigenas_n_validos":1,"indigenas_n_total":1,"indigenas_completude":1.0,"pretos_pardos_n_validos":0,"pretos_pardos_n_total":1,"pretos_pardos_completude":0.0,"dom_agua_n_validos":1,"dom_agua_n_total":1,"dom_agua_completude":1.0,"dom_esgoto_n_validos":1,"dom_esgoto_n_total":1,"dom_esgoto_completude":1.0,"n_resp_n_validos":1,"n_resp_n_total":1,"n_resp_completude":1.0,"renda_resp_n_validos":1,"renda_resp_n_total":1,"renda_resp_completude":1.0,"dens_n_validos":1,"dens_n_total":1,"dens_completude":1.0,"status_borda_bacia":"total","metodo_area_bacia":"interse??o geom?trica em EPSG:5880","metodo_na_bacia":"ponto_representativo_setor_2022_within_bacia","municipio":"União da Serra","cod_mun":"4322350","mun_pct_na_bacia":100.0,"mun_pop_total":1170,"mun_pop_na_bacia":1170.0,"mun_ubs_iede":2,"mun_hospitais_iede":null,"mun_escolas_iede":3,"mun_bombeiros_iede":null,"mun_servicos_cobertura":"cadastro_IEDE_parcial_nao_inventario","mun_icm_faixa":"D","mun_icm_pontos":7,"mun_icm_prioritario":"não","mun_ubs_iede_status":"published","mun_hospitais_iede_status":"unknown","mun_escolas_iede_status":"published","mun_bombeiros_iede_status":"unknown"},"geometry":{"type":"Polygon","coordinates":[[[-51.958922,-28.761325599999964],[-51.95679119999994,-28.807795499999948],[-51.95696929999997,-28.807311699999964],[-51.959009,-28.80778969999994],[-51.96087939999995,-28.807087099999926],[-51.96476709999997,-28.80678989999996],[-51.96512859999995,-28.806702099999928],[-51.965883,-28.805745299999966],[-51.968612,-28.80548239999996],[-51.968766399999936,-28.80531279999996],[-51.96858089999995,-28.804960899999973],[-51.96785749999999,-28.80469719999997],[-51.96730589999998,-28.804052],[-51.96750529999998,-28.802131599999935],[-51.96803719999997,-28.80022669999994],[-51.96795179999999,-28.798767499999933],[-51.96856679999996,-28.798339699999914],[-51.96950769999996,-28.798390399999956],[-51.97020629999997,-28.79979019999997],[-51.97060559999994,-28.79990969999995],[-51.973953799999954,-28.796644899999936],[-51.974982099999984,-28.79634169999996],[-51.979422599999964,-28.796598099999976],[-51.98163469999997,-28.79726219999998],[-51.985707,-28.798034699999967],[-51.98872019999994,-28.796747899999957],[-51.990725399999974,-28.79714539999997],[-51.99300269999998,-28.796416699999945],[-51.99597159999996,-28.79737739999996],[-51.99802029999996,-28.797789],[-51.999992,-28.797163099999977],[-52.00135039999998,-28.79779249999995],[-52.00338879999999,-28.796661],[-52.00408909999992,-28.796722599999942],[-52.004732099999956,-28.797123599999967],[-52.00606589999995,-28.797205399999942],[-52.006999099999966,-28.796801199999944],[-52.007304499999975,-28.796977499999972],[-52.007568799999945,-28.79842269999995],[-52.00780219999996,-28.798447099999972],[-52.0093682,-28.79771989999994],[-52.00997719999998,-28.797194199999986],[-52.01121519999998,-28.797021499999968],[-52.011794,-28.796195799999964],[-52.01315359999996,-28.795708799999943],[-52.01397119999995,-28.795151],[-52.01527979999997,-28.794982699999935],[-52.01751919999998,-28.793802599999935],[-52.01931709999997,-28.793630399999977],[-52.021602399999956,-28.792825799999942],[-52.023894499999976,-28.79246109999997],[-52.02582689999996,-28.791291399999984],[-52.02710369999994,-28.791538099999975],[-52.02754369999997,-28.791824399999943],[-52.02794609999995,-28.792535],[-52.02900729999993,-28.792765599999942],[-52.04076679999997,-28.793015599999926],[-52.04067479999998,-28.796164699999974],[-52.04140989999996,-28.7963367],[-52.04208739999996,-28.79683029999996],[-52.04396929999996,-28.79720109999993],[-52.043961199999956,-28.79628189999993],[-52.04462229999996,-28.79533129999993],[-52.04487639999996,-28.79442359999996],[-52.043722,-28.79071229999995],[-52.04317289999994,-28.78967169999992],[-52.04342989999997,-28.78852439999997],[-52.044046,-28.787300299999963],[-52.04497189999995,-28.78675549999996],[-52.04636549999998,-28.78642829999996],[-52.04836329999995,-28.78676289999993],[-52.048816,-28.786591199999968],[-52.04927109999994,-28.78604969999997],[-52.050883399999975,-28.78701969999997],[-52.051722,-28.786981099999927],[-52.05268679999994,-28.786480899999958],[-52.052935899999966,-28.785949499999955],[-52.05408719999998,-28.785036099999964],[-52.05431109999995,-28.783893099999936],[-52.05535009999995,-28.783196899999943],[-52.05591869999995,-28.781996499999934],[-52.056199499999934,-28.782136899999962],[-52.056564499999986,-28.78347769999992],[-52.05687339999997,-28.786547099999947],[-52.05756829999996,-28.787480799999965],[-52.05796849999996,-28.788505699999966],[-52.058396699999946,-28.78882859999993],[-52.059891899999975,-28.788940899999947],[-52.06031309999998,-28.788386299999956],[-52.061366,-28.78775449999995],[-52.062510299999985,-28.787754499999934],[-52.06321929999996,-28.786996399999968],[-52.064363499999956,-28.78647689999997],[-52.064525,-28.785494199999956],[-52.065525,-28.786386599999954],[-52.06564959999998,-28.78696539999993],[-52.06526,-28.78772959999998],[-52.06578279999996,-28.788019699999946],[-52.066273199999955,-28.788797899999974],[-52.065802599999984,-28.79082919999997],[-52.06467939999994,-28.79137679999997],[-52.06306479999995,-28.790864299999953],[-52.062784,-28.79165749999993],[-52.06190659999998,-28.792619299999952],[-52.06006969999998,-28.793501099999958],[-52.05864909999997,-28.793693399999942],[-52.05866339999995,-28.794121499999957],[-52.06017759999997,-28.79484329999996],[-52.06036069999993,-28.794633],[-52.062234,-28.794706799999975],[-52.065127,-28.796977099999943],[-52.066661,-28.79656609999994],[-52.07113949999996,-28.78862319999996],[-52.07475119999998,-28.785232699999938],[-52.07440829999996,-28.78231709999994],[-52.06835819999998,-28.773633],[-52.06869219999999,-28.770957099999983],[-52.07440679999996,-28.764277299999932],[-52.07859939999998,-28.762772],[-52.07919469999996,-28.7618045],[-51.98519,-28.763448699999966],[-51.958922,-28.761325599999964]],[[-52.00278809999997,-28.785716699999963],[-52.00055619999995,-28.784478099999955],[-52.00045469999998,-28.78419819999994],[-51.99720849999995,-28.783984],[-51.997946,-28.774103899999936],[-52.001457899999934,-28.77435119999996],[-52.001482099999976,-28.77655],[-52.002801499999975,-28.77661679999994],[-52.00349839999996,-28.776918099999932],[-52.00278809999997,-28.785716699999963]]]}},{"type":"Feature","properties":{"setor":"432235025000003","pop":229,"sigilo_pop":false,"dom":120,"sigilo_dom":0,"mulheres":109,"sigilo_mulheres":0,"c0_4":9,"sigilo_c0_4":0,"c5_9":null,"sigilo_c5_9":1,"i60_69":54,"sigilo_i60_69":0,"i70m":41,"sigilo_i70m":0,"indigenas":0,"sigilo_indigenas":0,"pretos_pardos":33,"sigilo_pretos_pardos":0,"dom_ocupados":85,"sigilo_dom_ocupados":0,"dom_agua":36,"sigilo_dom_agua":0,"dom_esgoto":0,"sigilo_dom_esgoto":0,"renda_resp":4829.34,"sigilo_renda_resp":0,"n_resp":85,"sigilo_n_resp":0,"dens":5.9,"sigilo_dens":false,"na_bacia":1,"area_pct_bacia":100.0,"metodo_recorte_bacia":"ponto_representativo_setor_2022; area_pct_geometrica","pop_n_validos":1,"pop_n_total":1,"pop_completude":1.0,"dom_n_validos":1,"dom_n_total":1,"dom_completude":1.0,"dom_ocupados_n_validos":1,"dom_ocupados_n_total":1,"dom_ocupados_completude":1.0,"mulheres_n_validos":1,"mulheres_n_total":1,"mulheres_completude":1.0,"c0_4_n_validos":1,"c0_4_n_total":1,"c0_4_completude":1.0,"c5_9_n_validos":0,"c5_9_n_total":1,"c5_9_completude":0.0,"i60_69_n_validos":1,"i60_69_n_total":1,"i60_69_completude":1.0,"i70m_n_validos":1,"i70m_n_total":1,"i70m_completude":1.0,"indigenas_n_validos":1,"indigenas_n_total":1,"indigenas_completude":1.0,"pretos_pardos_n_validos":1,"pretos_pardos_n_total":1,"pretos_pardos_completude":1.0,"dom_agua_n_validos":1,"dom_agua_n_total":1,"dom_agua_completude":1.0,"dom_esgoto_n_validos":1,"dom_esgoto_n_total":1,"dom_esgoto_completude":1.0,"n_resp_n_validos":1,"n_resp_n_total":1,"n_resp_completude":1.0,"renda_resp_n_validos":1,"renda_resp_n_total":1,"renda_resp_completude":1.0,"dens_n_validos":1,"dens_n_total":1,"dens_completude":1.0,"status_borda_bacia":"total","metodo_area_bacia":"interse??o geom?trica em EPSG:5880","metodo_na_bacia":"ponto_representativo_setor_2022_within_bacia","municipio":"União da Serra","cod_mun":"4322350","mun_pct_na_bacia":100.0,"mun_pop_total":1170,"mun_pop_na_bacia":1170.0,"mun_ubs_iede":2,"mun_hospitais_iede":null,"mun_escolas_iede":3,"mun_bombeiros_iede":null,"mun_servicos_cobertura":"cadastro_IEDE_parcial_nao_inventario","mun_icm_faixa":"D","mun_icm_pontos":7,"mun_icm_prioritario":"não","mun_ubs_iede_status":"published","mun_hospitais_iede_status":"unknown","mun_escolas_iede_status":"published","mun_bombeiros_iede_status":"unknown"},"geometry":{"type":"Polygon","coordinates":[[[-52.04067479999998,-28.796164699999974],[-52.040565199999946,-28.799504099999968],[-52.02877349999994,-28.799396599999966],[-52.02900729999993,-28.792765599999942],[-52.02794609999995,-28.792535],[-52.02754369999997,-28.791824399999943],[-52.02710369999994,-28.791538099999975],[-52.02582689999996,-28.791291399999984],[-52.023894499999976,-28.79246109999997],[-52.021602399999956,-28.792825799999942],[-52.01931709999997,-28.793630399999977],[-52.01751919999998,-28.793802599999935],[-52.01527979999997,-28.794982699999935],[-52.01397119999995,-28.795151],[-52.01315359999996,-28.795708799999943],[-52.011794,-28.796195799999964],[-52.01121519999998,-28.797021499999968],[-52.00997719999998,-28.797194199999986],[-52.0093682,-28.79771989999994],[-52.00780219999996,-28.798447099999972],[-52.007568799999945,-28.79842269999995],[-52.007304499999975,-28.796977499999972],[-52.006999099999966,-28.796801199999944],[-52.00606589999995,-28.797205399999942],[-52.004732099999956,-28.797123599999967],[-52.00408909999992,-28.796722599999942],[-52.00338879999999,-28.796661],[-52.00135039999998,-28.79779249999995],[-51.999992,-28.797163099999977],[-51.99802029999996,-28.797789],[-51.99597159999996,-28.79737739999996],[-51.99300269999998,-28.796416699999945],[-51.990725399999974,-28.79714539999997],[-51.98872019999994,-28.796747899999957],[-51.985707,-28.798034699999967],[-51.98163469999997,-28.79726219999998],[-51.979422599999964,-28.796598099999976],[-51.974982099999984,-28.79634169999996],[-51.974392,-28.796464399999948],[-51.973953799999954,-28.796644899999936],[-51.97060559999994,-28.79990969999995],[-51.97020629999997,-28.79979019999997],[-51.96950769999996,-28.798390399999956],[-51.96856679999996,-28.798339699999914],[-51.96795179999999,-28.798767499999933],[-51.96803719999997,-28.80022669999994],[-51.96750529999998,-28.802131599999935],[-51.96730589999998,-28.804052],[-51.96785749999999,-28.80469719999997],[-51.96858089999995,-28.804960899999973],[-51.968766399999936,-28.80531279999996],[-51.968612,-28.80548239999996],[-51.965883,-28.805745299999966],[-51.96512859999995,-28.806702099999928],[-51.96087939999995,-28.807087099999926],[-51.959009,-28.80778969999994],[-51.95696929999997,-28.807311699999964],[-51.95614189999998,-28.821949],[-52.000362799999955,-28.8252864],[-52.009694199999956,-28.82505089999995],[-52.009341799999966,-28.82676669999995],[-52.01004209999996,-28.82782059999993],[-52.01518029999995,-28.825489799999957],[-52.01577629999996,-28.83058739999997],[-52.018391099999974,-28.83412639999994],[-52.01575339999994,-28.83584729999995],[-52.01129149999996,-28.835464199999922],[-52.01031919999998,-28.83625619999998],[-52.01695929999995,-28.841914599999935],[-52.01738309999996,-28.841074699999975],[-52.02161119999994,-28.839419399999933],[-52.02773839999998,-28.83802629999996],[-52.034514299999955,-28.834064499999947],[-52.03557079999996,-28.835593399999944],[-52.034757599999985,-28.83758209999996],[-52.03075809999995,-28.84207689999993],[-52.03116689999996,-28.84372],[-52.036065399999984,-28.845980399999966],[-52.03908769999999,-28.845933299999956],[-52.04342459999998,-28.844318599999948],[-52.04584719999997,-28.84142589999994],[-52.048845699999966,-28.833586899999958],[-52.051851,-28.828601799999948],[-52.05461749999996,-28.827128199999944],[-52.061624599999966,-28.82673829999994],[-52.06408049999993,-28.82487039999994],[-52.06586189999996,-28.823185699999954],[-52.066811,-28.821619099999957],[-52.066786,-28.81925729999994],[-52.060839,-28.818702099999935],[-52.059339499999965,-28.81728879999997],[-52.06125489999994,-28.81489],[-52.06557739999994,-28.81318679999998],[-52.06096859999996,-28.805786699999935],[-52.060946899999976,-28.798328799999982],[-52.05979449999996,-28.795282499999924],[-52.06017759999997,-28.79484329999996],[-52.05873359999998,-28.794275899999942],[-52.05864909999997,-28.793693399999942],[-52.06006969999998,-28.793501099999958],[-52.06190659999998,-28.792619299999952],[-52.062784,-28.79165749999993],[-52.06306479999995,-28.790864299999953],[-52.06467939999994,-28.79137679999997],[-52.065802599999984,-28.79082919999997],[-52.066273199999955,-28.788797899999974],[-52.06578279999996,-28.788019699999946],[-52.06526,-28.78772959999998],[-52.06565869999997,-28.78664459999993],[-52.06506379999997,-28.785805299999936],[-52.064525,-28.785494199999956],[-52.064363499999956,-28.78647689999997],[-52.06321929999996,-28.786996399999968],[-52.062510299999985,-28.787754499999934],[-52.061366,-28.78775449999995],[-52.06031309999998,-28.788386299999956],[-52.059891899999975,-28.788940899999947],[-52.058396699999946,-28.78882859999993],[-52.05796849999996,-28.788505699999966],[-52.05756829999996,-28.787480799999965],[-52.05687339999997,-28.786547099999947],[-52.056564499999986,-28.78347769999992],[-52.056199499999934,-28.782136899999962],[-52.05591869999995,-28.781996499999934],[-52.05535009999995,-28.783196899999943],[-52.05431109999995,-28.783893099999936],[-52.05408719999998,-28.785036099999964],[-52.052935899999966,-28.785949499999955],[-52.05268679999994,-28.786480899999958],[-52.051722,-28.786981099999927],[-52.050883399999975,-28.78701969999997],[-52.04927109999994,-28.78604969999997],[-52.048816,-28.786591199999968],[-52.04836329999995,-28.78676289999993],[-52.04636549999998,-28.78642829999996],[-52.04497189999995,-28.78675549999996],[-52.044046,-28.787300299999963],[-52.04342989999997,-28.78852439999997],[-52.04317289999994,-28.78967169999992],[-52.043722,-28.79071229999995],[-52.04487639999996,-28.79442359999996],[-52.04462229999996,-28.79533129999993],[-52.043961199999956,-28.79628189999993],[-52.04405639999994,-28.796997499999968],[-52.0437477,-28.79720039999994],[-52.04208739999996,-28.79683029999996],[-52.04140989999996,-28.7963367],[-52.04067479999998,-28.796164699999974]]]}}]}
