{"type":"FeatureCollection","name":"4322558","crs":{"type":"name","properties":{"name":"urn:ogc:def:crs:OGC:1.3:CRS84"}},"features":[{"type":"Feature","properties":{"setor":"432255805000001","pop":1047,"sigilo_pop":false,"dom":482,"sigilo_dom":false,"mulheres":547,"sigilo_mulheres":false,"c0_4":51,"sigilo_c0_4":false,"c5_9":51,"sigilo_c5_9":false,"i60_69":151,"sigilo_i60_69":false,"i70m":133,"sigilo_i70m":false,"indigenas":0,"sigilo_indigenas":false,"pretos_pardos":129,"sigilo_pretos_pardos":false,"dom_ocupados":433,"sigilo_dom_ocupados":false,"dom_agua":433,"sigilo_dom_agua":false,"dom_esgoto":6,"sigilo_dom_esgoto":false,"renda_resp":2401.91,"sigilo_renda_resp":false,"n_resp":433,"sigilo_n_resp":false,"dens":1317.4,"sigilo_dens":false,"na_bacia":1,"area_pct_bacia":100.0,"metodo_recorte_bacia":"ponto_representativo_setor_2022; area_pct_geometrica"},"geometry":{"type":"Polygon","coordinates":[[[-51.838576,-28.475826],[-51.8402531,-28.47593449999994],[-51.840126299999945,-28.47846679999998],[-51.84965759999995,-28.478941299999974],[-51.85007349999995,-28.478141],[-51.84973149999996,-28.47649859999996],[-51.84986539999995,-28.475800499999927],[-51.84977159999994,-28.475338099999924],[-51.84905139999996,-28.474838699999957],[-51.849014699999934,-28.474564499999925],[-51.85109039999997,-28.474885699999955],[-51.85109479999994,-28.475234399999977],[-51.85368409999995,-28.475218],[-51.85303159999996,-28.473418],[-51.85117729999997,-28.473429899999935],[-51.85119229999998,-28.473104199999963],[-51.849358,-28.472720599999935],[-51.84942079999996,-28.4724725],[-51.84836369999993,-28.4720344],[-51.84843069999994,-28.471825],[-51.84820609999997,-28.47176189999994],[-51.848072099999975,-28.471935299999934],[-51.845963199999964,-28.472024399999956],[-51.84384,-28.472392699999933],[-51.84382309999995,-28.472651299999928],[-51.83842059999995,-28.472560599999937],[-51.838576,-28.475826]]]}},{"type":"Feature","properties":{"setor":"432255805000002","pop":432,"sigilo_pop":false,"dom":205,"sigilo_dom":false,"mulheres":209,"sigilo_mulheres":false,"c0_4":13,"sigilo_c0_4":false,"c5_9":19,"sigilo_c5_9":false,"i60_69":76,"sigilo_i60_69":false,"i70m":67,"sigilo_i70m":false,"indigenas":0,"sigilo_indigenas":false,"pretos_pardos":38,"sigilo_pretos_pardos":false,"dom_ocupados":171,"sigilo_dom_ocupados":false,"dom_agua":141,"sigilo_dom_agua":false,"dom_esgoto":0,"sigilo_dom_esgoto":false,"renda_resp":3121.02,"sigilo_renda_resp":false,"n_resp":171,"sigilo_n_resp":false,"dens":12.7,"sigilo_dens":false,"na_bacia":1,"area_pct_bacia":100.0,"metodo_recorte_bacia":"ponto_representativo_setor_2022; area_pct_geometrica"},"geometry":{"type":"Polygon","coordinates":[[[-51.85591459999995,-28.457799399999942],[-51.85294609999994,-28.458504899999973],[-51.850561,-28.462878699999973],[-51.847972399999946,-28.461962],[-51.845431699999956,-28.462362],[-51.84429889999996,-28.460109899999956],[-51.84283229999995,-28.459968499999942],[-51.840021199999974,-28.461165],[-51.83573129999996,-28.460602599999966],[-51.834873,-28.461879599999975],[-51.83167949999996,-28.463889799999947],[-51.82954809999995,-28.46824289999995],[-51.826453699999945,-28.468437899999966],[-51.82095919999995,-28.479339399999965],[-51.821651599999946,-28.48227549999995],[-51.81805639999993,-28.487487],[-51.817362199999934,-28.489802],[-51.81672919999993,-28.490307099999924],[-51.816111699999965,-28.492059199999986],[-51.81450639999997,-28.493417599999916],[-51.813190599999984,-28.496747699999954],[-51.80987249999998,-28.49905929999993],[-51.807877899999944,-28.50202339999993],[-51.80889109999998,-28.50211029999998],[-51.81153169999993,-28.50100909999998],[-51.81355609999997,-28.500510299999977],[-51.81594839999997,-28.501295399999947],[-51.817748,-28.50143189999994],[-51.81903579999994,-28.501859699999947],[-51.820582599999966,-28.501811099999944],[-51.821709,-28.501392399999926],[-51.82273269999997,-28.501356],[-51.825673,-28.502434299999955],[-51.828245799999934,-28.503066499999925],[-51.83033179999996,-28.503098499999957],[-51.83152269999994,-28.502488],[-51.832362899999964,-28.502372799999925],[-51.83589889999996,-28.503398699999927],[-51.84122339999994,-28.503577],[-51.842334499999936,-28.502967499999944],[-51.84305309999996,-28.504453],[-51.84271989999996,-28.505408099999954],[-51.84348539999996,-28.506038],[-51.84617919999993,-28.50601429999994],[-51.849417,-28.50699869999994],[-51.85251739999996,-28.50644539999997],[-51.85403089999995,-28.50677369999993],[-51.85441059999994,-28.50693159999998],[-51.85565759999997,-28.508571099999962],[-51.85570009999998,-28.50970459999996],[-51.86299859999997,-28.509668],[-51.86299529999997,-28.506485899999962],[-51.8762617,-28.505849499999954],[-51.876192,-28.490254399999973],[-51.889030899999966,-28.489996899999937],[-51.888887,-28.483864599999947],[-51.912403899999966,-28.48434959999997],[-51.91122219999994,-28.480819199999925],[-51.91540549999996,-28.47833619999994],[-51.91495089999995,-28.475689099999947],[-51.91304749999994,-28.473071299999965],[-51.91181449999994,-28.47287919999997],[-51.901501499999945,-28.47659719999996],[-51.89887559999995,-28.476130899999927],[-51.901505499999985,-28.47406719999998],[-51.90178579999996,-28.470271499999974],[-51.903936,-28.467973899999944],[-51.905988599999944,-28.467362399999963],[-51.90692809999995,-28.465654099999934],[-51.905771899999934,-28.46457469999996],[-51.90433179999997,-28.465877499999973],[-51.90198429999999,-28.46430979999996],[-51.90008979999994,-28.464160599999957],[-51.89726559999997,-28.465787499999966],[-51.89347139999995,-28.466320499999934],[-51.894703499999935,-28.461557299999974],[-51.89134169999994,-28.46016849999995],[-51.88808569999998,-28.46332639999997],[-51.88799679999994,-28.460862599999917],[-51.88566979999996,-28.459925399999975],[-51.88439739999996,-28.458130599999937],[-51.87850139999995,-28.45848079999997],[-51.87727369999993,-28.459460099999937],[-51.875793,-28.45930889999993],[-51.873849899999975,-28.461290899999934],[-51.871691899999966,-28.46170719999998],[-51.87066869999995,-28.46277629999998],[-51.867043,-28.463404099999927],[-51.866096,-28.458491599999935],[-51.864358599999946,-28.458661],[-51.860293399999925,-28.457289299999957],[-51.859247,-28.45910019999996],[-51.85591459999995,-28.457799399999942]],[[-51.84820609999997,-28.47176189999994],[-51.84843069999994,-28.471825],[-51.84836369999993,-28.4720344],[-51.84942079999996,-28.4724725],[-51.849358,-28.472720599999935],[-51.85119229999998,-28.473104199999963],[-51.85117729999997,-28.473429899999935],[-51.85303159999996,-28.473418],[-51.85368409999995,-28.475218],[-51.85109479999994,-28.475234399999977],[-51.85109039999997,-28.474885699999955],[-51.849014699999934,-28.474564499999925],[-51.84905139999996,-28.474838699999957],[-51.84977159999994,-28.475338099999924],[-51.84986539999995,-28.475800499999927],[-51.84973149999996,-28.47649859999996],[-51.85007349999995,-28.478141],[-51.84965759999995,-28.478941299999974],[-51.840126299999945,-28.47846679999998],[-51.8402531,-28.47593449999994],[-51.83677109999997,-28.47570609999997],[-51.83694659999998,-28.47188549999992],[-51.83847449999996,-28.47200619999995],[-51.83864029999995,-28.46839459999995],[-51.851770199999976,-28.469431699999962],[-51.851883,-28.471399],[-51.84955189999993,-28.470942099999935],[-51.84820609999997,-28.47176189999994]]]}},{"type":"Feature","properties":{"setor":"432255805000003","pop":259,"sigilo_pop":false,"dom":112,"sigilo_dom":false,"mulheres":128,"sigilo_mulheres":false,"c0_4":11,"sigilo_c0_4":false,"c5_9":null,"sigilo_c5_9":true,"i60_69":45,"sigilo_i60_69":false,"i70m":42,"sigilo_i70m":false,"indigenas":0,"sigilo_indigenas":false,"pretos_pardos":42,"sigilo_pretos_pardos":false,"dom_ocupados":87,"sigilo_dom_ocupados":false,"dom_agua":72,"sigilo_dom_agua":false,"dom_esgoto":null,"sigilo_dom_esgoto":true,"renda_resp":4255.8,"sigilo_renda_resp":false,"n_resp":87,"sigilo_n_resp":false,"dens":8.7,"sigilo_dens":false,"na_bacia":1,"area_pct_bacia":100.0,"metodo_recorte_bacia":"ponto_representativo_setor_2022; area_pct_geometrica"},"geometry":{"type":"Polygon","coordinates":[[[-51.7826032,-28.471690799999973],[-51.78344539999995,-28.47275229999996],[-51.78368219999993,-28.473451599999983],[-51.78477239999996,-28.474695599999954],[-51.78306669999995,-28.476082499999954],[-51.78154319999993,-28.47830959999993],[-51.78119559999993,-28.478508],[-51.780661899999984,-28.478315899999927],[-51.779463899999946,-28.477162],[-51.77804009999995,-28.476369599999938],[-51.77655549999997,-28.475184199999948],[-51.77626459999994,-28.47513759999998],[-51.775856499999975,-28.475434699999944],[-51.77621059999996,-28.476011099999933],[-51.77577389999993,-28.477051499999963],[-51.77604229999997,-28.478891099999945],[-51.777569599999936,-28.48146],[-51.78027039999995,-28.48404209999995],[-51.780945,-28.485107899999935],[-51.780947099999935,-28.485495199999942],[-51.780780799999945,-28.485737299999986],[-51.78010109999997,-28.48578249999998],[-51.77828049999993,-28.485297499999938],[-51.77786489999995,-28.48498789999996],[-51.775702699999954,-28.48451879999994],[-51.774009099999944,-28.485840799999963],[-51.773686,-28.492894599999936],[-51.773850399999965,-28.49336859999993],[-51.775271699999955,-28.494204599999932],[-51.77674629999996,-28.49398039999994],[-51.77738109999996,-28.493664699999954],[-51.779935,-28.491070699999973],[-51.780363199999954,-28.48970469999995],[-51.78193589999995,-28.488127],[-51.78322529999998,-28.48737109999997],[-51.78618929999993,-28.48715939999994],[-51.78983919999997,-28.487447699999958],[-51.790343,-28.48796439999995],[-51.79018129999997,-28.489501],[-51.788618799999945,-28.494932499999944],[-51.78834569999998,-28.497316899999934],[-51.78846129999994,-28.500173699999934],[-51.78816049999995,-28.500612599999947],[-51.78772039999996,-28.50087419999994],[-51.78610839999994,-28.501155799999935],[-51.78321859999994,-28.50387229999995],[-51.782357699999984,-28.50363919999995],[-51.779898399999986,-28.50351849999993],[-51.77921569999995,-28.503673199999987],[-51.778370299999956,-28.504509799999937],[-51.778502199999934,-28.50495619999998],[-51.77934729999998,-28.50531689999997],[-51.780191799999955,-28.506522799999964],[-51.78094179999994,-28.509566899999985],[-51.78097979999996,-28.511053799999946],[-51.78235139999998,-28.51317959999993],[-51.78695129999994,-28.515146099999985],[-51.78739249999996,-28.515685199999947],[-51.78759849999995,-28.516506099999955],[-51.78735829999994,-28.517649799999962],[-51.78684969999994,-28.518687599999968],[-51.78557539999997,-28.520332],[-51.78561119999995,-28.52158489999993],[-51.78598959999994,-28.522005899999954],[-51.78699829999994,-28.522442799999958],[-51.7885323,-28.522269399999963],[-51.79002069999996,-28.520966],[-51.79074559999997,-28.519944199999934],[-51.79168309999995,-28.519660799999933],[-51.793089099999975,-28.520014],[-51.79411429999994,-28.520776799999968],[-51.794716499999936,-28.52150649999993],[-51.795556,-28.523276],[-51.795523299999964,-28.523644399999963],[-51.794516199999975,-28.524486],[-51.790641,-28.525824099999966],[-51.78973869999999,-28.526515399999937],[-51.78753429999995,-28.52851939999993],[-51.78634759999995,-28.530642099999966],[-51.786373399999945,-28.531273],[-51.78901239999994,-28.532038899999975],[-51.7912472,-28.531902099999957],[-51.792065599999944,-28.531631299999948],[-51.7973674,-28.532108299999948],[-51.79794529999998,-28.531699099999965],[-51.798931799999934,-28.531747799999945],[-51.79958849999997,-28.532104],[-51.800507699999976,-28.533166099999953],[-51.80281209999998,-28.53774609999994],[-51.80982369999998,-28.533102899999946],[-51.80311729999994,-28.527277299999973],[-51.825017,-28.527745],[-51.82484469999997,-28.52115529999997],[-51.837000899999964,-28.52125279999996],[-51.836803,-28.515682799999983],[-51.84906209999997,-28.515606799999933],[-51.849231299999985,-28.509735899999946],[-51.85570009999998,-28.50970459999996],[-51.85565759999997,-28.508571099999962],[-51.85441059999994,-28.50693159999998],[-51.85403089999995,-28.50677369999993],[-51.85251739999996,-28.50644539999997],[-51.849417,-28.50699869999994],[-51.84617919999993,-28.50601429999994],[-51.844118499999986,-28.506157799999976],[-51.84324089999995,-28.505915499999954],[-51.84271989999996,-28.505408099999954],[-51.843075399999975,-28.504655099999983],[-51.84250369999996,-28.50299389999998],[-51.84122339999994,-28.503577],[-51.83589889999996,-28.503398699999927],[-51.832362899999964,-28.502372799999925],[-51.83152269999994,-28.502488],[-51.83033179999996,-28.503098499999957],[-51.828245799999934,-28.503066499999925],[-51.825673,-28.502434299999955],[-51.82273269999997,-28.501356],[-51.821709,-28.501392399999926],[-51.820582599999966,-28.501811099999944],[-51.81903579999994,-28.501859699999947],[-51.817748,-28.50143189999994],[-51.81594839999997,-28.501295399999947],[-51.81355609999997,-28.500510299999977],[-51.81153169999993,-28.50100909999998],[-51.80889109999998,-28.50211029999998],[-51.807877899999944,-28.50202339999993],[-51.80987249999998,-28.49905929999993],[-51.813190599999984,-28.496747699999954],[-51.81450639999997,-28.493417599999916],[-51.816111699999965,-28.492059199999986],[-51.81672919999993,-28.490307099999924],[-51.817362199999934,-28.489802],[-51.81805639999993,-28.487487],[-51.821651599999946,-28.48227549999995],[-51.82095919999995,-28.479339399999965],[-51.826453699999945,-28.468437899999966],[-51.82371949999999,-28.470394699999925],[-51.81679679999996,-28.471408599999958],[-51.81598889999998,-28.46992089999997],[-51.81284519999997,-28.467697699999963],[-51.80752339999999,-28.467600299999962],[-51.802377599999936,-28.465559199999984],[-51.79647869999997,-28.466208799999947],[-51.794012699999946,-28.46511179999993],[-51.78538789999994,-28.467626099999958],[-51.7826032,-28.471690799999973]]]}},{"type":"Feature","properties":{"setor":"432255805000004","pop":266,"sigilo_pop":false,"dom":114,"sigilo_dom":false,"mulheres":120,"sigilo_mulheres":false,"c0_4":19,"sigilo_c0_4":false,"c5_9":15,"sigilo_c5_9":false,"i60_69":21,"sigilo_i60_69":false,"i70m":12,"sigilo_i70m":false,"indigenas":0,"sigilo_indigenas":false,"pretos_pardos":118,"sigilo_pretos_pardos":false,"dom_ocupados":97,"sigilo_dom_ocupados":false,"dom_agua":96,"sigilo_dom_agua":false,"dom_esgoto":0,"sigilo_dom_esgoto":false,"renda_resp":2112.23,"sigilo_renda_resp":false,"n_resp":97,"sigilo_n_resp":false,"dens":507.7,"sigilo_dens":false,"na_bacia":1,"area_pct_bacia":100.0,"metodo_recorte_bacia":"ponto_representativo_setor_2022; area_pct_geometrica"},"geometry":{"type":"Polygon","coordinates":[[[-51.838576,-28.475826],[-51.83842059999995,-28.472560599999937],[-51.84382309999995,-28.472651299999928],[-51.84384,-28.472392699999933],[-51.845963199999964,-28.472024399999956],[-51.848072099999975,-28.471935299999934],[-51.84955189999993,-28.470942099999935],[-51.851883,-28.471399],[-51.851770199999976,-28.469431699999962],[-51.83864029999995,-28.46839459999995],[-51.83847449999996,-28.47200619999995],[-51.83694659999998,-28.47188549999992],[-51.83677109999997,-28.47570609999997],[-51.838576,-28.475826]]]}}]}