{"type":"FeatureCollection","name":"4323770","crs":{"type":"name","properties":{"name":"urn:ogc:def:crs:OGC:1.3:CRS84"}},"features":[{"type":"Feature","properties":{"setor":"432377005000002","pop":356,"sigilo_pop":false,"dom":140,"sigilo_dom":0,"mulheres":186,"sigilo_mulheres":0,"c0_4":28,"sigilo_c0_4":0,"c5_9":29,"sigilo_c5_9":0,"i60_69":20,"sigilo_i60_69":0,"i70m":25,"sigilo_i70m":0,"indigenas":0,"sigilo_indigenas":0,"pretos_pardos":37,"sigilo_pretos_pardos":0,"dom_ocupados":130,"sigilo_dom_ocupados":0,"dom_agua":125,"sigilo_dom_agua":0,"dom_esgoto":8,"sigilo_dom_esgoto":0,"renda_resp":2933.25,"sigilo_renda_resp":0,"n_resp":130,"sigilo_n_resp":0,"dens":648.6,"sigilo_dens":false,"na_bacia":1,"area_pct_bacia":100.0,"metodo_recorte_bacia":"ponto_representativo_setor_2022; area_pct_geometrica","pop_n_validos":1,"pop_n_total":1,"pop_completude":1.0,"dom_n_validos":1,"dom_n_total":1,"dom_completude":1.0,"dom_ocupados_n_validos":1,"dom_ocupados_n_total":1,"dom_ocupados_completude":1.0,"mulheres_n_validos":1,"mulheres_n_total":1,"mulheres_completude":1.0,"c0_4_n_validos":1,"c0_4_n_total":1,"c0_4_completude":1.0,"c5_9_n_validos":1,"c5_9_n_total":1,"c5_9_completude":1.0,"i60_69_n_validos":1,"i60_69_n_total":1,"i60_69_completude":1.0,"i70m_n_validos":1,"i70m_n_total":1,"i70m_completude":1.0,"indigenas_n_validos":1,"indigenas_n_total":1,"indigenas_completude":1.0,"pretos_pardos_n_validos":1,"pretos_pardos_n_total":1,"pretos_pardos_completude":1.0,"dom_agua_n_validos":1,"dom_agua_n_total":1,"dom_agua_completude":1.0,"dom_esgoto_n_validos":1,"dom_esgoto_n_total":1,"dom_esgoto_completude":1.0,"n_resp_n_validos":1,"n_resp_n_total":1,"n_resp_completude":1.0,"renda_resp_n_validos":1,"renda_resp_n_total":1,"renda_resp_completude":1.0,"dens_n_validos":1,"dens_n_total":1,"dens_completude":1.0,"status_borda_bacia":"total","metodo_area_bacia":"interse??o geom?trica em EPSG:5880","metodo_na_bacia":"ponto_representativo_setor_2022_within_bacia","municipio":"Westfália","cod_mun":"4323770","mun_pct_na_bacia":100.0,"mun_pop_total":3098,"mun_pop_na_bacia":3098.0,"mun_ubs_iede":1,"mun_hospitais_iede":null,"mun_escolas_iede":6,"mun_bombeiros_iede":null,"mun_servicos_cobertura":"cadastro_IEDE_parcial_nao_inventario","mun_icm_faixa":"A","mun_icm_pontos":10,"mun_icm_prioritario":"não","mun_ubs_iede_status":"published","mun_hospitais_iede_status":"unknown","mun_escolas_iede_status":"published","mun_bombeiros_iede_status":"unknown"},"geometry":{"type":"Polygon","coordinates":[[[-51.76460989999998,-29.432129],[-51.76520369999997,-29.415455799999947],[-51.767225,-29.415464499999917],[-51.76723739999995,-29.41520369999995],[-51.766254799999956,-29.41386279999994],[-51.76620819999994,-29.413473299999964],[-51.76269,-29.41345579999995],[-51.76206149999996,-29.43211469999993],[-51.76460989999998,-29.432129]]]}},{"type":"Feature","properties":{"setor":"432377005000005","pop":154,"sigilo_pop":false,"dom":60,"sigilo_dom":0,"mulheres":72,"sigilo_mulheres":0,"c0_4":9,"sigilo_c0_4":0,"c5_9":7,"sigilo_c5_9":0,"i60_69":22,"sigilo_i60_69":0,"i70m":23,"sigilo_i70m":0,"indigenas":0,"sigilo_indigenas":0,"pretos_pardos":null,"sigilo_pretos_pardos":1,"dom_ocupados":53,"sigilo_dom_ocupados":0,"dom_agua":29,"sigilo_dom_agua":0,"dom_esgoto":0,"sigilo_dom_esgoto":0,"renda_resp":3683.77,"sigilo_renda_resp":0,"n_resp":53,"sigilo_n_resp":0,"dens":24.2,"sigilo_dens":false,"na_bacia":1,"area_pct_bacia":100.0,"metodo_recorte_bacia":"ponto_representativo_setor_2022; area_pct_geometrica","pop_n_validos":1,"pop_n_total":1,"pop_completude":1.0,"dom_n_validos":1,"dom_n_total":1,"dom_completude":1.0,"dom_ocupados_n_validos":1,"dom_ocupados_n_total":1,"dom_ocupados_completude":1.0,"mulheres_n_validos":1,"mulheres_n_total":1,"mulheres_completude":1.0,"c0_4_n_validos":1,"c0_4_n_total":1,"c0_4_completude":1.0,"c5_9_n_validos":1,"c5_9_n_total":1,"c5_9_completude":1.0,"i60_69_n_validos":1,"i60_69_n_total":1,"i60_69_completude":1.0,"i70m_n_validos":1,"i70m_n_total":1,"i70m_completude":1.0,"indigenas_n_validos":1,"indigenas_n_total":1,"indigenas_completude":1.0,"pretos_pardos_n_validos":0,"pretos_pardos_n_total":1,"pretos_pardos_completude":0.0,"dom_agua_n_validos":1,"dom_agua_n_total":1,"dom_agua_completude":1.0,"dom_esgoto_n_validos":1,"dom_esgoto_n_total":1,"dom_esgoto_completude":1.0,"n_resp_n_validos":1,"n_resp_n_total":1,"n_resp_completude":1.0,"renda_resp_n_validos":1,"renda_resp_n_total":1,"renda_resp_completude":1.0,"dens_n_validos":1,"dens_n_total":1,"dens_completude":1.0,"status_borda_bacia":"total","metodo_area_bacia":"interse??o geom?trica em EPSG:5880","metodo_na_bacia":"ponto_representativo_setor_2022_within_bacia","municipio":"Westfália","cod_mun":"4323770","mun_pct_na_bacia":100.0,"mun_pop_total":3098,"mun_pop_na_bacia":3098.0,"mun_ubs_iede":1,"mun_hospitais_iede":null,"mun_escolas_iede":6,"mun_bombeiros_iede":null,"mun_servicos_cobertura":"cadastro_IEDE_parcial_nao_inventario","mun_icm_faixa":"A","mun_icm_pontos":10,"mun_icm_prioritario":"não","mun_ubs_iede_status":"published","mun_hospitais_iede_status":"unknown","mun_escolas_iede_status":"published","mun_bombeiros_iede_status":"unknown"},"geometry":{"type":"Polygon","coordinates":[[[-51.72789209999996,-29.362164],[-51.727453099999934,-29.369455499999958],[-51.72863989999996,-29.369331899999956],[-51.73006,-29.36882679999995],[-51.73153569999994,-29.36915609999994],[-51.73203059999997,-29.369861799999953],[-51.732831499999975,-29.370363699999924],[-51.736341,-29.37050209999994],[-51.73916619999995,-29.37030879999997],[-51.739508099999966,-29.370936099999938],[-51.74088479999995,-29.371453699999964],[-51.74308939999998,-29.372747499999946],[-51.743755199999946,-29.373641399999947],[-51.747813399999984,-29.37379829999998],[-51.74794829999997,-29.37414329999995],[-51.74693609999997,-29.375986],[-51.747404,-29.37738169999994],[-51.74634219999995,-29.37856569999997],[-51.748146299999966,-29.380408299999957],[-51.750656799999945,-29.382078399999955],[-51.75218649999994,-29.38210189999996],[-51.754382,-29.38141979999996],[-51.754732899999965,-29.381498199999942],[-51.75532679999997,-29.38229009999998],[-51.75515589999997,-29.386139799999963],[-51.75541679999998,-29.386798399999975],[-51.75601969999997,-29.387370699999945],[-51.75671249999994,-29.387637299999927],[-51.77664669999996,-29.387977599999942],[-51.77658729999997,-29.383627099999963],[-51.76798489999994,-29.38383689999994],[-51.76959629999993,-29.381759],[-51.77036429999998,-29.38041639999994],[-51.77050249999996,-29.379560199999954],[-51.770390299999974,-29.377099],[-51.76972669999998,-29.375355499999948],[-51.76629029999998,-29.373262599999975],[-51.76679309999997,-29.37179739999992],[-51.767418099999986,-29.371149599999963],[-51.76842229999994,-29.3707353],[-51.769549299999944,-29.369837899999926],[-51.76941259999995,-29.368785],[-51.76893269999994,-29.36799459999996],[-51.76808,-29.36740419999994],[-51.76696479999998,-29.367141799999942],[-51.76571839999997,-29.36779779999995],[-51.76427529999995,-29.369175299999924],[-51.76313559999994,-29.369410399999946],[-51.76033989999996,-29.36883859999994],[-51.75548509999992,-29.368716099999972],[-51.75227079999996,-29.36976569999997],[-51.75056529999995,-29.371012099999966],[-51.750762,-29.36213619999995],[-51.72789209999996,-29.362164]]]}},{"type":"Feature","properties":{"setor":"432377005000006","pop":455,"sigilo_pop":false,"dom":190,"sigilo_dom":0,"mulheres":214,"sigilo_mulheres":0,"c0_4":14,"sigilo_c0_4":0,"c5_9":25,"sigilo_c5_9":0,"i60_69":65,"sigilo_i60_69":0,"i70m":77,"sigilo_i70m":0,"indigenas":0,"sigilo_indigenas":0,"pretos_pardos":18,"sigilo_pretos_pardos":0,"dom_ocupados":156,"sigilo_dom_ocupados":0,"dom_agua":63,"sigilo_dom_agua":0,"dom_esgoto":0,"sigilo_dom_esgoto":0,"renda_resp":3829.53,"sigilo_renda_resp":0,"n_resp":156,"sigilo_n_resp":0,"dens":24.1,"sigilo_dens":false,"na_bacia":1,"area_pct_bacia":100.0,"metodo_recorte_bacia":"ponto_representativo_setor_2022; area_pct_geometrica","pop_n_validos":1,"pop_n_total":1,"pop_completude":1.0,"dom_n_validos":1,"dom_n_total":1,"dom_completude":1.0,"dom_ocupados_n_validos":1,"dom_ocupados_n_total":1,"dom_ocupados_completude":1.0,"mulheres_n_validos":1,"mulheres_n_total":1,"mulheres_completude":1.0,"c0_4_n_validos":1,"c0_4_n_total":1,"c0_4_completude":1.0,"c5_9_n_validos":1,"c5_9_n_total":1,"c5_9_completude":1.0,"i60_69_n_validos":1,"i60_69_n_total":1,"i60_69_completude":1.0,"i70m_n_validos":1,"i70m_n_total":1,"i70m_completude":1.0,"indigenas_n_validos":1,"indigenas_n_total":1,"indigenas_completude":1.0,"pretos_pardos_n_validos":1,"pretos_pardos_n_total":1,"pretos_pardos_completude":1.0,"dom_agua_n_validos":1,"dom_agua_n_total":1,"dom_agua_completude":1.0,"dom_esgoto_n_validos":1,"dom_esgoto_n_total":1,"dom_esgoto_completude":1.0,"n_resp_n_validos":1,"n_resp_n_total":1,"n_resp_completude":1.0,"renda_resp_n_validos":1,"renda_resp_n_total":1,"renda_resp_completude":1.0,"dens_n_validos":1,"dens_n_total":1,"dens_completude":1.0,"status_borda_bacia":"total","metodo_area_bacia":"interse??o geom?trica em EPSG:5880","metodo_na_bacia":"ponto_representativo_setor_2022_within_bacia","municipio":"Westfália","cod_mun":"4323770","mun_pct_na_bacia":100.0,"mun_pop_total":3098,"mun_pop_na_bacia":3098.0,"mun_ubs_iede":1,"mun_hospitais_iede":null,"mun_escolas_iede":6,"mun_bombeiros_iede":null,"mun_servicos_cobertura":"cadastro_IEDE_parcial_nao_inventario","mun_icm_faixa":"A","mun_icm_pontos":10,"mun_icm_prioritario":"não","mun_ubs_iede_status":"published","mun_hospitais_iede_status":"unknown","mun_escolas_iede_status":"published","mun_bombeiros_iede_status":"unknown"},"geometry":{"type":"Polygon","coordinates":[[[-51.72746609999996,-29.36920789999992],[-51.72745409999993,-29.36940539999994],[-51.69107989999998,-29.37137269999993],[-51.691131599999956,-29.389299399999967],[-51.69263989999996,-29.389270099999965],[-51.69353879999995,-29.39101639999996],[-51.694618599999956,-29.392474599999957],[-51.69611229999999,-29.393650599999944],[-51.697444,-29.393823],[-51.697714,-29.394026899999975],[-51.697804,-29.395077399999945],[-51.698415799999964,-29.395892699999926],[-51.69864979999995,-29.39943619999997],[-51.69933359999993,-29.400580699999985],[-51.69909969999998,-29.402509099999968],[-51.69936959999996,-29.404124],[-51.69985549999996,-29.405143099999982],[-51.701457199999936,-29.406538399999942],[-51.703760699999975,-29.407620099999967],[-51.70539219999994,-29.40799039999996],[-51.70703609999998,-29.407196799999955],[-51.708439799999944,-29.406162099999964],[-51.709521499999944,-29.405891299999936],[-51.710437399999925,-29.404719799999963],[-51.71041939999997,-29.402399399999975],[-51.70978949999994,-29.400392599999968],[-51.71083329999994,-29.400267099999944],[-51.714486499999964,-29.40032979999996],[-51.716304099999945,-29.400768799999984],[-51.71666409999994,-29.40128619999995],[-51.716223199999945,-29.402940299999948],[-51.71630409999994,-29.403928],[-51.716898,-29.40515089999996],[-51.71757289999993,-29.40587989999995],[-51.721064199999944,-29.40729089999996],[-51.729837299999986,-29.40750249999996],[-51.73041319999999,-29.407259499999956],[-51.73071019999998,-29.40576229999993],[-51.731133099999965,-29.405464399999964],[-51.73544319999997,-29.405582],[-51.73640339999997,-29.406154499999964],[-51.73738449999996,-29.405879899999952],[-51.73805039999996,-29.405574199999926],[-51.738221399999986,-29.40197609999996],[-51.73862629999997,-29.400471],[-51.739517099999944,-29.398762],[-51.73910319999994,-29.397013799999957],[-51.73954409999994,-29.396206299999957],[-51.739508099999966,-29.39440319999995],[-51.738581299999964,-29.39230209999995],[-51.73849129999997,-29.391604399999945],[-51.73863529999994,-29.388695699999975],[-51.73889619999994,-29.38793519999997],[-51.740731799999935,-29.387629399999977],[-51.74113539999996,-29.387370899999954],[-51.75671249999994,-29.387637299999927],[-51.75580369999994,-29.387206099999958],[-51.75525479999994,-29.38650829999995],[-51.75532679999997,-29.38229009999998],[-51.754732899999965,-29.381498199999942],[-51.754382,-29.38141979999996],[-51.75218649999994,-29.38210189999996],[-51.750656799999945,-29.382078399999955],[-51.748146299999966,-29.380408299999957],[-51.74634219999995,-29.37856569999997],[-51.747404,-29.37738169999994],[-51.74693609999997,-29.375986],[-51.74794829999997,-29.37414329999995],[-51.747813399999984,-29.37379829999998],[-51.743755199999946,-29.373641399999947],[-51.74308939999998,-29.372747499999946],[-51.74088479999995,-29.371453699999964],[-51.739508099999966,-29.370936099999938],[-51.73916619999995,-29.37030879999997],[-51.736341,-29.37050209999994],[-51.733038399999934,-29.370395099999943],[-51.73216559999997,-29.369979499999943],[-51.731697699999984,-29.369258],[-51.73087889999994,-29.368936499999954],[-51.729826099999975,-29.368834599999957],[-51.72863989999996,-29.369331899999956],[-51.727453099999934,-29.369455499999958],[-51.72746609999996,-29.36920789999992]]]}},{"type":"Feature","properties":{"setor":"432377005000007","pop":319,"sigilo_pop":false,"dom":117,"sigilo_dom":0,"mulheres":156,"sigilo_mulheres":0,"c0_4":14,"sigilo_c0_4":0,"c5_9":null,"sigilo_c5_9":1,"i60_69":44,"sigilo_i60_69":0,"i70m":56,"sigilo_i70m":0,"indigenas":0,"sigilo_indigenas":0,"pretos_pardos":null,"sigilo_pretos_pardos":1,"dom_ocupados":104,"sigilo_dom_ocupados":0,"dom_agua":57,"sigilo_dom_agua":0,"dom_esgoto":0,"sigilo_dom_esgoto":0,"renda_resp":4708.88,"sigilo_renda_resp":0,"n_resp":104,"sigilo_n_resp":0,"dens":24.5,"sigilo_dens":false,"na_bacia":1,"area_pct_bacia":100.0,"metodo_recorte_bacia":"ponto_representativo_setor_2022; area_pct_geometrica","pop_n_validos":1,"pop_n_total":1,"pop_completude":1.0,"dom_n_validos":1,"dom_n_total":1,"dom_completude":1.0,"dom_ocupados_n_validos":1,"dom_ocupados_n_total":1,"dom_ocupados_completude":1.0,"mulheres_n_validos":1,"mulheres_n_total":1,"mulheres_completude":1.0,"c0_4_n_validos":1,"c0_4_n_total":1,"c0_4_completude":1.0,"c5_9_n_validos":0,"c5_9_n_total":1,"c5_9_completude":0.0,"i60_69_n_validos":1,"i60_69_n_total":1,"i60_69_completude":1.0,"i70m_n_validos":1,"i70m_n_total":1,"i70m_completude":1.0,"indigenas_n_validos":1,"indigenas_n_total":1,"indigenas_completude":1.0,"pretos_pardos_n_validos":0,"pretos_pardos_n_total":1,"pretos_pardos_completude":0.0,"dom_agua_n_validos":1,"dom_agua_n_total":1,"dom_agua_completude":1.0,"dom_esgoto_n_validos":1,"dom_esgoto_n_total":1,"dom_esgoto_completude":1.0,"n_resp_n_validos":1,"n_resp_n_total":1,"n_resp_completude":1.0,"renda_resp_n_validos":1,"renda_resp_n_total":1,"renda_resp_completude":1.0,"dens_n_validos":1,"dens_n_total":1,"dens_completude":1.0,"status_borda_bacia":"total","metodo_area_bacia":"interse??o geom?trica em EPSG:5880","metodo_na_bacia":"ponto_representativo_setor_2022_within_bacia","municipio":"Westfália","cod_mun":"4323770","mun_pct_na_bacia":100.0,"mun_pop_total":3098,"mun_pop_na_bacia":3098.0,"mun_ubs_iede":1,"mun_hospitais_iede":null,"mun_escolas_iede":6,"mun_bombeiros_iede":null,"mun_servicos_cobertura":"cadastro_IEDE_parcial_nao_inventario","mun_icm_faixa":"A","mun_icm_pontos":10,"mun_icm_prioritario":"não","mun_ubs_iede_status":"published","mun_hospitais_iede_status":"unknown","mun_escolas_iede_status":"published","mun_bombeiros_iede_status":"unknown"},"geometry":{"type":"Polygon","coordinates":[[[-51.73640339999997,-29.406154499999964],[-51.73734179999997,-29.40794149999993],[-51.738520499999936,-29.40950919999994],[-51.741121,-29.411578599999913],[-51.741319,-29.412260499999938],[-51.741013,-29.413373599999943],[-51.741346,-29.41489419999992],[-51.741067,-29.416759599999974],[-51.74177789999993,-29.418397799999983],[-51.74206579999998,-29.41983989999995],[-51.742731699999986,-29.420608],[-51.74369449999994,-29.42252039999994],[-51.74651989999996,-29.424072199999955],[-51.748238499999964,-29.426102099999987],[-51.748463499999964,-29.42674479999994],[-51.748382499999934,-29.428766799999945],[-51.749219299999936,-29.429997199999946],[-51.750875,-29.43121979999995],[-51.753538399999975,-29.432050499999953],[-51.755518,-29.43208959999998],[-51.75727269999994,-29.431744799999933],[-51.760647,-29.43167429999993],[-51.76132179999996,-29.432191499999927],[-51.762698499999935,-29.43433089999997],[-51.764039299999986,-29.435624],[-51.76606389999995,-29.436564399999956],[-51.767026699999974,-29.436587899999946],[-51.766877299999976,-29.434828899999964],[-51.76452229999996,-29.434809799999986],[-51.76460989999998,-29.432129],[-51.76206149999996,-29.43211469999993],[-51.76269,-29.41345579999995],[-51.766340499999956,-29.413467599999926],[-51.76707839999995,-29.41401629999996],[-51.768311099999956,-29.412354599999954],[-51.769246899999985,-29.41157859999993],[-51.770047799999986,-29.411233699999965],[-51.771163499999936,-29.40794149999993],[-51.77128949999997,-29.406507],[-51.77250429999998,-29.404171],[-51.77292719999998,-29.403826099999932],[-51.77284619999995,-29.40291679999997],[-51.77328709999994,-29.4016233],[-51.77446589999994,-29.399749699999976],[-51.774222899999984,-29.39951459999998],[-51.77259429999997,-29.39912259999994],[-51.770605699999976,-29.39807209999997],[-51.768095199999955,-29.39724109999997],[-51.76743829999998,-29.396190599999958],[-51.76648449999994,-29.395798599999978],[-51.76625569999993,-29.395441199999937],[-51.767400099999975,-29.39549289999995],[-51.77118829999995,-29.396441499999966],[-51.777361,-29.396637499999944],[-51.77864779999993,-29.391596499999935],[-51.7777569,-29.391212399999972],[-51.77693809999994,-29.39043619999996],[-51.774697599999975,-29.39043619999995],[-51.773455799999965,-29.39013829999994],[-51.771825399999955,-29.38789529999997],[-51.74113539999996,-29.387370899999954],[-51.740731799999935,-29.387629399999977],[-51.739022199999965,-29.387841099999946],[-51.73863529999994,-29.388695699999975],[-51.73849129999997,-29.391604399999945],[-51.738581299999964,-29.39230209999995],[-51.739508099999966,-29.39440319999995],[-51.73954409999994,-29.396206299999957],[-51.73910319999994,-29.397013799999957],[-51.739517099999944,-29.398762],[-51.73862629999997,-29.400471],[-51.738221399999986,-29.40197609999996],[-51.73805039999996,-29.405574199999926],[-51.73640339999997,-29.406154499999964]]]}},{"type":"Feature","properties":{"setor":"432377005000008","pop":188,"sigilo_pop":false,"dom":79,"sigilo_dom":0,"mulheres":88,"sigilo_mulheres":0,"c0_4":11,"sigilo_c0_4":0,"c5_9":15,"sigilo_c5_9":0,"i60_69":28,"sigilo_i60_69":0,"i70m":25,"sigilo_i70m":0,"indigenas":0,"sigilo_indigenas":0,"pretos_pardos":3,"sigilo_pretos_pardos":0,"dom_ocupados":68,"sigilo_dom_ocupados":0,"dom_agua":55,"sigilo_dom_agua":0,"dom_esgoto":null,"sigilo_dom_esgoto":1,"renda_resp":4689.28,"sigilo_renda_resp":0,"n_resp":68,"sigilo_n_resp":0,"dens":18.0,"sigilo_dens":false,"na_bacia":1,"area_pct_bacia":100.0,"metodo_recorte_bacia":"ponto_representativo_setor_2022; area_pct_geometrica","pop_n_validos":1,"pop_n_total":1,"pop_completude":1.0,"dom_n_validos":1,"dom_n_total":1,"dom_completude":1.0,"dom_ocupados_n_validos":1,"dom_ocupados_n_total":1,"dom_ocupados_completude":1.0,"mulheres_n_validos":1,"mulheres_n_total":1,"mulheres_completude":1.0,"c0_4_n_validos":1,"c0_4_n_total":1,"c0_4_completude":1.0,"c5_9_n_validos":1,"c5_9_n_total":1,"c5_9_completude":1.0,"i60_69_n_validos":1,"i60_69_n_total":1,"i60_69_completude":1.0,"i70m_n_validos":1,"i70m_n_total":1,"i70m_completude":1.0,"indigenas_n_validos":1,"indigenas_n_total":1,"indigenas_completude":1.0,"pretos_pardos_n_validos":1,"pretos_pardos_n_total":1,"pretos_pardos_completude":1.0,"dom_agua_n_validos":1,"dom_agua_n_total":1,"dom_agua_completude":1.0,"dom_esgoto_n_validos":0,"dom_esgoto_n_total":1,"dom_esgoto_completude":0.0,"n_resp_n_validos":1,"n_resp_n_total":1,"n_resp_completude":1.0,"renda_resp_n_validos":1,"renda_resp_n_total":1,"renda_resp_completude":1.0,"dens_n_validos":1,"dens_n_total":1,"dens_completude":1.0,"status_borda_bacia":"total","metodo_area_bacia":"interse??o geom?trica em EPSG:5880","metodo_na_bacia":"ponto_representativo_setor_2022_within_bacia","municipio":"Westfália","cod_mun":"4323770","mun_pct_na_bacia":100.0,"mun_pop_total":3098,"mun_pop_na_bacia":3098.0,"mun_ubs_iede":1,"mun_hospitais_iede":null,"mun_escolas_iede":6,"mun_bombeiros_iede":null,"mun_servicos_cobertura":"cadastro_IEDE_parcial_nao_inventario","mun_icm_faixa":"A","mun_icm_pontos":10,"mun_icm_prioritario":"não","mun_ubs_iede_status":"published","mun_hospitais_iede_status":"unknown","mun_escolas_iede_status":"published","mun_bombeiros_iede_status":"unknown"},"geometry":{"type":"Polygon","coordinates":[[[-51.691131599999956,-29.389299399999967],[-51.69120529999998,-29.415069799999966],[-51.739186899999936,-29.414381599999967],[-51.73952729999996,-29.445274299999937],[-51.74927329999998,-29.44510189999994],[-51.75533809999997,-29.44532129999992],[-51.756705799999956,-29.444631699999952],[-51.75801049999996,-29.44579139999996],[-51.75846039999993,-29.44591679999996],[-51.76018809999993,-29.44523509999993],[-51.76402129999997,-29.445219399999917],[-51.764426599999986,-29.444959499999968],[-51.76403929999998,-29.444906],[-51.76268959999992,-29.443299599999936],[-51.76269849999994,-29.442296599999956],[-51.763751299999974,-29.43959309999996],[-51.766270799999965,-29.43790829999994],[-51.767026699999974,-29.436587899999946],[-51.76606389999995,-29.436564399999956],[-51.764039299999986,-29.435624],[-51.762698499999935,-29.43433089999997],[-51.76132179999996,-29.432191499999927],[-51.760647,-29.43167429999993],[-51.75727269999994,-29.431744799999933],[-51.755518,-29.43208959999998],[-51.753538399999975,-29.432050499999953],[-51.750875,-29.43121979999995],[-51.749219299999936,-29.429997199999946],[-51.748382499999934,-29.428766799999945],[-51.748463499999964,-29.42674479999994],[-51.748238499999964,-29.426102099999987],[-51.74651989999996,-29.424072199999955],[-51.74369449999994,-29.42252039999994],[-51.742731699999986,-29.420608],[-51.74206579999998,-29.41983989999995],[-51.74177789999993,-29.418397799999983],[-51.741067,-29.416759599999974],[-51.741346,-29.41489419999992],[-51.741013,-29.413373599999943],[-51.741319,-29.412260499999938],[-51.741121,-29.411578599999913],[-51.738520499999936,-29.40950919999994],[-51.73603709999998,-29.405832899999954],[-51.73544319999997,-29.405582],[-51.731133099999965,-29.405464399999964],[-51.73071019999998,-29.40576229999993],[-51.73041319999999,-29.407259499999956],[-51.729837299999986,-29.40750249999996],[-51.721064199999944,-29.40729089999996],[-51.71757289999993,-29.40587989999995],[-51.716898,-29.40515089999996],[-51.71630409999994,-29.403928],[-51.716223199999945,-29.402940299999948],[-51.71666409999994,-29.40128619999995],[-51.716304099999945,-29.400768799999984],[-51.714486499999964,-29.40032979999996],[-51.71000539999994,-29.400298499999955],[-51.70977149999994,-29.400533699999983],[-51.71041939999997,-29.402399399999975],[-51.710437399999925,-29.404719799999963],[-51.71013139999997,-29.405221399999945],[-51.709521499999944,-29.405891299999936],[-51.708439799999944,-29.406162099999964],[-51.70558289999997,-29.40793369999995],[-51.703760699999975,-29.407620099999967],[-51.701457199999936,-29.406538399999942],[-51.70056639999995,-29.405903399999946],[-51.699558599999925,-29.40470409999995],[-51.69909969999998,-29.402509099999968],[-51.69933359999993,-29.400580699999985],[-51.69864979999995,-29.39943619999997],[-51.698415799999964,-29.395892699999926],[-51.697804,-29.395077399999945],[-51.697714,-29.394026899999975],[-51.697444,-29.393823],[-51.69611229999999,-29.393650599999944],[-51.694618599999956,-29.392474599999957],[-51.69353879999995,-29.39101639999996],[-51.69263989999996,-29.389270099999965],[-51.691131599999956,-29.389299399999967]]]}},{"type":"Feature","properties":{"setor":"432377005000009","pop":239,"sigilo_pop":false,"dom":101,"sigilo_dom":0,"mulheres":127,"sigilo_mulheres":0,"c0_4":12,"sigilo_c0_4":0,"c5_9":13,"sigilo_c5_9":0,"i60_69":23,"sigilo_i60_69":0,"i70m":25,"sigilo_i70m":0,"indigenas":0,"sigilo_indigenas":0,"pretos_pardos":18,"sigilo_pretos_pardos":0,"dom_ocupados":81,"sigilo_dom_ocupados":0,"dom_agua":66,"sigilo_dom_agua":0,"dom_esgoto":0,"sigilo_dom_esgoto":0,"renda_resp":2785.79,"sigilo_renda_resp":0,"n_resp":81,"sigilo_n_resp":0,"dens":38.0,"sigilo_dens":false,"na_bacia":1,"area_pct_bacia":100.0,"metodo_recorte_bacia":"ponto_representativo_setor_2022; area_pct_geometrica","pop_n_validos":1,"pop_n_total":1,"pop_completude":1.0,"dom_n_validos":1,"dom_n_total":1,"dom_completude":1.0,"dom_ocupados_n_validos":1,"dom_ocupados_n_total":1,"dom_ocupados_completude":1.0,"mulheres_n_validos":1,"mulheres_n_total":1,"mulheres_completude":1.0,"c0_4_n_validos":1,"c0_4_n_total":1,"c0_4_completude":1.0,"c5_9_n_validos":1,"c5_9_n_total":1,"c5_9_completude":1.0,"i60_69_n_validos":1,"i60_69_n_total":1,"i60_69_completude":1.0,"i70m_n_validos":1,"i70m_n_total":1,"i70m_completude":1.0,"indigenas_n_validos":1,"indigenas_n_total":1,"indigenas_completude":1.0,"pretos_pardos_n_validos":1,"pretos_pardos_n_total":1,"pretos_pardos_completude":1.0,"dom_agua_n_validos":1,"dom_agua_n_total":1,"dom_agua_completude":1.0,"dom_esgoto_n_validos":1,"dom_esgoto_n_total":1,"dom_esgoto_completude":1.0,"n_resp_n_validos":1,"n_resp_n_total":1,"n_resp_completude":1.0,"renda_resp_n_validos":1,"renda_resp_n_total":1,"renda_resp_completude":1.0,"dens_n_validos":1,"dens_n_total":1,"dens_completude":1.0,"status_borda_bacia":"total","metodo_area_bacia":"interse??o geom?trica em EPSG:5880","metodo_na_bacia":"ponto_representativo_setor_2022_within_bacia","municipio":"Westfália","cod_mun":"4323770","mun_pct_na_bacia":100.0,"mun_pop_total":3098,"mun_pop_na_bacia":3098.0,"mun_ubs_iede":1,"mun_hospitais_iede":null,"mun_escolas_iede":6,"mun_bombeiros_iede":null,"mun_servicos_cobertura":"cadastro_IEDE_parcial_nao_inventario","mun_icm_faixa":"A","mun_icm_pontos":10,"mun_icm_prioritario":"não","mun_ubs_iede_status":"published","mun_hospitais_iede_status":"unknown","mun_escolas_iede_status":"published","mun_bombeiros_iede_status":"unknown"},"geometry":{"type":"Polygon","coordinates":[[[-51.73952729999996,-29.445274299999937],[-51.73936639999994,-29.44772819999997],[-51.74061469999999,-29.449039],[-51.74047589999998,-29.45069419999991],[-51.73969649999999,-29.45134469999993],[-51.739795199999946,-29.452662099999944],[-51.74031529999997,-29.45361689999993],[-51.74299979999995,-29.454417199999963],[-51.743731699999955,-29.455309799999945],[-51.743829,-29.456640699999976],[-51.74344289999994,-29.45740969999998],[-51.743634099999944,-29.459205799999943],[-51.742715299999986,-29.46079179999996],[-51.742688499999986,-29.46162829999997],[-51.744131299999935,-29.462219899999976],[-51.750284299999976,-29.461174199999956],[-51.756591,-29.460538399999948],[-51.75794209999998,-29.460847],[-51.76001139999995,-29.462867599999974],[-51.760754299999974,-29.46270519999996],[-51.761318899999935,-29.46197429999994],[-51.76237039999996,-29.461560899999945],[-51.764039099999934,-29.462152599999953],[-51.76545329999994,-29.463162899999926],[-51.76867269999996,-29.46413849999994],[-51.769186,-29.463863899999968],[-51.76941689999995,-29.463397099999945],[-51.76929259999997,-29.46257339999993],[-51.767230799999936,-29.460013799999963],[-51.76683959999997,-29.45867069999998],[-51.766965399999954,-29.45782419999994],[-51.76777089999995,-29.45644529999993],[-51.76908729999997,-29.455984899999965],[-51.77244019999995,-29.456646199999966],[-51.77526039999998,-29.458615099999967],[-51.77938829999994,-29.462043199999982],[-51.781594899999966,-29.461378399999937],[-51.78122989999998,-29.446787799999974],[-51.773046399999934,-29.446927599999988],[-51.77195759999995,-29.447201799999952],[-51.77056289999996,-29.44840849999996],[-51.76951009999993,-29.448737599999955],[-51.76759349999997,-29.447687699999975],[-51.7666397,-29.446433899999928],[-51.764804099999935,-29.444866799999943],[-51.76402129999997,-29.445219399999917],[-51.76018809999993,-29.44523509999993],[-51.75846039999993,-29.44591679999996],[-51.75801049999996,-29.44579139999996],[-51.756705799999956,-29.444631699999952],[-51.75533809999997,-29.44532129999992],[-51.74927329999998,-29.44510189999994],[-51.73952729999996,-29.445274299999937]]]}},{"type":"Feature","properties":{"setor":"432377005000010","pop":425,"sigilo_pop":false,"dom":160,"sigilo_dom":0,"mulheres":210,"sigilo_mulheres":0,"c0_4":20,"sigilo_c0_4":0,"c5_9":39,"sigilo_c5_9":0,"i60_69":36,"sigilo_i60_69":0,"i70m":23,"sigilo_i70m":0,"indigenas":0,"sigilo_indigenas":0,"pretos_pardos":38,"sigilo_pretos_pardos":0,"dom_ocupados":152,"sigilo_dom_ocupados":0,"dom_agua":152,"sigilo_dom_agua":0,"dom_esgoto":3,"sigilo_dom_esgoto":0,"renda_resp":2848.52,"sigilo_renda_resp":0,"n_resp":152,"sigilo_n_resp":0,"dens":1181.9,"sigilo_dens":false,"na_bacia":1,"area_pct_bacia":100.0,"metodo_recorte_bacia":"ponto_representativo_setor_2022; area_pct_geometrica","pop_n_validos":1,"pop_n_total":1,"pop_completude":1.0,"dom_n_validos":1,"dom_n_total":1,"dom_completude":1.0,"dom_ocupados_n_validos":1,"dom_ocupados_n_total":1,"dom_ocupados_completude":1.0,"mulheres_n_validos":1,"mulheres_n_total":1,"mulheres_completude":1.0,"c0_4_n_validos":1,"c0_4_n_total":1,"c0_4_completude":1.0,"c5_9_n_validos":1,"c5_9_n_total":1,"c5_9_completude":1.0,"i60_69_n_validos":1,"i60_69_n_total":1,"i60_69_completude":1.0,"i70m_n_validos":1,"i70m_n_total":1,"i70m_completude":1.0,"indigenas_n_validos":1,"indigenas_n_total":1,"indigenas_completude":1.0,"pretos_pardos_n_validos":1,"pretos_pardos_n_total":1,"pretos_pardos_completude":1.0,"dom_agua_n_validos":1,"dom_agua_n_total":1,"dom_agua_completude":1.0,"dom_esgoto_n_validos":1,"dom_esgoto_n_total":1,"dom_esgoto_completude":1.0,"n_resp_n_validos":1,"n_resp_n_total":1,"n_resp_completude":1.0,"renda_resp_n_validos":1,"renda_resp_n_total":1,"renda_resp_completude":1.0,"dens_n_validos":1,"dens_n_total":1,"dens_completude":1.0,"status_borda_bacia":"total","metodo_area_bacia":"interse??o geom?trica em EPSG:5880","metodo_na_bacia":"ponto_representativo_setor_2022_within_bacia","municipio":"Westfália","cod_mun":"4323770","mun_pct_na_bacia":100.0,"mun_pop_total":3098,"mun_pop_na_bacia":3098.0,"mun_ubs_iede":1,"mun_hospitais_iede":null,"mun_escolas_iede":6,"mun_bombeiros_iede":null,"mun_servicos_cobertura":"cadastro_IEDE_parcial_nao_inventario","mun_icm_faixa":"A","mun_icm_pontos":10,"mun_icm_prioritario":"não","mun_ubs_iede_status":"published","mun_hospitais_iede_status":"unknown","mun_escolas_iede_status":"published","mun_bombeiros_iede_status":"unknown"},"geometry":{"type":"Polygon","coordinates":[[[-51.76461759999995,-29.431274199999958],[-51.76452229999996,-29.434809799999986],[-51.77362129999994,-29.434861],[-51.76819419999999,-29.428377099999974],[-51.76713459999996,-29.42837649999995],[-51.76702339999997,-29.431309599999956],[-51.76461759999995,-29.431274199999958]]]}},{"type":"Feature","properties":{"setor":"432377005000011","pop":261,"sigilo_pop":false,"dom":113,"sigilo_dom":0,"mulheres":124,"sigilo_mulheres":0,"c0_4":21,"sigilo_c0_4":0,"c5_9":22,"sigilo_c5_9":0,"i60_69":19,"sigilo_i60_69":0,"i70m":8,"sigilo_i70m":0,"indigenas":0,"sigilo_indigenas":0,"pretos_pardos":null,"sigilo_pretos_pardos":1,"dom_ocupados":102,"sigilo_dom_ocupados":0,"dom_agua":102,"sigilo_dom_agua":0,"dom_esgoto":7,"sigilo_dom_esgoto":0,"renda_resp":2642.34,"sigilo_renda_resp":0,"n_resp":102,"sigilo_n_resp":0,"dens":143.7,"sigilo_dens":false,"na_bacia":1,"area_pct_bacia":100.0,"metodo_recorte_bacia":"ponto_representativo_setor_2022; area_pct_geometrica","pop_n_validos":1,"pop_n_total":1,"pop_completude":1.0,"dom_n_validos":1,"dom_n_total":1,"dom_completude":1.0,"dom_ocupados_n_validos":1,"dom_ocupados_n_total":1,"dom_ocupados_completude":1.0,"mulheres_n_validos":1,"mulheres_n_total":1,"mulheres_completude":1.0,"c0_4_n_validos":1,"c0_4_n_total":1,"c0_4_completude":1.0,"c5_9_n_validos":1,"c5_9_n_total":1,"c5_9_completude":1.0,"i60_69_n_validos":1,"i60_69_n_total":1,"i60_69_completude":1.0,"i70m_n_validos":1,"i70m_n_total":1,"i70m_completude":1.0,"indigenas_n_validos":1,"indigenas_n_total":1,"indigenas_completude":1.0,"pretos_pardos_n_validos":0,"pretos_pardos_n_total":1,"pretos_pardos_completude":0.0,"dom_agua_n_validos":1,"dom_agua_n_total":1,"dom_agua_completude":1.0,"dom_esgoto_n_validos":1,"dom_esgoto_n_total":1,"dom_esgoto_completude":1.0,"n_resp_n_validos":1,"n_resp_n_total":1,"n_resp_completude":1.0,"renda_resp_n_validos":1,"renda_resp_n_total":1,"renda_resp_completude":1.0,"dens_n_validos":1,"dens_n_total":1,"dens_completude":1.0,"status_borda_bacia":"total","metodo_area_bacia":"interse??o geom?trica em EPSG:5880","metodo_na_bacia":"ponto_representativo_setor_2022_within_bacia","municipio":"Westfália","cod_mun":"4323770","mun_pct_na_bacia":100.0,"mun_pop_total":3098,"mun_pop_na_bacia":3098.0,"mun_ubs_iede":1,"mun_hospitais_iede":null,"mun_escolas_iede":6,"mun_bombeiros_iede":null,"mun_servicos_cobertura":"cadastro_IEDE_parcial_nao_inventario","mun_icm_faixa":"A","mun_icm_pontos":10,"mun_icm_prioritario":"não","mun_ubs_iede_status":"published","mun_hospitais_iede_status":"unknown","mun_escolas_iede_status":"published","mun_bombeiros_iede_status":"unknown"},"geometry":{"type":"Polygon","coordinates":[[[-51.767026699999974,-29.436587899999946],[-51.766270799999965,-29.43790829999994],[-51.763751299999974,-29.43959309999996],[-51.762608599999965,-29.442805899999936],[-51.76268959999992,-29.443299599999936],[-51.76403929999998,-29.444906],[-51.764804099999935,-29.444866799999943],[-51.765254,-29.445133199999923],[-51.76681069999995,-29.446614199999935],[-51.76759349999997,-29.447687699999975],[-51.76951009999993,-29.448737599999955],[-51.77056289999996,-29.44840849999996],[-51.77195759999995,-29.447201799999952],[-51.773046399999934,-29.446927599999988],[-51.78123189999996,-29.44686169999994],[-51.78122349999995,-29.44398909999995],[-51.77362129999994,-29.434861],[-51.766877299999976,-29.434828899999964],[-51.767026699999974,-29.436587899999946]]]}},{"type":"Feature","properties":{"setor":"432377005000012","pop":40,"sigilo_pop":false,"dom":13,"sigilo_dom":0,"mulheres":17,"sigilo_mulheres":0,"c0_4":0,"sigilo_c0_4":0,"c5_9":0,"sigilo_c5_9":0,"i60_69":7,"sigilo_i60_69":0,"i70m":6,"sigilo_i70m":0,"indigenas":0,"sigilo_indigenas":0,"pretos_pardos":0,"sigilo_pretos_pardos":0,"dom_ocupados":12,"sigilo_dom_ocupados":0,"dom_agua":6,"sigilo_dom_agua":0,"dom_esgoto":0,"sigilo_dom_esgoto":0,"renda_resp":4875.0,"sigilo_renda_resp":0,"n_resp":12,"sigilo_n_resp":0,"dens":11.7,"sigilo_dens":false,"na_bacia":1,"area_pct_bacia":100.0,"metodo_recorte_bacia":"ponto_representativo_setor_2022; area_pct_geometrica","pop_n_validos":1,"pop_n_total":1,"pop_completude":1.0,"dom_n_validos":1,"dom_n_total":1,"dom_completude":1.0,"dom_ocupados_n_validos":1,"dom_ocupados_n_total":1,"dom_ocupados_completude":1.0,"mulheres_n_validos":1,"mulheres_n_total":1,"mulheres_completude":1.0,"c0_4_n_validos":1,"c0_4_n_total":1,"c0_4_completude":1.0,"c5_9_n_validos":1,"c5_9_n_total":1,"c5_9_completude":1.0,"i60_69_n_validos":1,"i60_69_n_total":1,"i60_69_completude":1.0,"i70m_n_validos":1,"i70m_n_total":1,"i70m_completude":1.0,"indigenas_n_validos":1,"indigenas_n_total":1,"indigenas_completude":1.0,"pretos_pardos_n_validos":1,"pretos_pardos_n_total":1,"pretos_pardos_completude":1.0,"dom_agua_n_validos":1,"dom_agua_n_total":1,"dom_agua_completude":1.0,"dom_esgoto_n_validos":1,"dom_esgoto_n_total":1,"dom_esgoto_completude":1.0,"n_resp_n_validos":1,"n_resp_n_total":1,"n_resp_completude":1.0,"renda_resp_n_validos":1,"renda_resp_n_total":1,"renda_resp_completude":1.0,"dens_n_validos":1,"dens_n_total":1,"dens_completude":1.0,"status_borda_bacia":"total","metodo_area_bacia":"interse??o geom?trica em EPSG:5880","metodo_na_bacia":"ponto_representativo_setor_2022_within_bacia","municipio":"Westfália","cod_mun":"4323770","mun_pct_na_bacia":100.0,"mun_pop_total":3098,"mun_pop_na_bacia":3098.0,"mun_ubs_iede":1,"mun_hospitais_iede":null,"mun_escolas_iede":6,"mun_bombeiros_iede":null,"mun_servicos_cobertura":"cadastro_IEDE_parcial_nao_inventario","mun_icm_faixa":"A","mun_icm_pontos":10,"mun_icm_prioritario":"não","mun_ubs_iede_status":"published","mun_hospitais_iede_status":"unknown","mun_escolas_iede_status":"published","mun_bombeiros_iede_status":"unknown"},"geometry":{"type":"Polygon","coordinates":[[[-51.771825399999955,-29.38789529999997],[-51.772763,-29.389009299999934],[-51.77323989999997,-29.39002069999998],[-51.774697599999975,-29.39043619999995],[-51.77693809999994,-29.39043619999996],[-51.7777569,-29.391212399999972],[-51.77864779999993,-29.391596499999935],[-51.77868369999993,-29.391894399999952],[-51.777361,-29.396637499999944],[-51.77118829999995,-29.396441499999966],[-51.767400099999975,-29.39549289999995],[-51.76625569999993,-29.395441199999937],[-51.76648449999994,-29.395798599999978],[-51.76743829999998,-29.396190599999958],[-51.768095199999955,-29.39724109999997],[-51.770605699999976,-29.39807209999997],[-51.77259429999997,-29.39912259999994],[-51.774222899999984,-29.39951459999998],[-51.77446589999994,-29.399749699999976],[-51.77328709999994,-29.4016233],[-51.77284619999995,-29.40291679999997],[-51.77292719999998,-29.403826099999932],[-51.77250429999998,-29.404171],[-51.77128949999997,-29.406507],[-51.771163499999936,-29.40794149999993],[-51.770047799999986,-29.411233699999965],[-51.769246899999985,-29.41157859999993],[-51.768311099999956,-29.412354599999954],[-51.76707839999995,-29.41401629999996],[-51.76620819999994,-29.413473299999964],[-51.77054269999997,-29.417449399999956],[-51.771892399999956,-29.420804],[-51.77255829999996,-29.421540699999976],[-51.774016,-29.42202669999995],[-51.77745319999996,-29.421791499999987],[-51.77822709999998,-29.422011],[-51.77907289999995,-29.422606599999945],[-51.77957679999997,-29.423750899999956],[-51.77941479999998,-29.42987959999993],[-51.78006269999997,-29.430788699999926],[-51.78118589999997,-29.431341899999946],[-51.78105679999993,-29.387943699999926],[-51.77664829999997,-29.387977599999935],[-51.77664429999998,-29.387694299999964],[-51.77664669999996,-29.387977599999942],[-51.771825399999955,-29.38789529999997]]]}},{"type":"Feature","properties":{"setor":"432377005000013","pop":65,"sigilo_pop":false,"dom":23,"sigilo_dom":0,"mulheres":35,"sigilo_mulheres":0,"c0_4":6,"sigilo_c0_4":0,"c5_9":null,"sigilo_c5_9":1,"i60_69":6,"sigilo_i60_69":0,"i70m":null,"sigilo_i70m":1,"indigenas":0,"sigilo_indigenas":0,"pretos_pardos":16,"sigilo_pretos_pardos":0,"dom_ocupados":20,"sigilo_dom_ocupados":0,"dom_agua":18,"sigilo_dom_agua":0,"dom_esgoto":null,"sigilo_dom_esgoto":1,"renda_resp":2505.9,"sigilo_renda_resp":0,"n_resp":20,"sigilo_n_resp":0,"dens":34.6,"sigilo_dens":false,"na_bacia":1,"area_pct_bacia":100.0,"metodo_recorte_bacia":"ponto_representativo_setor_2022; area_pct_geometrica","pop_n_validos":1,"pop_n_total":1,"pop_completude":1.0,"dom_n_validos":1,"dom_n_total":1,"dom_completude":1.0,"dom_ocupados_n_validos":1,"dom_ocupados_n_total":1,"dom_ocupados_completude":1.0,"mulheres_n_validos":1,"mulheres_n_total":1,"mulheres_completude":1.0,"c0_4_n_validos":1,"c0_4_n_total":1,"c0_4_completude":1.0,"c5_9_n_validos":0,"c5_9_n_total":1,"c5_9_completude":0.0,"i60_69_n_validos":1,"i60_69_n_total":1,"i60_69_completude":1.0,"i70m_n_validos":0,"i70m_n_total":1,"i70m_completude":0.0,"indigenas_n_validos":1,"indigenas_n_total":1,"indigenas_completude":1.0,"pretos_pardos_n_validos":1,"pretos_pardos_n_total":1,"pretos_pardos_completude":1.0,"dom_agua_n_validos":1,"dom_agua_n_total":1,"dom_agua_completude":1.0,"dom_esgoto_n_validos":0,"dom_esgoto_n_total":1,"dom_esgoto_completude":0.0,"n_resp_n_validos":1,"n_resp_n_total":1,"n_resp_completude":1.0,"renda_resp_n_validos":1,"renda_resp_n_total":1,"renda_resp_completude":1.0,"dens_n_validos":1,"dens_n_total":1,"dens_completude":1.0,"status_borda_bacia":"total","metodo_area_bacia":"interse??o geom?trica em EPSG:5880","metodo_na_bacia":"ponto_representativo_setor_2022_within_bacia","municipio":"Westfália","cod_mun":"4323770","mun_pct_na_bacia":100.0,"mun_pop_total":3098,"mun_pop_na_bacia":3098.0,"mun_ubs_iede":1,"mun_hospitais_iede":null,"mun_escolas_iede":6,"mun_bombeiros_iede":null,"mun_servicos_cobertura":"cadastro_IEDE_parcial_nao_inventario","mun_icm_faixa":"A","mun_icm_pontos":10,"mun_icm_prioritario":"não","mun_ubs_iede_status":"published","mun_hospitais_iede_status":"unknown","mun_escolas_iede_status":"published","mun_bombeiros_iede_status":"unknown"},"geometry":{"type":"Polygon","coordinates":[[[-51.76819419999999,-29.428377099999974],[-51.770655099999935,-29.431373499999943],[-51.78122349999995,-29.44398909999995],[-51.78118589999997,-29.431341899999946],[-51.78006269999997,-29.430788699999926],[-51.77941479999998,-29.42987959999993],[-51.77957679999997,-29.423750899999956],[-51.77907289999995,-29.422606599999945],[-51.77822709999998,-29.422011],[-51.77745319999996,-29.421791499999987],[-51.77345809999997,-29.421948299999944],[-51.77212639999994,-29.421180199999974],[-51.77174249999996,-29.420443499999976],[-51.76837089999998,-29.420434],[-51.76819419999999,-29.428377099999974]]]}},{"type":"Feature","properties":{"setor":"432377005000014","pop":596,"sigilo_pop":false,"dom":281,"sigilo_dom":0,"mulheres":309,"sigilo_mulheres":0,"c0_4":28,"sigilo_c0_4":0,"c5_9":37,"sigilo_c5_9":0,"i60_69":63,"sigilo_i60_69":0,"i70m":62,"sigilo_i70m":0,"indigenas":0,"sigilo_indigenas":0,"pretos_pardos":40,"sigilo_pretos_pardos":0,"dom_ocupados":234,"sigilo_dom_ocupados":0,"dom_agua":234,"sigilo_dom_agua":0,"dom_esgoto":16,"sigilo_dom_esgoto":0,"renda_resp":3302.72,"sigilo_renda_resp":0,"n_resp":234,"sigilo_n_resp":0,"dens":900.8,"sigilo_dens":false,"na_bacia":1,"area_pct_bacia":100.0,"metodo_recorte_bacia":"ponto_representativo_setor_2022; area_pct_geometrica","pop_n_validos":1,"pop_n_total":1,"pop_completude":1.0,"dom_n_validos":1,"dom_n_total":1,"dom_completude":1.0,"dom_ocupados_n_validos":1,"dom_ocupados_n_total":1,"dom_ocupados_completude":1.0,"mulheres_n_validos":1,"mulheres_n_total":1,"mulheres_completude":1.0,"c0_4_n_validos":1,"c0_4_n_total":1,"c0_4_completude":1.0,"c5_9_n_validos":1,"c5_9_n_total":1,"c5_9_completude":1.0,"i60_69_n_validos":1,"i60_69_n_total":1,"i60_69_completude":1.0,"i70m_n_validos":1,"i70m_n_total":1,"i70m_completude":1.0,"indigenas_n_validos":1,"indigenas_n_total":1,"indigenas_completude":1.0,"pretos_pardos_n_validos":1,"pretos_pardos_n_total":1,"pretos_pardos_completude":1.0,"dom_agua_n_validos":1,"dom_agua_n_total":1,"dom_agua_completude":1.0,"dom_esgoto_n_validos":1,"dom_esgoto_n_total":1,"dom_esgoto_completude":1.0,"n_resp_n_validos":1,"n_resp_n_total":1,"n_resp_completude":1.0,"renda_resp_n_validos":1,"renda_resp_n_total":1,"renda_resp_completude":1.0,"dens_n_validos":1,"dens_n_total":1,"dens_completude":1.0,"status_borda_bacia":"total","metodo_area_bacia":"interse??o geom?trica em EPSG:5880","metodo_na_bacia":"ponto_representativo_setor_2022_within_bacia","municipio":"Westfália","cod_mun":"4323770","mun_pct_na_bacia":100.0,"mun_pop_total":3098,"mun_pop_na_bacia":3098.0,"mun_ubs_iede":1,"mun_hospitais_iede":null,"mun_escolas_iede":6,"mun_bombeiros_iede":null,"mun_servicos_cobertura":"cadastro_IEDE_parcial_nao_inventario","mun_icm_faixa":"A","mun_icm_pontos":10,"mun_icm_prioritario":"não","mun_ubs_iede_status":"published","mun_hospitais_iede_status":"unknown","mun_escolas_iede_status":"published","mun_bombeiros_iede_status":"unknown"},"geometry":{"type":"Polygon","coordinates":[[[-51.76461759999995,-29.431274199999958],[-51.76702339999997,-29.431309599999956],[-51.76713459999996,-29.42837649999995],[-51.76819419999999,-29.428377099999974],[-51.76837089999998,-29.420434],[-51.77174249999996,-29.420443499999976],[-51.77054269999997,-29.417449399999956],[-51.76620819999994,-29.413473299999964],[-51.76724889999997,-29.415378299999933],[-51.76520369999997,-29.415455799999947],[-51.76461759999995,-29.431274199999958]]]}}]}
