{"type":"FeatureCollection","name":"4323309","crs":{"type":"name","properties":{"name":"urn:ogc:def:crs:OGC:1.3:CRS84"}},"features":[{"type":"Feature","properties":{"setor":"432330905000001","pop":680,"sigilo_pop":false,"dom":352,"sigilo_dom":0,"mulheres":361,"sigilo_mulheres":0,"c0_4":35,"sigilo_c0_4":0,"c5_9":46,"sigilo_c5_9":0,"i60_69":86,"sigilo_i60_69":0,"i70m":71,"sigilo_i70m":0,"indigenas":4,"sigilo_indigenas":0,"pretos_pardos":29,"sigilo_pretos_pardos":0,"dom_ocupados":279,"sigilo_dom_ocupados":0,"dom_agua":278,"sigilo_dom_agua":0,"dom_esgoto":109,"sigilo_dom_esgoto":0,"renda_resp":2140.94,"sigilo_renda_resp":0,"n_resp":279,"sigilo_n_resp":0,"dens":929.2,"sigilo_dens":false,"na_bacia":1,"area_pct_bacia":100.0,"metodo_recorte_bacia":"ponto_representativo_setor_2022; area_pct_geometrica","pop_n_validos":1,"pop_n_total":1,"pop_completude":1.0,"dom_n_validos":1,"dom_n_total":1,"dom_completude":1.0,"dom_ocupados_n_validos":1,"dom_ocupados_n_total":1,"dom_ocupados_completude":1.0,"mulheres_n_validos":1,"mulheres_n_total":1,"mulheres_completude":1.0,"c0_4_n_validos":1,"c0_4_n_total":1,"c0_4_completude":1.0,"c5_9_n_validos":1,"c5_9_n_total":1,"c5_9_completude":1.0,"i60_69_n_validos":1,"i60_69_n_total":1,"i60_69_completude":1.0,"i70m_n_validos":1,"i70m_n_total":1,"i70m_completude":1.0,"indigenas_n_validos":1,"indigenas_n_total":1,"indigenas_completude":1.0,"pretos_pardos_n_validos":1,"pretos_pardos_n_total":1,"pretos_pardos_completude":1.0,"dom_agua_n_validos":1,"dom_agua_n_total":1,"dom_agua_completude":1.0,"dom_esgoto_n_validos":1,"dom_esgoto_n_total":1,"dom_esgoto_completude":1.0,"n_resp_n_validos":1,"n_resp_n_total":1,"n_resp_completude":1.0,"renda_resp_n_validos":1,"renda_resp_n_total":1,"renda_resp_completude":1.0,"dens_n_validos":1,"dens_n_total":1,"dens_completude":1.0,"status_borda_bacia":"total","metodo_area_bacia":"interseção geométrica em EPSG:5880","metodo_na_bacia":"ponto_representativo_setor_2022_within_bacia","municipio":"Vila Flores","cod_mun":"4323309","mun_pct_na_bacia":100.0,"mun_pop_total":3646,"mun_pop_na_bacia":3646.0,"mun_ubs_iede":1,"mun_hospitais_iede":null,"mun_escolas_iede":4,"mun_bombeiros_iede":null,"mun_servicos_cobertura":"cadastro_IEDE_parcial_nao_inventario","mun_icm_faixa":"B","mun_icm_pontos":9,"mun_icm_prioritario":"não","mun_ubs_iede_status":"published","mun_hospitais_iede_status":"unknown","mun_escolas_iede_status":"published","mun_bombeiros_iede_status":"unknown"},"geometry":{"type":"Polygon","coordinates":[[[-51.548295099999955,-28.859031599999984],[-51.548240699999944,-28.86097],[-51.54622409999997,-28.860301899999968],[-51.54597559999997,-28.862774799999958],[-51.546718,-28.86304289999998],[-51.547851299999934,-28.86405329999998],[-51.548398099999986,-28.866773599999934],[-51.548871,-28.867711899999954],[-51.5490468,-28.870455399999962],[-51.551021,-28.870476499999935],[-51.552040199999965,-28.868013099999924],[-51.552707099999964,-28.864523099999918],[-51.55607389999995,-28.857936],[-51.554349499999944,-28.857151499999933],[-51.553775899999955,-28.85709269999995],[-51.552516899999944,-28.85622719999998],[-51.55019769999995,-28.859109799999946],[-51.548295099999955,-28.859031599999984]]]}},{"type":"Feature","properties":{"setor":"432330905000002","pop":647,"sigilo_pop":false,"dom":266,"sigilo_dom":0,"mulheres":331,"sigilo_mulheres":0,"c0_4":33,"sigilo_c0_4":0,"c5_9":43,"sigilo_c5_9":0,"i60_69":94,"sigilo_i60_69":0,"i70m":75,"sigilo_i70m":0,"indigenas":0,"sigilo_indigenas":0,"pretos_pardos":138,"sigilo_pretos_pardos":0,"dom_ocupados":236,"sigilo_dom_ocupados":0,"dom_agua":231,"sigilo_dom_agua":0,"dom_esgoto":7,"sigilo_dom_esgoto":0,"renda_resp":3116.78,"sigilo_renda_resp":0,"n_resp":236,"sigilo_n_resp":0,"dens":520.0,"sigilo_dens":false,"na_bacia":1,"area_pct_bacia":100.0,"metodo_recorte_bacia":"ponto_representativo_setor_2022; area_pct_geometrica","pop_n_validos":1,"pop_n_total":1,"pop_completude":1.0,"dom_n_validos":1,"dom_n_total":1,"dom_completude":1.0,"dom_ocupados_n_validos":1,"dom_ocupados_n_total":1,"dom_ocupados_completude":1.0,"mulheres_n_validos":1,"mulheres_n_total":1,"mulheres_completude":1.0,"c0_4_n_validos":1,"c0_4_n_total":1,"c0_4_completude":1.0,"c5_9_n_validos":1,"c5_9_n_total":1,"c5_9_completude":1.0,"i60_69_n_validos":1,"i60_69_n_total":1,"i60_69_completude":1.0,"i70m_n_validos":1,"i70m_n_total":1,"i70m_completude":1.0,"indigenas_n_validos":1,"indigenas_n_total":1,"indigenas_completude":1.0,"pretos_pardos_n_validos":1,"pretos_pardos_n_total":1,"pretos_pardos_completude":1.0,"dom_agua_n_validos":1,"dom_agua_n_total":1,"dom_agua_completude":1.0,"dom_esgoto_n_validos":1,"dom_esgoto_n_total":1,"dom_esgoto_completude":1.0,"n_resp_n_validos":1,"n_resp_n_total":1,"n_resp_completude":1.0,"renda_resp_n_validos":1,"renda_resp_n_total":1,"renda_resp_completude":1.0,"dens_n_validos":1,"dens_n_total":1,"dens_completude":1.0,"status_borda_bacia":"total","metodo_area_bacia":"interseção geométrica em EPSG:5880","metodo_na_bacia":"ponto_representativo_setor_2022_within_bacia","municipio":"Vila Flores","cod_mun":"4323309","mun_pct_na_bacia":100.0,"mun_pop_total":3646,"mun_pop_na_bacia":3646.0,"mun_ubs_iede":1,"mun_hospitais_iede":null,"mun_escolas_iede":4,"mun_bombeiros_iede":null,"mun_servicos_cobertura":"cadastro_IEDE_parcial_nao_inventario","mun_icm_faixa":"B","mun_icm_pontos":9,"mun_icm_prioritario":"não","mun_ubs_iede_status":"published","mun_hospitais_iede_status":"unknown","mun_escolas_iede_status":"published","mun_bombeiros_iede_status":"unknown"},"geometry":{"type":"Polygon","coordinates":[[[-51.552516899999944,-28.85622719999998],[-51.553775899999955,-28.85709269999995],[-51.554349499999944,-28.857151499999933],[-51.55607389999995,-28.857936],[-51.552707099999964,-28.864523099999918],[-51.552040199999965,-28.868013099999924],[-51.551021,-28.870476499999935],[-51.5490468,-28.870455399999962],[-51.54902519999996,-28.87172949999996],[-51.54818619999998,-28.873836799999932],[-51.54760109999995,-28.874517099999938],[-51.54316689999995,-28.874387399999932],[-51.543114,-28.875906799999925],[-51.545739,-28.875952799999933],[-51.54576329999997,-28.876805399999963],[-51.54627709999994,-28.87763929999994],[-51.54615729999994,-28.879328499999932],[-51.55107979999997,-28.879495],[-51.554064,-28.866133199999975],[-51.55457529999995,-28.865411199999972],[-51.554849299999944,-28.86425639999993],[-51.55684859999996,-28.86428879999994],[-51.55732659999996,-28.862192799999946],[-51.55567609999997,-28.862539399999946],[-51.55706759999998,-28.85955839999996],[-51.560197,-28.856375099999983],[-51.56320279999994,-28.852536099999956],[-51.55964239999997,-28.85083149999998],[-51.552516899999944,-28.85622719999998]]]}},{"type":"Feature","properties":{"setor":"432330905000004","pop":161,"sigilo_pop":false,"dom":67,"sigilo_dom":0,"mulheres":70,"sigilo_mulheres":0,"c0_4":7,"sigilo_c0_4":0,"c5_9":14,"sigilo_c5_9":0,"i60_69":9,"sigilo_i60_69":0,"i70m":null,"sigilo_i70m":1,"indigenas":0,"sigilo_indigenas":0,"pretos_pardos":37,"sigilo_pretos_pardos":0,"dom_ocupados":58,"sigilo_dom_ocupados":0,"dom_agua":58,"sigilo_dom_agua":0,"dom_esgoto":0,"sigilo_dom_esgoto":0,"renda_resp":2244.3,"sigilo_renda_resp":0,"n_resp":58,"sigilo_n_resp":0,"dens":1979.4,"sigilo_dens":false,"na_bacia":1,"area_pct_bacia":100.0,"metodo_recorte_bacia":"ponto_representativo_setor_2022; area_pct_geometrica","pop_n_validos":1,"pop_n_total":1,"pop_completude":1.0,"dom_n_validos":1,"dom_n_total":1,"dom_completude":1.0,"dom_ocupados_n_validos":1,"dom_ocupados_n_total":1,"dom_ocupados_completude":1.0,"mulheres_n_validos":1,"mulheres_n_total":1,"mulheres_completude":1.0,"c0_4_n_validos":1,"c0_4_n_total":1,"c0_4_completude":1.0,"c5_9_n_validos":1,"c5_9_n_total":1,"c5_9_completude":1.0,"i60_69_n_validos":1,"i60_69_n_total":1,"i60_69_completude":1.0,"i70m_n_validos":0,"i70m_n_total":1,"i70m_completude":0.0,"indigenas_n_validos":1,"indigenas_n_total":1,"indigenas_completude":1.0,"pretos_pardos_n_validos":1,"pretos_pardos_n_total":1,"pretos_pardos_completude":1.0,"dom_agua_n_validos":1,"dom_agua_n_total":1,"dom_agua_completude":1.0,"dom_esgoto_n_validos":1,"dom_esgoto_n_total":1,"dom_esgoto_completude":1.0,"n_resp_n_validos":1,"n_resp_n_total":1,"n_resp_completude":1.0,"renda_resp_n_validos":1,"renda_resp_n_total":1,"renda_resp_completude":1.0,"dens_n_validos":1,"dens_n_total":1,"dens_completude":1.0,"status_borda_bacia":"total","metodo_area_bacia":"interseção geométrica em EPSG:5880","metodo_na_bacia":"ponto_representativo_setor_2022_within_bacia","municipio":"Vila Flores","cod_mun":"4323309","mun_pct_na_bacia":100.0,"mun_pop_total":3646,"mun_pop_na_bacia":3646.0,"mun_ubs_iede":1,"mun_hospitais_iede":null,"mun_escolas_iede":4,"mun_bombeiros_iede":null,"mun_servicos_cobertura":"cadastro_IEDE_parcial_nao_inventario","mun_icm_faixa":"B","mun_icm_pontos":9,"mun_icm_prioritario":"não","mun_ubs_iede_status":"published","mun_hospitais_iede_status":"unknown","mun_escolas_iede_status":"published","mun_bombeiros_iede_status":"unknown"},"geometry":{"type":"Polygon","coordinates":[[[-51.55126389999998,-28.842941899999975],[-51.55659019999997,-28.843018],[-51.556651199999976,-28.84176389999993],[-51.55126319999994,-28.841468],[-51.55126389999998,-28.842941899999975]]]}},{"type":"Feature","properties":{"setor":"432330905000006","pop":217,"sigilo_pop":false,"dom":104,"sigilo_dom":0,"mulheres":110,"sigilo_mulheres":0,"c0_4":15,"sigilo_c0_4":0,"c5_9":11,"sigilo_c5_9":0,"i60_69":29,"sigilo_i60_69":0,"i70m":30,"sigilo_i70m":0,"indigenas":0,"sigilo_indigenas":0,"pretos_pardos":25,"sigilo_pretos_pardos":0,"dom_ocupados":66,"sigilo_dom_ocupados":0,"dom_agua":60,"sigilo_dom_agua":0,"dom_esgoto":0,"sigilo_dom_esgoto":0,"renda_resp":3146.83,"sigilo_renda_resp":0,"n_resp":66,"sigilo_n_resp":0,"dens":9.8,"sigilo_dens":false,"na_bacia":1,"area_pct_bacia":100.0,"metodo_recorte_bacia":"ponto_representativo_setor_2022; area_pct_geometrica","pop_n_validos":1,"pop_n_total":1,"pop_completude":1.0,"dom_n_validos":1,"dom_n_total":1,"dom_completude":1.0,"dom_ocupados_n_validos":1,"dom_ocupados_n_total":1,"dom_ocupados_completude":1.0,"mulheres_n_validos":1,"mulheres_n_total":1,"mulheres_completude":1.0,"c0_4_n_validos":1,"c0_4_n_total":1,"c0_4_completude":1.0,"c5_9_n_validos":1,"c5_9_n_total":1,"c5_9_completude":1.0,"i60_69_n_validos":1,"i60_69_n_total":1,"i60_69_completude":1.0,"i70m_n_validos":1,"i70m_n_total":1,"i70m_completude":1.0,"indigenas_n_validos":1,"indigenas_n_total":1,"indigenas_completude":1.0,"pretos_pardos_n_validos":1,"pretos_pardos_n_total":1,"pretos_pardos_completude":1.0,"dom_agua_n_validos":1,"dom_agua_n_total":1,"dom_agua_completude":1.0,"dom_esgoto_n_validos":1,"dom_esgoto_n_total":1,"dom_esgoto_completude":1.0,"n_resp_n_validos":1,"n_resp_n_total":1,"n_resp_completude":1.0,"renda_resp_n_validos":1,"renda_resp_n_total":1,"renda_resp_completude":1.0,"dens_n_validos":1,"dens_n_total":1,"dens_completude":1.0,"status_borda_bacia":"total","metodo_area_bacia":"interseção geométrica em EPSG:5880","metodo_na_bacia":"ponto_representativo_setor_2022_within_bacia","municipio":"Vila Flores","cod_mun":"4323309","mun_pct_na_bacia":100.0,"mun_pop_total":3646,"mun_pop_na_bacia":3646.0,"mun_ubs_iede":1,"mun_hospitais_iede":null,"mun_escolas_iede":4,"mun_bombeiros_iede":null,"mun_servicos_cobertura":"cadastro_IEDE_parcial_nao_inventario","mun_icm_faixa":"B","mun_icm_pontos":9,"mun_icm_prioritario":"não","mun_ubs_iede_status":"published","mun_hospitais_iede_status":"unknown","mun_escolas_iede_status":"published","mun_bombeiros_iede_status":"unknown"},"geometry":{"type":"Polygon","coordinates":[[[-51.46443509999995,-28.856648],[-51.46544769999997,-28.855310899999946],[-51.46662969999994,-28.854548199999957],[-51.46847409999997,-28.85363089999993],[-51.46914659999993,-28.853707199999977],[-51.469922199999985,-28.852726399999938],[-51.47065219999996,-28.852451599999945],[-51.470872499999984,-28.85257849999992],[-51.47044069999998,-28.85301249999997],[-51.47011669999995,-28.85416],[-51.47131909999997,-28.85376589999993],[-51.471679,-28.853992799999958],[-51.47218829999997,-28.855099299999953],[-51.47329549999994,-28.855634299999956],[-51.474031199999956,-28.85554809999996],[-51.47443619999996,-28.855943799999984],[-51.47537879999994,-28.855727],[-51.47804429999997,-28.85649419999993],[-51.47866659999993,-28.856875399999986],[-51.48155219999996,-28.857007099999983],[-51.48325619999998,-28.85682709999997],[-51.486124899999936,-28.857231899999935],[-51.49226689999995,-28.857125699999976],[-51.49533569999994,-28.85807169999998],[-51.496423499999935,-28.86009949999993],[-51.49784589999996,-28.859186099999928],[-51.49797889999997,-28.858598099999924],[-51.49862619999993,-28.857914099999967],[-51.500522799999935,-28.857145599999964],[-51.50129779999998,-28.856342],[-51.501621,-28.85629259999996],[-51.50585239999998,-28.857644399999963],[-51.50934849999993,-28.85616],[-51.51121879999994,-28.85707859999996],[-51.513658299999975,-28.856991499999936],[-51.51475639999996,-28.85751659999994],[-51.51528039999994,-28.858031],[-51.516847299999945,-28.85708269999997],[-51.51819329999994,-28.8577567],[-51.520469899999966,-28.857292499999975],[-51.522615299999984,-28.857839399999932],[-51.52813219999996,-28.85813279999996],[-51.53064639999997,-28.857962199999978],[-51.53202989999995,-28.85824049999997],[-51.53372279999997,-28.857903699999955],[-51.535492,-28.858729499999967],[-51.53873649999997,-28.85900149999997],[-51.54228129999996,-28.85884259999995],[-51.546886899999954,-28.849244299999942],[-51.54711109999994,-28.841642799999928],[-51.53857749999998,-28.841503299999943],[-51.53844749999996,-28.844368099999937],[-51.53754339999995,-28.844309799999955],[-51.53746589999997,-28.84481429999994],[-51.53697619999997,-28.844786699999926],[-51.53713069999998,-28.841575],[-51.53595649999994,-28.84132649999998],[-51.53452539999995,-28.840647699999973],[-51.532955199999954,-28.84095049999996],[-51.53173019999997,-28.840922],[-51.53027569999994,-28.841455],[-51.52964469999995,-28.841372299999943],[-51.52737719999994,-28.840052],[-51.52524059999997,-28.839258799999968],[-51.52454339999997,-28.838487199999967],[-51.52473229999998,-28.838408],[-51.524859799999945,-28.83615779999996],[-51.549002,-28.83718229999992],[-51.549032899999986,-28.836510599999926],[-51.55067759999997,-28.836555899999954],[-51.550635899999975,-28.837545],[-51.56691589999997,-28.837842799999972],[-51.56717289999994,-28.830691499999947],[-51.500021699999934,-28.82720489999997],[-51.49645269999996,-28.824018499999976],[-51.493739499999954,-28.82363519999995],[-51.493026699999966,-28.824662899999968],[-51.49301289999994,-28.825202699999977],[-51.493781299999974,-28.826726799999964],[-51.49401889999996,-28.82805909999997],[-51.49372969999996,-28.828875099999927],[-51.49335449999996,-28.829169099999945],[-51.4929312,-28.829231899999968],[-51.491491199999984,-28.82827819999995],[-51.48926209999996,-28.827766899999972],[-51.48751939999994,-28.82820179999993],[-51.486465099999975,-28.82883549999997],[-51.48606589999997,-28.82965279999997],[-51.48544389999996,-28.83296249999994],[-51.48339149999999,-28.834556099999933],[-51.48284179999997,-28.835249899999962],[-51.48269289999996,-28.835994799999987],[-51.482976699999945,-28.837816399999944],[-51.483081899999945,-28.84206029999995],[-51.481965,-28.844576899999947],[-51.480439899999965,-28.846496699999932],[-51.47896909999998,-28.84901019999994],[-51.47794619999996,-28.849629],[-51.47648239999995,-28.849713],[-51.47552179999996,-28.84953289999992],[-51.47313579999997,-28.84818909999996],[-51.47184679999999,-28.848084499999977],[-51.46976309999996,-28.84867189999993],[-51.465844199999935,-28.850465399999965],[-51.46492009999997,-28.851141099999946],[-51.46287819999998,-28.854852299999955],[-51.46330409999997,-28.854887599999966],[-51.46375729999994,-28.854589],[-51.46443509999995,-28.856648]]]}},{"type":"Feature","properties":{"setor":"432330905000008","pop":301,"sigilo_pop":false,"dom":164,"sigilo_dom":0,"mulheres":154,"sigilo_mulheres":0,"c0_4":7,"sigilo_c0_4":0,"c5_9":14,"sigilo_c5_9":0,"i60_69":46,"sigilo_i60_69":0,"i70m":49,"sigilo_i70m":0,"indigenas":0,"sigilo_indigenas":0,"pretos_pardos":42,"sigilo_pretos_pardos":0,"dom_ocupados":108,"sigilo_dom_ocupados":0,"dom_agua":45,"sigilo_dom_agua":0,"dom_esgoto":null,"sigilo_dom_esgoto":1,"renda_resp":2763.15,"sigilo_renda_resp":0,"n_resp":108,"sigilo_n_resp":0,"dens":12.3,"sigilo_dens":false,"na_bacia":1,"area_pct_bacia":100.0,"metodo_recorte_bacia":"ponto_representativo_setor_2022; area_pct_geometrica","pop_n_validos":1,"pop_n_total":1,"pop_completude":1.0,"dom_n_validos":1,"dom_n_total":1,"dom_completude":1.0,"dom_ocupados_n_validos":1,"dom_ocupados_n_total":1,"dom_ocupados_completude":1.0,"mulheres_n_validos":1,"mulheres_n_total":1,"mulheres_completude":1.0,"c0_4_n_validos":1,"c0_4_n_total":1,"c0_4_completude":1.0,"c5_9_n_validos":1,"c5_9_n_total":1,"c5_9_completude":1.0,"i60_69_n_validos":1,"i60_69_n_total":1,"i60_69_completude":1.0,"i70m_n_validos":1,"i70m_n_total":1,"i70m_completude":1.0,"indigenas_n_validos":1,"indigenas_n_total":1,"indigenas_completude":1.0,"pretos_pardos_n_validos":1,"pretos_pardos_n_total":1,"pretos_pardos_completude":1.0,"dom_agua_n_validos":1,"dom_agua_n_total":1,"dom_agua_completude":1.0,"dom_esgoto_n_validos":0,"dom_esgoto_n_total":1,"dom_esgoto_completude":0.0,"n_resp_n_validos":1,"n_resp_n_total":1,"n_resp_completude":1.0,"renda_resp_n_validos":1,"renda_resp_n_total":1,"renda_resp_completude":1.0,"dens_n_validos":1,"dens_n_total":1,"dens_completude":1.0,"status_borda_bacia":"total","metodo_area_bacia":"interseção geométrica em EPSG:5880","metodo_na_bacia":"ponto_representativo_setor_2022_within_bacia","municipio":"Vila Flores","cod_mun":"4323309","mun_pct_na_bacia":100.0,"mun_pop_total":3646,"mun_pop_na_bacia":3646.0,"mun_ubs_iede":1,"mun_hospitais_iede":null,"mun_escolas_iede":4,"mun_bombeiros_iede":null,"mun_servicos_cobertura":"cadastro_IEDE_parcial_nao_inventario","mun_icm_faixa":"B","mun_icm_pontos":9,"mun_icm_prioritario":"não","mun_ubs_iede_status":"published","mun_hospitais_iede_status":"unknown","mun_escolas_iede_status":"published","mun_bombeiros_iede_status":"unknown"},"geometry":{"type":"Polygon","coordinates":[[[-51.57136569999995,-28.85954059999995],[-51.564183399999926,-28.859572],[-51.55733239999995,-28.859305499999948],[-51.55706759999998,-28.85955839999996],[-51.55567609999997,-28.862539399999946],[-51.55732659999996,-28.862192799999946],[-51.55684859999996,-28.86428879999994],[-51.554849299999944,-28.86425639999993],[-51.55457529999995,-28.865411199999972],[-51.554064,-28.866133199999975],[-51.55107979999997,-28.879495],[-51.559457399999985,-28.87980939999994],[-51.55941009999998,-28.89182509999994],[-51.56460509999994,-28.891908299999958],[-51.56659049999996,-28.893396],[-51.57524549999994,-28.895812799999934],[-51.57704939999997,-28.897663299999973],[-51.578453,-28.895645],[-51.58166939999995,-28.89504619999998],[-51.583458,-28.89375439999997],[-51.58330959999995,-28.88966739999995],[-51.582250699999975,-28.888461599999953],[-51.58352759999997,-28.88632379999997],[-51.62077789999996,-28.886391],[-51.620434699999976,-28.87288539999998],[-51.64972019999994,-28.872630499999968],[-51.64819189999998,-28.869657599999965],[-51.648344,-28.86768339999997],[-51.64656059999999,-28.864802399999984],[-51.64772609999994,-28.858889499999965],[-51.64681649999994,-28.859211399999925],[-51.64597759999998,-28.861393799999988],[-51.644998499999986,-28.861787],[-51.64425639999996,-28.861835],[-51.643046399999946,-28.86167559999994],[-51.64193589999997,-28.861387299999937],[-51.64133339999995,-28.860949299999966],[-51.64058079999996,-28.860893899999954],[-51.6095246,-28.86025889999997],[-51.606906599999945,-28.86056739999998],[-51.60062549999998,-28.860027],[-51.59749019999998,-28.860131799999973],[-51.59288569999996,-28.859936099999977],[-51.59148319999997,-28.860189599999952],[-51.58942459999997,-28.859184299999978],[-51.588809099999935,-28.858613],[-51.58671419999996,-28.85840259999997],[-51.58400029999996,-28.859728299999965],[-51.578520699999956,-28.85966109999998],[-51.57699659999998,-28.858966],[-51.57605479999995,-28.85801359999993],[-51.57536989999994,-28.857787399999953],[-51.573990099999946,-28.85838379999995],[-51.57254019999993,-28.858537],[-51.57136569999995,-28.85954059999995]]]}},{"type":"Feature","properties":{"setor":"432330905000009","pop":64,"sigilo_pop":false,"dom":39,"sigilo_dom":0,"mulheres":31,"sigilo_mulheres":0,"c0_4":9,"sigilo_c0_4":0,"c5_9":null,"sigilo_c5_9":1,"i60_69":null,"sigilo_i60_69":1,"i70m":null,"sigilo_i70m":1,"indigenas":0,"sigilo_indigenas":0,"pretos_pardos":0,"sigilo_pretos_pardos":0,"dom_ocupados":23,"sigilo_dom_ocupados":0,"dom_agua":null,"sigilo_dom_agua":1,"dom_esgoto":null,"sigilo_dom_esgoto":1,"renda_resp":6571.13,"sigilo_renda_resp":0,"n_resp":23,"sigilo_n_resp":0,"dens":81.5,"sigilo_dens":false,"na_bacia":1,"area_pct_bacia":100.0,"metodo_recorte_bacia":"ponto_representativo_setor_2022; area_pct_geometrica","pop_n_validos":1,"pop_n_total":1,"pop_completude":1.0,"dom_n_validos":1,"dom_n_total":1,"dom_completude":1.0,"dom_ocupados_n_validos":1,"dom_ocupados_n_total":1,"dom_ocupados_completude":1.0,"mulheres_n_validos":1,"mulheres_n_total":1,"mulheres_completude":1.0,"c0_4_n_validos":1,"c0_4_n_total":1,"c0_4_completude":1.0,"c5_9_n_validos":0,"c5_9_n_total":1,"c5_9_completude":0.0,"i60_69_n_validos":0,"i60_69_n_total":1,"i60_69_completude":0.0,"i70m_n_validos":0,"i70m_n_total":1,"i70m_completude":0.0,"indigenas_n_validos":1,"indigenas_n_total":1,"indigenas_completude":1.0,"pretos_pardos_n_validos":1,"pretos_pardos_n_total":1,"pretos_pardos_completude":1.0,"dom_agua_n_validos":0,"dom_agua_n_total":1,"dom_agua_completude":0.0,"dom_esgoto_n_validos":0,"dom_esgoto_n_total":1,"dom_esgoto_completude":0.0,"n_resp_n_validos":1,"n_resp_n_total":1,"n_resp_completude":1.0,"renda_resp_n_validos":1,"renda_resp_n_total":1,"renda_resp_completude":1.0,"dens_n_validos":1,"dens_n_total":1,"dens_completude":1.0,"status_borda_bacia":"total","metodo_area_bacia":"interseção geométrica em EPSG:5880","metodo_na_bacia":"ponto_representativo_setor_2022_within_bacia","municipio":"Vila Flores","cod_mun":"4323309","mun_pct_na_bacia":100.0,"mun_pop_total":3646,"mun_pop_na_bacia":3646.0,"mun_ubs_iede":1,"mun_hospitais_iede":null,"mun_escolas_iede":4,"mun_bombeiros_iede":null,"mun_servicos_cobertura":"cadastro_IEDE_parcial_nao_inventario","mun_icm_faixa":"B","mun_icm_pontos":9,"mun_icm_prioritario":"não","mun_ubs_iede_status":"published","mun_hospitais_iede_status":"unknown","mun_escolas_iede_status":"published","mun_bombeiros_iede_status":"unknown"},"geometry":{"type":"Polygon","coordinates":[[[-51.56611419999996,-28.837806399999987],[-51.566027199999944,-28.83976389999998],[-51.56895669999994,-28.840061099999954],[-51.57366,-28.840025],[-51.574687,-28.837241899999974],[-51.57448489999996,-28.834432299999943],[-51.576421099999955,-28.831171699999967],[-51.56717289999994,-28.830691499999947],[-51.56691589999997,-28.837842799999972],[-51.56611419999996,-28.837806399999987]]]}},{"type":"Feature","properties":{"setor":"432330905000010","pop":59,"sigilo_pop":false,"dom":28,"sigilo_dom":0,"mulheres":36,"sigilo_mulheres":0,"c0_4":null,"sigilo_c0_4":1,"c5_9":4,"sigilo_c5_9":0,"i60_69":null,"sigilo_i60_69":1,"i70m":null,"sigilo_i70m":1,"indigenas":0,"sigilo_indigenas":0,"pretos_pardos":null,"sigilo_pretos_pardos":1,"dom_ocupados":23,"sigilo_dom_ocupados":0,"dom_agua":23,"sigilo_dom_agua":0,"dom_esgoto":null,"sigilo_dom_esgoto":1,"renda_resp":4696.7,"sigilo_renda_resp":0,"n_resp":23,"sigilo_n_resp":0,"dens":893.8,"sigilo_dens":false,"na_bacia":1,"area_pct_bacia":100.0,"metodo_recorte_bacia":"ponto_representativo_setor_2022; area_pct_geometrica","pop_n_validos":1,"pop_n_total":1,"pop_completude":1.0,"dom_n_validos":1,"dom_n_total":1,"dom_completude":1.0,"dom_ocupados_n_validos":1,"dom_ocupados_n_total":1,"dom_ocupados_completude":1.0,"mulheres_n_validos":1,"mulheres_n_total":1,"mulheres_completude":1.0,"c0_4_n_validos":0,"c0_4_n_total":1,"c0_4_completude":0.0,"c5_9_n_validos":1,"c5_9_n_total":1,"c5_9_completude":1.0,"i60_69_n_validos":0,"i60_69_n_total":1,"i60_69_completude":0.0,"i70m_n_validos":0,"i70m_n_total":1,"i70m_completude":0.0,"indigenas_n_validos":1,"indigenas_n_total":1,"indigenas_completude":1.0,"pretos_pardos_n_validos":0,"pretos_pardos_n_total":1,"pretos_pardos_completude":0.0,"dom_agua_n_validos":1,"dom_agua_n_total":1,"dom_agua_completude":1.0,"dom_esgoto_n_validos":0,"dom_esgoto_n_total":1,"dom_esgoto_completude":0.0,"n_resp_n_validos":1,"n_resp_n_total":1,"n_resp_completude":1.0,"renda_resp_n_validos":1,"renda_resp_n_total":1,"renda_resp_completude":1.0,"dens_n_validos":1,"dens_n_total":1,"dens_completude":1.0,"status_borda_bacia":"total","metodo_area_bacia":"interseção geométrica em EPSG:5880","metodo_na_bacia":"ponto_representativo_setor_2022_within_bacia","municipio":"Vila Flores","cod_mun":"4323309","mun_pct_na_bacia":100.0,"mun_pop_total":3646,"mun_pop_na_bacia":3646.0,"mun_ubs_iede":1,"mun_hospitais_iede":null,"mun_escolas_iede":4,"mun_bombeiros_iede":null,"mun_servicos_cobertura":"cadastro_IEDE_parcial_nao_inventario","mun_icm_faixa":"B","mun_icm_pontos":9,"mun_icm_prioritario":"não","mun_ubs_iede_status":"published","mun_hospitais_iede_status":"unknown","mun_escolas_iede_status":"published","mun_bombeiros_iede_status":"unknown"},"geometry":{"type":"Polygon","coordinates":[[[-51.54228129999996,-28.85884259999995],[-51.544575899999984,-28.859750599999977],[-51.548240699999944,-28.86097],[-51.548295099999955,-28.859031599999984],[-51.54228129999996,-28.85884259999995]]]}},{"type":"Feature","properties":{"setor":"432330905000011","pop":166,"sigilo_pop":false,"dom":73,"sigilo_dom":0,"mulheres":83,"sigilo_mulheres":0,"c0_4":14,"sigilo_c0_4":0,"c5_9":18,"sigilo_c5_9":0,"i60_69":null,"sigilo_i60_69":1,"i70m":null,"sigilo_i70m":1,"indigenas":0,"sigilo_indigenas":0,"pretos_pardos":38,"sigilo_pretos_pardos":0,"dom_ocupados":61,"sigilo_dom_ocupados":0,"dom_agua":61,"sigilo_dom_agua":0,"dom_esgoto":16,"sigilo_dom_esgoto":0,"renda_resp":2954.66,"sigilo_renda_resp":0,"n_resp":61,"sigilo_n_resp":0,"dens":2296.7,"sigilo_dens":false,"na_bacia":1,"area_pct_bacia":100.0,"metodo_recorte_bacia":"ponto_representativo_setor_2022; area_pct_geometrica","pop_n_validos":1,"pop_n_total":1,"pop_completude":1.0,"dom_n_validos":1,"dom_n_total":1,"dom_completude":1.0,"dom_ocupados_n_validos":1,"dom_ocupados_n_total":1,"dom_ocupados_completude":1.0,"mulheres_n_validos":1,"mulheres_n_total":1,"mulheres_completude":1.0,"c0_4_n_validos":1,"c0_4_n_total":1,"c0_4_completude":1.0,"c5_9_n_validos":1,"c5_9_n_total":1,"c5_9_completude":1.0,"i60_69_n_validos":0,"i60_69_n_total":1,"i60_69_completude":0.0,"i70m_n_validos":0,"i70m_n_total":1,"i70m_completude":0.0,"indigenas_n_validos":1,"indigenas_n_total":1,"indigenas_completude":1.0,"pretos_pardos_n_validos":1,"pretos_pardos_n_total":1,"pretos_pardos_completude":1.0,"dom_agua_n_validos":1,"dom_agua_n_total":1,"dom_agua_completude":1.0,"dom_esgoto_n_validos":1,"dom_esgoto_n_total":1,"dom_esgoto_completude":1.0,"n_resp_n_validos":1,"n_resp_n_total":1,"n_resp_completude":1.0,"renda_resp_n_validos":1,"renda_resp_n_total":1,"renda_resp_completude":1.0,"dens_n_validos":1,"dens_n_total":1,"dens_completude":1.0,"status_borda_bacia":"total","metodo_area_bacia":"interseção geométrica em EPSG:5880","metodo_na_bacia":"ponto_representativo_setor_2022_within_bacia","municipio":"Vila Flores","cod_mun":"4323309","mun_pct_na_bacia":100.0,"mun_pop_total":3646,"mun_pop_na_bacia":3646.0,"mun_ubs_iede":1,"mun_hospitais_iede":null,"mun_escolas_iede":4,"mun_bombeiros_iede":null,"mun_servicos_cobertura":"cadastro_IEDE_parcial_nao_inventario","mun_icm_faixa":"B","mun_icm_pontos":9,"mun_icm_prioritario":"não","mun_ubs_iede_status":"published","mun_hospitais_iede_status":"unknown","mun_escolas_iede_status":"published","mun_bombeiros_iede_status":"unknown"},"geometry":{"type":"Polygon","coordinates":[[[-51.54902519999996,-28.87172949999996],[-51.54911949999997,-28.869863299999967],[-51.54626539999998,-28.86982129999996],[-51.54622639999997,-28.87063869999997],[-51.545403299999975,-28.870651],[-51.54540179999998,-28.87182439999998],[-51.54816979999998,-28.87192189999996],[-51.54902519999996,-28.87172949999996]]]}},{"type":"Feature","properties":{"setor":"432330905000012","pop":3,"sigilo_pop":false,"dom":1,"sigilo_dom":0,"mulheres":null,"sigilo_mulheres":1,"c0_4":null,"sigilo_c0_4":1,"c5_9":null,"sigilo_c5_9":1,"i60_69":null,"sigilo_i60_69":1,"i70m":null,"sigilo_i70m":1,"indigenas":null,"sigilo_indigenas":1,"pretos_pardos":null,"sigilo_pretos_pardos":1,"dom_ocupados":null,"sigilo_dom_ocupados":1,"dom_agua":null,"sigilo_dom_agua":1,"dom_esgoto":null,"sigilo_dom_esgoto":1,"renda_resp":null,"sigilo_renda_resp":1,"n_resp":null,"sigilo_n_resp":1,"dens":28.7,"sigilo_dens":false,"na_bacia":1,"area_pct_bacia":100.0,"metodo_recorte_bacia":"ponto_representativo_setor_2022; area_pct_geometrica","pop_n_validos":1,"pop_n_total":1,"pop_completude":1.0,"dom_n_validos":1,"dom_n_total":1,"dom_completude":1.0,"dom_ocupados_n_validos":0,"dom_ocupados_n_total":1,"dom_ocupados_completude":0.0,"mulheres_n_validos":0,"mulheres_n_total":1,"mulheres_completude":0.0,"c0_4_n_validos":0,"c0_4_n_total":1,"c0_4_completude":0.0,"c5_9_n_validos":0,"c5_9_n_total":1,"c5_9_completude":0.0,"i60_69_n_validos":0,"i60_69_n_total":1,"i60_69_completude":0.0,"i70m_n_validos":0,"i70m_n_total":1,"i70m_completude":0.0,"indigenas_n_validos":0,"indigenas_n_total":1,"indigenas_completude":0.0,"pretos_pardos_n_validos":0,"pretos_pardos_n_total":1,"pretos_pardos_completude":0.0,"dom_agua_n_validos":0,"dom_agua_n_total":1,"dom_agua_completude":0.0,"dom_esgoto_n_validos":0,"dom_esgoto_n_total":1,"dom_esgoto_completude":0.0,"n_resp_n_validos":0,"n_resp_n_total":1,"n_resp_completude":0.0,"renda_resp_n_validos":0,"renda_resp_n_total":1,"renda_resp_completude":0.0,"dens_n_validos":1,"dens_n_total":1,"dens_completude":1.0,"status_borda_bacia":"total","metodo_area_bacia":"interseção geométrica em EPSG:5880","metodo_na_bacia":"ponto_representativo_setor_2022_within_bacia","municipio":"Vila Flores","cod_mun":"4323309","mun_pct_na_bacia":100.0,"mun_pop_total":3646,"mun_pop_na_bacia":3646.0,"mun_ubs_iede":1,"mun_hospitais_iede":null,"mun_escolas_iede":4,"mun_bombeiros_iede":null,"mun_servicos_cobertura":"cadastro_IEDE_parcial_nao_inventario","mun_icm_faixa":"B","mun_icm_pontos":9,"mun_icm_prioritario":"não","mun_ubs_iede_status":"published","mun_hospitais_iede_status":"unknown","mun_escolas_iede_status":"published","mun_bombeiros_iede_status":"unknown"},"geometry":{"type":"Polygon","coordinates":[[[-51.56418389999994,-28.859458299999968],[-51.55733239999995,-28.859305499999948],[-51.56845409999994,-28.85956679999998],[-51.568459,-28.85871539999994],[-51.56597519999997,-28.857482799999953],[-51.566080599999964,-28.85656019999994],[-51.56431689999994,-28.85646249999996],[-51.56418389999994,-28.859458299999968]]]}},{"type":"Feature","properties":{"setor":"432330905000013","pop":10,"sigilo_pop":false,"dom":5,"sigilo_dom":0,"mulheres":null,"sigilo_mulheres":1,"c0_4":null,"sigilo_c0_4":1,"c5_9":null,"sigilo_c5_9":1,"i60_69":null,"sigilo_i60_69":1,"i70m":null,"sigilo_i70m":1,"indigenas":null,"sigilo_indigenas":1,"pretos_pardos":null,"sigilo_pretos_pardos":1,"dom_ocupados":null,"sigilo_dom_ocupados":1,"dom_agua":null,"sigilo_dom_agua":1,"dom_esgoto":null,"sigilo_dom_esgoto":1,"renda_resp":null,"sigilo_renda_resp":1,"n_resp":null,"sigilo_n_resp":1,"dens":6.3,"sigilo_dens":false,"na_bacia":1,"area_pct_bacia":100.0,"metodo_recorte_bacia":"ponto_representativo_setor_2022; area_pct_geometrica","pop_n_validos":1,"pop_n_total":1,"pop_completude":1.0,"dom_n_validos":1,"dom_n_total":1,"dom_completude":1.0,"dom_ocupados_n_validos":0,"dom_ocupados_n_total":1,"dom_ocupados_completude":0.0,"mulheres_n_validos":0,"mulheres_n_total":1,"mulheres_completude":0.0,"c0_4_n_validos":0,"c0_4_n_total":1,"c0_4_completude":0.0,"c5_9_n_validos":0,"c5_9_n_total":1,"c5_9_completude":0.0,"i60_69_n_validos":0,"i60_69_n_total":1,"i60_69_completude":0.0,"i70m_n_validos":0,"i70m_n_total":1,"i70m_completude":0.0,"indigenas_n_validos":0,"indigenas_n_total":1,"indigenas_completude":0.0,"pretos_pardos_n_validos":0,"pretos_pardos_n_total":1,"pretos_pardos_completude":0.0,"dom_agua_n_validos":0,"dom_agua_n_total":1,"dom_agua_completude":0.0,"dom_esgoto_n_validos":0,"dom_esgoto_n_total":1,"dom_esgoto_completude":0.0,"n_resp_n_validos":0,"n_resp_n_total":1,"n_resp_completude":0.0,"renda_resp_n_validos":0,"renda_resp_n_total":1,"renda_resp_completude":0.0,"dens_n_validos":1,"dens_n_total":1,"dens_completude":1.0,"status_borda_bacia":"total","metodo_area_bacia":"interseção geométrica em EPSG:5880","metodo_na_bacia":"ponto_representativo_setor_2022_within_bacia","municipio":"Vila Flores","cod_mun":"4323309","mun_pct_na_bacia":100.0,"mun_pop_total":3646,"mun_pop_na_bacia":3646.0,"mun_ubs_iede":1,"mun_hospitais_iede":null,"mun_escolas_iede":4,"mun_bombeiros_iede":null,"mun_servicos_cobertura":"cadastro_IEDE_parcial_nao_inventario","mun_icm_faixa":"B","mun_icm_pontos":9,"mun_icm_prioritario":"não","mun_ubs_iede_status":"published","mun_hospitais_iede_status":"unknown","mun_escolas_iede_status":"published","mun_bombeiros_iede_status":"unknown"},"geometry":{"type":"Polygon","coordinates":[[[-51.55460629999994,-28.84303789999996],[-51.55438419999996,-28.848246799999966],[-51.561689299999955,-28.851858799999942],[-51.56292559999997,-28.850419199999973],[-51.56631179999994,-28.848860099999982],[-51.56798939999993,-28.848322499999938],[-51.57083759999995,-28.84792339999997],[-51.57217359999998,-28.847424299999947],[-51.574647699999964,-28.84586379999996],[-51.57538869999996,-28.844364],[-51.575184899999954,-28.843371799999947],[-51.57434539999998,-28.841778199999965],[-51.556651199999976,-28.84176389999993],[-51.55659019999997,-28.843018],[-51.55460629999994,-28.84303789999996]]]}},{"type":"Feature","properties":{"setor":"432330905000014","pop":504,"sigilo_pop":false,"dom":210,"sigilo_dom":0,"mulheres":247,"sigilo_mulheres":0,"c0_4":27,"sigilo_c0_4":0,"c5_9":27,"sigilo_c5_9":0,"i60_69":82,"sigilo_i60_69":0,"i70m":67,"sigilo_i70m":0,"indigenas":0,"sigilo_indigenas":0,"pretos_pardos":75,"sigilo_pretos_pardos":0,"dom_ocupados":184,"sigilo_dom_ocupados":0,"dom_agua":180,"sigilo_dom_agua":0,"dom_esgoto":0,"sigilo_dom_esgoto":0,"renda_resp":2468.05,"sigilo_renda_resp":0,"n_resp":184,"sigilo_n_resp":0,"dens":132.1,"sigilo_dens":false,"na_bacia":1,"area_pct_bacia":100.0,"metodo_recorte_bacia":"ponto_representativo_setor_2022; area_pct_geometrica","pop_n_validos":1,"pop_n_total":1,"pop_completude":1.0,"dom_n_validos":1,"dom_n_total":1,"dom_completude":1.0,"dom_ocupados_n_validos":1,"dom_ocupados_n_total":1,"dom_ocupados_completude":1.0,"mulheres_n_validos":1,"mulheres_n_total":1,"mulheres_completude":1.0,"c0_4_n_validos":1,"c0_4_n_total":1,"c0_4_completude":1.0,"c5_9_n_validos":1,"c5_9_n_total":1,"c5_9_completude":1.0,"i60_69_n_validos":1,"i60_69_n_total":1,"i60_69_completude":1.0,"i70m_n_validos":1,"i70m_n_total":1,"i70m_completude":1.0,"indigenas_n_validos":1,"indigenas_n_total":1,"indigenas_completude":1.0,"pretos_pardos_n_validos":1,"pretos_pardos_n_total":1,"pretos_pardos_completude":1.0,"dom_agua_n_validos":1,"dom_agua_n_total":1,"dom_agua_completude":1.0,"dom_esgoto_n_validos":1,"dom_esgoto_n_total":1,"dom_esgoto_completude":1.0,"n_resp_n_validos":1,"n_resp_n_total":1,"n_resp_completude":1.0,"renda_resp_n_validos":1,"renda_resp_n_total":1,"renda_resp_completude":1.0,"dens_n_validos":1,"dens_n_total":1,"dens_completude":1.0,"status_borda_bacia":"total","metodo_area_bacia":"interseção geométrica em EPSG:5880","metodo_na_bacia":"ponto_representativo_setor_2022_within_bacia","municipio":"Vila Flores","cod_mun":"4323309","mun_pct_na_bacia":100.0,"mun_pop_total":3646,"mun_pop_na_bacia":3646.0,"mun_ubs_iede":1,"mun_hospitais_iede":null,"mun_escolas_iede":4,"mun_bombeiros_iede":null,"mun_servicos_cobertura":"cadastro_IEDE_parcial_nao_inventario","mun_icm_faixa":"B","mun_icm_pontos":9,"mun_icm_prioritario":"não","mun_ubs_iede_status":"published","mun_hospitais_iede_status":"unknown","mun_escolas_iede_status":"published","mun_bombeiros_iede_status":"unknown"},"geometry":{"type":"Polygon","coordinates":[[[-51.54228129999996,-28.85884259999995],[-51.55019769999995,-28.859109799999946],[-51.552516899999944,-28.85622719999998],[-51.55964239999997,-28.85083149999998],[-51.55438419999996,-28.848246799999966],[-51.55460629999994,-28.84303789999996],[-51.55126389999998,-28.842941899999975],[-51.55126319999994,-28.841468],[-51.556651199999976,-28.84176389999993],[-51.57434539999998,-28.841778199999965],[-51.57378559999995,-28.840820399999984],[-51.57366,-28.840025],[-51.56895669999994,-28.840061099999954],[-51.566027199999944,-28.83976389999998],[-51.56611419999996,-28.837806399999987],[-51.550635899999975,-28.837545],[-51.55067759999997,-28.836555899999954],[-51.549032899999986,-28.836510599999926],[-51.549002,-28.83718229999992],[-51.524859799999945,-28.83615779999996],[-51.52473229999998,-28.838408],[-51.52454339999997,-28.838487199999967],[-51.52524059999997,-28.839258799999968],[-51.52737719999994,-28.840052],[-51.52964469999995,-28.841372299999943],[-51.53027569999994,-28.841455],[-51.53173019999997,-28.840922],[-51.532955199999954,-28.84095049999996],[-51.53452539999995,-28.840647699999973],[-51.53595649999994,-28.84132649999998],[-51.53713069999998,-28.841575],[-51.53697619999997,-28.844786699999926],[-51.53746589999997,-28.84481429999994],[-51.53754339999995,-28.844309799999955],[-51.53844749999996,-28.844368099999937],[-51.53857749999998,-28.841503299999943],[-51.54711109999994,-28.841642799999928],[-51.546886899999954,-28.849244299999942],[-51.54228129999996,-28.85884259999995]]]}},{"type":"Feature","properties":{"setor":"432330905000015","pop":11,"sigilo_pop":false,"dom":4,"sigilo_dom":0,"mulheres":null,"sigilo_mulheres":1,"c0_4":null,"sigilo_c0_4":1,"c5_9":null,"sigilo_c5_9":1,"i60_69":null,"sigilo_i60_69":1,"i70m":null,"sigilo_i70m":1,"indigenas":null,"sigilo_indigenas":1,"pretos_pardos":null,"sigilo_pretos_pardos":1,"dom_ocupados":null,"sigilo_dom_ocupados":1,"dom_agua":null,"sigilo_dom_agua":1,"dom_esgoto":null,"sigilo_dom_esgoto":1,"renda_resp":null,"sigilo_renda_resp":1,"n_resp":null,"sigilo_n_resp":1,"dens":25.9,"sigilo_dens":false,"na_bacia":1,"area_pct_bacia":100.0,"metodo_recorte_bacia":"ponto_representativo_setor_2022; area_pct_geometrica","pop_n_validos":1,"pop_n_total":1,"pop_completude":1.0,"dom_n_validos":1,"dom_n_total":1,"dom_completude":1.0,"dom_ocupados_n_validos":0,"dom_ocupados_n_total":1,"dom_ocupados_completude":0.0,"mulheres_n_validos":0,"mulheres_n_total":1,"mulheres_completude":0.0,"c0_4_n_validos":0,"c0_4_n_total":1,"c0_4_completude":0.0,"c5_9_n_validos":0,"c5_9_n_total":1,"c5_9_completude":0.0,"i60_69_n_validos":0,"i60_69_n_total":1,"i60_69_completude":0.0,"i70m_n_validos":0,"i70m_n_total":1,"i70m_completude":0.0,"indigenas_n_validos":0,"indigenas_n_total":1,"indigenas_completude":0.0,"pretos_pardos_n_validos":0,"pretos_pardos_n_total":1,"pretos_pardos_completude":0.0,"dom_agua_n_validos":0,"dom_agua_n_total":1,"dom_agua_completude":0.0,"dom_esgoto_n_validos":0,"dom_esgoto_n_total":1,"dom_esgoto_completude":0.0,"n_resp_n_validos":0,"n_resp_n_total":1,"n_resp_completude":0.0,"renda_resp_n_validos":0,"renda_resp_n_total":1,"renda_resp_completude":0.0,"dens_n_validos":1,"dens_n_total":1,"dens_completude":1.0,"status_borda_bacia":"total","metodo_area_bacia":"interseção geométrica em EPSG:5880","metodo_na_bacia":"ponto_representativo_setor_2022_within_bacia","municipio":"Vila Flores","cod_mun":"4323309","mun_pct_na_bacia":100.0,"mun_pop_total":3646,"mun_pop_na_bacia":3646.0,"mun_ubs_iede":1,"mun_hospitais_iede":null,"mun_escolas_iede":4,"mun_bombeiros_iede":null,"mun_servicos_cobertura":"cadastro_IEDE_parcial_nao_inventario","mun_icm_faixa":"B","mun_icm_pontos":9,"mun_icm_prioritario":"não","mun_ubs_iede_status":"published","mun_hospitais_iede_status":"unknown","mun_escolas_iede_status":"published","mun_bombeiros_iede_status":"unknown"},"geometry":{"type":"Polygon","coordinates":[[[-51.52949379999995,-28.887231699999987],[-51.53302069999995,-28.88722089999994],[-51.53390849999994,-28.88531809999995],[-51.53356929999995,-28.882317],[-51.534189699999956,-28.880842199999957],[-51.53360019999997,-28.87975289999998],[-51.53424769999998,-28.87886289999995],[-51.54615729999994,-28.879328499999932],[-51.54618019999998,-28.87893649999994],[-51.54133229999997,-28.878967899999957],[-51.53913469999998,-28.87873029999996],[-51.53737949999998,-28.878855899999955],[-51.529763899999985,-28.87829569999997],[-51.52949379999995,-28.887231699999987]]]}},{"type":"Feature","properties":{"setor":"432330905000016","pop":496,"sigilo_pop":false,"dom":212,"sigilo_dom":0,"mulheres":235,"sigilo_mulheres":0,"c0_4":24,"sigilo_c0_4":0,"c5_9":23,"sigilo_c5_9":0,"i60_69":73,"sigilo_i60_69":0,"i70m":72,"sigilo_i70m":0,"indigenas":null,"sigilo_indigenas":1,"pretos_pardos":47,"sigilo_pretos_pardos":0,"dom_ocupados":169,"sigilo_dom_ocupados":0,"dom_agua":24,"sigilo_dom_agua":0,"dom_esgoto":0,"sigilo_dom_esgoto":0,"renda_resp":3125.75,"sigilo_renda_resp":0,"n_resp":169,"sigilo_n_resp":0,"dens":20.6,"sigilo_dens":false,"na_bacia":1,"area_pct_bacia":100.0,"metodo_recorte_bacia":"ponto_representativo_setor_2022; area_pct_geometrica","pop_n_validos":1,"pop_n_total":1,"pop_completude":1.0,"dom_n_validos":1,"dom_n_total":1,"dom_completude":1.0,"dom_ocupados_n_validos":1,"dom_ocupados_n_total":1,"dom_ocupados_completude":1.0,"mulheres_n_validos":1,"mulheres_n_total":1,"mulheres_completude":1.0,"c0_4_n_validos":1,"c0_4_n_total":1,"c0_4_completude":1.0,"c5_9_n_validos":1,"c5_9_n_total":1,"c5_9_completude":1.0,"i60_69_n_validos":1,"i60_69_n_total":1,"i60_69_completude":1.0,"i70m_n_validos":1,"i70m_n_total":1,"i70m_completude":1.0,"indigenas_n_validos":0,"indigenas_n_total":1,"indigenas_completude":0.0,"pretos_pardos_n_validos":1,"pretos_pardos_n_total":1,"pretos_pardos_completude":1.0,"dom_agua_n_validos":1,"dom_agua_n_total":1,"dom_agua_completude":1.0,"dom_esgoto_n_validos":1,"dom_esgoto_n_total":1,"dom_esgoto_completude":1.0,"n_resp_n_validos":1,"n_resp_n_total":1,"n_resp_completude":1.0,"renda_resp_n_validos":1,"renda_resp_n_total":1,"renda_resp_completude":1.0,"dens_n_validos":1,"dens_n_total":1,"dens_completude":1.0,"status_borda_bacia":"total","metodo_area_bacia":"interseção geométrica em EPSG:5880","metodo_na_bacia":"ponto_representativo_setor_2022_within_bacia","municipio":"Vila Flores","cod_mun":"4323309","mun_pct_na_bacia":100.0,"mun_pop_total":3646,"mun_pop_na_bacia":3646.0,"mun_ubs_iede":1,"mun_hospitais_iede":null,"mun_escolas_iede":4,"mun_bombeiros_iede":null,"mun_servicos_cobertura":"cadastro_IEDE_parcial_nao_inventario","mun_icm_faixa":"B","mun_icm_pontos":9,"mun_icm_prioritario":"não","mun_ubs_iede_status":"published","mun_hospitais_iede_status":"unknown","mun_escolas_iede_status":"published","mun_bombeiros_iede_status":"unknown"},"geometry":{"type":"Polygon","coordinates":[[[-51.57366,-28.840025],[-51.573758299999945,-28.840735699999986],[-51.58320839999993,-28.840940599999943],[-51.583194499999934,-28.841852099999972],[-51.577706699999965,-28.84172189999998],[-51.57623709999996,-28.842405499999984],[-51.574736,-28.84240909999993],[-51.57538869999996,-28.844364],[-51.57499229999997,-28.845469799999936],[-51.574219,-28.846180399999977],[-51.571760899999965,-28.847616599999967],[-51.570298,-28.84805449999994],[-51.567199899999935,-28.848522799999966],[-51.562651499999966,-28.850648899999968],[-51.561689299999955,-28.851858799999942],[-51.56320279999994,-28.852536099999956],[-51.560197,-28.856375099999983],[-51.55744489999995,-28.859190399999935],[-51.56418389999994,-28.859458299999968],[-51.56431689999994,-28.85646249999996],[-51.566080599999964,-28.85656019999994],[-51.56597519999997,-28.857482799999953],[-51.568459,-28.85871539999994],[-51.56845529999999,-28.859508299999963],[-51.57136569999995,-28.85954059999995],[-51.57254019999993,-28.858537],[-51.573990099999946,-28.85838379999995],[-51.57536989999994,-28.857787399999953],[-51.57605479999995,-28.85801359999993],[-51.57699659999998,-28.858966],[-51.578520699999956,-28.85966109999998],[-51.58400029999996,-28.859728299999965],[-51.58671419999996,-28.85840259999997],[-51.588809099999935,-28.858613],[-51.58942459999997,-28.859184299999978],[-51.59148319999997,-28.860189599999952],[-51.59288569999996,-28.859936099999977],[-51.59749019999998,-28.860131799999973],[-51.60062549999998,-28.860027],[-51.606906599999945,-28.86056739999998],[-51.6095246,-28.86025889999997],[-51.64058079999996,-28.860893899999954],[-51.64133339999995,-28.860949299999966],[-51.64193589999997,-28.861387299999937],[-51.643046399999946,-28.86167559999994],[-51.644708899999955,-28.861817499999965],[-51.64597759999998,-28.861393799999988],[-51.64681649999994,-28.859211399999925],[-51.64772609999994,-28.858889499999965],[-51.64828849999998,-28.856036],[-51.647964499999944,-28.85385689999998],[-51.649746,-28.852123],[-51.64981839999996,-28.850046399999933],[-51.651432199999924,-28.848291499999963],[-51.6509928,-28.844949799999945],[-51.65398129999994,-28.845875599999943],[-51.65675889999995,-28.84478039999993],[-51.66316279999995,-28.83845489999993],[-51.66620169999994,-28.83702659999995],[-51.66718219999996,-28.834838499999933],[-51.57523969999994,-28.83337079999995],[-51.57481579999996,-28.833755699999966],[-51.57440659999998,-28.834720099999966],[-51.574687,-28.837241899999974],[-51.57366,-28.840025]]]}},{"type":"Feature","properties":{"setor":"432330905000017","pop":39,"sigilo_pop":false,"dom":14,"sigilo_dom":0,"mulheres":21,"sigilo_mulheres":0,"c0_4":null,"sigilo_c0_4":1,"c5_9":null,"sigilo_c5_9":1,"i60_69":null,"sigilo_i60_69":1,"i70m":null,"sigilo_i70m":1,"indigenas":0,"sigilo_indigenas":0,"pretos_pardos":12,"sigilo_pretos_pardos":0,"dom_ocupados":13,"sigilo_dom_ocupados":0,"dom_agua":7,"sigilo_dom_agua":0,"dom_esgoto":0,"sigilo_dom_esgoto":0,"renda_resp":2771.08,"sigilo_renda_resp":0,"n_resp":13,"sigilo_n_resp":0,"dens":354.3,"sigilo_dens":false,"na_bacia":1,"area_pct_bacia":100.0,"metodo_recorte_bacia":"ponto_representativo_setor_2022; area_pct_geometrica","pop_n_validos":1,"pop_n_total":1,"pop_completude":1.0,"dom_n_validos":1,"dom_n_total":1,"dom_completude":1.0,"dom_ocupados_n_validos":1,"dom_ocupados_n_total":1,"dom_ocupados_completude":1.0,"mulheres_n_validos":1,"mulheres_n_total":1,"mulheres_completude":1.0,"c0_4_n_validos":0,"c0_4_n_total":1,"c0_4_completude":0.0,"c5_9_n_validos":0,"c5_9_n_total":1,"c5_9_completude":0.0,"i60_69_n_validos":0,"i60_69_n_total":1,"i60_69_completude":0.0,"i70m_n_validos":0,"i70m_n_total":1,"i70m_completude":0.0,"indigenas_n_validos":1,"indigenas_n_total":1,"indigenas_completude":1.0,"pretos_pardos_n_validos":1,"pretos_pardos_n_total":1,"pretos_pardos_completude":1.0,"dom_agua_n_validos":1,"dom_agua_n_total":1,"dom_agua_completude":1.0,"dom_esgoto_n_validos":1,"dom_esgoto_n_total":1,"dom_esgoto_completude":1.0,"n_resp_n_validos":1,"n_resp_n_total":1,"n_resp_completude":1.0,"renda_resp_n_validos":1,"renda_resp_n_total":1,"renda_resp_completude":1.0,"dens_n_validos":1,"dens_n_total":1,"dens_completude":1.0,"status_borda_bacia":"total","metodo_area_bacia":"interseção geométrica em EPSG:5880","metodo_na_bacia":"ponto_representativo_setor_2022_within_bacia","municipio":"Vila Flores","cod_mun":"4323309","mun_pct_na_bacia":100.0,"mun_pop_total":3646,"mun_pop_na_bacia":3646.0,"mun_ubs_iede":1,"mun_hospitais_iede":null,"mun_escolas_iede":4,"mun_bombeiros_iede":null,"mun_servicos_cobertura":"cadastro_IEDE_parcial_nao_inventario","mun_icm_faixa":"B","mun_icm_pontos":9,"mun_icm_prioritario":"não","mun_ubs_iede_status":"published","mun_hospitais_iede_status":"unknown","mun_escolas_iede_status":"published","mun_bombeiros_iede_status":"unknown"},"geometry":{"type":"Polygon","coordinates":[[[-51.573758299999945,-28.840735699999986],[-51.574736,-28.84240909999993],[-51.57623709999996,-28.842405499999984],[-51.577706699999965,-28.84172189999998],[-51.583194499999934,-28.841852099999972],[-51.58320839999993,-28.840940599999943],[-51.573758299999945,-28.840735699999986]]]}},{"type":"Feature","properties":{"setor":"432330905000018","pop":288,"sigilo_pop":false,"dom":129,"sigilo_dom":0,"mulheres":152,"sigilo_mulheres":0,"c0_4":8,"sigilo_c0_4":0,"c5_9":14,"sigilo_c5_9":0,"i60_69":57,"sigilo_i60_69":0,"i70m":44,"sigilo_i70m":0,"indigenas":0,"sigilo_indigenas":0,"pretos_pardos":null,"sigilo_pretos_pardos":1,"dom_ocupados":96,"sigilo_dom_ocupados":0,"dom_agua":83,"sigilo_dom_agua":0,"dom_esgoto":0,"sigilo_dom_esgoto":0,"renda_resp":3841.64,"sigilo_renda_resp":0,"n_resp":96,"sigilo_n_resp":0,"dens":10.2,"sigilo_dens":false,"na_bacia":1,"area_pct_bacia":100.0,"metodo_recorte_bacia":"ponto_representativo_setor_2022; area_pct_geometrica","pop_n_validos":1,"pop_n_total":1,"pop_completude":1.0,"dom_n_validos":1,"dom_n_total":1,"dom_completude":1.0,"dom_ocupados_n_validos":1,"dom_ocupados_n_total":1,"dom_ocupados_completude":1.0,"mulheres_n_validos":1,"mulheres_n_total":1,"mulheres_completude":1.0,"c0_4_n_validos":1,"c0_4_n_total":1,"c0_4_completude":1.0,"c5_9_n_validos":1,"c5_9_n_total":1,"c5_9_completude":1.0,"i60_69_n_validos":1,"i60_69_n_total":1,"i60_69_completude":1.0,"i70m_n_validos":1,"i70m_n_total":1,"i70m_completude":1.0,"indigenas_n_validos":1,"indigenas_n_total":1,"indigenas_completude":1.0,"pretos_pardos_n_validos":0,"pretos_pardos_n_total":1,"pretos_pardos_completude":0.0,"dom_agua_n_validos":1,"dom_agua_n_total":1,"dom_agua_completude":1.0,"dom_esgoto_n_validos":1,"dom_esgoto_n_total":1,"dom_esgoto_completude":1.0,"n_resp_n_validos":1,"n_resp_n_total":1,"n_resp_completude":1.0,"renda_resp_n_validos":1,"renda_resp_n_total":1,"renda_resp_completude":1.0,"dens_n_validos":1,"dens_n_total":1,"dens_completude":1.0,"status_borda_bacia":"total","metodo_area_bacia":"interseção geométrica em EPSG:5880","metodo_na_bacia":"ponto_representativo_setor_2022_within_bacia","municipio":"Vila Flores","cod_mun":"4323309","mun_pct_na_bacia":100.0,"mun_pop_total":3646,"mun_pop_na_bacia":3646.0,"mun_ubs_iede":1,"mun_hospitais_iede":null,"mun_escolas_iede":4,"mun_bombeiros_iede":null,"mun_servicos_cobertura":"cadastro_IEDE_parcial_nao_inventario","mun_icm_faixa":"B","mun_icm_pontos":9,"mun_icm_prioritario":"não","mun_ubs_iede_status":"published","mun_hospitais_iede_status":"unknown","mun_escolas_iede_status":"published","mun_bombeiros_iede_status":"unknown"},"geometry":{"type":"Polygon","coordinates":[[[-51.46544769999997,-28.855310899999946],[-51.46443509999995,-28.856648],[-51.46375729999994,-28.854589],[-51.46330409999997,-28.854887599999966],[-51.46287819999998,-28.854852299999955],[-51.46256969999996,-28.8572746],[-51.460456099999924,-28.860747799999952],[-51.45877309999997,-28.86210519999997],[-51.45799009999996,-28.86242419999996],[-51.456830099999934,-28.862540199999962],[-51.45321249999995,-28.862603099999944],[-51.451349299999954,-28.863127399999936],[-51.44866689999998,-28.86439609999997],[-51.44781969999997,-28.86513869999993],[-51.44724589999998,-28.86625929999997],[-51.446929199999936,-28.867343099999978],[-51.447070499999946,-28.86975119999994],[-51.448182199999955,-28.87153119999993],[-51.45076979999993,-28.874201599999928],[-51.453124199999934,-28.875833499999942],[-51.457414,-28.877962599999936],[-51.45873679999993,-28.87939589999997],[-51.459023199999926,-28.88006289999994],[-51.45896489999996,-28.881403599999935],[-51.45856149999997,-28.882232099999946],[-51.45590359999994,-28.886444899999955],[-51.52949379999995,-28.887231699999987],[-51.529763899999985,-28.87829569999997],[-51.53737949999998,-28.878855899999955],[-51.53913469999998,-28.87873029999996],[-51.54133229999997,-28.878967899999957],[-51.54618019999998,-28.87893649999994],[-51.54627709999994,-28.87763929999994],[-51.54576329999997,-28.876805399999963],[-51.545739,-28.875952799999933],[-51.543114,-28.875906799999925],[-51.54316689999995,-28.874387399999932],[-51.54760109999995,-28.874517099999938],[-51.54818619999998,-28.873836799999932],[-51.54902519999996,-28.87172949999996],[-51.54816979999998,-28.87192189999996],[-51.54540179999998,-28.87182439999998],[-51.545403299999975,-28.870651],[-51.54622639999997,-28.87063869999997],[-51.54626539999998,-28.86982129999996],[-51.54911949999997,-28.869863299999967],[-51.548871,-28.867711899999954],[-51.548398099999986,-28.866773599999934],[-51.547851299999934,-28.86405329999998],[-51.546718,-28.86304289999998],[-51.54597559999997,-28.862774799999958],[-51.54622409999997,-28.860301899999968],[-51.54227129999998,-28.858842699999972],[-51.53873649999997,-28.85900149999997],[-51.535492,-28.858729499999967],[-51.53372279999997,-28.857903699999955],[-51.53202989999995,-28.85824049999997],[-51.53064639999997,-28.857962199999978],[-51.52813219999996,-28.85813279999996],[-51.522615299999984,-28.857839399999932],[-51.520469899999966,-28.857292499999975],[-51.51819329999994,-28.8577567],[-51.516847299999945,-28.85708269999997],[-51.51528039999994,-28.858031],[-51.51475639999996,-28.85751659999994],[-51.513658299999975,-28.856991499999936],[-51.51121879999994,-28.85707859999996],[-51.50934849999993,-28.85616],[-51.50585239999998,-28.857644399999963],[-51.501621,-28.85629259999996],[-51.50129779999998,-28.856342],[-51.500522799999935,-28.857145599999964],[-51.49862619999993,-28.857914099999967],[-51.49797889999997,-28.858598099999924],[-51.49784589999996,-28.859186099999928],[-51.496423499999935,-28.86009949999993],[-51.49533569999994,-28.85807169999998],[-51.49226689999995,-28.857125699999976],[-51.486124899999936,-28.857231899999935],[-51.48325619999998,-28.85682709999997],[-51.48155219999996,-28.857007099999983],[-51.47866659999993,-28.856875399999986],[-51.47804429999997,-28.85649419999993],[-51.47537879999994,-28.855727],[-51.47443619999996,-28.855943799999984],[-51.474031199999956,-28.85554809999996],[-51.47329549999994,-28.855634299999956],[-51.47218829999997,-28.855099299999953],[-51.471679,-28.853992799999958],[-51.47131909999997,-28.85376589999993],[-51.47011669999995,-28.85416],[-51.47044069999998,-28.85301249999997],[-51.470872499999984,-28.85257849999992],[-51.47065219999996,-28.852451599999945],[-51.469922199999985,-28.852726399999938],[-51.46914659999993,-28.853707199999977],[-51.46847409999997,-28.85363089999993],[-51.46662969999994,-28.854548199999957],[-51.46544769999997,-28.855310899999946]]]}}]}
