{"type":"FeatureCollection","name":"4323606","crs":{"type":"name","properties":{"name":"urn:ogc:def:crs:OGC:1.3:CRS84"}},"features":[{"type":"Feature","properties":{"setor":"432360605000001","pop":486,"sigilo_pop":false,"dom":219,"sigilo_dom":0,"mulheres":242,"sigilo_mulheres":0,"c0_4":16,"sigilo_c0_4":0,"c5_9":21,"sigilo_c5_9":0,"i60_69":65,"sigilo_i60_69":0,"i70m":62,"sigilo_i70m":0,"indigenas":0,"sigilo_indigenas":0,"pretos_pardos":38,"sigilo_pretos_pardos":0,"dom_ocupados":184,"sigilo_dom_ocupados":0,"dom_agua":184,"sigilo_dom_agua":0,"dom_esgoto":null,"sigilo_dom_esgoto":1,"renda_resp":2681.11,"sigilo_renda_resp":0,"n_resp":184,"sigilo_n_resp":0,"dens":519.9,"sigilo_dens":false,"na_bacia":1,"area_pct_bacia":100.0,"metodo_recorte_bacia":"ponto_representativo_setor_2022; area_pct_geometrica","pop_n_validos":1,"pop_n_total":1,"pop_completude":1.0,"dom_n_validos":1,"dom_n_total":1,"dom_completude":1.0,"dom_ocupados_n_validos":1,"dom_ocupados_n_total":1,"dom_ocupados_completude":1.0,"mulheres_n_validos":1,"mulheres_n_total":1,"mulheres_completude":1.0,"c0_4_n_validos":1,"c0_4_n_total":1,"c0_4_completude":1.0,"c5_9_n_validos":1,"c5_9_n_total":1,"c5_9_completude":1.0,"i60_69_n_validos":1,"i60_69_n_total":1,"i60_69_completude":1.0,"i70m_n_validos":1,"i70m_n_total":1,"i70m_completude":1.0,"indigenas_n_validos":1,"indigenas_n_total":1,"indigenas_completude":1.0,"pretos_pardos_n_validos":1,"pretos_pardos_n_total":1,"pretos_pardos_completude":1.0,"dom_agua_n_validos":1,"dom_agua_n_total":1,"dom_agua_completude":1.0,"dom_esgoto_n_validos":0,"dom_esgoto_n_total":1,"dom_esgoto_completude":0.0,"n_resp_n_validos":1,"n_resp_n_total":1,"n_resp_completude":1.0,"renda_resp_n_validos":1,"renda_resp_n_total":1,"renda_resp_completude":1.0,"dens_n_validos":1,"dens_n_total":1,"dens_completude":1.0,"status_borda_bacia":"total","metodo_area_bacia":"interseção geométrica em EPSG:5880","metodo_na_bacia":"ponto_representativo_setor_2022_within_bacia","municipio":"Vista Alegre do Prata","cod_mun":"4323606","mun_pct_na_bacia":100.0,"mun_pop_total":1590,"mun_pop_na_bacia":1590.0,"mun_ubs_iede":1,"mun_hospitais_iede":null,"mun_escolas_iede":3,"mun_bombeiros_iede":null,"mun_servicos_cobertura":"cadastro_IEDE_parcial_nao_inventario","mun_icm_faixa":"B","mun_icm_pontos":7,"mun_icm_prioritario":"não","mun_ubs_iede_status":"published","mun_hospitais_iede_status":"unknown","mun_escolas_iede_status":"published","mun_bombeiros_iede_status":"unknown"},"geometry":{"type":"Polygon","coordinates":[[[-51.77963679999993,-28.80765089999994],[-51.779876699999924,-28.812546399999967],[-51.78169359999998,-28.812557199999954],[-51.78531259999995,-28.811373699999933],[-51.78548929999994,-28.81351429999996],[-51.79078919999995,-28.813769299999937],[-51.79277909999996,-28.809258],[-51.792869499999945,-28.80783689999998],[-51.791772599999945,-28.80679879999997],[-51.78513709999998,-28.80567929999995],[-51.785144499999944,-28.805229799999935],[-51.782107,-28.805084399999938],[-51.77963679999993,-28.80765089999994]]]}},{"type":"Feature","properties":{"setor":"432360605000002","pop":211,"sigilo_pop":false,"dom":104,"sigilo_dom":0,"mulheres":100,"sigilo_mulheres":0,"c0_4":8,"sigilo_c0_4":0,"c5_9":null,"sigilo_c5_9":1,"i60_69":35,"sigilo_i60_69":0,"i70m":38,"sigilo_i70m":0,"indigenas":0,"sigilo_indigenas":0,"pretos_pardos":26,"sigilo_pretos_pardos":0,"dom_ocupados":74,"sigilo_dom_ocupados":0,"dom_agua":13,"sigilo_dom_agua":0,"dom_esgoto":0,"sigilo_dom_esgoto":0,"renda_resp":7252.11,"sigilo_renda_resp":0,"n_resp":74,"sigilo_n_resp":0,"dens":7.1,"sigilo_dens":false,"na_bacia":1,"area_pct_bacia":100.0,"metodo_recorte_bacia":"ponto_representativo_setor_2022; area_pct_geometrica","pop_n_validos":1,"pop_n_total":1,"pop_completude":1.0,"dom_n_validos":1,"dom_n_total":1,"dom_completude":1.0,"dom_ocupados_n_validos":1,"dom_ocupados_n_total":1,"dom_ocupados_completude":1.0,"mulheres_n_validos":1,"mulheres_n_total":1,"mulheres_completude":1.0,"c0_4_n_validos":1,"c0_4_n_total":1,"c0_4_completude":1.0,"c5_9_n_validos":0,"c5_9_n_total":1,"c5_9_completude":0.0,"i60_69_n_validos":1,"i60_69_n_total":1,"i60_69_completude":1.0,"i70m_n_validos":1,"i70m_n_total":1,"i70m_completude":1.0,"indigenas_n_validos":1,"indigenas_n_total":1,"indigenas_completude":1.0,"pretos_pardos_n_validos":1,"pretos_pardos_n_total":1,"pretos_pardos_completude":1.0,"dom_agua_n_validos":1,"dom_agua_n_total":1,"dom_agua_completude":1.0,"dom_esgoto_n_validos":1,"dom_esgoto_n_total":1,"dom_esgoto_completude":1.0,"n_resp_n_validos":1,"n_resp_n_total":1,"n_resp_completude":1.0,"renda_resp_n_validos":1,"renda_resp_n_total":1,"renda_resp_completude":1.0,"dens_n_validos":1,"dens_n_total":1,"dens_completude":1.0,"status_borda_bacia":"total","metodo_area_bacia":"interseção geométrica em EPSG:5880","metodo_na_bacia":"ponto_representativo_setor_2022_within_bacia","municipio":"Vista Alegre do Prata","cod_mun":"4323606","mun_pct_na_bacia":100.0,"mun_pop_total":1590,"mun_pop_na_bacia":1590.0,"mun_ubs_iede":1,"mun_hospitais_iede":null,"mun_escolas_iede":3,"mun_bombeiros_iede":null,"mun_servicos_cobertura":"cadastro_IEDE_parcial_nao_inventario","mun_icm_faixa":"B","mun_icm_pontos":7,"mun_icm_prioritario":"não","mun_ubs_iede_status":"published","mun_hospitais_iede_status":"unknown","mun_escolas_iede_status":"published","mun_bombeiros_iede_status":"unknown"},"geometry":{"type":"Polygon","coordinates":[[[-51.714054799999985,-28.784222799999956],[-51.71174979999995,-28.784229799999927],[-51.71111159999998,-28.787653299999945],[-51.71154949999993,-28.78899189999993],[-51.71227959999993,-28.789337099999955],[-51.71386479999995,-28.78776669999996],[-51.71446219999996,-28.78756939999993],[-51.71501659999996,-28.787843],[-51.718725,-28.79164839999993],[-51.72019679999994,-28.792599499999938],[-51.72152169999998,-28.794236199999943],[-51.72137519999995,-28.795131099999928],[-51.720029299999965,-28.79752089999994],[-51.719189699999966,-28.799802],[-51.71732649999995,-28.801428199999965],[-51.71777019999996,-28.802269899999935],[-51.717128799999955,-28.80307079999993],[-51.71747389999995,-28.80341029999993],[-51.71804589999994,-28.803537199999944],[-51.725521,-28.80155469999993],[-51.72612959999998,-28.801551399999923],[-51.72911969999995,-28.803838399999954],[-51.72931479999994,-28.804292599999926],[-51.729253,-28.806292799999934],[-51.729694,-28.806745799999927],[-51.73092929999995,-28.80685219999998],[-51.731750499999976,-28.80602729999998],[-51.73250369999994,-28.804789],[-51.73432749999995,-28.804454299999975],[-51.73528219999997,-28.804984399999974],[-51.73672589999996,-28.809336699999957],[-51.73719029999996,-28.80880609999996],[-51.737072299999966,-28.80814849999996],[-51.73801309999993,-28.80794869999994],[-51.73969009999996,-28.806914299999963],[-51.74171889999997,-28.80714669999997],[-51.742788,-28.806933699999945],[-51.74398349999995,-28.806512599999962],[-51.74686419999995,-28.80600779999998],[-51.74860179999996,-28.805437099999946],[-51.74955229999994,-28.80473679999994],[-51.75078039999995,-28.80475459999997],[-51.75315569999998,-28.80544979999995],[-51.75853429999995,-28.80489449999993],[-51.761260399999976,-28.805283799999984],[-51.764317299999966,-28.804943],[-51.76547339999997,-28.804380499999983],[-51.76754379999995,-28.804506499999945],[-51.76852559999998,-28.804167699999926],[-51.770724599999944,-28.804281299999957],[-51.77246319999995,-28.804127499999943],[-51.772942099999966,-28.804197299999938],[-51.77346869999997,-28.80462569999996],[-51.77509779999997,-28.80642369999998],[-51.775154,-28.805084399999945],[-51.77648449999998,-28.805084399999938],[-51.776498,-28.803830799999957],[-51.78511519999995,-28.80394119999994],[-51.78574259999994,-28.805697699999932],[-51.791772599999945,-28.80679879999997],[-51.792869499999945,-28.80783689999998],[-51.805419699999966,-28.807982699999965],[-51.808416,-28.808208199999967],[-51.81032869999996,-28.807868899999967],[-51.811896799999936,-28.806958099999967],[-51.81382469999995,-28.80633069999994],[-51.82197379999997,-28.800982599999934],[-51.824157599999985,-28.80031939999997],[-51.82483869999999,-28.799013199999926],[-51.826414,-28.797159499999967],[-51.828866299999966,-28.79554219999994],[-51.831642,-28.79492379999993],[-51.83736829999998,-28.795187899999966],[-51.84084049999996,-28.795716],[-51.84335569999996,-28.796852],[-51.846802,-28.79784679999995],[-51.84982119999996,-28.797992299999983],[-51.85283149999998,-28.79681989999995],[-51.858068499999945,-28.79271179999995],[-51.857562,-28.792034499999943],[-51.851717,-28.791071399999975],[-51.84970739999994,-28.7821762],[-51.84768439999993,-28.780526899999977],[-51.843815199999945,-28.782091399999956],[-51.839558899999986,-28.785632],[-51.83657469999998,-28.785746599999975],[-51.83524269999998,-28.784077399999944],[-51.83358889999994,-28.77820559999998],[-51.76297069999998,-28.778168099999952],[-51.76223969999995,-28.779496199999986],[-51.762381699999935,-28.78176859999997],[-51.76493769999996,-28.780599699999986],[-51.76745039999998,-28.78382039999997],[-51.764698,-28.787564699999955],[-51.76191749999998,-28.7861387],[-51.759732499999984,-28.787529299999953],[-51.76219309999993,-28.79083669999993],[-51.76103219999993,-28.79568859999994],[-51.74594079999997,-28.792600299999947],[-51.714054799999985,-28.784222799999956]]]}},{"type":"Feature","properties":{"setor":"432360605000003","pop":174,"sigilo_pop":false,"dom":105,"sigilo_dom":0,"mulheres":88,"sigilo_mulheres":0,"c0_4":13,"sigilo_c0_4":0,"c5_9":7,"sigilo_c5_9":0,"i60_69":20,"sigilo_i60_69":0,"i70m":38,"sigilo_i70m":0,"indigenas":0,"sigilo_indigenas":0,"pretos_pardos":14,"sigilo_pretos_pardos":0,"dom_ocupados":65,"sigilo_dom_ocupados":0,"dom_agua":48,"sigilo_dom_agua":0,"dom_esgoto":0,"sigilo_dom_esgoto":0,"renda_resp":3051.56,"sigilo_renda_resp":0,"n_resp":65,"sigilo_n_resp":0,"dens":8.8,"sigilo_dens":false,"na_bacia":1,"area_pct_bacia":100.0,"metodo_recorte_bacia":"ponto_representativo_setor_2022; area_pct_geometrica","pop_n_validos":1,"pop_n_total":1,"pop_completude":1.0,"dom_n_validos":1,"dom_n_total":1,"dom_completude":1.0,"dom_ocupados_n_validos":1,"dom_ocupados_n_total":1,"dom_ocupados_completude":1.0,"mulheres_n_validos":1,"mulheres_n_total":1,"mulheres_completude":1.0,"c0_4_n_validos":1,"c0_4_n_total":1,"c0_4_completude":1.0,"c5_9_n_validos":1,"c5_9_n_total":1,"c5_9_completude":1.0,"i60_69_n_validos":1,"i60_69_n_total":1,"i60_69_completude":1.0,"i70m_n_validos":1,"i70m_n_total":1,"i70m_completude":1.0,"indigenas_n_validos":1,"indigenas_n_total":1,"indigenas_completude":1.0,"pretos_pardos_n_validos":1,"pretos_pardos_n_total":1,"pretos_pardos_completude":1.0,"dom_agua_n_validos":1,"dom_agua_n_total":1,"dom_agua_completude":1.0,"dom_esgoto_n_validos":1,"dom_esgoto_n_total":1,"dom_esgoto_completude":1.0,"n_resp_n_validos":1,"n_resp_n_total":1,"n_resp_completude":1.0,"renda_resp_n_validos":1,"renda_resp_n_total":1,"renda_resp_completude":1.0,"dens_n_validos":1,"dens_n_total":1,"dens_completude":1.0,"status_borda_bacia":"total","metodo_area_bacia":"interseção geométrica em EPSG:5880","metodo_na_bacia":"ponto_representativo_setor_2022_within_bacia","municipio":"Vista Alegre do Prata","cod_mun":"4323606","mun_pct_na_bacia":100.0,"mun_pop_total":1590,"mun_pop_na_bacia":1590.0,"mun_ubs_iede":1,"mun_hospitais_iede":null,"mun_escolas_iede":3,"mun_bombeiros_iede":null,"mun_servicos_cobertura":"cadastro_IEDE_parcial_nao_inventario","mun_icm_faixa":"B","mun_icm_pontos":7,"mun_icm_prioritario":"não","mun_ubs_iede_status":"published","mun_hospitais_iede_status":"unknown","mun_escolas_iede_status":"published","mun_bombeiros_iede_status":"unknown"},"geometry":{"type":"Polygon","coordinates":[[[-51.706704599999966,-28.78424439999998],[-51.706466399999954,-28.791803399999928],[-51.68886059999994,-28.7921239],[-51.689153899999944,-28.80320389999997],[-51.68364829999996,-28.80328539999993],[-51.683838099999946,-28.814985899999947],[-51.70397319999996,-28.81486519999993],[-51.70434479999994,-28.824315899999938],[-51.71228119999994,-28.82432709999995],[-51.71211549999998,-28.835462399999987],[-51.754675599999985,-28.83598489999997],[-51.75442629999998,-28.830078],[-51.75398679999995,-28.829691],[-51.75033369999994,-28.829727499999933],[-51.74957149999995,-28.829521799999945],[-51.74903339999997,-28.828954599999975],[-51.74911529999997,-28.828294],[-51.74979349999995,-28.827302399999954],[-51.750539,-28.82518179999995],[-51.75051019999996,-28.823663499999945],[-51.749917899999964,-28.82352009999993],[-51.74905339999998,-28.823646399999976],[-51.74773349999999,-28.8253127],[-51.74701,-28.825267299999958],[-51.74592089999992,-28.824495199999948],[-51.74419579999994,-28.822714],[-51.74393239999995,-28.82176529999999],[-51.74442929999998,-28.81948729999994],[-51.74414059999998,-28.818952199999956],[-51.743016199999936,-28.81849329999995],[-51.74119019999995,-28.818682799999962],[-51.73948629999995,-28.81843969999994],[-51.73855289999995,-28.81805609999998],[-51.737918899999954,-28.817472799999955],[-51.737647599999946,-28.81263049999997],[-51.73528219999997,-28.804984399999974],[-51.73432749999995,-28.804454299999975],[-51.73250369999994,-28.804789],[-51.731750499999976,-28.80602729999998],[-51.73092929999995,-28.80685219999998],[-51.729694,-28.806745799999927],[-51.729253,-28.806292799999934],[-51.72931479999994,-28.804292599999926],[-51.72911969999995,-28.803838399999954],[-51.72612959999998,-28.801551399999923],[-51.725521,-28.80155469999993],[-51.71804589999994,-28.803537199999944],[-51.71747389999995,-28.80341029999993],[-51.717128799999955,-28.80307079999993],[-51.71718409999994,-28.802793899999976],[-51.71777019999996,-28.802269899999935],[-51.71732649999995,-28.801428199999965],[-51.719189699999966,-28.799802],[-51.720029299999965,-28.79752089999994],[-51.72137519999995,-28.795131099999928],[-51.72152169999998,-28.794236199999943],[-51.72019679999994,-28.792599499999938],[-51.718725,-28.79164839999993],[-51.71501659999996,-28.787843],[-51.71446219999996,-28.78756939999993],[-51.71386479999995,-28.78776669999996],[-51.71227959999993,-28.789337099999955],[-51.71154949999993,-28.78899189999993],[-51.71111159999998,-28.787653299999945],[-51.71174979999995,-28.784229799999927],[-51.706704599999966,-28.78424439999998]]]}},{"type":"Feature","properties":{"setor":"432360605000004","pop":240,"sigilo_pop":false,"dom":125,"sigilo_dom":0,"mulheres":109,"sigilo_mulheres":0,"c0_4":null,"sigilo_c0_4":1,"c5_9":10,"sigilo_c5_9":0,"i60_69":41,"sigilo_i60_69":0,"i70m":41,"sigilo_i70m":0,"indigenas":0,"sigilo_indigenas":0,"pretos_pardos":null,"sigilo_pretos_pardos":1,"dom_ocupados":85,"sigilo_dom_ocupados":0,"dom_agua":9,"sigilo_dom_agua":0,"dom_esgoto":0,"sigilo_dom_esgoto":0,"renda_resp":5329.38,"sigilo_renda_resp":0,"n_resp":85,"sigilo_n_resp":0,"dens":6.7,"sigilo_dens":false,"na_bacia":1,"area_pct_bacia":100.0,"metodo_recorte_bacia":"ponto_representativo_setor_2022; area_pct_geometrica","pop_n_validos":1,"pop_n_total":1,"pop_completude":1.0,"dom_n_validos":1,"dom_n_total":1,"dom_completude":1.0,"dom_ocupados_n_validos":1,"dom_ocupados_n_total":1,"dom_ocupados_completude":1.0,"mulheres_n_validos":1,"mulheres_n_total":1,"mulheres_completude":1.0,"c0_4_n_validos":0,"c0_4_n_total":1,"c0_4_completude":0.0,"c5_9_n_validos":1,"c5_9_n_total":1,"c5_9_completude":1.0,"i60_69_n_validos":1,"i60_69_n_total":1,"i60_69_completude":1.0,"i70m_n_validos":1,"i70m_n_total":1,"i70m_completude":1.0,"indigenas_n_validos":1,"indigenas_n_total":1,"indigenas_completude":1.0,"pretos_pardos_n_validos":0,"pretos_pardos_n_total":1,"pretos_pardos_completude":0.0,"dom_agua_n_validos":1,"dom_agua_n_total":1,"dom_agua_completude":1.0,"dom_esgoto_n_validos":1,"dom_esgoto_n_total":1,"dom_esgoto_completude":1.0,"n_resp_n_validos":1,"n_resp_n_total":1,"n_resp_completude":1.0,"renda_resp_n_validos":1,"renda_resp_n_total":1,"renda_resp_completude":1.0,"dens_n_validos":1,"dens_n_total":1,"dens_completude":1.0,"status_borda_bacia":"total","metodo_area_bacia":"interseção geométrica em EPSG:5880","metodo_na_bacia":"ponto_representativo_setor_2022_within_bacia","municipio":"Vista Alegre do Prata","cod_mun":"4323606","mun_pct_na_bacia":100.0,"mun_pop_total":1590,"mun_pop_na_bacia":1590.0,"mun_ubs_iede":1,"mun_hospitais_iede":null,"mun_escolas_iede":3,"mun_bombeiros_iede":null,"mun_servicos_cobertura":"cadastro_IEDE_parcial_nao_inventario","mun_icm_faixa":"B","mun_icm_pontos":7,"mun_icm_prioritario":"não","mun_ubs_iede_status":"published","mun_hospitais_iede_status":"unknown","mun_escolas_iede_status":"published","mun_bombeiros_iede_status":"unknown"},"geometry":{"type":"Polygon","coordinates":[[[-51.75455379999994,-28.830440799999955],[-51.75441939999996,-28.831737299999922],[-51.754675599999985,-28.83598489999997],[-51.75399739999995,-28.837594299999964],[-51.75001,-28.840007199999953],[-51.75396319999994,-28.843574199999974],[-51.75518269999998,-28.84821209999995],[-51.75467229999998,-28.851215899999936],[-51.75208759999998,-28.854296099999928],[-51.75214379999994,-28.855826599999943],[-51.75438,-28.859999],[-51.75626049999994,-28.858971399999973],[-51.75692959999998,-28.856359],[-51.75869319999999,-28.85662369999994],[-51.765555,-28.864574],[-51.76557139999994,-28.866489],[-51.76461849999998,-28.866993599999933],[-51.75913159999993,-28.867672699999957],[-51.75808049999994,-28.869740399999955],[-51.75829169999997,-28.87260739999992],[-51.76510579999996,-28.872817899999966],[-51.77054539999995,-28.874554799999935],[-51.77422679999996,-28.877112],[-51.77641359999995,-28.88033979999995],[-51.776421,-28.88408279999993],[-51.77750879999997,-28.885386799999935],[-51.78602939999996,-28.880746099999957],[-51.791067699999985,-28.88393929999995],[-51.791082899999935,-28.881525199999942],[-51.79347959999995,-28.87917169999997],[-51.80119549999995,-28.876798599999958],[-51.801995699999964,-28.868643199999948],[-51.80434759999997,-28.865075699999966],[-51.806125699999946,-28.864662699999943],[-51.81257879999998,-28.865986899999953],[-51.81251059999994,-28.872325199999977],[-51.826198,-28.871390299999973],[-51.82936709999996,-28.868763599999955],[-51.82810539999996,-28.862687899999976],[-51.82609669999994,-28.858872899999934],[-51.82649189999995,-28.85746509999995],[-51.83097209999994,-28.85595349999994],[-51.831992,-28.854764],[-51.83221249999997,-28.85233869999996],[-51.83168279999995,-28.85242849999997],[-51.83125639999997,-28.85287169999998],[-51.83112559999994,-28.85428649999995],[-51.830985199999986,-28.85453139999993],[-51.83052739999993,-28.85446089999994],[-51.83032639999993,-28.854267299999943],[-51.83129209999998,-28.85120289999996],[-51.83071079999997,-28.84750649999997],[-51.83073719999993,-28.844801199999953],[-51.83008289999998,-28.84392939999998],[-51.82949619999993,-28.841980799999916],[-51.82842249999993,-28.840822699999926],[-51.828178399999956,-28.83881289999994],[-51.827720699999986,-28.837505899999943],[-51.828069899999946,-28.836041399999935],[-51.827872199999945,-28.835051499999967],[-51.82658559999994,-28.833540799999966],[-51.82544829999995,-28.832743299999944],[-51.82258629999995,-28.829379],[-51.82090739999995,-28.828807199999975],[-51.81889939999996,-28.828534899999966],[-51.81524839999998,-28.828670599999946],[-51.81296279999998,-28.82839189999993],[-51.81135859999995,-28.82850839999997],[-51.80973049999995,-28.829720299999963],[-51.80220609999998,-28.829497],[-51.80045859999996,-28.829752699999972],[-51.798972599999956,-28.829272099999976],[-51.79668739999994,-28.82931779999995],[-51.795389899999975,-28.829902699999927],[-51.79474959999994,-28.830574],[-51.79336259999997,-28.830987],[-51.792342,-28.831855099999935],[-51.78898479999998,-28.83189839999994],[-51.78597139999994,-28.83071349999994],[-51.78240989999995,-28.828890099999967],[-51.78103769999996,-28.828605099999947],[-51.77458969999998,-28.82856119999996],[-51.77311139999995,-28.82801009999997],[-51.77101759999994,-28.82787539999998],[-51.768492,-28.828474099999937],[-51.767035599999986,-28.828246099999944],[-51.76426039999996,-28.82839229999995],[-51.762059799999975,-28.827695699999936],[-51.761036299999944,-28.827921299999968],[-51.759149099999945,-28.82771229999998],[-51.757418799999975,-28.82806869999996],[-51.75550269999996,-28.829396],[-51.75455379999994,-28.830440799999955]]]}},{"type":"Feature","properties":{"setor":"432360605000009","pop":422,"sigilo_pop":false,"dom":194,"sigilo_dom":0,"mulheres":201,"sigilo_mulheres":0,"c0_4":20,"sigilo_c0_4":0,"c5_9":25,"sigilo_c5_9":0,"i60_69":67,"sigilo_i60_69":0,"i70m":57,"sigilo_i70m":0,"indigenas":0,"sigilo_indigenas":0,"pretos_pardos":46,"sigilo_pretos_pardos":0,"dom_ocupados":144,"sigilo_dom_ocupados":0,"dom_agua":124,"sigilo_dom_agua":0,"dom_esgoto":null,"sigilo_dom_esgoto":1,"renda_resp":3674.6,"sigilo_renda_resp":0,"n_resp":144,"sigilo_n_resp":0,"dens":12.8,"sigilo_dens":false,"na_bacia":1,"area_pct_bacia":100.0,"metodo_recorte_bacia":"ponto_representativo_setor_2022; area_pct_geometrica","pop_n_validos":1,"pop_n_total":1,"pop_completude":1.0,"dom_n_validos":1,"dom_n_total":1,"dom_completude":1.0,"dom_ocupados_n_validos":1,"dom_ocupados_n_total":1,"dom_ocupados_completude":1.0,"mulheres_n_validos":1,"mulheres_n_total":1,"mulheres_completude":1.0,"c0_4_n_validos":1,"c0_4_n_total":1,"c0_4_completude":1.0,"c5_9_n_validos":1,"c5_9_n_total":1,"c5_9_completude":1.0,"i60_69_n_validos":1,"i60_69_n_total":1,"i60_69_completude":1.0,"i70m_n_validos":1,"i70m_n_total":1,"i70m_completude":1.0,"indigenas_n_validos":1,"indigenas_n_total":1,"indigenas_completude":1.0,"pretos_pardos_n_validos":1,"pretos_pardos_n_total":1,"pretos_pardos_completude":1.0,"dom_agua_n_validos":1,"dom_agua_n_total":1,"dom_agua_completude":1.0,"dom_esgoto_n_validos":0,"dom_esgoto_n_total":1,"dom_esgoto_completude":0.0,"n_resp_n_validos":1,"n_resp_n_total":1,"n_resp_completude":1.0,"renda_resp_n_validos":1,"renda_resp_n_total":1,"renda_resp_completude":1.0,"dens_n_validos":1,"dens_n_total":1,"dens_completude":1.0,"status_borda_bacia":"total","metodo_area_bacia":"interseção geométrica em EPSG:5880","metodo_na_bacia":"ponto_representativo_setor_2022_within_bacia","municipio":"Vista Alegre do Prata","cod_mun":"4323606","mun_pct_na_bacia":100.0,"mun_pop_total":1590,"mun_pop_na_bacia":1590.0,"mun_ubs_iede":1,"mun_hospitais_iede":null,"mun_escolas_iede":3,"mun_bombeiros_iede":null,"mun_servicos_cobertura":"cadastro_IEDE_parcial_nao_inventario","mun_icm_faixa":"B","mun_icm_pontos":7,"mun_icm_prioritario":"não","mun_ubs_iede_status":"published","mun_hospitais_iede_status":"unknown","mun_escolas_iede_status":"published","mun_bombeiros_iede_status":"unknown"},"geometry":{"type":"Polygon","coordinates":[[[-51.792869499999945,-28.80783689999998],[-51.79277909999996,-28.809258],[-51.79078919999995,-28.813769299999937],[-51.78548929999994,-28.81351429999996],[-51.78531259999995,-28.811373699999933],[-51.78169359999998,-28.812557199999954],[-51.779876699999924,-28.812546399999967],[-51.77963679999993,-28.80765089999994],[-51.777189699999944,-28.807807],[-51.776232799999946,-28.807506],[-51.77346869999997,-28.80462569999996],[-51.772942099999966,-28.804197299999938],[-51.77246319999995,-28.804127499999943],[-51.770724599999944,-28.804281299999957],[-51.76852559999998,-28.804167699999926],[-51.76754379999995,-28.804506499999945],[-51.76547339999997,-28.804380499999983],[-51.764317299999966,-28.804943],[-51.761260399999976,-28.805283799999984],[-51.75853429999995,-28.80489449999993],[-51.75315569999998,-28.80544979999995],[-51.75078039999995,-28.80475459999997],[-51.74955229999994,-28.80473679999994],[-51.74860179999996,-28.805437099999946],[-51.74686419999995,-28.80600779999998],[-51.74398349999995,-28.806512599999962],[-51.742788,-28.806933699999945],[-51.74171889999997,-28.80714669999997],[-51.73969009999996,-28.806914299999963],[-51.73801309999993,-28.80794869999994],[-51.737072299999966,-28.80814849999996],[-51.73719029999996,-28.80880609999996],[-51.73672589999996,-28.809336699999957],[-51.737647599999946,-28.81263049999997],[-51.737918899999954,-28.817472799999955],[-51.73855289999995,-28.81805609999998],[-51.73948629999995,-28.81843969999994],[-51.74119019999995,-28.818682799999962],[-51.743016199999936,-28.81849329999995],[-51.74414059999998,-28.818952199999956],[-51.74442929999998,-28.81948729999994],[-51.74393239999995,-28.82176529999999],[-51.74419579999994,-28.822714],[-51.74592089999992,-28.824495199999948],[-51.74701,-28.825267299999958],[-51.74773349999999,-28.8253127],[-51.74905339999998,-28.823646399999976],[-51.749917899999964,-28.82352009999993],[-51.75051019999996,-28.823663499999945],[-51.750539,-28.82518179999995],[-51.74979349999995,-28.827302399999954],[-51.74911529999997,-28.828294],[-51.74903339999997,-28.828954599999975],[-51.74957149999995,-28.829521799999945],[-51.75033369999994,-28.829727499999933],[-51.75398679999995,-28.829691],[-51.75455379999994,-28.830440799999955],[-51.75550269999996,-28.829396],[-51.757418799999975,-28.82806869999996],[-51.759149099999945,-28.82771229999998],[-51.761036299999944,-28.827921299999968],[-51.762059799999975,-28.827695699999936],[-51.76426039999996,-28.82839229999995],[-51.76541959999998,-28.828435],[-51.767035599999986,-28.828246099999944],[-51.768492,-28.828474099999937],[-51.77101759999994,-28.82787539999998],[-51.77311139999995,-28.82801009999997],[-51.77458969999998,-28.82856119999996],[-51.78103769999996,-28.828605099999947],[-51.78240989999995,-28.828890099999967],[-51.78597139999994,-28.83071349999994],[-51.78898479999998,-28.83189839999994],[-51.792342,-28.831855099999935],[-51.79336259999997,-28.830987],[-51.79474959999994,-28.830574],[-51.795389899999975,-28.829902699999927],[-51.79668739999994,-28.82931779999995],[-51.798972599999956,-28.829272099999976],[-51.80045859999996,-28.829752699999972],[-51.80220609999998,-28.829497],[-51.80973049999995,-28.829720299999963],[-51.81135859999995,-28.82850839999997],[-51.81296279999998,-28.82839189999993],[-51.81524839999998,-28.828670599999946],[-51.81889939999996,-28.828534899999966],[-51.82090739999995,-28.828807199999975],[-51.82258629999995,-28.829379],[-51.82544829999995,-28.832743299999944],[-51.82658559999994,-28.833540799999966],[-51.827872199999945,-28.835051499999967],[-51.828069899999946,-28.836041399999935],[-51.827720699999986,-28.837505899999943],[-51.828178399999956,-28.83881289999994],[-51.82842249999993,-28.840822699999926],[-51.82949619999993,-28.841980799999916],[-51.83008289999998,-28.84392939999998],[-51.83073719999993,-28.844801199999953],[-51.83071079999997,-28.84750649999997],[-51.83129209999998,-28.85120289999996],[-51.83032639999993,-28.854267299999943],[-51.830985199999986,-28.85453139999993],[-51.83125639999997,-28.85287169999998],[-51.83168279999995,-28.85242849999997],[-51.83221249999997,-28.85233869999996],[-51.832847699999945,-28.845338399999953],[-51.834706799999935,-28.837327699999957],[-51.83869519999996,-28.83585749999998],[-51.8438015,-28.836771599999956],[-51.85485209999996,-28.83998719999994],[-51.858127,-28.84211539999995],[-51.85953779999995,-28.841187199999975],[-51.86390409999996,-28.83219749999995],[-51.863720099999966,-28.83041409999994],[-51.84989239999993,-28.83008279999995],[-51.840745499999976,-28.828233099999963],[-51.83897229999996,-28.82428139999996],[-51.83656049999996,-28.821732699999984],[-51.83498019999996,-28.818576799999946],[-51.836527599999954,-28.816040199999982],[-51.84289789999997,-28.81260749999995],[-51.84819709999994,-28.808275399999946],[-51.861240099999975,-28.80896329999996],[-51.86733879999998,-28.804666499999943],[-51.86942689999995,-28.804059],[-51.87025909999995,-28.802834699999945],[-51.867848,-28.799029299999965],[-51.86728279999994,-28.795896199999955],[-51.86643239999995,-28.795250499999945],[-51.8617005,-28.796402299999954],[-51.860414,-28.79584259999996],[-51.858068499999945,-28.79271179999995],[-51.85283149999998,-28.79681989999995],[-51.84982119999996,-28.797992299999983],[-51.846802,-28.79784679999995],[-51.84335569999996,-28.796852],[-51.84084049999996,-28.795716],[-51.83736829999998,-28.795187899999966],[-51.831642,-28.79492379999993],[-51.828866299999966,-28.79554219999994],[-51.826414,-28.797159499999967],[-51.82483869999999,-28.799013199999926],[-51.824157599999985,-28.80031939999997],[-51.82197379999997,-28.800982599999934],[-51.81963449999995,-28.802406799999968],[-51.816040899999955,-28.805040399999935],[-51.81382469999995,-28.80633069999994],[-51.811896799999936,-28.806958099999967],[-51.81032869999996,-28.807868899999967],[-51.808416,-28.808208199999967],[-51.805419699999966,-28.807982699999965],[-51.792869499999945,-28.80783689999998]]]}},{"type":"Feature","properties":{"setor":"432360605000010","pop":57,"sigilo_pop":false,"dom":25,"sigilo_dom":0,"mulheres":23,"sigilo_mulheres":0,"c0_4":null,"sigilo_c0_4":1,"c5_9":7,"sigilo_c5_9":0,"i60_69":null,"sigilo_i60_69":1,"i70m":null,"sigilo_i70m":1,"indigenas":0,"sigilo_indigenas":0,"pretos_pardos":12,"sigilo_pretos_pardos":0,"dom_ocupados":21,"sigilo_dom_ocupados":0,"dom_agua":21,"sigilo_dom_agua":0,"dom_esgoto":7,"sigilo_dom_esgoto":0,"renda_resp":2257.14,"sigilo_renda_resp":0,"n_resp":21,"sigilo_n_resp":0,"dens":209.5,"sigilo_dens":false,"na_bacia":1,"area_pct_bacia":100.0,"metodo_recorte_bacia":"ponto_representativo_setor_2022; area_pct_geometrica","pop_n_validos":1,"pop_n_total":1,"pop_completude":1.0,"dom_n_validos":1,"dom_n_total":1,"dom_completude":1.0,"dom_ocupados_n_validos":1,"dom_ocupados_n_total":1,"dom_ocupados_completude":1.0,"mulheres_n_validos":1,"mulheres_n_total":1,"mulheres_completude":1.0,"c0_4_n_validos":0,"c0_4_n_total":1,"c0_4_completude":0.0,"c5_9_n_validos":1,"c5_9_n_total":1,"c5_9_completude":1.0,"i60_69_n_validos":0,"i60_69_n_total":1,"i60_69_completude":0.0,"i70m_n_validos":0,"i70m_n_total":1,"i70m_completude":0.0,"indigenas_n_validos":1,"indigenas_n_total":1,"indigenas_completude":1.0,"pretos_pardos_n_validos":1,"pretos_pardos_n_total":1,"pretos_pardos_completude":1.0,"dom_agua_n_validos":1,"dom_agua_n_total":1,"dom_agua_completude":1.0,"dom_esgoto_n_validos":1,"dom_esgoto_n_total":1,"dom_esgoto_completude":1.0,"n_resp_n_validos":1,"n_resp_n_total":1,"n_resp_completude":1.0,"renda_resp_n_validos":1,"renda_resp_n_total":1,"renda_resp_completude":1.0,"dens_n_validos":1,"dens_n_total":1,"dens_completude":1.0,"status_borda_bacia":"total","metodo_area_bacia":"interseção geométrica em EPSG:5880","metodo_na_bacia":"ponto_representativo_setor_2022_within_bacia","municipio":"Vista Alegre do Prata","cod_mun":"4323606","mun_pct_na_bacia":100.0,"mun_pop_total":1590,"mun_pop_na_bacia":1590.0,"mun_ubs_iede":1,"mun_hospitais_iede":null,"mun_escolas_iede":3,"mun_bombeiros_iede":null,"mun_servicos_cobertura":"cadastro_IEDE_parcial_nao_inventario","mun_icm_faixa":"B","mun_icm_pontos":7,"mun_icm_prioritario":"não","mun_ubs_iede_status":"published","mun_hospitais_iede_status":"unknown","mun_escolas_iede_status":"published","mun_bombeiros_iede_status":"unknown"},"geometry":{"type":"Polygon","coordinates":[[[-51.77509779999997,-28.80642369999998],[-51.776232799999946,-28.807506],[-51.77760459999996,-28.80781609999997],[-51.77963679999993,-28.80765089999994],[-51.782107,-28.805084399999938],[-51.785144499999944,-28.805229799999935],[-51.78513709999998,-28.80567929999995],[-51.78574259999994,-28.805697699999932],[-51.78511519999995,-28.80394119999994],[-51.776498,-28.803830799999957],[-51.77648449999998,-28.805084399999938],[-51.775154,-28.805084399999945],[-51.77509779999997,-28.80642369999998]]]}}]}
