{"type":"FeatureCollection","name":"obitos_validos","features":[{"type":"Feature","geometry":{"type":"Point","coordinates":[-51.1789838,-29.9633861]},"properties":{"registro_id":1,"latitude":-29.9633861,"longitude":-51.1789838,"na_bacia_publicada":0,"fonte_crs":"EPSG:4674"}},{"type":"Feature","geometry":{"type":"Point","coordinates":[-51.1286639,-29.738409]},"properties":{"registro_id":2,"latitude":-29.738409,"longitude":-51.1286639,"na_bacia_publicada":0,"fonte_crs":"EPSG:4674"}},{"type":"Feature","geometry":{"type":"Point","coordinates":[-52.5357389,-29.5112196]},"properties":{"registro_id":3,"latitude":-29.5112196,"longitude":-52.5357389,"na_bacia_publicada":0,"fonte_crs":"EPSG:4674"}},{"type":"Feature","geometry":{"type":"Point","coordinates":[-51.83322841,-29.33480584]},"properties":{"registro_id":4,"latitude":-29.33480584,"longitude":-51.83322841,"na_bacia_publicada":1,"fonte_crs":"EPSG:4674"}},{"type":"Feature","geometry":{"type":"Point","coordinates":[-51.1823288,-29.3853273]},"properties":{"registro_id":5,"latitude":-29.3853273,"longitude":-51.1823288,"na_bacia_publicada":0,"fonte_crs":"EPSG:4674"}},{"type":"Feature","geometry":{"type":"Point","coordinates":[-53.7020433,-29.6289722]},"properties":{"registro_id":7,"latitude":-29.6289722,"longitude":-53.7020433,"na_bacia_publicada":0,"fonte_crs":"EPSG:4674"}},{"type":"Feature","geometry":{"type":"Point","coordinates":[-51.1922427,-29.9148585]},"properties":{"registro_id":8,"latitude":-29.9148585,"longitude":-51.1922427,"na_bacia_publicada":0,"fonte_crs":"EPSG:4674"}},{"type":"Feature","geometry":{"type":"Point","coordinates":[-51.1622309,-29.7434935]},"properties":{"registro_id":9,"latitude":-29.7434935,"longitude":-51.1622309,"na_bacia_publicada":0,"fonte_crs":"EPSG:4674"}},{"type":"Feature","geometry":{"type":"Point","coordinates":[-52.5357389,-29.5112196]},"properties":{"registro_id":10,"latitude":-29.5112196,"longitude":-52.5357389,"na_bacia_publicada":0,"fonte_crs":"EPSG:4674"}},{"type":"Feature","geometry":{"type":"Point","coordinates":[-51.4578089,-28.3566109]},"properties":{"registro_id":11,"latitude":-28.3566109,"longitude":-51.4578089,"na_bacia_publicada":1,"fonte_crs":"EPSG:4674"}},{"type":"Feature","geometry":{"type":"Point","coordinates":[-51.3259327,-29.9977313]},"properties":{"registro_id":12,"latitude":-29.9977313,"longitude":-51.3259327,"na_bacia_publicada":0,"fonte_crs":"EPSG:4674"}},{"type":"Feature","geometry":{"type":"Point","coordinates":[-51.1789838,-29.9633861]},"properties":{"registro_id":13,"latitude":-29.9633861,"longitude":-51.1789838,"na_bacia_publicada":0,"fonte_crs":"EPSG:4674"}},{"type":"Feature","geometry":{"type":"Point","coordinates":[-51.95203173,-29.40784014]},"properties":{"registro_id":14,"latitude":-29.40784014,"longitude":-51.95203173,"na_bacia_publicada":1,"fonte_crs":"EPSG:4674"}},{"type":"Feature","geometry":{"type":"Point","coordinates":[-51.95412597,-29.61666781]},"properties":{"registro_id":15,"latitude":-29.61666781,"longitude":-51.95412597,"na_bacia_publicada":1,"fonte_crs":"EPSG:4674"}},{"type":"Feature","geometry":{"type":"Point","coordinates":[-52.976298,-29.342703]},"properties":{"registro_id":16,"latitude":-29.342703,"longitude":-52.976298,"na_bacia_publicada":0,"fonte_crs":"EPSG:4674"}},{"type":"Feature","geometry":{"type":"Point","coordinates":[-51.83322841,-29.33480584]},"properties":{"registro_id":17,"latitude":-29.33480584,"longitude":-51.83322841,"na_bacia_publicada":1,"fonte_crs":"EPSG:4674"}},{"type":"Feature","geometry":{"type":"Point","coordinates":[-51.83322841,-29.33480584]},"properties":{"registro_id":18,"latitude":-29.33480584,"longitude":-51.83322841,"na_bacia_publicada":1,"fonte_crs":"EPSG:4674"}},{"type":"Feature","geometry":{"type":"Point","coordinates":[-51.6797478,-29.3809291]},"properties":{"registro_id":19,"latitude":-29.3809291,"longitude":-51.6797478,"na_bacia_publicada":1,"fonte_crs":"EPSG:4674"}},{"type":"Feature","geometry":{"type":"Point","coordinates":[-51.4578089,-28.3566109]},"properties":{"registro_id":20,"latitude":-28.3566109,"longitude":-51.4578089,"na_bacia_publicada":1,"fonte_crs":"EPSG:4674"}},{"type":"Feature","geometry":{"type":"Point","coordinates":[-51.87468396,-29.18767947]},"properties":{"registro_id":21,"latitude":-29.18767947,"longitude":-51.87468396,"na_bacia_publicada":1,"fonte_crs":"EPSG:4674"}},{"type":"Feature","geometry":{"type":"Point","coordinates":[-51.239241,-29.9035097]},"properties":{"registro_id":22,"latitude":-29.9035097,"longitude":-51.239241,"na_bacia_publicada":0,"fonte_crs":"EPSG:4674"}},{"type":"Feature","geometry":{"type":"Point","coordinates":[-51.601648,-29.1116113]},"properties":{"registro_id":23,"latitude":-29.1116113,"longitude":-51.601648,"na_bacia_publicada":1,"fonte_crs":"EPSG:4674"}},{"type":"Feature","geometry":{"type":"Point","coordinates":[-52.03710032,-29.39874246]},"properties":{"registro_id":24,"latitude":-29.39874246,"longitude":-52.03710032,"na_bacia_publicada":1,"fonte_crs":"EPSG:4674"}},{"type":"Feature","geometry":{"type":"Point","coordinates":[-51.601648,-29.1116113]},"properties":{"registro_id":25,"latitude":-29.1116113,"longitude":-51.601648,"na_bacia_publicada":1,"fonte_crs":"EPSG:4674"}},{"type":"Feature","geometry":{"type":"Point","coordinates":[-50.7757826,-29.6509775]},"properties":{"registro_id":26,"latitude":-29.6509775,"longitude":-50.7757826,"na_bacia_publicada":0,"fonte_crs":"EPSG:4674"}},{"type":"Feature","geometry":{"type":"Point","coordinates":[-51.2052726,-29.9133894]},"properties":{"registro_id":27,"latitude":-29.9133894,"longitude":-51.2052726,"na_bacia_publicada":0,"fonte_crs":"EPSG:4674"}},{"type":"Feature","geometry":{"type":"Point","coordinates":[-51.97307675,-29.49589321]},"properties":{"registro_id":28,"latitude":-29.49589321,"longitude":-51.97307675,"na_bacia_publicada":1,"fonte_crs":"EPSG:4674"}},{"type":"Feature","geometry":{"type":"Point","coordinates":[-51.1353174,-29.7399634]},"properties":{"registro_id":29,"latitude":-29.7399634,"longitude":-51.1353174,"na_bacia_publicada":0,"fonte_crs":"EPSG:4674"}},{"type":"Feature","geometry":{"type":"Point","coordinates":[-50.767923,-29.485863]},"properties":{"registro_id":30,"latitude":-29.485863,"longitude":-50.767923,"na_bacia_publicada":0,"fonte_crs":"EPSG:4674"}},{"type":"Feature","geometry":{"type":"Point","coordinates":[-52.5045688,-29.5459535]},"properties":{"registro_id":31,"latitude":-29.5459535,"longitude":-52.5045688,"na_bacia_publicada":0,"fonte_crs":"EPSG:4674"}},{"type":"Feature","geometry":{"type":"Point","coordinates":[-51.158215,-29.7534867]},"properties":{"registro_id":32,"latitude":-29.7534867,"longitude":-51.158215,"na_bacia_publicada":0,"fonte_crs":"EPSG:4674"}},{"type":"Feature","geometry":{"type":"Point","coordinates":[-51.601648,-29.1116113]},"properties":{"registro_id":33,"latitude":-29.1116113,"longitude":-51.601648,"na_bacia_publicada":1,"fonte_crs":"EPSG:4674"}},{"type":"Feature","geometry":{"type":"Point","coordinates":[-51.4548509,-29.2388209]},"properties":{"registro_id":34,"latitude":-29.2388209,"longitude":-51.4548509,"na_bacia_publicada":1,"fonte_crs":"EPSG:4674"}},{"type":"Feature","geometry":{"type":"Point","coordinates":[-51.2069404,-29.9076128]},"properties":{"registro_id":35,"latitude":-29.9076128,"longitude":-51.2069404,"na_bacia_publicada":0,"fonte_crs":"EPSG:4674"}},{"type":"Feature","geometry":{"type":"Point","coordinates":[-52.03710032,-29.39874246]},"properties":{"registro_id":36,"latitude":-29.39874246,"longitude":-52.03710032,"na_bacia_publicada":1,"fonte_crs":"EPSG:4674"}},{"type":"Feature","geometry":{"type":"Point","coordinates":[-51.4600758,-29.6859233]},"properties":{"registro_id":37,"latitude":-29.6859233,"longitude":-51.4600758,"na_bacia_publicada":0,"fonte_crs":"EPSG:4674"}},{"type":"Feature","geometry":{"type":"Point","coordinates":[-51.239241,-29.9035097]},"properties":{"registro_id":39,"latitude":-29.9035097,"longitude":-51.239241,"na_bacia_publicada":0,"fonte_crs":"EPSG:4674"}},{"type":"Feature","geometry":{"type":"Point","coordinates":[-51.239241,-29.9035097]},"properties":{"registro_id":40,"latitude":-29.9035097,"longitude":-51.239241,"na_bacia_publicada":0,"fonte_crs":"EPSG:4674"}},{"type":"Feature","geometry":{"type":"Point","coordinates":[-52.1817862,-29.644442]},"properties":{"registro_id":41,"latitude":-29.644442,"longitude":-52.1817862,"na_bacia_publicada":1,"fonte_crs":"EPSG:4674"}},{"type":"Feature","geometry":{"type":"Point","coordinates":[-51.312058,-30.0036661]},"properties":{"registro_id":42,"latitude":-30.0036661,"longitude":-51.312058,"na_bacia_publicada":0,"fonte_crs":"EPSG:4674"}},{"type":"Feature","geometry":{"type":"Point","coordinates":[-51.7736332,-29.4632536]},"properties":{"registro_id":43,"latitude":-29.4632536,"longitude":-51.7736332,"na_bacia_publicada":1,"fonte_crs":"EPSG:4674"}},{"type":"Feature","geometry":{"type":"Point","coordinates":[-52.0609693,-29.2956448]},"properties":{"registro_id":44,"latitude":-29.2956448,"longitude":-52.0609693,"na_bacia_publicada":1,"fonte_crs":"EPSG:4674"}},{"type":"Feature","geometry":{"type":"Point","coordinates":[-51.98072638,-29.53403127]},"properties":{"registro_id":45,"latitude":-29.53403127,"longitude":-51.98072638,"na_bacia_publicada":1,"fonte_crs":"EPSG:4674"}},{"type":"Feature","geometry":{"type":"Point","coordinates":[-51.68214153,-29.57208758]},"properties":{"registro_id":46,"latitude":-29.57208758,"longitude":-51.68214153,"na_bacia_publicada":1,"fonte_crs":"EPSG:4674"}},{"type":"Feature","geometry":{"type":"Point","coordinates":[-52.1817862,-29.644442]},"properties":{"registro_id":47,"latitude":-29.644442,"longitude":-52.1817862,"na_bacia_publicada":1,"fonte_crs":"EPSG:4674"}},{"type":"Feature","geometry":{"type":"Point","coordinates":[-51.1597338,-29.239613]},"properties":{"registro_id":48,"latitude":-29.239613,"longitude":-51.1597338,"na_bacia_publicada":0,"fonte_crs":"EPSG:4674"}},{"type":"Feature","geometry":{"type":"Point","coordinates":[-51.5631881,-28.9647076]},"properties":{"registro_id":49,"latitude":-28.9647076,"longitude":-51.5631881,"na_bacia_publicada":1,"fonte_crs":"EPSG:4674"}},{"type":"Feature","geometry":{"type":"Point","coordinates":[-51.870536,-29.2852503]},"properties":{"registro_id":50,"latitude":-29.2852503,"longitude":-51.870536,"na_bacia_publicada":1,"fonte_crs":"EPSG:4674"}},{"type":"Feature","geometry":{"type":"Point","coordinates":[-53.4490408,-29.6136843]},"properties":{"registro_id":51,"latitude":-29.6136843,"longitude":-53.4490408,"na_bacia_publicada":0,"fonte_crs":"EPSG:4674"}},{"type":"Feature","geometry":{"type":"Point","coordinates":[-51.219657,-29.8979256]},"properties":{"registro_id":52,"latitude":-29.8979256,"longitude":-51.219657,"na_bacia_publicada":0,"fonte_crs":"EPSG:4674"}},{"type":"Feature","geometry":{"type":"Point","coordinates":[-51.2142917,-29.1972609]},"properties":{"registro_id":53,"latitude":-29.1972609,"longitude":-51.2142917,"na_bacia_publicada":0,"fonte_crs":"EPSG:4674"}},{"type":"Feature","geometry":{"type":"Point","coordinates":[-51.83322841,-29.33480584]},"properties":{"registro_id":54,"latitude":-29.33480584,"longitude":-51.83322841,"na_bacia_publicada":1,"fonte_crs":"EPSG:4674"}},{"type":"Feature","geometry":{"type":"Point","coordinates":[-51.3036503,-30.0016143]},"properties":{"registro_id":55,"latitude":-30.0016143,"longitude":-51.3036503,"na_bacia_publicada":0,"fonte_crs":"EPSG:4674"}},{"type":"Feature","geometry":{"type":"Point","coordinates":[-53.265423,-29.782207]},"properties":{"registro_id":56,"latitude":-29.782207,"longitude":-53.265423,"na_bacia_publicada":0,"fonte_crs":"EPSG:4674"}},{"type":"Feature","geometry":{"type":"Point","coordinates":[-51.5631881,-28.9647076]},"properties":{"registro_id":57,"latitude":-28.9647076,"longitude":-51.5631881,"na_bacia_publicada":1,"fonte_crs":"EPSG:4674"}},{"type":"Feature","geometry":{"type":"Point","coordinates":[-53.766626,-29.6158908]},"properties":{"registro_id":58,"latitude":-29.6158908,"longitude":-53.766626,"na_bacia_publicada":0,"fonte_crs":"EPSG:4674"}},{"type":"Feature","geometry":{"type":"Point","coordinates":[-53.8410768,-29.6973575]},"properties":{"registro_id":59,"latitude":-29.6973575,"longitude":-53.8410768,"na_bacia_publicada":0,"fonte_crs":"EPSG:4674"}},{"type":"Feature","geometry":{"type":"Point","coordinates":[-51.1391016,-29.7641428]},"properties":{"registro_id":60,"latitude":-29.7641428,"longitude":-51.1391016,"na_bacia_publicada":0,"fonte_crs":"EPSG:4674"}},{"type":"Feature","geometry":{"type":"Point","coordinates":[-51.9337718,-28.710653]},"properties":{"registro_id":61,"latitude":-28.710653,"longitude":-51.9337718,"na_bacia_publicada":1,"fonte_crs":"EPSG:4674"}},{"type":"Feature","geometry":{"type":"Point","coordinates":[-51.09448,-30.0119193]},"properties":{"registro_id":62,"latitude":-30.0119193,"longitude":-51.09448,"na_bacia_publicada":0,"fonte_crs":"EPSG:4674"}},{"type":"Feature","geometry":{"type":"Point","coordinates":[-51.196504,-29.9449457]},"properties":{"registro_id":63,"latitude":-29.9449457,"longitude":-51.196504,"na_bacia_publicada":0,"fonte_crs":"EPSG:4674"}},{"type":"Feature","geometry":{"type":"Point","coordinates":[-51.601648,-29.1116113]},"properties":{"registro_id":64,"latitude":-29.1116113,"longitude":-51.601648,"na_bacia_publicada":1,"fonte_crs":"EPSG:4674"}},{"type":"Feature","geometry":{"type":"Point","coordinates":[-51.98887335,-29.59633957]},"properties":{"registro_id":65,"latitude":-29.59633957,"longitude":-51.98887335,"na_bacia_publicada":1,"fonte_crs":"EPSG:4674"}},{"type":"Feature","geometry":{"type":"Point","coordinates":[-51.1783412,-29.9508352]},"properties":{"registro_id":66,"latitude":-29.9508352,"longitude":-51.1783412,"na_bacia_publicada":0,"fonte_crs":"EPSG:4674"}},{"type":"Feature","geometry":{"type":"Point","coordinates":[-51.870536,-29.2852503]},"properties":{"registro_id":67,"latitude":-29.2852503,"longitude":-51.870536,"na_bacia_publicada":1,"fonte_crs":"EPSG:4674"}},{"type":"Feature","geometry":{"type":"Point","coordinates":[-51.3558822,-29.5086177]},"properties":{"registro_id":68,"latitude":-29.5086177,"longitude":-51.3558822,"na_bacia_publicada":0,"fonte_crs":"EPSG:4674"}},{"type":"Feature","geometry":{"type":"Point","coordinates":[-51.98139404,-29.52100689]},"properties":{"registro_id":69,"latitude":-29.52100689,"longitude":-51.98139404,"na_bacia_publicada":1,"fonte_crs":"EPSG:4674"}},{"type":"Feature","geometry":{"type":"Point","coordinates":[-51.98139404,-29.52100689]},"properties":{"registro_id":70,"latitude":-29.52100689,"longitude":-51.98139404,"na_bacia_publicada":1,"fonte_crs":"EPSG:4674"}},{"type":"Feature","geometry":{"type":"Point","coordinates":[-52.07264,-29.10867]},"properties":{"registro_id":71,"latitude":-29.10867,"longitude":-52.07264,"na_bacia_publicada":1,"fonte_crs":"EPSG:4674"}},{"type":"Feature","geometry":{"type":"Point","coordinates":[-51.98813637,-29.59670235]},"properties":{"registro_id":72,"latitude":-29.59670235,"longitude":-51.98813637,"na_bacia_publicada":1,"fonte_crs":"EPSG:4674"}},{"type":"Feature","geometry":{"type":"Point","coordinates":[-51.1948491,-29.9047802]},"properties":{"registro_id":73,"latitude":-29.9047802,"longitude":-51.1948491,"na_bacia_publicada":0,"fonte_crs":"EPSG:4674"}},{"type":"Feature","geometry":{"type":"Point","coordinates":[-51.3197939,-30.1014185]},"properties":{"registro_id":74,"latitude":-30.1014185,"longitude":-51.3197939,"na_bacia_publicada":0,"fonte_crs":"EPSG:4674"}},{"type":"Feature","geometry":{"type":"Point","coordinates":[-51.601648,-29.1116113]},"properties":{"registro_id":75,"latitude":-29.1116113,"longitude":-51.601648,"na_bacia_publicada":1,"fonte_crs":"EPSG:4674"}},{"type":"Feature","geometry":{"type":"Point","coordinates":[-51.1966285,-29.8986854]},"properties":{"registro_id":76,"latitude":-29.8986854,"longitude":-51.1966285,"na_bacia_publicada":0,"fonte_crs":"EPSG:4674"}},{"type":"Feature","geometry":{"type":"Point","coordinates":[-51.840747,-29.158115]},"properties":{"registro_id":77,"latitude":-29.158115,"longitude":-51.840747,"na_bacia_publicada":1,"fonte_crs":"EPSG:4674"}},{"type":"Feature","geometry":{"type":"Point","coordinates":[-52.1817862,-29.644442]},"properties":{"registro_id":78,"latitude":-29.644442,"longitude":-52.1817862,"na_bacia_publicada":1,"fonte_crs":"EPSG:4674"}},{"type":"Feature","geometry":{"type":"Point","coordinates":[-51.7234248,-29.9584746]},"properties":{"registro_id":79,"latitude":-29.9584746,"longitude":-51.7234248,"na_bacia_publicada":0,"fonte_crs":"EPSG:4674"}},{"type":"Feature","geometry":{"type":"Point","coordinates":[-51.97237854,-29.49864791]},"properties":{"registro_id":80,"latitude":-29.49864791,"longitude":-51.97237854,"na_bacia_publicada":1,"fonte_crs":"EPSG:4674"}},{"type":"Feature","geometry":{"type":"Point","coordinates":[-51.98838838,-29.54116195]},"properties":{"registro_id":81,"latitude":-29.54116195,"longitude":-51.98838838,"na_bacia_publicada":1,"fonte_crs":"EPSG:4674"}},{"type":"Feature","geometry":{"type":"Point","coordinates":[-51.2309066,-29.8973695]},"properties":{"registro_id":83,"latitude":-29.8973695,"longitude":-51.2309066,"na_bacia_publicada":0,"fonte_crs":"EPSG:4674"}},{"type":"Feature","geometry":{"type":"Point","coordinates":[-51.1353174,-29.7399634]},"properties":{"registro_id":84,"latitude":-29.7399634,"longitude":-51.1353174,"na_bacia_publicada":0,"fonte_crs":"EPSG:4674"}},{"type":"Feature","geometry":{"type":"Point","coordinates":[-50.7320048,-29.52551]},"properties":{"registro_id":85,"latitude":-29.52551,"longitude":-50.7320048,"na_bacia_publicada":0,"fonte_crs":"EPSG:4674"}},{"type":"Feature","geometry":{"type":"Point","coordinates":[-51.1475387,-29.7503381]},"properties":{"registro_id":86,"latitude":-29.7503381,"longitude":-51.1475387,"na_bacia_publicada":0,"fonte_crs":"EPSG:4674"}},{"type":"Feature","geometry":{"type":"Point","coordinates":[-51.523002,-29.4890276]},"properties":{"registro_id":87,"latitude":-29.4890276,"longitude":-51.523002,"na_bacia_publicada":0,"fonte_crs":"EPSG:4674"}},{"type":"Feature","geometry":{"type":"Point","coordinates":[-50.9074979,-29.3191275]},"properties":{"registro_id":88,"latitude":-29.3191275,"longitude":-50.9074979,"na_bacia_publicada":0,"fonte_crs":"EPSG:4674"}},{"type":"Feature","geometry":{"type":"Point","coordinates":[-51.90584309,-29.20020316]},"properties":{"registro_id":89,"latitude":-29.20020316,"longitude":-51.90584309,"na_bacia_publicada":1,"fonte_crs":"EPSG:4674"}},{"type":"Feature","geometry":{"type":"Point","coordinates":[-51.3647849,-29.3786463]},"properties":{"registro_id":90,"latitude":-29.3786463,"longitude":-51.3647849,"na_bacia_publicada":0,"fonte_crs":"EPSG:4674"}},{"type":"Feature","geometry":{"type":"Point","coordinates":[-51.1946257,-29.9586419]},"properties":{"registro_id":91,"latitude":-29.9586419,"longitude":-51.1946257,"na_bacia_publicada":0,"fonte_crs":"EPSG:4674"}},{"type":"Feature","geometry":{"type":"Point","coordinates":[-51.87413,-29.2869142]},"properties":{"registro_id":92,"latitude":-29.2869142,"longitude":-51.87413,"na_bacia_publicada":1,"fonte_crs":"EPSG:4674"}},{"type":"Feature","geometry":{"type":"Point","coordinates":[-50.8114104,-29.3637682]},"properties":{"registro_id":93,"latitude":-29.3637682,"longitude":-50.8114104,"na_bacia_publicada":0,"fonte_crs":"EPSG:4674"}},{"type":"Feature","geometry":{"type":"Point","coordinates":[-51.2037638,-29.9082908]},"properties":{"registro_id":94,"latitude":-29.9082908,"longitude":-51.2037638,"na_bacia_publicada":0,"fonte_crs":"EPSG:4674"}},{"type":"Feature","geometry":{"type":"Point","coordinates":[-51.2058325,-29.9176036]},"properties":{"registro_id":95,"latitude":-29.9176036,"longitude":-51.2058325,"na_bacia_publicada":0,"fonte_crs":"EPSG:4674"}},{"type":"Feature","geometry":{"type":"Point","coordinates":[-53.7020433,-29.6289722]},"properties":{"registro_id":96,"latitude":-29.6289722,"longitude":-53.7020433,"na_bacia_publicada":0,"fonte_crs":"EPSG:4674"}},{"type":"Feature","geometry":{"type":"Point","coordinates":[-51.97388213,-29.49501607]},"properties":{"registro_id":97,"latitude":-29.49501607,"longitude":-51.97388213,"na_bacia_publicada":1,"fonte_crs":"EPSG:4674"}},{"type":"Feature","geometry":{"type":"Point","coordinates":[-51.9516425,-28.7204799]},"properties":{"registro_id":98,"latitude":-28.7204799,"longitude":-51.9516425,"na_bacia_publicada":1,"fonte_crs":"EPSG:4674"}},{"type":"Feature","geometry":{"type":"Point","coordinates":[-52.15646434,-29.26116762]},"properties":{"registro_id":99,"latitude":-29.26116762,"longitude":-52.15646434,"na_bacia_publicada":1,"fonte_crs":"EPSG:4674"}},{"type":"Feature","geometry":{"type":"Point","coordinates":[-51.3108048,-30.0051035]},"properties":{"registro_id":100,"latitude":-30.0051035,"longitude":-51.3108048,"na_bacia_publicada":0,"fonte_crs":"EPSG:4674"}},{"type":"Feature","geometry":{"type":"Point","coordinates":[-52.00070837,-29.27469381]},"properties":{"registro_id":101,"latitude":-29.27469381,"longitude":-52.00070837,"na_bacia_publicada":1,"fonte_crs":"EPSG:4674"}},{"type":"Feature","geometry":{"type":"Point","coordinates":[-51.98813637,-29.59670235]},"properties":{"registro_id":102,"latitude":-29.59670235,"longitude":-51.98813637,"na_bacia_publicada":1,"fonte_crs":"EPSG:4674"}},{"type":"Feature","geometry":{"type":"Point","coordinates":[-51.1353336,-29.983715]},"properties":{"registro_id":103,"latitude":-29.983715,"longitude":-51.1353336,"na_bacia_publicada":0,"fonte_crs":"EPSG:4674"}},{"type":"Feature","geometry":{"type":"Point","coordinates":[-50.9074979,-29.3191275]},"properties":{"registro_id":104,"latitude":-29.3191275,"longitude":-50.9074979,"na_bacia_publicada":0,"fonte_crs":"EPSG:4674"}},{"type":"Feature","geometry":{"type":"Point","coordinates":[-50.767923,-29.485863]},"properties":{"registro_id":105,"latitude":-29.485863,"longitude":-50.767923,"na_bacia_publicada":0,"fonte_crs":"EPSG:4674"}},{"type":"Feature","geometry":{"type":"Point","coordinates":[-51.1597338,-29.239613]},"properties":{"registro_id":106,"latitude":-29.239613,"longitude":-51.1597338,"na_bacia_publicada":0,"fonte_crs":"EPSG:4674"}},{"type":"Feature","geometry":{"type":"Point","coordinates":[-51.83322841,-29.33480584]},"properties":{"registro_id":107,"latitude":-29.33480584,"longitude":-51.83322841,"na_bacia_publicada":1,"fonte_crs":"EPSG:4674"}},{"type":"Feature","geometry":{"type":"Point","coordinates":[-53.8410768,-29.6973575]},"properties":{"registro_id":108,"latitude":-29.6973575,"longitude":-53.8410768,"na_bacia_publicada":0,"fonte_crs":"EPSG:4674"}},{"type":"Feature","geometry":{"type":"Point","coordinates":[-51.98546,-29.541]},"properties":{"registro_id":109,"latitude":-29.541,"longitude":-51.98546,"na_bacia_publicada":1,"fonte_crs":"EPSG:4674"}},{"type":"Feature","geometry":{"type":"Point","coordinates":[-51.98546,-29.541]},"properties":{"registro_id":110,"latitude":-29.541,"longitude":-51.98546,"na_bacia_publicada":1,"fonte_crs":"EPSG:4674"}},{"type":"Feature","geometry":{"type":"Point","coordinates":[-51.1670154,-29.1106506]},"properties":{"registro_id":111,"latitude":-29.1106506,"longitude":-51.1670154,"na_bacia_publicada":1,"fonte_crs":"EPSG:4674"}},{"type":"Feature","geometry":{"type":"Point","coordinates":[-51.6005,-29.1413184]},"properties":{"registro_id":112,"latitude":-29.1413184,"longitude":-51.6005,"na_bacia_publicada":1,"fonte_crs":"EPSG:4674"}},{"type":"Feature","geometry":{"type":"Point","coordinates":[-51.5537999,-28.9306472]},"properties":{"registro_id":113,"latitude":-28.9306472,"longitude":-51.5537999,"na_bacia_publicada":1,"fonte_crs":"EPSG:4674"}},{"type":"Feature","geometry":{"type":"Point","coordinates":[-51.1597338,-29.239613]},"properties":{"registro_id":114,"latitude":-29.239613,"longitude":-51.1597338,"na_bacia_publicada":0,"fonte_crs":"EPSG:4674"}},{"type":"Feature","geometry":{"type":"Point","coordinates":[-51.1980875,-29.9065735]},"properties":{"registro_id":115,"latitude":-29.9065735,"longitude":-51.1980875,"na_bacia_publicada":0,"fonte_crs":"EPSG:4674"}},{"type":"Feature","geometry":{"type":"Point","coordinates":[-51.2058325,-29.9176036]},"properties":{"registro_id":116,"latitude":-29.9176036,"longitude":-51.2058325,"na_bacia_publicada":0,"fonte_crs":"EPSG:4674"}},{"type":"Feature","geometry":{"type":"Point","coordinates":[-51.98791,-29.5964]},"properties":{"registro_id":117,"latitude":-29.5964,"longitude":-51.98791,"na_bacia_publicada":1,"fonte_crs":"EPSG:4674"}},{"type":"Feature","geometry":{"type":"Point","coordinates":[-51.218016,-29.9035275]},"properties":{"registro_id":118,"latitude":-29.9035275,"longitude":-51.218016,"na_bacia_publicada":0,"fonte_crs":"EPSG:4674"}},{"type":"Feature","geometry":{"type":"Point","coordinates":[-51.9743247,-29.47500965]},"properties":{"registro_id":119,"latitude":-29.47500965,"longitude":-51.9743247,"na_bacia_publicada":1,"fonte_crs":"EPSG:4674"}},{"type":"Feature","geometry":{"type":"Point","coordinates":[-51.1597338,-29.239613]},"properties":{"registro_id":120,"latitude":-29.239613,"longitude":-51.1597338,"na_bacia_publicada":0,"fonte_crs":"EPSG:4674"}},{"type":"Feature","geometry":{"type":"Point","coordinates":[-51.1597338,-29.239613]},"properties":{"registro_id":121,"latitude":-29.239613,"longitude":-51.1597338,"na_bacia_publicada":0,"fonte_crs":"EPSG:4674"}},{"type":"Feature","geometry":{"type":"Point","coordinates":[-51.870536,-29.2852503]},"properties":{"registro_id":122,"latitude":-29.2852503,"longitude":-51.870536,"na_bacia_publicada":1,"fonte_crs":"EPSG:4674"}},{"type":"Feature","geometry":{"type":"Point","coordinates":[-51.2020737,-29.9219003]},"properties":{"registro_id":123,"latitude":-29.9219003,"longitude":-51.2020737,"na_bacia_publicada":0,"fonte_crs":"EPSG:4674"}},{"type":"Feature","geometry":{"type":"Point","coordinates":[-52.15650765,-29.26124966]},"properties":{"registro_id":124,"latitude":-29.26124966,"longitude":-52.15650765,"na_bacia_publicada":1,"fonte_crs":"EPSG:4674"}},{"type":"Feature","geometry":{"type":"Point","coordinates":[-50.8114104,-29.3637682]},"properties":{"registro_id":125,"latitude":-29.3637682,"longitude":-50.8114104,"na_bacia_publicada":0,"fonte_crs":"EPSG:4674"}},{"type":"Feature","geometry":{"type":"Point","coordinates":[-51.868891,-29.199937]},"properties":{"registro_id":126,"latitude":-29.199937,"longitude":-51.868891,"na_bacia_publicada":1,"fonte_crs":"EPSG:4674"}},{"type":"Feature","geometry":{"type":"Point","coordinates":[-52.201186,-28.9801908]},"properties":{"registro_id":127,"latitude":-28.9801908,"longitude":-52.201186,"na_bacia_publicada":1,"fonte_crs":"EPSG:4674"}},{"type":"Feature","geometry":{"type":"Point","coordinates":[-50.8507186,-29.9119311]},"properties":{"registro_id":128,"latitude":-29.9119311,"longitude":-50.8507186,"na_bacia_publicada":0,"fonte_crs":"EPSG:4674"}},{"type":"Feature","geometry":{"type":"Point","coordinates":[-51.1779239,-29.9005958]},"properties":{"registro_id":129,"latitude":-29.9005958,"longitude":-51.1779239,"na_bacia_publicada":0,"fonte_crs":"EPSG:4674"}},{"type":"Feature","geometry":{"type":"Point","coordinates":[-51.600937,-29.109571]},"properties":{"registro_id":130,"latitude":-29.109571,"longitude":-51.600937,"na_bacia_publicada":1,"fonte_crs":"EPSG:4674"}},{"type":"Feature","geometry":{"type":"Point","coordinates":[-51.1597338,-29.239613]},"properties":{"registro_id":131,"latitude":-29.239613,"longitude":-51.1597338,"na_bacia_publicada":0,"fonte_crs":"EPSG:4674"}},{"type":"Feature","geometry":{"type":"Point","coordinates":[-50.9074979,-29.3191275]},"properties":{"registro_id":132,"latitude":-29.3191275,"longitude":-50.9074979,"na_bacia_publicada":0,"fonte_crs":"EPSG:4674"}},{"type":"Feature","geometry":{"type":"Point","coordinates":[-52.4836754,-29.6142814]},"properties":{"registro_id":133,"latitude":-29.6142814,"longitude":-52.4836754,"na_bacia_publicada":0,"fonte_crs":"EPSG:4674"}},{"type":"Feature","geometry":{"type":"Point","coordinates":[-53.7020433,-29.6289722]},"properties":{"registro_id":134,"latitude":-29.6289722,"longitude":-53.7020433,"na_bacia_publicada":0,"fonte_crs":"EPSG:4674"}},{"type":"Feature","geometry":{"type":"Point","coordinates":[-51.315145,-30.0117912]},"properties":{"registro_id":135,"latitude":-30.0117912,"longitude":-51.315145,"na_bacia_publicada":0,"fonte_crs":"EPSG:4674"}},{"type":"Feature","geometry":{"type":"Point","coordinates":[-51.211718,-29.900007]},"properties":{"registro_id":136,"latitude":-29.900007,"longitude":-51.211718,"na_bacia_publicada":0,"fonte_crs":"EPSG:4674"}},{"type":"Feature","geometry":{"type":"Point","coordinates":[-51.601648,-29.1116113]},"properties":{"registro_id":137,"latitude":-29.1116113,"longitude":-51.601648,"na_bacia_publicada":1,"fonte_crs":"EPSG:4674"}},{"type":"Feature","geometry":{"type":"Point","coordinates":[-51.68214153,-29.57208758]},"properties":{"registro_id":138,"latitude":-29.57208758,"longitude":-51.68214153,"na_bacia_publicada":1,"fonte_crs":"EPSG:4674"}},{"type":"Feature","geometry":{"type":"Point","coordinates":[-50.9074979,-29.3191275]},"properties":{"registro_id":139,"latitude":-29.3191275,"longitude":-50.9074979,"na_bacia_publicada":0,"fonte_crs":"EPSG:4674"}},{"type":"Feature","geometry":{"type":"Point","coordinates":[-50.8393036,-29.421625]},"properties":{"registro_id":140,"latitude":-29.421625,"longitude":-50.8393036,"na_bacia_publicada":0,"fonte_crs":"EPSG:4674"}},{"type":"Feature","geometry":{"type":"Point","coordinates":[-52.6641667,-29.6575314]},"properties":{"registro_id":141,"latitude":-29.6575314,"longitude":-52.6641667,"na_bacia_publicada":0,"fonte_crs":"EPSG:4674"}},{"type":"Feature","geometry":{"type":"Point","coordinates":[-53.6280398,-29.691913]},"properties":{"registro_id":142,"latitude":-29.691913,"longitude":-53.6280398,"na_bacia_publicada":0,"fonte_crs":"EPSG:4674"}},{"type":"Feature","geometry":{"type":"Point","coordinates":[-51.746518,-29.462213]},"properties":{"registro_id":144,"latitude":-29.462213,"longitude":-51.746518,"na_bacia_publicada":1,"fonte_crs":"EPSG:4674"}},{"type":"Feature","geometry":{"type":"Point","coordinates":[-52.3868738,-30.1942596]},"properties":{"registro_id":145,"latitude":-30.1942596,"longitude":-52.3868738,"na_bacia_publicada":0,"fonte_crs":"EPSG:4674"}},{"type":"Feature","geometry":{"type":"Point","coordinates":[-50.7759146,-29.5196893]},"properties":{"registro_id":146,"latitude":-29.5196893,"longitude":-50.7759146,"na_bacia_publicada":0,"fonte_crs":"EPSG:4674"}},{"type":"Feature","geometry":{"type":"Point","coordinates":[-51.97388213,-29.49501607]},"properties":{"registro_id":147,"latitude":-29.49501607,"longitude":-51.97388213,"na_bacia_publicada":1,"fonte_crs":"EPSG:4674"}},{"type":"Feature","geometry":{"type":"Point","coordinates":[-51.6797478,-29.3809291]},"properties":{"registro_id":148,"latitude":-29.3809291,"longitude":-51.6797478,"na_bacia_publicada":1,"fonte_crs":"EPSG:4674"}},{"type":"Feature","geometry":{"type":"Point","coordinates":[-53.766626,-29.6158908]},"properties":{"registro_id":149,"latitude":-29.6158908,"longitude":-53.766626,"na_bacia_publicada":0,"fonte_crs":"EPSG:4674"}},{"type":"Feature","geometry":{"type":"Point","coordinates":[-51.1973487,-29.9648212]},"properties":{"registro_id":150,"latitude":-29.9648212,"longitude":-51.1973487,"na_bacia_publicada":0,"fonte_crs":"EPSG:4674"}},{"type":"Feature","geometry":{"type":"Point","coordinates":[-51.1005576,-29.7442257]},"properties":{"registro_id":151,"latitude":-29.7442257,"longitude":-51.1005576,"na_bacia_publicada":0,"fonte_crs":"EPSG:4674"}},{"type":"Feature","geometry":{"type":"Point","coordinates":[-52.00070837,-29.27469381]},"properties":{"registro_id":152,"latitude":-29.27469381,"longitude":-52.00070837,"na_bacia_publicada":1,"fonte_crs":"EPSG:4674"}},{"type":"Feature","geometry":{"type":"Point","coordinates":[-53.2298514,-29.3804543]},"properties":{"registro_id":153,"latitude":-29.3804543,"longitude":-53.2298514,"na_bacia_publicada":0,"fonte_crs":"EPSG:4674"}},{"type":"Feature","geometry":{"type":"Point","coordinates":[-53.2450243,-29.3714025]},"properties":{"registro_id":154,"latitude":-29.3714025,"longitude":-53.2450243,"na_bacia_publicada":0,"fonte_crs":"EPSG:4674"}},{"type":"Feature","geometry":{"type":"Point","coordinates":[-51.1929764,-29.9639176]},"properties":{"registro_id":155,"latitude":-29.9639176,"longitude":-51.1929764,"na_bacia_publicada":0,"fonte_crs":"EPSG:4674"}},{"type":"Feature","geometry":{"type":"Point","coordinates":[-51.5631881,-28.9647076]},"properties":{"registro_id":156,"latitude":-28.9647076,"longitude":-51.5631881,"na_bacia_publicada":1,"fonte_crs":"EPSG:4674"}},{"type":"Feature","geometry":{"type":"Point","coordinates":[-51.523002,-29.4890276]},"properties":{"registro_id":157,"latitude":-29.4890276,"longitude":-51.523002,"na_bacia_publicada":0,"fonte_crs":"EPSG:4674"}},{"type":"Feature","geometry":{"type":"Point","coordinates":[-51.1597338,-29.239613]},"properties":{"registro_id":158,"latitude":-29.239613,"longitude":-51.1597338,"na_bacia_publicada":0,"fonte_crs":"EPSG:4674"}},{"type":"Feature","geometry":{"type":"Point","coordinates":[-51.7658079,-29.0498589]},"properties":{"registro_id":159,"latitude":-29.0498589,"longitude":-51.7658079,"na_bacia_publicada":1,"fonte_crs":"EPSG:4674"}},{"type":"Feature","geometry":{"type":"Point","coordinates":[-50.9074979,-29.3191275]},"properties":{"registro_id":160,"latitude":-29.3191275,"longitude":-50.9074979,"na_bacia_publicada":0,"fonte_crs":"EPSG:4674"}},{"type":"Feature","geometry":{"type":"Point","coordinates":[-51.5530307,-28.863232]},"properties":{"registro_id":161,"latitude":-28.863232,"longitude":-51.5530307,"na_bacia_publicada":1,"fonte_crs":"EPSG:4674"}},{"type":"Feature","geometry":{"type":"Point","coordinates":[-51.4068726,-29.6996727]},"properties":{"registro_id":162,"latitude":-29.6996727,"longitude":-51.4068726,"na_bacia_publicada":0,"fonte_crs":"EPSG:4674"}},{"type":"Feature","geometry":{"type":"Point","coordinates":[-53.0445983,-29.3999113]},"properties":{"registro_id":163,"latitude":-29.3999113,"longitude":-53.0445983,"na_bacia_publicada":0,"fonte_crs":"EPSG:4674"}},{"type":"Feature","geometry":{"type":"Point","coordinates":[-51.2069211,-29.9050947]},"properties":{"registro_id":164,"latitude":-29.9050947,"longitude":-51.2069211,"na_bacia_publicada":0,"fonte_crs":"EPSG:4674"}},{"type":"Feature","geometry":{"type":"Point","coordinates":[-51.1979583,-30.1852773]},"properties":{"registro_id":165,"latitude":-30.1852773,"longitude":-51.1979583,"na_bacia_publicada":0,"fonte_crs":"EPSG:4674"}},{"type":"Feature","geometry":{"type":"Point","coordinates":[-52.4861697,-29.594477]},"properties":{"registro_id":166,"latitude":-29.594477,"longitude":-52.4861697,"na_bacia_publicada":0,"fonte_crs":"EPSG:4674"}},{"type":"Feature","geometry":{"type":"Point","coordinates":[-51.87468396,-29.18767947]},"properties":{"registro_id":167,"latitude":-29.18767947,"longitude":-51.87468396,"na_bacia_publicada":1,"fonte_crs":"EPSG:4674"}},{"type":"Feature","geometry":{"type":"Point","coordinates":[-50.9074979,-29.3191275]},"properties":{"registro_id":168,"latitude":-29.3191275,"longitude":-50.9074979,"na_bacia_publicada":0,"fonte_crs":"EPSG:4674"}},{"type":"Feature","geometry":{"type":"Point","coordinates":[-51.1659972,-29.744066]},"properties":{"registro_id":169,"latitude":-29.744066,"longitude":-51.1659972,"na_bacia_publicada":0,"fonte_crs":"EPSG:4674"}},{"type":"Feature","geometry":{"type":"Point","coordinates":[-51.1915165,-29.9660833]},"properties":{"registro_id":170,"latitude":-29.9660833,"longitude":-51.1915165,"na_bacia_publicada":0,"fonte_crs":"EPSG:4674"}},{"type":"Feature","geometry":{"type":"Point","coordinates":[-51.1824299,-29.9841166]},"properties":{"registro_id":171,"latitude":-29.9841166,"longitude":-51.1824299,"na_bacia_publicada":0,"fonte_crs":"EPSG:4674"}},{"type":"Feature","geometry":{"type":"Point","coordinates":[-51.1409008,-29.7395461]},"properties":{"registro_id":172,"latitude":-29.7395461,"longitude":-51.1409008,"na_bacia_publicada":0,"fonte_crs":"EPSG:4674"}},{"type":"Feature","geometry":{"type":"Point","coordinates":[-51.98838838,-29.54116195]},"properties":{"registro_id":173,"latitude":-29.54116195,"longitude":-51.98838838,"na_bacia_publicada":1,"fonte_crs":"EPSG:4674"}},{"type":"Feature","geometry":{"type":"Point","coordinates":[-51.3120836,-30.0009106]},"properties":{"registro_id":174,"latitude":-30.0009106,"longitude":-51.3120836,"na_bacia_publicada":0,"fonte_crs":"EPSG:4674"}},{"type":"Feature","geometry":{"type":"Point","coordinates":[-51.9859384,-29.5128866]},"properties":{"registro_id":175,"latitude":-29.5128866,"longitude":-51.9859384,"na_bacia_publicada":1,"fonte_crs":"EPSG:4674"}},{"type":"Feature","geometry":{"type":"Point","coordinates":[-51.1891808,-29.9185726]},"properties":{"registro_id":176,"latitude":-29.9185726,"longitude":-51.1891808,"na_bacia_publicada":0,"fonte_crs":"EPSG:4674"}},{"type":"Feature","geometry":{"type":"Point","coordinates":[-51.0887743,-29.9424127]},"properties":{"registro_id":177,"latitude":-29.9424127,"longitude":-51.0887743,"na_bacia_publicada":0,"fonte_crs":"EPSG:4674"}},{"type":"Feature","geometry":{"type":"Point","coordinates":[-51.219657,-29.8979256]},"properties":{"registro_id":178,"latitude":-29.8979256,"longitude":-51.219657,"na_bacia_publicada":0,"fonte_crs":"EPSG:4674"}},{"type":"Feature","geometry":{"type":"Point","coordinates":[-51.1137647,-29.9881094]},"properties":{"registro_id":179,"latitude":-29.9881094,"longitude":-51.1137647,"na_bacia_publicada":0,"fonte_crs":"EPSG:4674"}},{"type":"Feature","geometry":{"type":"Point","coordinates":[-51.942442,-29.756976]},"properties":{"registro_id":180,"latitude":-29.756976,"longitude":-51.942442,"na_bacia_publicada":1,"fonte_crs":"EPSG:4674"}},{"type":"Feature","geometry":{"type":"Point","coordinates":[-51.3647849,-29.3786463]},"properties":{"registro_id":182,"latitude":-29.3786463,"longitude":-51.3647849,"na_bacia_publicada":0,"fonte_crs":"EPSG:4674"}},{"type":"Feature","geometry":{"type":"Point","coordinates":[-51.614108,-29.9595341]},"properties":{"registro_id":183,"latitude":-29.9595341,"longitude":-51.614108,"na_bacia_publicada":0,"fonte_crs":"EPSG:4674"}},{"type":"Feature","geometry":{"type":"Point","coordinates":[-51.95521343,-29.62168369]},"properties":{"registro_id":185,"latitude":-29.62168369,"longitude":-51.95521343,"na_bacia_publicada":1,"fonte_crs":"EPSG:4674"}}]}
