{"type":"FeatureCollection","features":[{"type":"Feature","geometry":{"type":"Polygon","coordinates":[[[-55.491477,-24.2586098],[-55.491477,-29.5328037],[-50.0187653,-27.7802732],[-50.0187653,-22.7359095],[-55.491477,-24.2586098]]]},"properties":{"tile_id":"94f","tile_url":"https://storage.googleapis.com/open-buildings-data/v3/polygons_s2_level_4_gzip/94f_buildings.csv.gz","size_mb":1112.7,"building_count":11246273,"building_count_90pct":4894220,"confidence_threshold_90pct":0.828,"source":"Google Research Open Buildings v3","vintage_imagery":"2023 (inference on imagery through May 2023)","gerado_em_utc":"2026-08-19T20:53:18Z"}},{"type":"Feature","geometry":{"type":"Polygon","coordinates":[[[-55.491477,-29.5328037],[-55.491477,-34.6442205],[-50.0187653,-32.7222325],[-50.0187653,-27.7802732],[-55.491477,-29.5328037]]]},"properties":{"tile_id":"951","tile_url":"https://storage.googleapis.com/open-buildings-data/v3/polygons_s2_level_4_gzip/951_buildings.csv.gz","size_mb":731.8,"building_count":7438931,"building_count_90pct":2517283,"confidence_threshold_90pct":0.84,"source":"Google Research Open Buildings v3","vintage_imagery":"2023 (inference on imagery through May 2023)","gerado_em_utc":"2026-08-19T20:53:18Z"}},{"type":"Feature","geometry":{"type":"Polygon","coordinates":[[[-50.0187653,-27.7802732],[-50.0187653,-32.7222325],[-45.0,-30.6653338],[-45.0,-25.9260509],[-50.0187653,-27.7802732]]]},"properties":{"tile_id":"953","tile_url":"https://storage.googleapis.com/open-buildings-data/v3/polygons_s2_level_4_gzip/953_buildings.csv.gz","size_mb":197.7,"building_count":2032839,"building_count_90pct":1159839,"confidence_threshold_90pct":0.8,"source":"Google Research Open Buildings v3","vintage_imagery":"2023 (inference on imagery through May 2023)","gerado_em_utc":"2026-08-19T20:53:18Z"}}]}
