{"type":"FeatureCollection","name":"G040_residual_incremental_catchments_candidate","features":[{"type":"Feature","geometry":{"type":"Polygon","coordinates":[[[-51.9353572,-29.743668399186685],[-51.9356272,-29.743211899186708],[-51.93614159999999,-29.741595799186758],[-51.936394,-29.74017419918678],[-51.93648669999998,-29.738637499186765],[-51.935938599999986,-29.737090099186794],[-51.934968200000014,-29.736696499186795],[-51.932872100000004,-29.736744899186835],[-51.931274900000005,-29.73639099918683],[-51.92994759999999,-29.735743999186838],[-51.92829979999999,-29.734723999186862],[-51.927079699999986,-29.733696099186837],[-51.926483800000035,-29.733054199186892],[-51.92589090000002,-29.732172399186915],[-51.92546479999998,-29.731350199186913],[-51.92512390000002,-29.730602899186927],[-51.92484259999998,-29.729712799186938],[-51.92471549999999,-29.72866399918692],[-51.92479750000001,-29.727609399186964],[-51.925027100000015,-29.726703099186985],[-51.926182100000005,-29.723489199187053],[-51.92693159999999,-29.722062899187087],[-51.92755310000001,-29.721406999187074],[-51.928686899999995,-29.720632499187097],[-51.929478399999994,-29.72025999918709],[-51.93097039999998,-29.71968809918708],[-51.93436270000001,-29.71851439918712],[-51.935785099999976,-29.717876799187135],[-51.93704709999997,-29.71705439918713],[-51.93791390000001,-29.71614389918717],[-51.93856310000001,-29.715139899187168],[-51.93891939999998,-29.714336099187204],[-51.93912690000002,-29.712996999187173],[-51.9389413,-29.71131529918726],[-51.938938199999996,-29.70984429918725],[-51.93885169999999,-29.708159099187277],[-51.93847620000003,-29.707084399187302],[-51.93800090000001,-29.70620159918731],[-51.9371928,-29.705047599187342],[-51.93645149999997,-29.704161299187373],[-51.93532570000002,-29.703092799187353],[-51.93433019999997,-29.702349799187367],[-51.93320649999998,-29.701734699187373],[-51.931418300000026,-29.70094959918741],[-51.92938459999999,-29.70014549918744],[-51.925362500000006,-29.698351699187437],[-51.9225945,-29.6972859991875],[-51.9210784,-29.696656799187505],[-51.920270000000016,-29.69629919918748],[-51.91723030000003,-29.694833199187528],[-51.91427759999999,-29.693479099187527],[-51.90979629999998,-29.69166729918757],[-51.908678099999975,-29.69116749918758],[-51.907047499999976,-29.690401699187582],[-51.906156899999985,-29.68991159918761],[-51.90525589999998,-29.688771599187607],[-51.90564760000001,-29.687365499187642],[-51.9062045,-29.686700099187647],[-51.906851500000016,-29.68613149918765],[-51.9079165,-29.68536029918769],[-51.91098499999998,-29.683323499187672],[-51.91381319999999,-29.68107869918774],[-51.91488989999999,-29.68027619918774],[-51.91603739999999,-29.67961689918775],[-51.917430000000024,-29.679045299187763],[-51.9190868,-29.67860009918777],[-51.92085889999998,-29.678297499187778],[-51.922616800000014,-29.67810939918777],[-51.92565769999999,-29.677877599187788],[-51.9268955,-29.677714799187775],[-51.92859979999997,-29.677256999187804],[-51.92952439999999,-29.677001899187804],[-51.93025410000001,-29.67771819918781],[-51.93085239999999,-29.678563199187767],[-51.931430499999976,-29.679660099187743],[-51.932454699999994,-29.68237749918769],[-51.93344819999998,-29.684131899187708],[-51.93421449999999,-29.684967599187676],[-51.935116100000016,-29.685716099187644],[-51.936400100000014,-29.68665969918765],[-51.93730069999998,-29.687437399187655],[-51.9381209,-29.68828219918763],[-51.93885820000002,-29.689194099187617],[-51.94056610000001,-29.691849099187575],[-51.9412481,-29.69280849918756],[-51.94240719999999,-29.694220699187543],[-51.944657500000005,-29.696715299187474],[-51.946688199999976,-29.699534399187435],[-51.947221899999995,-29.700422199187415],[-51.94783389999998,-29.701842299187405],[-51.9488336,-29.703510099187387],[-51.94973879999998,-29.70564689918731],[-51.9505178,-29.70833419918732],[-51.95111079999998,-29.70977919918728],[-51.951813300000026,-29.710922699187275],[-51.952546299999995,-29.711854099187207],[-51.95318270000002,-29.71250969918722],[-51.95369119999999,-29.712835599187212],[-51.95371239999997,-29.714202399187172],[-51.95381980000002,-29.715094599187168],[-51.95405269999998,-29.715866499187165],[-51.95483280000002,-29.717068299187133],[-51.955037600000026,-29.718243299187108],[-51.95478689999998,-29.71912559918709],[-51.95505209999999,-29.719967699187077],[-51.95662750000002,-29.720625799187076],[-51.958020200000014,-29.721350999187095],[-51.95892679999998,-29.72230609918708],[-51.9599283,-29.723077599187057],[-51.96110670000002,-29.724242799187028],[-51.961191499999984,-29.724501799186996],[-51.96065149999998,-29.72507949918699],[-51.96022399999999,-29.726249399186955],[-51.95960450000001,-29.72849679918696],[-51.95906800000001,-29.729750699186937],[-51.95790790000001,-29.730481199186894],[-51.95667780000002,-29.730658899186892],[-51.95573430000001,-29.730860299186915],[-51.95383629999998,-29.73150469918692],[-51.9516615,-29.73211079918689],[-51.950392299999976,-29.732683499186894],[-51.949763099999984,-29.73329439918685],[-51.94925050000001,-29.734095199186886],[-51.94889510000001,-29.73524059918683],[-51.948763299999996,-29.736520999186805],[-51.94877270000001,-29.73783579918682],[-51.94901570000002,-29.74015469918676],[-51.94891059999998,-29.741668499186733],[-51.948651100000006,-29.742583999186746],[-51.94835210000002,-29.743409299186695],[-51.94741490000001,-29.7453155991867],[-51.94605039999999,-29.74773799918665],[-51.94535760000002,-29.74950239918658],[-51.9443493,-29.749749799186613],[-51.94234,-29.750653499186573],[-51.94140490000001,-29.75117149918658],[-51.93978729999998,-29.751747599186555],[-51.938972400000004,-29.751367399186556],[-51.93869669999998,-29.750536899186567],[-51.9384642,-29.74925829918661],[-51.93810000000002,-29.747498499186637],[-51.93785359999998,-29.746314699186676],[-51.93693669999999,-29.745931999186652],[-51.93616789999999,-29.745336999186673],[-51.93558799999999,-29.744600299186697],[-51.9353572,-29.743668399186685]]]},"properties":{"interval_id":"INC_86895000_86950000","upstream_station":"86895000","downstream_station":"86950000","bho6_residual_area_km2":1217.731,"geometry_area_km2":15.911,"cobacia_match_ratio":0.0009,"research_only":true}},{"type":"Feature","geometry":{"type":"Polygon","coordinates":[[[-51.720358499999975,-29.852835499184916],[-51.7224536,-29.85178099918492],[-51.72415719999997,-29.850720699184933],[-51.72699010000002,-29.848832399184936],[-51.72901350000001,-29.84758549918495],[-51.73106209999997,-29.846445399184976],[-51.732166199999995,-29.845981199184976],[-51.734423900000024,-29.845152899185024],[-51.735473099999986,-29.84469409918505],[-51.73687849999999,-29.843742099185015],[-51.73760299999998,-29.842927699185072],[-51.738142400000015,-29.842019199185042],[-51.73843720000002,-29.84118529918508],[-51.7385989,-29.840309499185075],[-51.73865009999997,-29.83942639918509],[-51.738605,-29.83856749918512],[-51.738271,-29.83651919918514],[-51.73824610000002,-29.835508899185154],[-51.73848450000003,-29.83468889918519],[-51.738906199999974,-29.83387599918517],[-51.7396435,-29.832922699185193],[-51.742428800000035,-29.83002659918526],[-51.74363440000002,-29.828719199185297],[-51.74469970000001,-29.827472899185267],[-51.7458527,-29.825997299185314],[-51.74703699999998,-29.824585799185375],[-51.74759779999999,-29.823948399185365],[-51.7490037,-29.8225910991854],[-51.74962240000002,-29.821933899185375],[-51.75026200000002,-29.821052899185386],[-51.750789600000026,-29.819982199185457],[-51.751248799999985,-29.818734699185434],[-51.75166059999998,-29.817401699185474],[-51.75204550000001,-29.815953999185464],[-51.7523185,-29.8145349991855],[-51.752652899999994,-29.811688799185568],[-51.75294339999999,-29.810316199185568],[-51.7537739,-29.810672099185574],[-51.75455390000002,-29.8113199991856],[-51.755640000000035,-29.811868299185576],[-51.75743640000002,-29.812386299185565],[-51.75943289999998,-29.813426399185566],[-51.76051159999997,-29.813465999185542],[-51.76148019999999,-29.813224699185504],[-51.762511399999994,-29.81316319918556],[-51.76361240000001,-29.81313239918551],[-51.764982499999974,-29.812446299185535],[-51.76591830000001,-29.812586399185534],[-51.76700119999999,-29.812723299185567],[-51.76818589999999,-29.812803599185546],[-51.76952399999998,-29.81283539918552],[-51.770328800000016,-29.813773299185502],[-51.771416600000016,-29.8142184991855],[-51.77305419999999,-29.814245899185522],[-51.7739464,-29.81405539918551],[-51.77476999999999,-29.81443499918551],[-51.775195399999966,-29.8152722991855],[-51.77514089999999,-29.81609759918547],[-51.77424050000002,-29.817308899185473],[-51.77408079999998,-29.818444599185465],[-51.774632800000006,-29.81986289918542],[-51.77502049999998,-29.820822599185384],[-51.77487289999999,-29.8217195991854],[-51.77402619999998,-29.82270349918536],[-51.773690699999975,-29.822835399185358],[-51.77293450000002,-29.822724499185384],[-51.77161389999998,-29.822831199185366],[-51.77082109999997,-29.823268599185376],[-51.770395399999984,-29.824079599185364],[-51.77059910000003,-29.82502529918533],[-51.77150849999998,-29.826483099185342],[-51.772002499999985,-29.8279849991853],[-51.77201500000001,-29.829132399185273],[-51.77168330000001,-29.831137399185227],[-51.77147400000001,-29.83367329918517],[-51.77139199999999,-29.836716299185127],[-51.771634000000006,-29.838086099185123],[-51.77271769999999,-29.839906799185083],[-51.77371699999998,-29.842338199185033],[-51.77452899999997,-29.84366449918502],[-51.77504299999998,-29.844655399185044],[-51.77546419999998,-29.84571449918499],[-51.77576119999998,-29.84698169918499],[-51.77587089999997,-29.848345799184962],[-51.7758958,-29.849772499184905],[-51.77601010000001,-29.852192499184888],[-51.77619160000001,-29.856168399184828],[-51.77617780000003,-29.861353399184726],[-51.77622860000003,-29.862609099184706],[-51.77645699999999,-29.863466399184702],[-51.77691920000001,-29.864278699184695],[-51.777037399999976,-29.865455699184654],[-51.776916899999996,-29.866479499184674],[-51.77624470000001,-29.867612199184624],[-51.776191299999994,-29.86783529918466],[-51.775923999999975,-29.868777999184633],[-51.775001400000015,-29.869595299184603],[-51.77420389999997,-29.870096999184575],[-51.77230470000001,-29.871137299184568],[-51.76998329999998,-29.87252519918454],[-51.76906059999999,-29.872868399184565],[-51.76759559999999,-29.872708099184567],[-51.76680219999997,-29.872295399184544],[-51.766033199999974,-29.871719399184588],[-51.765293199999974,-29.87102069918455],[-51.763329199999994,-29.868861799184607],[-51.76198579999999,-29.867696599184626],[-51.761146,-29.86710549918461],[-51.75857430000002,-29.865443399184688],[-51.757122100000004,-29.86476739918469],[-51.755870699999996,-29.864463099184714],[-51.754496700000004,-29.864421999184675],[-51.75337630000001,-29.8646025991847],[-51.750924499999996,-29.865195499184694],[-51.749476200000004,-29.86544199918465],[-51.74847990000001,-29.8654798991847],[-51.746443699999986,-29.865365399184643],[-51.74549999999999,-29.865254999184668],[-51.74261080000002,-29.864774099184658],[-51.74122629999999,-29.864664499184688],[-51.739070200000015,-29.864694399184707],[-51.735534900000005,-29.86494789918469],[-51.733157500000004,-29.864983699184666],[-51.73196680000001,-29.864747299184668],[-51.730544899999984,-29.86402849918471],[-51.728014299999984,-29.861921199184717],[-51.72612400000003,-29.86040689918475],[-51.724520199999965,-29.858922199184768],[-51.723933999999986,-29.858301399184814],[-51.72307649999999,-29.857293799184784],[-51.72216659999998,-29.85600509918483],[-51.721182899999974,-29.854399199184837],[-51.720732899999966,-29.853595399184876],[-51.720358499999975,-29.852835499184916]]]},"properties":{"interval_id":"INC_86950000_86996000","upstream_station":"86950000","downstream_station":"86996000","bho6_residual_area_km2":624.799,"geometry_area_km2":21.576,"cobacia_match_ratio":0.0017,"research_only":true}}]}
