{
  "type": "FeatureCollection",
  "crs": {
    "type": "name",
    "properties": {
      "name": "EPSG:4326"
    }
  },
  "features": [
    {
      "type": "Feature",
      "properties": {
        "NOME": "BaseCerta",
        "TIPO": "BASE",
        "NORTE": 6773140.591,
        "ESTE": 428656.323,
        "COTA": 76.37
      },
      "geometry": {
        "type": "Point",
        "coordinates": [
          -51.73366311,
          -29.16834272,
          76.37
        ]
      }
    },
    {
      "type": "Feature",
      "properties": {
        "NOME": "H009",
        "TIPO": "H",
        "NORTE": 6773588.098,
        "ESTE": 428213.138,
        "COTA": 81.857
      },
      "geometry": {
        "type": "Point",
        "coordinates": [
          -51.7381914,
          -29.16427893,
          81.857
        ]
      }
    },
    {
      "type": "Feature",
      "properties": {
        "NOME": "H008",
        "TIPO": "H",
        "NORTE": 6773391.899,
        "ESTE": 428255.231,
        "COTA": 81.554
      },
      "geometry": {
        "type": "Point",
        "coordinates": [
          -51.73777124,
          -29.16605201,
          81.554
        ]
      }
    },
    {
      "type": "Feature",
      "properties": {
        "NOME": "V011",
        "TIPO": "V",
        "NORTE": 6772701.049,
        "ESTE": 428379.944,
        "COTA": 73.134
      },
      "geometry": {
        "type": "Point",
        "coordinates": [
          -51.73653338,
          -29.17229399,
          73.134
        ]
      }
    },
    {
      "type": "Feature",
      "properties": {
        "NOME": "V009A",
        "TIPO": "V",
        "NORTE": 6772812.308,
        "ESTE": 428387.96,
        "COTA": 75.821
      },
      "geometry": {
        "type": "Point",
        "coordinates": [
          -51.73644378,
          -29.17129033,
          75.821
        ]
      }
    },
    {
      "type": "Feature",
      "properties": {
        "NOME": "V009",
        "TIPO": "V",
        "NORTE": 6772822.338,
        "ESTE": 428446.784,
        "COTA": 81.229
      },
      "geometry": {
        "type": "Point",
        "coordinates": [
          -51.73583824,
          -29.17120313,
          81.229
        ]
      }
    },
    {
      "type": "Feature",
      "properties": {
        "NOME": "V005",
        "TIPO": "V",
        "NORTE": 6773230.544,
        "ESTE": 428437.469,
        "COTA": 76.615
      },
      "geometry": {
        "type": "Point",
        "coordinates": [
          -51.73590775,
          -29.16751855,
          76.615
        ]
      }
    },
    {
      "type": "Feature",
      "properties": {
        "NOME": "V004",
        "TIPO": "V",
        "NORTE": 6773229.222,
        "ESTE": 428378.138,
        "COTA": 78.404
      },
      "geometry": {
        "type": "Point",
        "coordinates": [
          -51.73651792,
          -29.16752713,
          78.404
        ]
      }
    },
    {
      "type": "Feature",
      "properties": {
        "NOME": "V003",
        "TIPO": "V",
        "NORTE": 6773092.662,
        "ESTE": 428281.47,
        "COTA": 78.197
      },
      "geometry": {
        "type": "Point",
        "coordinates": [
          -51.73752074,
          -29.16875411,
          78.197
        ]
      }
    },
    {
      "type": "Feature",
      "properties": {
        "NOME": "V002",
        "TIPO": "V",
        "NORTE": 6773023.158,
        "ESTE": 428058.212,
        "COTA": 79.517
      },
      "geometry": {
        "type": "Point",
        "coordinates": [
          -51.73982096,
          -29.16936872,
          79.517
        ]
      }
    },
    {
      "type": "Feature",
      "properties": {
        "NOME": "H002",
        "TIPO": "H",
        "NORTE": 6772928.63,
        "ESTE": 428304.462,
        "COTA": 78.683
      },
      "geometry": {
        "type": "Point",
        "coordinates": [
          -51.7372949,
          -29.1702358,
          78.683
        ]
      }
    },
    {
      "type": "Feature",
      "properties": {
        "NOME": "H001",
        "TIPO": "H",
        "NORTE": 6772929.858,
        "ESTE": 428322.541,
        "COTA": 80.859
      },
      "geometry": {
        "type": "Point",
        "coordinates": [
          -51.73710891,
          -29.17022574,
          80.859
        ]
      }
    },
    {
      "type": "Feature",
      "properties": {
        "NOME": "V001",
        "TIPO": "V",
        "NORTE": 6772929.859,
        "ESTE": 428322.536,
        "COTA": 80.866
      },
      "geometry": {
        "type": "Point",
        "coordinates": [
          -51.73710896,
          -29.17022573,
          80.866
        ]
      }
    },
    {
      "type": "Feature",
      "properties": {
        "NOME": "RN1 25892 REGUA SGB",
        "TIPO": "RN",
        "NORTE": 6772059.544,
        "ESTE": 428811.742,
        "COTA": 83.139
      },
      "geometry": {
        "type": "Point",
        "coordinates": [
          -51.73213421,
          -29.17810791,
          83.139
        ]
      }
    },
    {
      "type": "Feature",
      "properties": {
        "NOME": "V010",
        "TIPO": "V",
        "NORTE": 6772215.647,
        "ESTE": 428758.983,
        "COTA": 76.665
      },
      "geometry": {
        "type": "Point",
        "coordinates": [
          -51.73266676,
          -29.17669612,
          76.665
        ]
      }
    },
    {
      "type": "Feature",
      "properties": {
        "NOME": "H007",
        "TIPO": "H",
        "NORTE": 6772695.632,
        "ESTE": 428598.263,
        "COTA": 82.097
      },
      "geometry": {
        "type": "Point",
        "coordinates": [
          -51.73428871,
          -29.1723552,
          82.097
        ]
      }
    },
    {
      "type": "Feature",
      "properties": {
        "NOME": "H006",
        "TIPO": "H",
        "NORTE": 6772739.321,
        "ESTE": 428737.967,
        "COTA": 81.137
      },
      "geometry": {
        "type": "Point",
        "coordinates": [
          -51.7328493,
          -29.17196878,
          81.137
        ]
      }
    },
    {
      "type": "Feature",
      "properties": {
        "NOME": "H005",
        "TIPO": "H",
        "NORTE": 6772732.537,
        "ESTE": 428840.354,
        "COTA": 79.859
      },
      "geometry": {
        "type": "Point",
        "coordinates": [
          -51.73179688,
          -29.17203576,
          79.859
        ]
      }
    },
    {
      "type": "Feature",
      "properties": {
        "NOME": "H004",
        "TIPO": "H",
        "NORTE": 6772749.739,
        "ESTE": 428983.86,
        "COTA": 82.931
      },
      "geometry": {
        "type": "Point",
        "coordinates": [
          -51.73032008,
          -29.17188857,
          82.931
        ]
      }
    },
    {
      "type": "Feature",
      "properties": {
        "NOME": "H003",
        "TIPO": "H",
        "NORTE": 6772921.59,
        "ESTE": 428928.641,
        "COTA": 82.703
      },
      "geometry": {
        "type": "Point",
        "coordinates": [
          -51.73087692,
          -29.17033452,
          82.703
        ]
      }
    },
    {
      "type": "Feature",
      "properties": {
        "NOME": "V008",
        "TIPO": "V",
        "NORTE": 6772754.017,
        "ESTE": 428637.532,
        "COTA": 80.179
      },
      "geometry": {
        "type": "Point",
        "coordinates": [
          -51.73388115,
          -29.17183049,
          80.179
        ]
      }
    },
    {
      "type": "Feature",
      "properties": {
        "NOME": "V007",
        "TIPO": "V",
        "NORTE": 6772749.35,
        "ESTE": 428596.388,
        "COTA": 78.688
      },
      "geometry": {
        "type": "Point",
        "coordinates": [
          -51.73430454,
          -29.17187029,
          78.688
        ]
      }
    },
    {
      "type": "Feature",
      "properties": {
        "NOME": "V006",
        "TIPO": "V",
        "NORTE": 6772796.761,
        "ESTE": 428551.634,
        "COTA": 78.479
      },
      "geometry": {
        "type": "Point",
        "coordinates": [
          -51.73476171,
          -29.17143988,
          78.479
        ]
      }
    }
  ]
}
