<?xml version="1.0" encoding="UTF-8"?>
<kml xmlns="http://www.opengis.net/kml/2.2">
  <Document>
    <name>Pts-Transladados</name>
    <description>Pontos de campo transladados — Santa Tereza/RS. Plano: SIRGAS 2000 / UTM 22S (EPSG:31982). KML em WGS84. Cota em metros.</description>
    <LookAt>
      <longitude>-51.73507052</longitude>
      <latitude>-29.17119342</latitude>
      <altitude>0</altitude>
      <heading>0</heading>
      <tilt>0</tilt>
      <range>2500</range>
    </LookAt>
    <Style id="st-BASE">
      <IconStyle>
        <color>ff0055ff</color>
        <scale>1.1</scale>
        <Icon>
          <href>http://maps.google.com/mapfiles/kml/paddle/wht-blank.png</href>
        </Icon>
      </IconStyle>
      <LabelStyle>
        <scale>0.9</scale>
      </LabelStyle>
    </Style>
    <Style id="st-RN">
      <IconStyle>
        <color>ff0000ff</color>
        <scale>1.1</scale>
        <Icon>
          <href>http://maps.google.com/mapfiles/kml/paddle/wht-blank.png</href>
        </Icon>
      </IconStyle>
      <LabelStyle>
        <scale>0.9</scale>
      </LabelStyle>
    </Style>
    <Style id="st-H">
      <IconStyle>
        <color>ff00aa00</color>
        <scale>1.1</scale>
        <Icon>
          <href>http://maps.google.com/mapfiles/kml/paddle/wht-blank.png</href>
        </Icon>
      </IconStyle>
      <LabelStyle>
        <scale>0.9</scale>
      </LabelStyle>
    </Style>
    <Style id="st-V">
      <IconStyle>
        <color>ffffaa00</color>
        <scale>1.1</scale>
        <Icon>
          <href>http://maps.google.com/mapfiles/kml/paddle/wht-blank.png</href>
        </Icon>
      </IconStyle>
      <LabelStyle>
        <scale>0.9</scale>
      </LabelStyle>
    </Style>
    <Style id="st-OUTRO">
      <IconStyle>
        <color>ff888888</color>
        <scale>1.1</scale>
        <Icon>
          <href>http://maps.google.com/mapfiles/kml/paddle/wht-blank.png</href>
        </Icon>
      </IconStyle>
      <LabelStyle>
        <scale>0.9</scale>
      </LabelStyle>
    </Style>
    <Folder>
      <name>Pontos</name>
      <Placemark>
        <name>BaseCerta</name>
        <styleUrl>#st-BASE</styleUrl>
        <ExtendedData>
          <Data name="NOME"><value>BaseCerta</value></Data>
          <Data name="TIPO"><value>BASE</value></Data>
          <Data name="NORTE"><value>6773140.591</value></Data>
          <Data name="ESTE"><value>428656.323</value></Data>
          <Data name="COTA"><value>76.370</value></Data>
          <Data name="LAT"><value>-29.1683427</value></Data>
          <Data name="LON"><value>-51.7336631</value></Data>
        </ExtendedData>
        <Point>
          <altitudeMode>absolute</altitudeMode>
          <coordinates>-51.73366311,-29.16834272,76.370</coordinates>
        </Point>
      </Placemark>
      <Placemark>
        <name>H009</name>
        <styleUrl>#st-H</styleUrl>
        <ExtendedData>
          <Data name="NOME"><value>H009</value></Data>
          <Data name="TIPO"><value>H</value></Data>
          <Data name="NORTE"><value>6773588.098</value></Data>
          <Data name="ESTE"><value>428213.138</value></Data>
          <Data name="COTA"><value>81.857</value></Data>
          <Data name="LAT"><value>-29.1642789</value></Data>
          <Data name="LON"><value>-51.7381914</value></Data>
        </ExtendedData>
        <Point>
          <altitudeMode>absolute</altitudeMode>
          <coordinates>-51.73819140,-29.16427893,81.857</coordinates>
        </Point>
      </Placemark>
      <Placemark>
        <name>H008</name>
        <styleUrl>#st-H</styleUrl>
        <ExtendedData>
          <Data name="NOME"><value>H008</value></Data>
          <Data name="TIPO"><value>H</value></Data>
          <Data name="NORTE"><value>6773391.899</value></Data>
          <Data name="ESTE"><value>428255.231</value></Data>
          <Data name="COTA"><value>81.554</value></Data>
          <Data name="LAT"><value>-29.1660520</value></Data>
          <Data name="LON"><value>-51.7377712</value></Data>
        </ExtendedData>
        <Point>
          <altitudeMode>absolute</altitudeMode>
          <coordinates>-51.73777124,-29.16605201,81.554</coordinates>
        </Point>
      </Placemark>
      <Placemark>
        <name>V011</name>
        <styleUrl>#st-V</styleUrl>
        <ExtendedData>
          <Data name="NOME"><value>V011</value></Data>
          <Data name="TIPO"><value>V</value></Data>
          <Data name="NORTE"><value>6772701.049</value></Data>
          <Data name="ESTE"><value>428379.944</value></Data>
          <Data name="COTA"><value>73.134</value></Data>
          <Data name="LAT"><value>-29.1722940</value></Data>
          <Data name="LON"><value>-51.7365334</value></Data>
        </ExtendedData>
        <Point>
          <altitudeMode>absolute</altitudeMode>
          <coordinates>-51.73653338,-29.17229399,73.134</coordinates>
        </Point>
      </Placemark>
      <Placemark>
        <name>V009A</name>
        <styleUrl>#st-V</styleUrl>
        <ExtendedData>
          <Data name="NOME"><value>V009A</value></Data>
          <Data name="TIPO"><value>V</value></Data>
          <Data name="NORTE"><value>6772812.308</value></Data>
          <Data name="ESTE"><value>428387.960</value></Data>
          <Data name="COTA"><value>75.821</value></Data>
          <Data name="LAT"><value>-29.1712903</value></Data>
          <Data name="LON"><value>-51.7364438</value></Data>
        </ExtendedData>
        <Point>
          <altitudeMode>absolute</altitudeMode>
          <coordinates>-51.73644378,-29.17129033,75.821</coordinates>
        </Point>
      </Placemark>
      <Placemark>
        <name>V009</name>
        <styleUrl>#st-V</styleUrl>
        <ExtendedData>
          <Data name="NOME"><value>V009</value></Data>
          <Data name="TIPO"><value>V</value></Data>
          <Data name="NORTE"><value>6772822.338</value></Data>
          <Data name="ESTE"><value>428446.784</value></Data>
          <Data name="COTA"><value>81.229</value></Data>
          <Data name="LAT"><value>-29.1712031</value></Data>
          <Data name="LON"><value>-51.7358382</value></Data>
        </ExtendedData>
        <Point>
          <altitudeMode>absolute</altitudeMode>
          <coordinates>-51.73583824,-29.17120313,81.229</coordinates>
        </Point>
      </Placemark>
      <Placemark>
        <name>V005</name>
        <styleUrl>#st-V</styleUrl>
        <ExtendedData>
          <Data name="NOME"><value>V005</value></Data>
          <Data name="TIPO"><value>V</value></Data>
          <Data name="NORTE"><value>6773230.544</value></Data>
          <Data name="ESTE"><value>428437.469</value></Data>
          <Data name="COTA"><value>76.615</value></Data>
          <Data name="LAT"><value>-29.1675185</value></Data>
          <Data name="LON"><value>-51.7359078</value></Data>
        </ExtendedData>
        <Point>
          <altitudeMode>absolute</altitudeMode>
          <coordinates>-51.73590775,-29.16751855,76.615</coordinates>
        </Point>
      </Placemark>
      <Placemark>
        <name>V004</name>
        <styleUrl>#st-V</styleUrl>
        <ExtendedData>
          <Data name="NOME"><value>V004</value></Data>
          <Data name="TIPO"><value>V</value></Data>
          <Data name="NORTE"><value>6773229.222</value></Data>
          <Data name="ESTE"><value>428378.138</value></Data>
          <Data name="COTA"><value>78.404</value></Data>
          <Data name="LAT"><value>-29.1675271</value></Data>
          <Data name="LON"><value>-51.7365179</value></Data>
        </ExtendedData>
        <Point>
          <altitudeMode>absolute</altitudeMode>
          <coordinates>-51.73651792,-29.16752713,78.404</coordinates>
        </Point>
      </Placemark>
      <Placemark>
        <name>V003</name>
        <styleUrl>#st-V</styleUrl>
        <ExtendedData>
          <Data name="NOME"><value>V003</value></Data>
          <Data name="TIPO"><value>V</value></Data>
          <Data name="NORTE"><value>6773092.662</value></Data>
          <Data name="ESTE"><value>428281.470</value></Data>
          <Data name="COTA"><value>78.197</value></Data>
          <Data name="LAT"><value>-29.1687541</value></Data>
          <Data name="LON"><value>-51.7375207</value></Data>
        </ExtendedData>
        <Point>
          <altitudeMode>absolute</altitudeMode>
          <coordinates>-51.73752074,-29.16875411,78.197</coordinates>
        </Point>
      </Placemark>
      <Placemark>
        <name>V002</name>
        <styleUrl>#st-V</styleUrl>
        <ExtendedData>
          <Data name="NOME"><value>V002</value></Data>
          <Data name="TIPO"><value>V</value></Data>
          <Data name="NORTE"><value>6773023.158</value></Data>
          <Data name="ESTE"><value>428058.212</value></Data>
          <Data name="COTA"><value>79.517</value></Data>
          <Data name="LAT"><value>-29.1693687</value></Data>
          <Data name="LON"><value>-51.7398210</value></Data>
        </ExtendedData>
        <Point>
          <altitudeMode>absolute</altitudeMode>
          <coordinates>-51.73982096,-29.16936872,79.517</coordinates>
        </Point>
      </Placemark>
      <Placemark>
        <name>H002</name>
        <styleUrl>#st-H</styleUrl>
        <ExtendedData>
          <Data name="NOME"><value>H002</value></Data>
          <Data name="TIPO"><value>H</value></Data>
          <Data name="NORTE"><value>6772928.630</value></Data>
          <Data name="ESTE"><value>428304.462</value></Data>
          <Data name="COTA"><value>78.683</value></Data>
          <Data name="LAT"><value>-29.1702358</value></Data>
          <Data name="LON"><value>-51.7372949</value></Data>
        </ExtendedData>
        <Point>
          <altitudeMode>absolute</altitudeMode>
          <coordinates>-51.73729490,-29.17023580,78.683</coordinates>
        </Point>
      </Placemark>
      <Placemark>
        <name>H001</name>
        <styleUrl>#st-H</styleUrl>
        <ExtendedData>
          <Data name="NOME"><value>H001</value></Data>
          <Data name="TIPO"><value>H</value></Data>
          <Data name="NORTE"><value>6772929.858</value></Data>
          <Data name="ESTE"><value>428322.541</value></Data>
          <Data name="COTA"><value>80.859</value></Data>
          <Data name="LAT"><value>-29.1702257</value></Data>
          <Data name="LON"><value>-51.7371089</value></Data>
        </ExtendedData>
        <Point>
          <altitudeMode>absolute</altitudeMode>
          <coordinates>-51.73710891,-29.17022574,80.859</coordinates>
        </Point>
      </Placemark>
      <Placemark>
        <name>V001</name>
        <styleUrl>#st-V</styleUrl>
        <ExtendedData>
          <Data name="NOME"><value>V001</value></Data>
          <Data name="TIPO"><value>V</value></Data>
          <Data name="NORTE"><value>6772929.859</value></Data>
          <Data name="ESTE"><value>428322.536</value></Data>
          <Data name="COTA"><value>80.866</value></Data>
          <Data name="LAT"><value>-29.1702257</value></Data>
          <Data name="LON"><value>-51.7371090</value></Data>
        </ExtendedData>
        <Point>
          <altitudeMode>absolute</altitudeMode>
          <coordinates>-51.73710896,-29.17022573,80.866</coordinates>
        </Point>
      </Placemark>
      <Placemark>
        <name>RN1 25892 REGUA SGB</name>
        <styleUrl>#st-RN</styleUrl>
        <ExtendedData>
          <Data name="NOME"><value>RN1 25892 REGUA SGB</value></Data>
          <Data name="TIPO"><value>RN</value></Data>
          <Data name="NORTE"><value>6772059.544</value></Data>
          <Data name="ESTE"><value>428811.742</value></Data>
          <Data name="COTA"><value>83.139</value></Data>
          <Data name="LAT"><value>-29.1781079</value></Data>
          <Data name="LON"><value>-51.7321342</value></Data>
        </ExtendedData>
        <Point>
          <altitudeMode>absolute</altitudeMode>
          <coordinates>-51.73213421,-29.17810791,83.139</coordinates>
        </Point>
      </Placemark>
      <Placemark>
        <name>V010</name>
        <styleUrl>#st-V</styleUrl>
        <ExtendedData>
          <Data name="NOME"><value>V010</value></Data>
          <Data name="TIPO"><value>V</value></Data>
          <Data name="NORTE"><value>6772215.647</value></Data>
          <Data name="ESTE"><value>428758.983</value></Data>
          <Data name="COTA"><value>76.665</value></Data>
          <Data name="LAT"><value>-29.1766961</value></Data>
          <Data name="LON"><value>-51.7326668</value></Data>
        </ExtendedData>
        <Point>
          <altitudeMode>absolute</altitudeMode>
          <coordinates>-51.73266676,-29.17669612,76.665</coordinates>
        </Point>
      </Placemark>
      <Placemark>
        <name>H007</name>
        <styleUrl>#st-H</styleUrl>
        <ExtendedData>
          <Data name="NOME"><value>H007</value></Data>
          <Data name="TIPO"><value>H</value></Data>
          <Data name="NORTE"><value>6772695.632</value></Data>
          <Data name="ESTE"><value>428598.263</value></Data>
          <Data name="COTA"><value>82.097</value></Data>
          <Data name="LAT"><value>-29.1723552</value></Data>
          <Data name="LON"><value>-51.7342887</value></Data>
        </ExtendedData>
        <Point>
          <altitudeMode>absolute</altitudeMode>
          <coordinates>-51.73428871,-29.17235520,82.097</coordinates>
        </Point>
      </Placemark>
      <Placemark>
        <name>H006</name>
        <styleUrl>#st-H</styleUrl>
        <ExtendedData>
          <Data name="NOME"><value>H006</value></Data>
          <Data name="TIPO"><value>H</value></Data>
          <Data name="NORTE"><value>6772739.321</value></Data>
          <Data name="ESTE"><value>428737.967</value></Data>
          <Data name="COTA"><value>81.137</value></Data>
          <Data name="LAT"><value>-29.1719688</value></Data>
          <Data name="LON"><value>-51.7328493</value></Data>
        </ExtendedData>
        <Point>
          <altitudeMode>absolute</altitudeMode>
          <coordinates>-51.73284930,-29.17196878,81.137</coordinates>
        </Point>
      </Placemark>
      <Placemark>
        <name>H005</name>
        <styleUrl>#st-H</styleUrl>
        <ExtendedData>
          <Data name="NOME"><value>H005</value></Data>
          <Data name="TIPO"><value>H</value></Data>
          <Data name="NORTE"><value>6772732.537</value></Data>
          <Data name="ESTE"><value>428840.354</value></Data>
          <Data name="COTA"><value>79.859</value></Data>
          <Data name="LAT"><value>-29.1720358</value></Data>
          <Data name="LON"><value>-51.7317969</value></Data>
        </ExtendedData>
        <Point>
          <altitudeMode>absolute</altitudeMode>
          <coordinates>-51.73179688,-29.17203576,79.859</coordinates>
        </Point>
      </Placemark>
      <Placemark>
        <name>H004</name>
        <styleUrl>#st-H</styleUrl>
        <ExtendedData>
          <Data name="NOME"><value>H004</value></Data>
          <Data name="TIPO"><value>H</value></Data>
          <Data name="NORTE"><value>6772749.739</value></Data>
          <Data name="ESTE"><value>428983.860</value></Data>
          <Data name="COTA"><value>82.931</value></Data>
          <Data name="LAT"><value>-29.1718886</value></Data>
          <Data name="LON"><value>-51.7303201</value></Data>
        </ExtendedData>
        <Point>
          <altitudeMode>absolute</altitudeMode>
          <coordinates>-51.73032008,-29.17188857,82.931</coordinates>
        </Point>
      </Placemark>
      <Placemark>
        <name>H003</name>
        <styleUrl>#st-H</styleUrl>
        <ExtendedData>
          <Data name="NOME"><value>H003</value></Data>
          <Data name="TIPO"><value>H</value></Data>
          <Data name="NORTE"><value>6772921.590</value></Data>
          <Data name="ESTE"><value>428928.641</value></Data>
          <Data name="COTA"><value>82.703</value></Data>
          <Data name="LAT"><value>-29.1703345</value></Data>
          <Data name="LON"><value>-51.7308769</value></Data>
        </ExtendedData>
        <Point>
          <altitudeMode>absolute</altitudeMode>
          <coordinates>-51.73087692,-29.17033452,82.703</coordinates>
        </Point>
      </Placemark>
      <Placemark>
        <name>V008</name>
        <styleUrl>#st-V</styleUrl>
        <ExtendedData>
          <Data name="NOME"><value>V008</value></Data>
          <Data name="TIPO"><value>V</value></Data>
          <Data name="NORTE"><value>6772754.017</value></Data>
          <Data name="ESTE"><value>428637.532</value></Data>
          <Data name="COTA"><value>80.179</value></Data>
          <Data name="LAT"><value>-29.1718305</value></Data>
          <Data name="LON"><value>-51.7338812</value></Data>
        </ExtendedData>
        <Point>
          <altitudeMode>absolute</altitudeMode>
          <coordinates>-51.73388115,-29.17183049,80.179</coordinates>
        </Point>
      </Placemark>
      <Placemark>
        <name>V007</name>
        <styleUrl>#st-V</styleUrl>
        <ExtendedData>
          <Data name="NOME"><value>V007</value></Data>
          <Data name="TIPO"><value>V</value></Data>
          <Data name="NORTE"><value>6772749.350</value></Data>
          <Data name="ESTE"><value>428596.388</value></Data>
          <Data name="COTA"><value>78.688</value></Data>
          <Data name="LAT"><value>-29.1718703</value></Data>
          <Data name="LON"><value>-51.7343045</value></Data>
        </ExtendedData>
        <Point>
          <altitudeMode>absolute</altitudeMode>
          <coordinates>-51.73430454,-29.17187029,78.688</coordinates>
        </Point>
      </Placemark>
      <Placemark>
        <name>V006</name>
        <styleUrl>#st-V</styleUrl>
        <ExtendedData>
          <Data name="NOME"><value>V006</value></Data>
          <Data name="TIPO"><value>V</value></Data>
          <Data name="NORTE"><value>6772796.761</value></Data>
          <Data name="ESTE"><value>428551.634</value></Data>
          <Data name="COTA"><value>78.479</value></Data>
          <Data name="LAT"><value>-29.1714399</value></Data>
          <Data name="LON"><value>-51.7347617</value></Data>
        </ExtendedData>
        <Point>
          <altitudeMode>absolute</altitudeMode>
          <coordinates>-51.73476171,-29.17143988,78.479</coordinates>
        </Point>
      </Placemark>
    </Folder>
  </Document>
</kml>
