{
  "type": "FeatureCollection",
  "name": "fozes_principais_bho6",
  "features": [
    {
      "type": "Feature",
      "geometry": {
        "type": "Point",
        "coordinates": [
          -51.47601649999996,
          -29.018112999199037
        ]
      },
      "properties": {
        "join_area_km2": 3775.9878373,
        "mainstem_area_at_join_km2": 12041.50535265,
        "fid": 3746331,
        "name": null,
        "cocursodag": "7868",
        "label": "sistema Prata / Turvo-Humatã (BHO6 7868)",
        "family_code": "7868",
        "position_vs_controls": "upstream_or_at_antas",
        "delta_vs_mucum_km2": -3923.7
      }
    },
    {
      "type": "Feature",
      "geometry": {
        "type": "Point",
        "coordinates": [
          -51.71334739999997,
          -29.09016859919778
        ]
      },
      "properties": {
        "join_area_km2": 2564.1905369,
        "mainstem_area_at_join_km2": 15485.53189009,
        "fid": 4665424,
        "name": null,
        "cocursodag": "7866",
        "label": "Rio Carreiro (BHO6 7866)",
        "family_code": "7866",
        "position_vs_controls": "between_antas_and_santa_tereza",
        "delta_vs_mucum_km2": -479.68
      }
    },
    {
      "type": "Feature",
      "geometry": {
        "type": "Point",
        "coordinates": [
          -51.88607349999995,
          -29.170801699196396
        ]
      },
      "properties": {
        "join_area_km2": 2486.72195807,
        "mainstem_area_at_join_km2": 18460.17920563,
        "fid": 5332058,
        "name": null,
        "cocursodag": "7864",
        "label": "Rio Guaporé (BHO6 7864)",
        "family_code": "7864",
        "position_vs_controls": "downstream_of_mucum",
        "delta_vs_mucum_km2": 2494.97
      }
    },
    {
      "type": "Feature",
      "geometry": {
        "type": "Point",
        "coordinates": [
          -51.95624829999997,
          -29.421623699192054
        ]
      },
      "properties": {
        "join_area_km2": 2845.59935275,
        "mainstem_area_at_join_km2": 22504.91188793,
        "fid": 3999116,
        "name": null,
        "cocursodag": "7862",
        "label": "sistema Forqueta (BHO6 7862)",
        "family_code": "7862",
        "position_vs_controls": "downstream_of_mucum",
        "delta_vs_mucum_km2": 6539.7
      }
    }
  ]
}
