{"type":"FeatureCollection","name":"mancha_santa_tereza","source":"assets/data/santa_tereza_inundacao/contornos_mancha.json","research_only":true,"note":"Contorno HAND publicado. Não é conversão da cota da régua.","features":[{"type":"Feature","properties":{"nivel_m":15.0,"area_ha":1378.0},"geometry":{"type":"Polygon","coordinates":[[[-51.718019,-29.060309],[-51.717799,-29.060397],[-51.717587,-29.060617],[-51.717394,-29.060964],[-51.717224,-29.061423],[-51.717075,-29.061964],[-51.716948,-29.062546],[-51.716836,-29.063133],[-51.716735,-29.063709],[-51.716636,-29.064288],[-51.716535,-29.064889],[-51.716424,-29.065501],[-51.716299,-29.066085],[-51.716158,-29.066597],[-51.716004,-29.067016],[-51.715846,-29.067349],[-51.715688,-29.067619],[-51.71553,-29.067856],[-51.715369,-29.06809],[-51.715194,-29.068353],[-51.714996,-29.068669],[-51.714769,-29.069047],[-51.714514,-29.069477],[-51.714244,-29.069928],[-51.713986,-29.070359],[-51.713756,-29.070741],[-51.713555,-29.07107],[-51.713363,-29.071373],[-51.71316,-29.071684],[-51.712938,-29.072028],[-51.712709,-29.072404],[-51.71249,-29.072799],[-51.712292,-29.073197],[-51.712111,-29.073594],[-51.711932,-29.073999],[-51.711743,-29.074428],[-51.71154,-29.074891],[-51.71132,-29.075389],[-51.711079,-29.075915],[-51.710815,-29.07646],[-51.710535,-29.077011],[-51.71026,-29.07755],[-51.710016,-29.078056],[-51.709815,-29.078513],[-51.709652,-29.078923],[-51.709513,-29.079306],[-51.70939,-29.079693],[-51.709287,-29.080109],[-51.70921,-29.080575],[-51.709164,-29.081111],[-51.709142,-29.081747],[-51.709136,-29.0825],[-51.709147,-29.083349],[-51.709178,-29.08422],[-51.709227,-29.085022],[-51.709277,-29.085691],[-51.709297,-29.086213],[-51.709257,-29.08661],[-51.709141,-29.086913],[-51.708965,-29.087149],[-51.708784,-29.087341],[-51.708681,-29.08751],[-51.708723,-29.087674],[-51.708926,-29.087847],[-51.70925,-29.08804],[-51.709626,-29.088258],[-51.709992,-29.088499],[-51.710315,-29.088753],[-51.710584,-29.08901],[-51.710807,-29.089264],[-51.710994,-29.089513],[-51.711161,-29.089763],[-51.71131,-29.090021],[-51.711434,-29.090298],[-51.711504,-29.090611],[-51.711482,-29.090976],[-51.71133,-29.091402],[-51.711021,-29.091885],[-51.710551,-29.092409],[-51.709936,-29.092947],[-51.709217,-29.093464],[-51.708446,-29.093928],[-51.707676,-29.094318],[-51.706943,-29.094631],[-51.706264,-29.094879],[-51.705647,-29.095073],[-51.705094,-29.095218],[-51.704593,-29.09532],[-51.704108,-29.095392],[-51.703589,-29.095454],[-51.703002,-29.095524],[-51.702342,-29.095617],[-51.701619,-29.095733],[-51.70083,-29.095866],[-51.699957,-29.096002],[-51.698999,-29.096121],[-51.698001,-29.096205],[-51.697037,-29.096248],[-51.69617,-29.096257],[-51.695417,-29.096245],[-51.694746,-29.096221],[-51.694112,-29.096189],[-51.693484,-29.096151],[-51.692859,-29.096102],[-51.692249,-29.09604],[-51.69166,-29.095964],[-51.691068,-29.095884],[-51.690439,-29.095808],[-51.689756,-29.095738],[-51.689046,-29.095655],[-51.688358,-29.095527],[-51.687726,-29.095317],[-51.687151,-29.095007],[-51.686618,-29.094606],[-51.686123,-29.09415],[-51.68567,-29.093676],[-51.685254,-29.093199],[-51.684857,-29.092703],[-51.684466,-29.092174],[-51.684091,-29.091624],[-51.683752,-29.09109],[-51.683469,-29.090608],[-51.683249,-29.090186],[-51.683089,-29.089806],[-51.682984,-29.089432],[-51.682924,-29.089027],[-51.682896,-29.088568],[-51.682883,-29.08805],[-51.682869,-29.087483],[-51.682847,-29.086871],[-51.682825,-29.086187],[-51.682814,-29.085378],[-51.682814,-29.084397],[-51.68281,-29.083261],[-51.682781,-29.082082],[-51.682716,-29.08101],[-51.682621,-29.080143],[-51.682505,-29.079482],[-51.682383,-29.078966],[-51.682261,-29.078524],[-51.682146,-29.078099],[-51.682033,-29.077655],[-51.681918,-29.07718],[-51.681792,-29.076687],[-51.681653,-29.076201],[-51.681504,-29.075741],[-51.681347,-29.075305],[-51.681181,-29.074874],[-51.680997,-29.074428],[-51.680791,-29.07396],[-51.680563,-29.073483],[-51.680322,-29.073019],[-51.680076,-29.07259],[-51.679832,-29.072212],[-51.679594,-29.07189],[-51.679361,-29.071621],[-51.679131,-29.071395],[-51.678889,-29.071202],[-51.67861,-29.071034],[-51.678254,-29.070879],[-51.677789,-29.070732],[-51.677217,-29.070594],[-51.676581,-29.070476],[-51.675941,-29.070395],[-51.675337,-29.070362],[-51.674774,-29.070381],[-51.674243,-29.070441],[-51.673741,-29.070526],[-51.673275,-29.070622],[-51.672837,-29.070722],[-51.67241,-29.070828],[-51.671974,-29.070943],[-51.671529,-29.071065],[-51.671089,-29.071187],[-51.670676,-29.071306],[-51.670299,-29.071419],[-51.669949,-29.071533],[-51.66961,-29.071652],[-51.669268,-29.071781],[-51.668916,-29.07192],[-51.668552,-29.072067],[-51.668171,-29.072225],[-51.667767,-29.072401],[-51.667336,-29.072614],[-51.66688,-29.072881],[-51.666415,-29.073205],[-51.665968,-29.073563],[-51.665566,-29.073919],[-51.665218,-29.074243],[-51.664908,-29.074533],[-51.66461,-29.074805],[-51.66431,-29.07507],[-51.664006,-29.07533],[-51.6637,-29.075585],[-51.663387,-29.075842],[-51.663063,-29.076111],[-51.662734,-29.076395],[-51.662412,-29.076677],[-51.662104,-29.076939],[-51.6618,-29.07718],[-51.661484,-29.077421],[-51.661158,-29.077696],[-51.660848,-29.078038],[-51.660597,-29.07846],[-51.660443,-29.078935],[-51.6604,-29.079385],[-51.660456,-29.079722],[-51.660578,-29.079901],[-51.660733,-29.079942],[-51.660895,-29.079893],[-51.661056,-29.079795],[-51.661219,-29.079668],[-51.661393,-29.079515],[-51.66159,-29.079335],[-51.66182,-29.079122],[-51.662091,-29.078871],[-51.66241,-29.078575],[-51.662785,-29.078234],[-51.663208,-29.077859],[-51.663651,-29.077481],[-51.664072,-29.077139],[-51.66443,-29.076856],[-51.66471,-29.076633],[-51.664922,-29.076454],[-51.665092,-29.076296],[-51.66525,-29.076137],[-51.665418,-29.075961],[-51.665613,-29.075758],[-51.665842,-29.075525],[-51.666096,-29.075269],[-51.666356,-29.075013],[-51.666607,-29.074781],[-51.666849,-29.074587],[-51.667098,-29.074428],[-51.667364,-29.074288],[-51.667647,-29.074148],[-51.66793,-29.073997],[-51.668198,-29.073839],[-51.668455,-29.073678],[-51.66872,-29.073521],[-51.669012,-29.073366],[-51.669339,-29.073209],[-51.669695,-29.073049],[-51.670064,-29.072888],[-51.670435,-29.072735],[-51.670819,-29.072593],[-51.671245,-29.07246],[-51.671744,-29.072327],[-51.672328,-29.072189],[-51.672989,-29.072049],[-51.673711,-29.071919],[-51.674469,-29.071815],[-51.675212,-29.071752],[-51.67588,-29.071737],[-51.676431,-29.07177],[-51.67687,-29.071849],[-51.677237,-29.071975],[-51.677569,-29.072148],[-51.677881,-29.07236],[-51.678163,-29.072598],[-51.678403,-29.072848],[-51.6786,-29.073107],[-51.678765,-29.073375],[-51.678915,-29.073658],[-51.679068,-29.073962],[-51.679234,-29.074292],[-51.679406,-29.074653],[-51.679572,-29.07504],[-51.67972,-29.075438],[-51.679843,-29.075833],[-51.679946,-29.076223],[-51.680034,-29.076617],[-51.680115,-29.07702],[-51.680198,-29.077423],[-51.680287,-29.077814],[-51.680384,-29.078192],[-51.680489,-29.078583],[-51.680597,-29.07902],[-51.680695,-29.079516],[-51.680771,-29.080046],[-51.680813,-29.080565],[-51.680826,-29.081035],[-51.680829,-29.081453],[-51.680838,-29.081853],[-51.680855,-29.082284],[-51.680868,-29.082798],[-51.680861,-29.083423],[-51.680823,-29.084141],[-51.680749,-29.084883],[-51.680632,-29.085563],[-51.680456,-29.086124],[-51.680205,-29.086553],[-51.679876,-29.086876],[-51.67949,-29.087131],[-51.679095,-29.087343],[-51.678747,-29.087526],[-51.678492,-29.087683],[-51.678359,-29.087817],[-51.678364,-29.08793],[-51.6785,-29.088014],[-51.67874,-29.088058],[-51.679041,-29.088053],[-51.679366,-29.088011],[-51.679687,-29.087961],[-51.679987,-29.087948],[-51.680257,-29.088015],[-51.680491,-29.088194],[-51.68069,-29.088482],[-51.680859,-29.088845],[-51.681005,-29.089242],[-51.681142,-29.089649],[-51.681284,-29.090069],[-51.681444,-29.090505],[-51.681628,-29.090948],[-51.681827,-29.091374],[-51.682021,-29.091766],[-51.682195,-29.09212],[-51.68235,-29.092446],[-51.682501,-29.09276],[-51.682673,-29.093083],[-51.682896,-29.09344],[-51.683199,-29.093856],[-51.683597,-29.094343],[-51.68408,-29.094881],[-51.684609,-29.095421],[-51.685132,-29.095911],[-51.685611,-29.096325],[-51.686041,-29.096671],[-51.686444,-29.096972],[-51.686843,-29.097245],[-51.68725,-29.097488],[-51.687668,-29.097695],[-51.688099,-29.097865],[-51.688552,-29.097997],[-51.689051,-29.098087],[-51.689639,-29.098129],[-51.690355,-29.098128],[-51.691216,-29.098101],[-51.692215,-29.098067],[-51.693323,-29.098042],[-51.694488,-29.098031],[-51.695647,-29.098027],[-51.696737,-29.098018],[-51.697725,-29.097988],[-51.698607,-29.097932],[-51.699398,-29.097846],[-51.700126,-29.097737],[-51.700816,-29.09762],[-51.701487,-29.097513],[-51.702162,-29.09743],[-51.702858,-29.097367],[-51.703581,-29.097306],[-51.70432,-29.097222],[-51.705058,-29.0971],[-51.705783,-29.096936],[-51.706484,-29.096742],[-51.707142,-29.096537],[-51.707731,-29.096342],[-51.708236,-29.096165],[-51.708667,-29.095998],[-51.709065,-29.095821],[-51.709475,-29.095608],[-51.709927,-29.095345],[-51.710422,-29.095035],[-51.710934,-29.094698],[-51.711428,-29.094356],[-51.711895,-29.094016],[-51.71235,-29.093664],[-51.71282,-29.093275],[-51.713315,-29.09283],[-51.713821,-29.092323],[-51.714324,-29.091751],[-51.714816,-29.091122],[-51.71529,-29.090462],[-51.715729,-29.089816],[-51.716117,-29.089222],[-51.716449,-29.088684],[-51.71673,-29.088179],[-51.716971,-29.087671],[-51.717184,-29.087132],[-51.717378,-29.086565],[-51.71756,-29.086],[-51.717732,-29.085473],[-51.717895,-29.084993],[-51.718058,-29.084532],[-51.718235,-29.084037],[-51.718443,-29.083462],[-51.718705,-29.082787],[-51.719036,-29.082028],[-51.719437,-29.081236],[-51.719893,-29.08048],[-51.720379,-29.079827],[-51.720875,-29.079317],[-51.721369,-29.078963],[-51.721865,-29.078756],[-51.722371,-29.078677],[-51.722884,-29.078704],[-51.723378,-29.07882],[-51.723815,-29.079007],[-51.72417,-29.079239],[-51.724444,-29.079484],[-51.724661,-29.079715],[-51.724849,-29.079919],[-51.725034,-29.080101],[-51.725232,-29.080284],[-51.725451,-29.080488],[-51.725698,-29.080729],[-51.725968,-29.081015],[-51.726248,-29.081351],[-51.726522,-29.081741],[-51.726774,-29.082177],[-51.726999,-29.082637],[-51.727201,-29.083097],[-51.72739,-29.083538],[-51.727572,-29.083946],[-51.727744,-29.084317],[-51.727906,-29.084664],[-51.728063,-29.085022],[-51.728219,-29.085431],[-51.728374,-29.08592],[-51.728518,-29.086494],[-51.728632,-29.087142],[-51.728697,-29.087857],[-51.728697,-29.088643],[-51.728635,-29.089496],[-51.728529,-29.090372],[-51.72841,-29.091196],[-51.7283,-29.091905],[-51.728205,-29.092486],[-51.728117,-29.092973],[-51.728023,-29.093421],[-51.727905,-29.093876],[-51.727751,-29.094363],[-51.727553,-29.094877],[-51.727313,-29.095399],[-51.727037,-29.095909],[-51.72673,-29.0964],[-51.726386,-29.096887],[-51.72599,-29.097401],[-51.725526,-29.097974],[-51.724999,-29.098609],[-51.724443,-29.099266],[-51.723917,-29.099878],[-51.723472,-29.100383],[-51.72313,-29.100759],[-51.722877,-29.101025],[-51.722676,-29.101226],[-51.722493,-29.101404],[-51.7223,-29.101591],[-51.722079,-29.101809],[-51.721812,-29.102077],[-51.721485,-29.102407],[-51.721105,-29.102791],[-51.720709,-29.103193],[-51.720344,-29.103565],[-51.72004,-29.103872],[-51.719797,-29.104107],[-51.719598,-29.104289],[-51.719427,-29.104441],[-51.719271,-29.104578],[-51.719125,-29.104713],[-51.718987,-29.104848],[-51.718851,-29.104987],[-51.71871,-29.105129],[-51.718555,-29.105273],[-51.718379,-29.105415],[-51.718181,-29.105551],[-51.717969,-29.105683],[-51.717761,-29.105817],[-51.717571,-29.105964],[-51.717402,-29.10613],[-51.717245,-29.106316],[-51.717085,-29.106514],[-51.716908,-29.106717],[-51.716708,-29.106915],[-51.716487,-29.107096],[-51.716255,-29.107252],[-51.71602,-29.107378],[-51.715787,-29.107479],[-51.715552,-29.107566],[-51.715311,-29.107659],[-51.715061,-29.107779],[-51.714805,-29.107941],[-51.71455,-29.10815],[-51.7143,-29.108399],[-51.714058,-29.108671],[-51.713825,-29.108941],[-51.713604,-29.109185],[-51.7134,-29.109393],[-51.713212,-29.10957],[-51.713036,-29.109736],[-51.712869,-29.109908],[-51.71271,-29.110098],[-51.712557,-29.110304],[-51.712409,-29.110515],[-51.712265,-29.110721],[-51.712122,-29.110925],[-51.71197,-29.11115],[-51.711788,-29.111431],[-51.711556,-29.111803],[-51.711263,-29.112279],[-51.710932,-29.112834],[-51.710614,-29.113412],[-51.710378,-29.113967],[-51.710283,-29.114487],[-51.710361,-29.115],[-51.710615,-29.11554],[-51.711012,-29.116111],[-51.711494,-29.116676],[-51.711995,-29.117181],[-51.712477,-29.117594],[-51.712938,-29.117923],[-51.713399,-29.118202],[-51.713875,-29.118469],[-51.714374,-29.118747],[-51.714886,-29.119037],[-51.715389,-29.119321],[-51.715858,-29.119577],[-51.71629,-29.119801],[-51.716709,-29.12001],[-51.717149,-29.120232],[-51.71763,-29.120488],[-51.718151,-29.120794],[-51.7187,-29.121152],[-51.719259,-29.121558],[-51.7198,-29.122002],[-51.720291,-29.122468],[-51.720706,-29.122936],[-51.721037,-29.123381],[-51.721296,-29.12378],[-51.721506,-29.124125],[-51.721691,-29.124429],[-51.721877,-29.124735],[-51.722088,-29.125095],[-51.722342,-29.125539],[-51.722631,-29.126057],[-51.722919,-29.1266],[-51.723152,-29.127113],[-51.72328,-29.127564],[-51.723285,-29.127953],[-51.723192,-29.128293],[-51.723076,-29.128593],[-51.723036,-29.128857],[-51.72315,-29.129088],[-51.723442,-29.12929],[-51.72387,-29.12948],[-51.724361,-29.12969],[-51.724846,-29.129954],[-51.725283,-29.130279],[-51.725652,-29.130634],[-51.725946,-29.130972],[-51.726168,-29.131262],[-51.726337,-29.131505],[-51.726477,-29.131719],[-51.726606,-29.131922],[-51.726733,-29.132117],[-51.726862,-29.1323],[-51.726993,-29.132466],[-51.727123,-29.13261],[-51.72725,-29.132734],[-51.727368,-29.132842],[-51.727475,-29.132942],[-51.727574,-29.133048],[-51.727672,-29.133174],[-51.72778,-29.133335],[-51.727907,-29.133538],[-51.728067,-29.133781],[-51.728272,-29.134056],[-51.728527,-29.134352],[-51.728825,-29.134651],[-51.729147,-29.134933],[-51.729474,-29.135185],[-51.729788,-29.1354],[-51.730077,-29.13559],[-51.730329,-29.135774],[-51.730527,-29.135968],[-51.730655,-29.136184],[-51.730712,-29.136414],[-51.730715,-29.136641],[-51.730703,-29.136844],[-51.730725,-29.137008],[-51.730824,-29.137131],[-51.731019,-29.137224],[-51.731298,-29.137302],[-51.731633,-29.137389],[-51.732001,-29.137509],[-51.732397,-29.137665],[-51.732827,-29.137841],[-51.733293,-29.138008],[-51.733792,-29.138144],[-51.734311,-29.13824],[-51.734832,-29.138294],[-51.73534,-29.138311],[-51.735835,-29.138304],[-51.73633,-29.138296],[-51.736838,-29.138317],[-51.737368,-29.138387],[-51.737918,-29.138502],[-51.738492,-29.138634],[-51.739114,-29.138741],[-51.739822,-29.138793],[-51.740639,-29.138779],[-51.741546,-29.13871],[-51.742486,-29.138608],[-51.743411,-29.138492],[-51.744311,-29.138367],[-51.745228,-29.138224],[-51.746226,-29.138053],[-51.747335,-29.137864],[-51.748503,-29.137692],[-51.749614,-29.137577],[-51.750555,-29.137539],[-51.751284,-29.137574],[-51.751831,-29.137664],[-51.752255,-29.137797],[-51.752594,-29.137964],[-51.75286,-29.138165],[-51.753057,-29.138411],[-51.75321,-29.13872],[-51.753348,-29.139101],[-51.753484,-29.139539],[-51.753605,-29.13999],[-51.753685,-29.140414],[-51.753702,-29.140803],[-51.753646,-29.141176],[-51.753534,-29.141554],[-51.753396,-29.141941],[-51.753259,-29.142326],[-51.753137,-29.142694],[-51.753025,-29.143039],[-51.752923,-29.143364],[-51.752836,-29.143687],[-51.752765,-29.14403],[-51.752698,-29.144419],[-51.75262,-29.144867],[-51.752526,-29.145376],[-51.75242,-29.145931],[-51.752308,-29.146512],[-51.75219,-29.1471],[-51.752064,-29.147686],[-51.751932,-29.148267],[-51.751797,-29.148846],[-51.751661,-29.149419],[-51.751533,-29.149969],[-51.751419,-29.150467],[-51.751318,-29.150892],[-51.751226,-29.151246],[-51.751137,-29.15155],[-51.751047,-29.151829],[-51.750954,-29.1521],[-51.750853,-29.152364],[-51.750743,-29.15262],[-51.750627,-29.15286],[-51.75051,-29.153077],[-51.750394,-29.153265],[-51.750276,-29.153426],[-51.750153,-29.153571],[-51.750022,-29.153718],[-51.749883,-29.153881],[-51.749741,-29.154067],[-51.749601,-29.154275],[-51.749475,-29.154504],[-51.749374,-29.154755],[-51.749302,-29.155023],[-51.74925,-29.155297],[-51.7492,-29.155561],[-51.749127,-29.15581],[-51.749018,-29.15604],[-51.748878,-29.156246],[-51.748725,-29.156419],[-51.748578,-29.156559],[-51.748449,-29.15668],[-51.748337,-29.156808],[-51.748233,-29.156965],[-51.748123,-29.157161],[-51.747982,-29.157393],[-51.747785,-29.157647],[-51.747522,-29.157902],[-51.747213,-29.158143],[-51.74691,-29.158365],[-51.746679,-29.158571],[-51.74656,-29.158763],[-51.746547,-29.158941],[-51.746593,-29.159099],[-51.746645,-29.159239],[-51.746673,-29.159378],[-51.746676,-29.159539],[-51.746666,-29.159747],[-51.746649,-29.160011],[-51.746622,-29.16032],[-51.746568,-29.160659],[-51.74647,-29.161019],[-51.746304,-29.161407],[-51.746052,-29.161829],[-51.745713,-29.162282],[-51.745316,-29.16274],[-51.74491,-29.163166],[-51.744541,-29.163532],[-51.74423,-29.163828],[-51.743964,-29.164047],[-51.743717,-29.164159],[-51.74346,-29.164117],[-51.743181,-29.163892],[-51.742883,-29.163513],[-51.742572,-29.163063],[-51.742235,-29.162632],[-51.741842,-29.162274],[-51.741371,-29.162001],[-51.740837,-29.161807],[-51.740286,-29.161675],[-51.739766,-29.161587],[-51.739303,-29.161525],[-51.738905,-29.161481],[-51.738573,-29.161462],[-51.738304,-29.161477],[-51.738077,-29.161523],[-51.737854,-29.16158],[-51.737593,-29.161609],[-51.73727,-29.161573],[-51.736895,-29.161458],[-51.736502,-29.16129],[-51.736128,-29.161113],[-51.735793,-29.160963],[-51.735498,-29.160853],[-51.73523,-29.16077],[-51.734967,-29.160687],[-51.734682,-29.16057],[-51.734358,-29.160402],[-51.734009,-29.160189],[-51.733668,-29.159956],[-51.733364,-29.159733],[-51.733103,-29.159535],[-51.732881,-29.159373],[-51.7327,-29.159263],[-51.732571,-29.159226],[-51.732515,-29.159282],[-51.732542,-29.159437],[-51.732647,-29.159672],[-51.7328,-29.159946],[-51.732968,-29.160216],[-51.733129,-29.160463],[-51.733279,-29.16069],[-51.733432,-29.160912],[-51.733607,-29.161141],[-51.73382,-29.161379],[-51.734084,-29.16162],[-51.734402,-29.161859],[-51.73476,-29.162099],[-51.73513,-29.16235],[-51.73547,-29.162621],[-51.735737,-29.162898],[-51.735909,-29.163153],[-51.735989,-29.163362],[-51.736005,-29.163519],[-51.73599,-29.163631],[-51.735974,-29.163708],[-51.735977,-29.163759],[-51.736011,-29.163789],[-51.736073,-29.163807],[-51.736153,-29.163826],[-51.736242,-29.163863],[-51.736335,-29.16393],[-51.736428,-29.164023],[-51.736508,-29.164128],[-51.736551,-29.164228],[-51.736539,-29.164307],[-51.736462,-29.164361],[-51.736324,-29.164394],[-51.736136,-29.164415],[-51.735912,-29.164428],[-51.735679,-29.16443],[-51.735466,-29.164416],[-51.735296,-29.164385],[-51.735172,-29.164339],[-51.735089,-29.164281],[-51.735035,-29.164215],[-51.735,-29.164148],[-51.73497,-29.164093],[-51.734934,-29.16407],[-51.734882,-29.164099],[-51.734809,-29.164193],[-51.73471,-29.164348],[-51.73458,-29.16454],[-51.73442,-29.164734],[-51.734238,-29.164908],[-51.734049,-29.165071],[-51.733874,-29.165244],[-51.73373,-29.16544],[-51.73362,-29.165656],[-51.733532,-29.165879],[-51.733448,-29.166095],[-51.733357,-29.166294],[-51.733265,-29.166467],[-51.733192,-29.166612],[-51.733149,-29.166728],[-51.733133,-29.16682],[-51.733124,-29.166888],[-51.733103,-29.166926],[-51.733059,-29.166936],[-51.732996,-29.166938],[-51.732931,-29.166967],[-51.732878,-29.167055],[-51.732841,-29.167214],[-51.732817,-29.167436],[-51.732795,-29.167698],[-51.73277,-29.167969],[-51.732748,-29.16822],[-51.732731,-29.168431],[-51.732721,-29.168597],[-51.732711,-29.168734],[-51.732694,-29.168852],[-51.732668,-29.168961],[-51.732632,-29.169068],[-51.732583,-29.169181],[-51.732517,-29.169303],[-51.732432,-29.169424],[-51.732335,-29.169537],[-51.732248,-29.169641],[-51.732196,-29.16975],[-51.7322,-29.169879],[-51.732249,-29.170024],[-51.732302,-29.170167],[-51.732307,-29.170287],[-51.732244,-29.170377],[-51.732133,-29.170446],[-51.73201,-29.170503],[-51.731896,-29.170549],[-51.731789,-29.170582],[-51.731676,-29.170601],[-51.731546,-29.170606],[-51.731397,-29.1706],[-51.731236,-29.17059],[-51.731072,-29.170582],[-51.730906,-29.170581],[-51.730731,-29.170589],[-51.730522,-29.1706],[-51.730258,-29.170605],[-51.729929,-29.170601],[-51.729547,-29.170592],[-51.729136,-29.170584],[-51.728714,-29.170585],[-51.728283,-29.170608],[-51.727837,-29.170661],[-51.727362,-29.170753],[-51.726844,-29.170881],[-51.726271,-29.171035],[-51.725652,-29.171206],[-51.725021,-29.171396],[-51.724424,-29.171612],[-51.723894,-29.171865],[-51.723446,-29.172146],[-51.723077,-29.172436],[-51.722772,-29.17271],[-51.722511,-29.172951],[-51.722277,-29.173155],[-51.722053,-29.173329],[-51.721821,-29.173492],[-51.721559,-29.173663],[-51.721247,-29.17386],[-51.72088,-29.174078],[-51.72046,-29.174295],[-51.719988,-29.174476],[-51.719465,-29.174605],[-51.7189,-29.17469],[-51.718324,-29.174757],[-51.717782,-29.174834],[-51.717315,-29.174933],[-51.716946,-29.175053],[-51.716678,-29.175181],[-51.716504,-29.175305],[-51.716424,-29.175413],[-51.716445,-29.175495],[-51.716581,-29.175544],[-51.716842,-29.175565],[-51.717222,-29.175573],[-51.717692,-29.175581],[-51.718205,-29.175586],[-51.718714,-29.175573],[-51.719186,-29.175526],[-51.719608,-29.175443],[-51.719979,-29.175332],[-51.720312,-29.175203],[-51.720627,-29.175063],[-51.720946,-29.174919],[-51.721274,-29.174774],[-51.721603,-29.174629],[-51.721921,-29.17448],[-51.722223,-29.174318],[-51.722507,-29.174142],[-51.722774,-29.173958],[-51.723024,-29.173777],[-51.723265,-29.173605],[-51.72351,-29.173441],[-51.723774,-29.173278],[-51.724058,-29.173114],[-51.724354,-29.172951],[-51.724653,-29.172791],[-51.724955,-29.172634],[-51.725282,-29.172478],[-51.725665,-29.172326],[-51.72613,-29.172189],[-51.726677,-29.17208],[-51.727281,-29.172014],[-51.727915,-29.171996],[-51.728565,-29.172021],[-51.729221,-29.172075],[-51.729862,-29.172137],[-51.730452,-29.172188],[-51.730964,-29.172216],[-51.731397,-29.172213],[-51.731766,-29.172182],[-51.732083,-29.172129],[-51.732353,-29.172068],[-51.732583,-29.172011],[-51.732779,-29.171964],[-51.732959,-29.171927],[-51.733147,-29.171896],[-51.733365,-29.171865],[-51.733619,-29.171827],[-51.733894,-29.171779],[-51.734164,-29.171722],[-51.734406,-29.171666],[-51.734608,-29.171635],[-51.734759,-29.171652],[-51.734854,-29.171728],[-51.734898,-29.171847],[-51.734912,-29.171986],[-51.734928,-29.172124],[-51.734963,-29.172244],[-51.735014,-29.172341],[-51.735063,-29.172414],[-51.735088,-29.17247],[-51.735075,-29.172512],[-51.73502,-29.172545],[-51.734933,-29.172578],[-51.734833,-29.172624],[-51.734742,-29.172692],[-51.734661,-29.172785],[-51.734581,-29.172893],[-51.734494,-29.173],[-51.734405,-29.173093],[-51.73433,-29.173169],[-51.734279,-29.173232],[-51.734247,-29.173288],[-51.734214,-29.173342],[-51.734159,-29.173393],[-51.734074,-29.173443],[-51.733964,-29.173498],[-51.733842,-29.173572],[-51.733722,-29.173674],[-51.733614,-29.17381],[-51.733524,-29.173975],[-51.733448,-29.174166],[-51.733378,-29.174375],[-51.733305,-29.174599],[-51.733221,-29.174827],[-51.733126,-29.175048],[-51.733027,-29.175251],[-51.732932,-29.175433],[-51.732853,-29.175605],[-51.732795,-29.175789],[-51.73276,-29.176004],[-51.732742,-29.176259],[-51.732727,-29.176549],[-51.732705,-29.176877],[-51.732673,-29.17726],[-51.732643,-29.177726],[-51.732631,-29.178278],[-51.732655,-29.178875],[-51.732718,-29.179454],[-51.732817,-29.179972],[-51.732945,-29.180432],[-51.733098,-29.180865],[-51.733266,-29.181287],[-51.733438,-29.181692],[-51.733598,-29.182058],[-51.733743,-29.182377],[-51.733888,-29.182662],[-51.734064,-29.182941],[-51.73431,-29.18325],[-51.734644,-29.183606],[-51.735043,-29.18399],[-51.735449,-29.184355],[-51.735804,-29.184662],[-51.736086,-29.184901],[-51.736302,-29.185086],[-51.736474,-29.185238],[-51.736623,-29.185374],[-51.736765,-29.185504],[-51.736904,-29.185633],[-51.737045,-29.185761],[-51.737187,-29.185892],[-51.737337,-29.18603],[-51.737501,-29.186185],[-51.73769,-29.186369],[-51.737904,-29.18659],[-51.738127,-29.186841],[-51.738327,-29.187108],[-51.738473,-29.187378],[-51.738551,-29.187649],[-51.738566,-29.187926],[-51.738545,-29.18821],[-51.738525,-29.188481],[-51.738544,-29.188706],[-51.738627,-29.188841],[-51.73878,-29.188854],[-51.738984,-29.188743],[-51.739213,-29.188541],[-51.739439,-29.188303],[-51.739644,-29.188081],[-51.739825,-29.187905],[-51.740002,-29.18778],[-51.740204,-29.187696],[-51.740468,-29.187645],[-51.740815,-29.187623],[-51.741249,-29.187626],[-51.741764,-29.187647],[-51.742368,-29.18768],[-51.743077,-29.187719],[-51.743905,-29.187754],[-51.744852,-29.187777],[-51.74592,-29.187784],[-51.747095,-29.187773],[-51.74833,-29.18774],[-51.749557,-29.187689],[-51.750735,-29.187624],[-51.75186,-29.187558],[-51.75292,-29.187516],[-51.753864,-29.187541],[-51.754634,-29.187709],[-51.755206,-29.18812],[-51.75559,-29.188849],[-51.755812,-29.189865],[-51.755905,-29.19099],[-51.755901,-29.191993],[-51.755832,-29.192729],[-51.755726,-29.1932],[-51.755603,-29.193505],[-51.755483,-29.193747],[-51.755383,-29.193978],[-51.755322,-29.194199],[-51.755313,-29.194377],[-51.755358,-29.194474],[-51.755455,-29.194469],[-51.755605,-29.194362],[-51.755813,-29.194159],[-51.756077,-29.193865],[-51.756374,-29.193483],[-51.756657,-29.193031],[-51.756883,-29.192544],[-51.757035,-29.192069],[-51.757127,-29.191647],[-51.757189,-29.191306],[-51.757246,-29.19106],[-51.757311,-29.190899],[-51.757389,-29.190795],[-51.757482,-29.190703],[-51.757591,-29.190583],[-51.757719,-29.190408],[-51.757871,-29.190169],[-51.758045,-29.189869],[-51.758228,-29.189517],[-51.758398,-29.189128],[-51.758535,-29.188717],[-51.758636,-29.188298],[-51.758716,-29.187886],[-51.758807,-29.187503],[-51.758937,-29.187171],[-51.75912,-29.186906],[-51.759356,-29.186714],[-51.759633,-29.186579],[-51.759935,-29.186484],[-51.760239,-29.18641],[-51.760524,-29.186355],[-51.760791,-29.18632],[-51.761061,-29.186303],[-51.761353,-29.186297],[-51.761677,-29.186298],[-51.762029,-29.186319],[-51.762405,-29.186382],[-51.76281,-29.186499],[-51.763246,-29.186653],[-51.7637,-29.186809],[-51.764135,-29.186939],[-51.764498,-29.187025],[-51.76475,-29.187051],[-51.764886,-29.187],[-51.764941,-29.186879],[-51.764979,-29.186737],[-51.765059,-29.186649],[-51.765206,-29.186672],[-51.765406,-29.186816],[-51.765629,-29.187053],[-51.765848,-29.187335],[-51.766048,-29.187622],[-51.766226,-29.187885],[-51.766386,-29.188109],[-51.766533,-29.188281],[-51.766677,-29.188387],[-51.766825,-29.188414],[-51.766977,-29.188358],[-51.76713,-29.18823],[-51.767276,-29.188057],[-51.767413,-29.187882],[-51.767552,-29.187748],[-51.767707,-29.187673],[-51.767895,-29.18762],[-51.768114,-29.187523],[-51.768348,-29.187335],[-51.76858,-29.18707],[-51.768796,-29.186788],[-51.768996,-29.186554],[-51.769183,-29.186403],[-51.769356,-29.186334],[-51.769518,-29.18633],[-51.769674,-29.186375],[-51.769836,-29.186453],[-51.770012,-29.18654],[-51.770202,-29.186605],[-51.770401,-29.186636],[-51.770608,-29.186639],[-51.770823,-29.186641],[-51.77104,-29.186666],[-51.771245,-29.186733],[-51.771427,-29.186847],[-51.771591,-29.187],[-51.771762,-29.187168],[-51.77197,-29.187318],[-51.772234,-29.187429],[-51.772546,-29.187497],[-51.77288,-29.187542],[-51.7732,-29.187582],[-51.773486,-29.187627],[-51.773736,-29.18767],[-51.773959,-29.187702],[-51.774161,-29.187713],[-51.774348,-29.187707],[-51.77453,-29.187701],[-51.774722,-29.187708],[-51.774942,-29.18773],[-51.775196,-29.187767],[-51.775478,-29.187811],[-51.775775,-29.187851],[-51.776079,-29.187873],[-51.776385,-29.187874],[-51.776689,-29.187872],[-51.776983,-29.187905],[-51.777265,-29.187992],[-51.777534,-29.188103],[-51.777787,-29.188183],[-51.778027,-29.188201],[-51.778257,-29.188182],[-51.778482,-29.18819],[-51.778699,-29.188276],[-51.778894,-29.188453],[-51.779045,-29.188698],[-51.779147,-29.188963],[-51.77922,-29.189193],[-51.7793,-29.189338],[-51.779412,-29.189373],[-51.779558,-29.189304],[-51.779731,-29.189164],[-51.779924,-29.188994],[-51.780141,-29.188831],[-51.780394,-29.188705],[-51.780685,-29.188638],[-51.781005,-29.188645],[-51.781337,-29.188727],[-51.781668,-29.18887],[-51.781989,-29.189047],[-51.782288,-29.18922],[-51.782551,-29.189348],[-51.782777,-29.189402],[-51.782986,-29.189373],[-51.783206,-29.189276],[-51.783458,-29.189142],[-51.783735,-29.189014],[-51.784008,-29.188933],[-51.784243,-29.188924],[-51.784429,-29.188994],[-51.784583,-29.189129],[-51.78474,-29.189305],[-51.784926,-29.189498],[-51.78515,-29.189686],[-51.7854,-29.189837],[-51.785657,-29.189913],[-51.785894,-29.189883],[-51.786094,-29.189745],[-51.786258,-29.18952],[-51.7864,-29.189237],[-51.78654,-29.188912],[-51.786695,-29.18857],[-51.78688,-29.188256],[-51.787113,-29.188018],[-51.787405,-29.187873],[-51.787754,-29.187796],[-51.788133,-29.18774],[-51.788515,-29.187667],[-51.788883,-29.187564],[-51.789235,-29.187435],[-51.78958,-29.187296],[-51.789927,-29.187163],[-51.79028,-29.187046],[-51.790621,-29.186946],[-51.790926,-29.186861],[-51.791179,-29.186786],[-51.791382,-29.186718],[-51.791552,-29.186651],[-51.791704,-29.186581],[-51.791854,-29.186501],[-51.792025,-29.186401],[-51.792241,-29.18627],[-51.792513,-29.1861],[-51.792835,-29.185894],[-51.793194,-29.185657],[-51.793584,-29.18539],[-51.79401,-29.185085],[-51.794474,-29.184732],[-51.794963,-29.184333],[-51.795445,-29.183908],[-51.795891,-29.183483],[-51.796284,-29.183076],[-51.796623,-29.182697],[-51.796913,-29.182351],[-51.79718,-29.182026],[-51.79747,-29.181687],[-51.797824,-29.181294],[-51.798247,-29.180831],[-51.798696,-29.180303],[-51.799107,-29.179681],[-51.799433,-29.178852],[-51.799656,-29.17767],[-51.799779,-29.176118],[-51.79981,-29.174416],[-51.799757,-29.172912],[-51.799629,-29.171842],[-51.799434,-29.171211],[-51.799181,-29.17088],[-51.798889,-29.170716],[-51.798583,-29.170661],[-51.798278,-29.170708],[-51.797968,-29.170854],[-51.797625,-29.171076],[-51.797215,-29.171331],[-51.796721,-29.171582],[-51.796156,-29.171812],[-51.795566,-29.172017],[-51.794998,-29.172201],[-51.794493,-29.172363],[-51.794077,-29.172505],[-51.793764,-29.172627],[-51.793544,-29.172738],[-51.793386,-29.172845],[-51.793247,-29.172962],[-51.793091,-29.173103],[-51.7929,-29.173284],[-51.792671,-29.173517],[-51.792416,-29.173804],[-51.792158,-29.174141],[-51.791925,-29.174509],[-51.791733,-29.174885],[-51.791582,-29.175237],[-51.791463,-29.175544],[-51.791369,-29.175798],[-51.791307,-29.176008],[-51.791305,-29.176184],[-51.791406,-29.176329],[-51.791658,-29.176439],[-51.792093,-29.176515],[-51.792701,-29.176573],[-51.793403,-29.176636],[-51.794042,-29.176725],[-51.794437,-29.176834],[-51.794455,-29.176935],[-51.794068,-29.176993],[-51.793374,-29.176999],[-51.792563,-29.17697],[-51.791828,-29.176943],[-51.791275,-29.176943],[-51.790908,-29.176982],[-51.79068,-29.177064],[-51.790548,-29.177181],[-51.790471,-29.177316],[-51.7904,-29.177446],[-51.790299,-29.177556],[-51.790151,-29.177646],[-51.789957,-29.177717],[-51.789729,-29.177769],[-51.78948,-29.177805],[-51.789233,-29.177833],[-51.789017,-29.177868],[-51.788852,-29.177924],[-51.788743,-29.178006],[-51.78868,-29.178118],[-51.788655,-29.178258],[-51.788659,-29.178425],[-51.788686,-29.178609],[-51.788729,-29.1788],[-51.788782,-29.178983],[-51.788829,-29.179151],[-51.788857,-29.1793],[-51.788855,-29.179427],[-51.788823,-29.179533],[-51.788764,-29.17961],[-51.788685,-29.179664],[-51.788591,-29.179714],[-51.788487,-29.179797],[-51.788371,-29.179938],[-51.788243,-29.180137],[-51.788105,-29.180375],[-51.787962,-29.180617],[-51.787824,-29.180827],[-51.787699,-29.180979],[-51.787584,-29.181071],[-51.787468,-29.181136],[-51.787341,-29.181213],[-51.787212,-29.181323],[-51.787113,-29.181459],[-51.787075,-29.181591],[-51.787114,-29.181691],[-51.787224,-29.181742],[-51.78738,-29.18175],[-51.787565,-29.181742],[-51.787767,-29.181751],[-51.787975,-29.181792],[-51.788182,-29.181859],[-51.788378,-29.181935],[-51.788558,-29.182018],[-51.788718,-29.182133],[-51.788848,-29.182323],[-51.788935,-29.182611],[-51.788961,-29.182975],[-51.788909,-29.18334],[-51.788761,-29.183626],[-51.788509,-29.183791],[-51.788165,-29.183846],[-51.787773,-29.183824],[-51.787387,-29.183746],[-51.787046,-29.183625],[-51.786758,-29.183483],[-51.786509,-29.183362],[-51.786289,-29.183309],[-51.786096,-29.183344],[-51.785922,-29.183438],[-51.785759,-29.183525],[-51.785601,-29.183538],[-51.785456,-29.18344],[-51.785324,-29.183253],[-51.78519,-29.183046],[-51.785031,-29.182893],[-51.784837,-29.182834],[-51.784619,-29.182858],[-51.784392,-29.182927],[-51.78416,-29.183003],[-51.783922,-29.183057],[-51.783684,-29.183067],[-51.783466,-29.183019],[-51.783277,-29.182914],[-51.783103,-29.182768],[-51.78292,-29.18261],[-51.78272,-29.182468],[-51.782523,-29.182369],[-51.78235,-29.182331],[-51.782206,-29.182354],[-51.782074,-29.182412],[-51.781929,-29.182464],[-51.781751,-29.182476],[-51.781536,-29.182439],[-51.781288,-29.182361],[-51.781007,-29.182257],[-51.780685,-29.182141],[-51.780315,-29.182018],[-51.779892,-29.181891],[-51.779421,-29.18176],[-51.778909,-29.181625],[-51.778376,-29.181493],[-51.777861,-29.181375],[-51.777412,-29.181287],[-51.777051,-29.181236],[-51.776756,-29.181217],[-51.776472,-29.181219],[-51.776148,-29.181235],[-51.775762,-29.181259],[-51.775333,-29.181281],[-51.774893,-29.181288],[-51.774456,-29.181268],[-51.774023,-29.181224],[-51.7736,-29.181162],[-51.7732,-29.181089],[-51.772826,-29.181017],[-51.77247,-29.180951],[-51.772123,-29.180895],[-51.771782,-29.18084],[-51.771434,-29.180776],[-51.771054,-29.1807],[-51.77061,-29.180616],[-51.770078,-29.180533],[-51.769468,-29.180463],[-51.768833,-29.180416],[-51.768249,-29.180395],[-51.767766,-29.180391],[-51.767379,-29.180389],[-51.767047,-29.180371],[-51.766737,-29.180335],[-51.76643,-29.180293],[-51.766112,-29.180264],[-51.765761,-29.180256],[-51.765367,-29.180269],[-51.764944,-29.180299],[-51.764522,-29.180348],[-51.764103,-29.180418],[-51.763657,-29.180501],[-51.763152,-29.180578],[-51.762604,-29.180623],[-51.762072,-29.180621],[-51.761613,-29.18057],[-51.761242,-29.180482],[-51.76093,-29.180373],[-51.76064,-29.180264],[-51.760354,-29.180169],[-51.760076,-29.180106],[-51.75982,-29.180091],[-51.759595,-29.180133],[-51.759403,-29.180226],[-51.759239,-29.180352],[-51.759093,-29.180491],[-51.758949,-29.180631],[-51.75879,-29.180767],[-51.758598,-29.18089],[-51.758359,-29.180983],[-51.758068,-29.181038],[-51.757737,-29.18107],[-51.757384,-29.181112],[-51.757031,-29.181195],[-51.756698,-29.181331],[-51.756395,-29.181511],[-51.756119,-29.181712],[-51.755851,-29.181913],[-51.755568,-29.182104],[-51.755255,-29.182285],[-51.754908,-29.182461],[-51.754535,-29.182633],[-51.754147,-29.1828],[-51.753743,-29.18296],[-51.753311,-29.183112],[-51.752832,-29.183255],[-51.752293,-29.183388],[-51.751709,-29.183504],[-51.75111,-29.183597],[-51.750527,-29.183663],[-51.749979,-29.183712],[-51.749474,-29.183758],[-51.74902,-29.183805],[-51.748624,-29.183842],[-51.748292,-29.183849],[-51.748017,-29.183816],[-51.747782,-29.183751],[-51.747562,-29.183673],[-51.747339,-29.183599],[-51.747117,-29.183542],[-51.74691,-29.183502],[-51.746729,-29.18347],[-51.746572,-29.183423],[-51.74642,-29.183336],[-51.746247,-29.1832],[-51.746042,-29.183023],[-51.745822,-29.182825],[-51.745618,-29.182632],[-51.74544,-29.18247],[-51.745261,-29.18237],[-51.74503,-29.182353],[-51.744715,-29.182422],[-51.744325,-29.182551],[-51.743897,-29.182698],[-51.743469,-29.182831],[-51.743054,-29.182931],[-51.742656,-29.182987],[-51.742283,-29.182984],[-51.741951,-29.182919],[-51.741655,-29.182804],[-51.741382,-29.18267],[-51.741121,-29.18255],[-51.740873,-29.182459],[-51.740637,-29.182391],[-51.740404,-29.182322],[-51.740156,-29.182232],[-51.739881,-29.182113],[-51.739582,-29.181966],[-51.739275,-29.18179],[-51.738981,-29.181581],[-51.738704,-29.181328],[-51.73842,-29.181014],[-51.738101,-29.180631],[-51.737749,-29.180192],[-51.737405,-29.179739],[-51.737126,-29.179324],[-51.736944,-29.178978],[-51.736857,-29.178701],[-51.736845,-29.178472],[-51.736885,-29.178256],[-51.736965,-29.178016],[-51.737076,-29.177722],[-51.737212,-29.177367],[-51.737365,-29.176969],[-51.737528,-29.176566],[-51.737697,-29.176188],[-51.737883,-29.175846],[-51.738108,-29.175527],[-51.73839,-29.17521],[-51.738722,-29.174891],[-51.739073,-29.174589],[-51.739407,-29.174324],[-51.739708,-29.174099],[-51.739979,-29.173896],[-51.740229,-29.173697],[-51.740461,-29.173493],[-51.740672,-29.173284],[-51.740859,-29.173079],[-51.741019,-29.17289],[-51.741156,-29.172728],[-51.741277,-29.172591],[-51.741393,-29.172469],[-51.741512,-29.17235],[-51.74164,-29.172225],[-51.741777,-29.172093],[-51.741924,-29.171954],[-51.742083,-29.171805],[-51.742256,-29.17164],[-51.742441,-29.17146],[-51.742634,-29.17127],[-51.742829,-29.171076],[-51.743033,-29.170881],[-51.743264,-29.170677],[-51.743538,-29.170453],[-51.743857,-29.170203],[-51.744204,-29.169928],[-51.744543,-29.16964],[-51.744843,-29.16936],[-51.745084,-29.169108],[-51.74527,-29.168896],[-51.745426,-29.168714],[-51.745585,-29.16854],[-51.745771,-29.168353],[-51.746,-29.168139],[-51.746273,-29.167892],[-51.746586,-29.167608],[-51.746931,-29.167288],[-51.747297,-29.166938],[-51.747675,-29.166571],[-51.748055,-29.166199],[-51.748422,-29.165834],[-51.748753,-29.165495],[-51.749029,-29.165201],[-51.749244,-29.16496],[-51.749407,-29.164759],[-51.74954,-29.164564],[-51.749668,-29.164329],[-51.749814,-29.164019],[-51.749993,-29.16363],[-51.750203,-29.163191],[-51.750432,-29.162742],[-51.750661,-29.162308],[-51.75088,-29.161893],[-51.751088,-29.161486],[-51.751286,-29.161082],[-51.751484,-29.160678],[-51.751684,-29.160273],[-51.751882,-29.159865],[-51.752066,-29.159453],[-51.752235,-29.159037],[-51.752401,-29.158626],[-51.75258,-29.158237],[-51.752771,-29.157891],[-51.752949,-29.157602],[-51.753089,-29.157368],[-51.753183,-29.157165],[-51.75324,-29.156961],[-51.753274,-29.156731],[-51.753297,-29.156472],[-51.753325,-29.156196],[-51.753376,-29.155913],[-51.753465,-29.155612],[-51.753589,-29.155261],[-51.753735,-29.154828],[-51.753883,-29.154303],[-51.754019,-29.15371],[-51.754134,-29.153109],[-51.754227,-29.152566],[-51.754304,-29.152115],[-51.754378,-29.151742],[-51.754465,-29.151413],[-51.75457,-29.151104],[-51.754685,-29.15081],[-51.754793,-29.150541],[-51.754882,-29.150305],[-51.754953,-29.150099],[-51.755018,-29.149907],[-51.755086,-29.149711],[-51.755162,-29.149488],[-51.755245,-29.149228],[-51.755334,-29.14894],[-51.755423,-29.148642],[-51.75551,-29.148345],[-51.755596,-29.148052],[-51.755682,-29.147755],[-51.755764,-29.147439],[-51.755842,-29.147091],[-51.755913,-29.146712],[-51.755985,-29.146319],[-51.756066,-29.145935],[-51.756167,-29.14556],[-51.756293,-29.14518],[-51.756444,-29.144774],[-51.75661,-29.144326],[-51.756781,-29.143833],[-51.756946,-29.143314],[-51.757098,-29.142798],[-51.757238,-29.142297],[-51.757365,-29.141797],[-51.757477,-29.141271],[-51.757576,-29.140705],[-51.757667,-29.140118],[-51.757757,-29.139553],[-51.757853,-29.139057],[-51.757964,-29.138651],[-51.758105,-29.138328],[-51.75829,-29.138065],[-51.758525,-29.137834],[-51.758777,-29.137611],[-51.758962,-29.13739],[-51.758963,-29.137167],[-51.758686,-29.13694],[-51.758123,-29.136692],[-51.757364,-29.136401],[-51.756535,-29.136053],[-51.755729,-29.135658],[-51.754982,-29.135251],[-51.754291,-29.134873],[-51.753641,-29.134554],[-51.753012,-29.134302],[-51.752396,-29.134106],[-51.751795,-29.133949],[-51.751213,-29.13382],[-51.750644,-29.133712],[-51.750079,-29.133622],[-51.749519,-29.13355],[-51.748976,-29.133503],[-51.748459,-29.133498],[-51.74797,-29.133553],[-51.747505,-29.133675],[-51.747073,-29.133842],[-51.746699,-29.134022],[-51.746402,-29.134178],[-51.746179,-29.134291],[-51.746003,-29.134363],[-51.745839,-29.134408],[-51.745664,-29.134446],[-51.745474,-29.134487],[-51.74527,-29.134529],[-51.74505,-29.134559],[-51.74481,-29.134563],[-51.744547,-29.13453],[-51.744264,-29.134461],[-51.743974,-29.134366],[-51.743696,-29.134273],[-51.74344,-29.134219],[-51.743205,-29.134236],[-51.742974,-29.134341],[-51.742728,-29.134518],[-51.742447,-29.134716],[-51.742122,-29.134874],[-51.741758,-29.134954],[-51.741375,-29.134963],[-51.741002,-29.134942],[-51.740668,-29.134936],[-51.74038,-29.134964],[-51.740115,-29.135015],[-51.739833,-29.135058],[-51.739489,-29.135064],[-51.73907,-29.135028],[-51.738602,-29.13497],[-51.73814,-29.134929],[-51.73773,-29.13494],[-51.737388,-29.135013],[-51.737096,-29.135139],[-51.736813,-29.135292],[-51.736494,-29.135427],[-51.736092,-29.135493],[-51.73558,-29.135442],[-51.734954,-29.135251],[-51.734238,-29.134931],[-51.733479,-29.134518],[-51.732733,-29.13406],[-51.732047,-29.133606],[-51.731456,-29.133188],[-51.730971,-29.132814],[-51.730574,-29.132464],[-51.730222,-29.132098],[-51.729865,-29.131677],[-51.729475,-29.131188],[-51.729055,-29.130646],[-51.728631,-29.130088],[-51.72824,-29.129558],[-51.727912,-29.12909],[-51.727657,-29.128695],[-51.727464,-29.128362],[-51.727311,-29.128075],[-51.72718,-29.127824],[-51.727055,-29.127606],[-51.726929,-29.127418],[-51.7268,-29.127254],[-51.726665,-29.127102],[-51.726521,-29.126945],[-51.726356,-29.126759],[-51.726153,-29.126511],[-51.725897,-29.12617],[-51.725588,-29.125727],[-51.725249,-29.12521],[-51.724917,-29.124668],[-51.724619,-29.124146],[-51.724366,-29.123671],[-51.724149,-29.12325],[-51.723955,-29.122872],[-51.723767,-29.122512],[-51.723572,-29.122145],[-51.723359,-29.121759],[-51.723116,-29.12135],[-51.722823,-29.12092],[-51.722461,-29.120471],[-51.722026,-29.120011],[-51.721541,-29.119558],[-51.721055,-29.119138],[-51.720619,-29.118775],[-51.720271,-29.118475],[-51.720021,-29.118222],[-51.719857,-29.117988],[-51.719747,-29.117758],[-51.719643,-29.117539],[-51.719489,-29.11736],[-51.719246,-29.117243],[-51.718906,-29.117187],[-51.718494,-29.117161],[-51.718048,-29.117126],[-51.717598,-29.11706],[-51.717158,-29.11696],[-51.716732,-29.116836],[-51.716326,-29.1167],[-51.715949,-29.116557],[-51.715609,-29.11641],[-51.715299,-29.116262],[-51.715008,-29.116116],[-51.714728,-29.115965],[-51.714463,-29.11579],[-51.714227,-29.115567],[-51.71404,-29.115272],[-51.713919,-29.114903],[-51.713871,-29.114476],[-51.713896,-29.114016],[-51.714003,-29.113548],[-51.714197,-29.113084],[-51.714477,-29.112627],[-51.714816,-29.112182],[-51.715166,-29.11177],[-51.71549,-29.111414],[-51.715784,-29.111118],[-51.71608,-29.110868],[-51.716418,-29.110649],[-51.716814,-29.110469],[-51.717244,-29.110338],[-51.717657,-29.110247],[-51.717997,-29.110162],[-51.718223,-29.110045],[-51.718329,-29.109875],[-51.718346,-29.109651],[-51.718335,-29.109384],[-51.718365,-29.109089],[-51.718483,-29.108788],[-51.718701,-29.108498],[-51.719013,-29.108215],[-51.7194,-29.107918],[-51.719847,-29.107577],[-51.720345,-29.10718],[-51.72088,-29.10674],[-51.721432,-29.106288],[-51.721964,-29.105863],[-51.722433,-29.105489],[-51.722811,-29.105171],[-51.723098,-29.104901],[-51.723325,-29.104656],[-51.723528,-29.104421],[-51.723734,-29.104186],[-51.723946,-29.103957],[-51.724151,-29.103747],[-51.724336,-29.10356],[-51.724501,-29.10339],[-51.724658,-29.10322],[-51.72483,-29.103022],[-51.725047,-29.102764],[-51.725343,-29.102403],[-51.725738,-29.101912],[-51.726222,-29.101289],[-51.726763,-29.100563],[-51.727323,-29.099774],[-51.727873,-29.098962],[-51.728388,-29.098167],[-51.728842,-29.097442],[-51.729221,-29.096827],[-51.729527,-29.096326],[-51.729776,-29.095913],[-51.729986,-29.095551],[-51.730169,-29.095215],[-51.730338,-29.094883],[-51.730507,-29.094533],[-51.730689,-29.094141],[-51.730888,-29.093695],[-51.731093,-29.093198],[-51.731292,-29.092665],[-51.731478,-29.092114],[-51.731655,-29.09155],[-51.731834,-29.090984],[-51.732025,-29.090441],[-51.732231,-29.089969],[-51.732449,-29.089606],[-51.732679,-29.08936],[-51.732928,-29.089203],[-51.733205,-29.089099],[-51.733512,-29.089015],[-51.733838,-29.088932],[-51.734156,-29.088844],[-51.734431,-29.088752],[-51.734619,-29.088657],[-51.73468,-29.088565],[-51.734591,-29.088479],[-51.734357,-29.088398],[-51.73401,-29.088314],[-51.733603,-29.088209],[-51.733187,-29.088066],[-51.732802,-29.087864],[-51.732472,-29.087582],[-51.732199,-29.087205],[-51.731968,-29.086733],[-51.731756,-29.086196],[-51.731543,-29.085637],[-51.731312,-29.085098],[-51.731045,-29.084581],[-51.730728,-29.084051],[-51.730353,-29.08346],[-51.729925,-29.082787],[-51.729457,-29.082047],[-51.728963,-29.081273],[-51.728459,-29.080505],[-51.727966,-29.079789],[-51.727493,-29.079161],[-51.72702,-29.078625],[-51.726493,-29.078157],[-51.725853,-29.077732],[-51.725071,-29.077355],[-51.724161,-29.077064],[-51.723175,-29.076901],[-51.722182,-29.076883],[-51.72125,-29.076996],[-51.720433,-29.077199],[-51.719746,-29.07746],[-51.719167,-29.077764],[-51.718658,-29.078116],[-51.718195,-29.078523],[-51.717771,-29.078979],[-51.71739,-29.07947],[-51.717051,-29.079982],[-51.716753,-29.080505],[-51.716498,-29.081028],[-51.716282,-29.081545],[-51.716102,-29.082056],[-51.715951,-29.08257],[-51.71582,-29.083096],[-51.715699,-29.083619],[-51.715577,-29.084112],[-51.715449,-29.084554],[-51.715317,-29.084949],[-51.715188,-29.085328],[-51.715063,-29.08572],[-51.714934,-29.086144],[-51.714787,-29.086603],[-51.714614,-29.087082],[-51.714412,-29.087551],[-51.71418,-29.087967],[-51.713919,-29.088296],[-51.713642,-29.088515],[-51.713375,-29.088607],[-51.713156,-29.088567],[-51.712999,-29.088415],[-51.712881,-29.088194],[-51.712755,-29.08795],[-51.712583,-29.087715],[-51.71235,-29.087494],[-51.712067,-29.087277],[-51.71176,-29.087047],[-51.711463,-29.086789],[-51.711206,-29.086494],[-51.711003,-29.086155],[-51.71085,-29.085764],[-51.710737,-29.085309],[-51.710648,-29.08477],[-51.710576,-29.084129],[-51.710527,-29.083395],[-51.710526,-29.08261],[-51.7106,-29.081828],[-51.710753,-29.081062],[-51.71097,-29.080283],[-51.711226,-29.079447],[-51.711505,-29.078548],[-51.711794,-29.077639],[-51.712076,-29.076808],[-51.71233,-29.076133],[-51.712541,-29.07564],[-51.712713,-29.075302],[-51.71286,-29.075064],[-51.712994,-29.074871],[-51.713124,-29.074686],[-51.713256,-29.074486],[-51.713394,-29.074255],[-51.713543,-29.073982],[-51.713705,-29.073659],[-51.713882,-29.073283],[-51.71407,-29.072864],[-51.714266,-29.072425],[-51.714465,-29.071993],[-51.714658,-29.071592],[-51.714843,-29.071228],[-51.715018,-29.070896],[-51.715189,-29.070577],[-51.715363,-29.070254],[-51.715549,-29.069915],[-51.715757,-29.069559],[-51.716001,-29.069199],[-51.71629,-29.068858],[-51.716627,-29.068569],[-51.716997,-29.06836],[-51.717367,-29.068228],[-51.71768,-29.06814],[-51.717888,-29.06805],[-51.717972,-29.067924],[-51.717955,-29.067746],[-51.717882,-29.06751],[-51.717797,-29.067211],[-51.717726,-29.066853],[-51.717676,-29.066455],[-51.717641,-29.066043],[-51.717618,-29.065643],[-51.71761,-29.06526],[-51.717627,-29.064877],[-51.717676,-29.064465],[-51.717754,-29.063998],[-51.717852,-29.063467],[-51.717965,-29.062879],[-51.718089,-29.062269],[-51.718215,-29.061693],[-51.718319,-29.061197],[-51.718371,-29.060805],[-51.718339,-29.060523],[-51.718213,-29.060354],[-51.718019,-29.060309]],[[-51.754005,-29.140481],[-51.754007,-29.140483],[-51.754004,-29.140483],[-51.753998,-29.140479],[-51.753996,-29.140477],[-51.753999,-29.140477],[-51.754005,-29.140481]],[[-51.738725,-29.164107],[-51.738843,-29.164239],[-51.738892,-29.164423],[-51.738876,-29.164653],[-51.738804,-29.164924],[-51.738684,-29.165219],[-51.738533,-29.165518],[-51.738374,-29.165793],[-51.738226,-29.166025],[-51.738095,-29.166204],[-51.737973,-29.166326],[-51.737846,-29.166388],[-51.737704,-29.166391],[-51.737542,-29.166342],[-51.737364,-29.166249],[-51.737181,-29.166128],[-51.737008,-29.165995],[-51.736864,-29.16586],[-51.736762,-29.165726],[-51.736708,-29.165587],[-51.736699,-29.165442],[-51.73673,-29.165296],[-51.736788,-29.165159],[-51.736862,-29.16504],[-51.736943,-29.164938],[-51.737032,-29.164847],[-51.73713,-29.164758],[-51.737237,-29.164665],[-51.737347,-29.164566],[-51.737455,-29.16446],[-51.737564,-29.164354],[-51.73768,-29.164252],[-51.737809,-29.164162],[-51.73796,-29.164086],[-51.738139,-29.164031],[-51.738341,-29.164008],[-51.738548,-29.16403],[-51.738725,-29.164107]],[[-51.736916,-29.164905],[-51.736833,-29.164923],[-51.736833,-29.164887],[-51.736916,-29.164833],[-51.736916,-29.164905]],[[-51.741462,-29.167654],[-51.741417,-29.167772],[-51.741335,-29.167885],[-51.741244,-29.167963],[-51.741165,-29.168001],[-51.741108,-29.168011],[-51.741075,-29.168004],[-51.741069,-29.167982],[-51.741091,-29.167941],[-51.741141,-29.167874],[-51.741216,-29.167778],[-51.741306,-29.167671],[-51.741394,-29.167591],[-51.741453,-29.167582],[-51.741462,-29.167654]],[[-51.736774,-29.168086],[-51.736892,-29.16818],[-51.736948,-29.168278],[-51.736961,-29.168364],[-51.736957,-29.168434],[-51.736958,-29.168499],[-51.736974,-29.168572],[-51.737013,-29.168665],[-51.737076,-29.168787],[-51.737161,-29.168941],[-51.737255,-29.169126],[-51.737342,-29.169323],[-51.737406,-29.169509],[-51.737436,-29.169668],[-51.737432,-29.169801],[-51.7374,-29.169922],[-51.737352,-29.170047],[-51.73729,-29.170178],[-51.737211,-29.170309],[-51.737106,-29.170426],[-51.736974,-29.170523],[-51.736819,-29.170599],[-51.736648,-29.170667],[-51.736469,-29.170743],[-51.736291,-29.170838],[-51.73612,-29.170949],[-51.735959,-29.171059],[-51.735795,-29.171151],[-51.735618,-29.171217],[-51.735428,-29.171246],[-51.735251,-29.171227],[-51.735122,-29.171157],[-51.735066,-29.171045],[-51.73508,-29.170912],[-51.735135,-29.170779],[-51.735205,-29.170653],[-51.735275,-29.170527],[-51.735343,-29.170389],[-51.735412,-29.170234],[-51.735482,-29.170058],[-51.735547,-29.169863],[-51.735604,-29.169651],[-51.73565,-29.169431],[-51.735686,-29.169212],[-51.735718,-29.168997],[-51.735749,-29.16879],[-51.735787,-29.168595],[-51.735838,-29.168418],[-51.735915,-29.168265],[-51.736029,-29.16814],[-51.736188,-29.168051],[-51.736386,-29.168008],[-51.736595,-29.168022],[-51.736774,-29.168086]],[[-51.741082,-29.168142],[-51.741106,-29.168164],[-51.741094,-29.168197],[-51.741054,-29.168223],[-51.741008,-29.168227],[-51.740983,-29.168205],[-51.740995,-29.168171],[-51.741036,-29.168145],[-51.741082,-29.168142]],[[-51.739646,-29.168898],[-51.739724,-29.168953],[-51.739767,-29.168992],[-51.739744,-29.168986],[-51.739669,-29.16894],[-51.739602,-29.168888],[-51.739592,-29.168869],[-51.739646,-29.168898]],[[-51.73854,-29.169163],[-51.73854,-29.169271],[-51.738335,-29.169055],[-51.738355,-29.16902],[-51.73854,-29.169163]],[[-51.739177,-29.169531],[-51.739307,-29.169512],[-51.739421,-29.169531],[-51.739487,-29.169583],[-51.739503,-29.169665],[-51.73948,-29.169762],[-51.739426,-29.169852],[-51.739341,-29.169903],[-51.739231,-29.169888],[-51.739124,-29.169807],[-51.739061,-29.169693],[-51.739081,-29.169592],[-51.739177,-29.169531]],[[-51.732989,-29.170942],[-51.733008,-29.170968],[-51.733016,-29.170996],[-51.733006,-29.171005],[-51.732986,-29.170987],[-51.732972,-29.170957],[-51.732973,-29.170937],[-51.732989,-29.170942]],[[-51.736363,-29.172574],[-51.73636,-29.172581],[-51.736352,-29.172582],[-51.736349,-29.172576],[-51.736356,-29.172571],[-51.736363,-29.172574]],[[-51.736147,-29.172884],[-51.736139,-29.17289],[-51.736136,-29.172885],[-51.736141,-29.172877],[-51.736148,-29.172876],[-51.736147,-29.172884]],[[-51.73562,-29.173637],[-51.735496,-29.173637],[-51.735558,-29.173493],[-51.73562,-29.173457],[-51.73562,-29.173637]],[[-51.733954,-29.17432],[-51.733851,-29.17423],[-51.73381,-29.174158],[-51.733954,-29.174212],[-51.733954,-29.17432]],[[-51.734336,-29.174705],[-51.734346,-29.174721],[-51.734338,-29.174733],[-51.734319,-29.174731],[-51.734308,-29.174715],[-51.734317,-29.174702],[-51.734336,-29.174705]],[[-51.792698,-29.177482],[-51.792842,-29.177679],[-51.792225,-29.177464],[-51.79239,-29.17741],[-51.792698,-29.177482]],[[-51.792468,-29.178014],[-51.792603,-29.178133],[-51.792713,-29.178311],[-51.792799,-29.178512],[-51.792854,-29.1787],[-51.79286,-29.178854],[-51.792801,-29.178967],[-51.792679,-29.179038],[-51.792509,-29.179061],[-51.792313,-29.179024],[-51.792113,-29.178921],[-51.791935,-29.178763],[-51.791803,-29.17858],[-51.791737,-29.178408],[-51.791747,-29.178266],[-51.791829,-29.178153],[-51.791965,-29.178063],[-51.792133,-29.177996],[-51.792307,-29.177972],[-51.792468,-29.178014]],[[-51.790775,-29.180129],[-51.790776,-29.180132],[-51.790767,-29.180127],[-51.790761,-29.180121],[-51.790765,-29.180122],[-51.790775,-29.180129]],[[-51.756003,-29.187345],[-51.756003,-29.187561],[-51.755798,-29.187219],[-51.755942,-29.187201],[-51.756003,-29.187345]]]}}]}