{
  "type": "FeatureCollection",
  "features": [
    {
      "type": "Feature",
      "geometry": {
        "type": "Point",
        "coordinates": [
          -51.47601649999996,
          -29.018112999199037
        ]
      },
      "properties": {
        "join_fid": 3746331,
        "join_area_km2": 3775.99,
        "strahler": 7,
        "mainstem_area_at_join_km2": 12041.51,
        "position_vs_controls": "upstream_or_at_antas",
        "upstream_segments_in_clip": 579,
        "label": "sistema BHO6 7868 (componentes: Rio da Telha, Rio da Prata, Rio Ituim, Rio Santa Rita)",
        "confidence": "unnamed_stem_with_named_components",
        "bho6_cocursodag": "7868"
      }
    },
    {
      "type": "Feature",
      "geometry": {
        "type": "Point",
        "coordinates": [
          -51.71334739999997,
          -29.09016859919778
        ]
      },
      "properties": {
        "join_fid": 4665424,
        "join_area_km2": 2564.19,
        "strahler": 6,
        "mainstem_area_at_join_km2": 15485.53,
        "position_vs_controls": "between_antas_and_santa_tereza",
        "upstream_segments_in_clip": 306,
        "label": "sistema BHO6 7866 (componentes: Rio Carreiro, Rio São Domingos, Arroio Quatipi, Arroio Nao Sabia)",
        "confidence": "unnamed_stem_with_named_components",
        "bho6_cocursodag": "7866"
      }
    },
    {
      "type": "Feature",
      "geometry": {
        "type": "Point",
        "coordinates": [
          -50.60458629999994,
          -28.81003039920267
        ]
      },
      "properties": {
        "join_fid": 3975229,
        "join_area_km2": 1453.66,
        "strahler": 6,
        "mainstem_area_at_join_km2": 3467.87,
        "position_vs_controls": "upstream_or_at_antas",
        "upstream_segments_in_clip": 222,
        "label": "sistema BHO6 78696 (componentes: Rio Tainhas, Arroio dos Novilhos, Arroio Ribeirao, Arroio Cipo)",
        "confidence": "unnamed_stem_with_named_components",
        "bho6_cocursodag": "78696"
      }
    },
    {
      "type": "Feature",
      "geometry": {
        "type": "Point",
        "coordinates": [
          -50.849716799999946,
          -28.832933899202253
        ]
      },
      "properties": {
        "join_fid": 684920,
        "join_area_km2": 946.34,
        "strahler": 5,
        "mainstem_area_at_join_km2": 5154.47,
        "position_vs_controls": "upstream_or_at_antas",
        "upstream_segments_in_clip": 118,
        "label": "sistema BHO6 78694 (componentes: Rio Bururi, Arroio Contrato, Arroio da Divisa, Arroio Bururi)",
        "confidence": "unnamed_stem_with_named_components",
        "bho6_cocursodag": "78694"
      }
    },
    {
      "type": "Feature",
      "geometry": {
        "type": "Point",
        "coordinates": [
          -50.96297989999993,
          -28.795263699202938
        ]
      },
      "properties": {
        "join_fid": 1193916,
        "join_area_km2": 796.16,
        "strahler": 6,
        "mainstem_area_at_join_km2": 6079.71,
        "position_vs_controls": "upstream_or_at_antas",
        "upstream_segments_in_clip": 116,
        "label": "Rio Refugiado",
        "confidence": "join_segment_named",
        "bho6_cocursodag": "78692"
      }
    },
    {
      "type": "Feature",
      "geometry": {
        "type": "Point",
        "coordinates": [
          -50.30052619999997,
          -28.84307729920208
        ]
      },
      "properties": {
        "join_fid": 1474300,
        "join_area_km2": 499.09,
        "strahler": 5,
        "mainstem_area_at_join_km2": 1337.02,
        "position_vs_controls": "upstream_or_at_antas",
        "upstream_segments_in_clip": 69,
        "label": "sistema BHO6 78698 (componentes: Arroio Retalhado, Rio das Antas)",
        "confidence": "unnamed_stem_with_named_components",
        "bho6_cocursodag": "78698"
      }
    },
    {
      "type": "Feature",
      "geometry": {
        "type": "Point",
        "coordinates": [
          -51.185293199999926,
          -28.94205099920033
        ]
      },
      "properties": {
        "join_fid": 3181007,
        "join_area_km2": 400.75,
        "strahler": 5,
        "mainstem_area_at_join_km2": 7304.45,
        "position_vs_controls": "upstream_or_at_antas",
        "upstream_segments_in_clip": 35,
        "label": "sistema BHO6 786914 (componentes: Arroio São Marcos, Arroio Faxinal, Arroio Redondo, Arroio Marrecas)",
        "confidence": "unnamed_stem_with_named_components",
        "bho6_cocursodag": "786914"
      }
    },
    {
      "type": "Feature",
      "geometry": {
        "type": "Point",
        "coordinates": [
          -50.26556729999999,
          -28.939326899200413
        ]
      },
      "properties": {
        "join_fid": 3959886,
        "join_area_km2": 334.78,
        "strahler": 4,
        "mainstem_area_at_join_km2": 744.3,
        "position_vs_controls": "upstream_or_at_antas",
        "upstream_segments_in_clip": 57,
        "label": "sistema BHO6 786992 (componentes: Arroio Camisa)",
        "confidence": "unnamed_stem_with_named_components",
        "bho6_cocursodag": "786992"
      }
    },
    {
      "type": "Feature",
      "geometry": {
        "type": "Point",
        "coordinates": [
          -51.35743239999994,
          -29.05850959919834
        ]
      },
      "properties": {
        "join_fid": 1392604,
        "join_area_km2": 293.4,
        "strahler": 5,
        "mainstem_area_at_join_km2": 8012.56,
        "position_vs_controls": "upstream_or_at_antas",
        "upstream_segments_in_clip": 39,
        "label": "Rio Tegas",
        "confidence": "dominant_named_upstream",
        "bho6_cocursodag": "786912"
      }
    },
    {
      "type": "Feature",
      "geometry": {
        "type": "Point",
        "coordinates": [
          -50.779957999999965,
          -28.791376499202997
        ]
      },
      "properties": {
        "join_fid": 3227209,
        "join_area_km2": 286.41,
        "strahler": 4,
        "mainstem_area_at_join_km2": 4119.22,
        "position_vs_controls": "upstream_or_at_antas",
        "upstream_segments_in_clip": 66,
        "label": "Arroio São Tome",
        "confidence": "join_segment_named",
        "bho6_cocursodag": "786954"
      }
    },
    {
      "type": "Feature",
      "geometry": {
        "type": "Point",
        "coordinates": [
          -51.16047649999996,
          -28.873699399201556
        ]
      },
      "properties": {
        "join_fid": 5009843,
        "join_area_km2": 263.13,
        "strahler": 5,
        "mainstem_area_at_join_km2": 6810.46,
        "position_vs_controls": "upstream_or_at_antas",
        "upstream_segments_in_clip": 38,
        "label": "sistema BHO6 786916 (componentes: Arroio Pessegueiro, Arroio Pedras Brancas)",
        "confidence": "unnamed_stem_with_named_components",
        "bho6_cocursodag": "786916"
      }
    },
    {
      "type": "Feature",
      "geometry": {
        "type": "Point",
        "coordinates": [
          -51.740957099999946,
          -29.1695398991964
        ]
      },
      "properties": {
        "join_fid": 1196218,
        "join_area_km2": 221.91,
        "strahler": 4,
        "mainstem_area_at_join_km2": 15774.48,
        "position_vs_controls": "between_antas_and_santa_tereza",
        "upstream_segments_in_clip": 24,
        "label": "Arroio Marrecao",
        "confidence": "join_segment_named",
        "bho6_cocursodag": "78658"
      }
    },
    {
      "type": "Feature",
      "geometry": {
        "type": "Point",
        "coordinates": [
          -51.50424309999994,
          -29.081792899197936
        ]
      },
      "properties": {
        "join_fid": 3478984,
        "join_area_km2": 208.79,
        "strahler": 4,
        "mainstem_area_at_join_km2": 12292.6,
        "position_vs_controls": "upstream_or_at_antas",
        "upstream_segments_in_clip": 25,
        "label": "Rio Burati",
        "confidence": "dominant_named_upstream",
        "bho6_cocursodag": "78678"
      }
    },
    {
      "type": "Feature",
      "geometry": {
        "type": "Point",
        "coordinates": [
          -51.62906039999996,
          -29.021309499198992
        ]
      },
      "properties": {
        "join_fid": 3052362,
        "join_area_km2": 179.62,
        "strahler": 4,
        "mainstem_area_at_join_km2": 12643.68,
        "position_vs_controls": "upstream_or_at_antas",
        "upstream_segments_in_clip": 20,
        "label": "Arroio Sapato",
        "confidence": "join_segment_named",
        "bho6_cocursodag": "78674"
      }
    },
    {
      "type": "Feature",
      "geometry": {
        "type": "Point",
        "coordinates": [
          -50.54655689999998,
          -28.800944699202823
        ]
      },
      "properties": {
        "join_fid": 5271581,
        "join_area_km2": 164.29,
        "strahler": 5,
        "mainstem_area_at_join_km2": 1959.3,
        "position_vs_controls": "upstream_or_at_antas",
        "upstream_segments_in_clip": 27,
        "label": "Arroio Pinheiro Alto",
        "confidence": "join_segment_named",
        "bho6_cocursodag": "786972"
      }
    },
    {
      "type": "Feature",
      "geometry": {
        "type": "Point",
        "coordinates": [
          -50.42924439999996,
          -28.79949839920285
        ]
      },
      "properties": {
        "join_fid": 1549385,
        "join_area_km2": 156.03,
        "strahler": 4,
        "mainstem_area_at_join_km2": 1702.76,
        "position_vs_controls": "upstream_or_at_antas",
        "upstream_segments_in_clip": 15,
        "label": "Arroio dos Moraes",
        "confidence": "join_segment_named",
        "bho6_cocursodag": "786976"
      }
    },
    {
      "type": "Feature",
      "geometry": {
        "type": "Point",
        "coordinates": [
          -51.00123439999993,
          -28.82093219920248
        ]
      },
      "properties": {
        "join_fid": 4916849,
        "join_area_km2": 154.87,
        "strahler": 4,
        "mainstem_area_at_join_km2": 6253.02,
        "position_vs_controls": "upstream_or_at_antas",
        "upstream_segments_in_clip": 24,
        "label": "Arroio Mulada",
        "confidence": "join_segment_named",
        "bho6_cocursodag": "786918"
      }
    },
    {
      "type": "Feature",
      "geometry": {
        "type": "Point",
        "coordinates": [
          -51.63782479999998,
          -29.088558899197796
        ]
      },
      "properties": {
        "join_fid": 4855053,
        "join_area_km2": 148.13,
        "strahler": 4,
        "mainstem_area_at_join_km2": 12876.97,
        "position_vs_controls": "upstream_or_at_antas",
        "upstream_segments_in_clip": 10,
        "label": "Arroio Pedrinho",
        "confidence": "join_segment_named",
        "bho6_cocursodag": "78672"
      }
    },
    {
      "type": "Feature",
      "geometry": {
        "type": "Point",
        "coordinates": [
          -50.705855499999984,
          -28.79509449920293
        ]
      },
      "properties": {
        "join_fid": 4227728,
        "join_area_km2": 137.76,
        "strahler": 5,
        "mainstem_area_at_join_km2": 3698.5,
        "position_vs_controls": "upstream_or_at_antas",
        "upstream_segments_in_clip": 19,
        "label": "Arroio do Governador",
        "confidence": "join_segment_named",
        "bho6_cocursodag": "786958"
      }
    },
    {
      "type": "Feature",
      "geometry": {
        "type": "Point",
        "coordinates": [
          -51.37082559999994,
          -29.06844529919814
        ]
      },
      "properties": {
        "join_fid": 2145855,
        "join_area_km2": 132.59,
        "strahler": 4,
        "mainstem_area_at_join_km2": 8148.03,
        "position_vs_controls": "upstream_or_at_antas",
        "upstream_segments_in_clip": 14,
        "label": "Arroio Biazus",
        "confidence": "join_segment_named",
        "bho6_cocursodag": "7869118"
      }
    },
    {
      "type": "Feature",
      "geometry": {
        "type": "Point",
        "coordinates": [
          -51.124818699999935,
          -28.87681609920146
        ]
      },
      "properties": {
        "join_fid": 3308018,
        "join_area_km2": 113.78,
        "strahler": 4,
        "mainstem_area_at_join_km2": 6531.66,
        "position_vs_controls": "upstream_or_at_antas",
        "upstream_segments_in_clip": 16,
        "label": "Arroio Ranchinho",
        "confidence": "join_segment_named",
        "bho6_cocursodag": "7869172"
      }
    },
    {
      "type": "Feature",
      "geometry": {
        "type": "Point",
        "coordinates": [
          -50.33015289999997,
          -28.812267899202606
        ]
      },
      "properties": {
        "join_fid": 1544073,
        "join_area_km2": 103.95,
        "strahler": 5,
        "mainstem_area_at_join_km2": 1463.28,
        "position_vs_controls": "upstream_or_at_antas",
        "upstream_segments_in_clip": 5,
        "label": "afluente sem nome BHO6 786978",
        "confidence": "unnamed",
        "bho6_cocursodag": "786978"
      }
    }
  ]
}
