{
"type": "FeatureCollection",
"name": "abrigos",
"crs": { "type": "name", "properties": { "name": "urn:ogc:def:crs:OGC:1.3:CRS84" } },
"features": [
{ "type": "Feature", "properties": { "id": "santa_tereza_ginasio_esportes", "nome": "Ginásio de Esportes", "municipio": "Santa Tereza", "cod_mun": "4317251", "tipo": "ponto_de_encontro_defesa_civil", "endereco": "Santa Tereza - RS, 95715-000", "fonte": "Defesa Civil de Santa Tereza (repassado pela usuária via link do Google Maps)", "google_maps_cid": "0x951c463659ad208d:0xb52d3daf201466c3", "geocodificado_em": "2026-07-30", "geocodificado_metodo": "resolução do link no navegador real (Google Maps renderiza @lat,lon no JS); nome e endereço conferidos na página carregada", "hand_m": 15.25, "cota_inundacao_oficial_regua_cm": 1500, "cota_inundacao_oficial_hand_equiv_m": 11.0, "seguro_ate_cota_oficial": true, "risco_em_cheia_recorde": { "evento": "recorde mai/2024", "pico_regua_cm": 2582, "hand_equiv_m": 21.82, "margem_m": -6.57, "avaliacao": "pelo modelo HAND do projeto, provavelmente ficou alagado no recorde histórico de mai/2024, apesar de estar bem acima da cota de inundação oficial de rotina", "fontes_conferidas": "telemetria ANA 86472600 (pico bruto 2233cm em abr-mai/2024, bate com event-data do site) e codigo_python/04_zero_regua/calibrar_zero_regua.py (mesma calibração bankfull=400 já usada no site); notícia da Folha Popular (25/07/2026) cita um valor bem menor (17,33m) não confirmado por nenhuma fonte primária", "ressalva_metodologica": "HAND é um modelo tipo banheira (assume cota d'água uniforme); pode superestimar a área alagada em níveis extremos e distantes da calibração. Sem confirmação fotográfica direta de que o ginásio alagou de fato." }, "decisao": "Adotado como primeiro ponto de encontro/abrigo de Santa Tereza em 2026-07-30, a critério da usuária: cobre cheias médias/rotineiras (até a cota oficial de 15m), sabendo que pode não ser suficiente no cenário extremo/recorde. Reavaliar se/quando houver mais de um ponto por cidade." }, "geometry": { "type": "Point", "coordinates": [ -51.7327164, -29.168793 ] } }
]
}
